station,valid,tmpf,dwpf,relh,drct,sknt,p01i,alti,mslp,vsby,gust,skyc1,skyc2,skyc3,skyc4,skyl1,skyl2,skyl3,skyl4,wxcodes,ice_accretion_1hr,ice_accretion_3hr,ice_accretion_6hr,peak_wind_gust,peak_wind_drct,peak_wind_time,feel,metar,snowdepth
VIDP,2022-03-16 00:00,69.80,68.00,94.01,260.00,4.00,0.00,29.71,M,1.30,M,NSC,M,M,M,M,M,M,M,BR,M,M,M,M,M,M,69.80,VIDP 160000Z 26004KT 2100 BR NSC 21/20 Q1006 NOSIG,M
VIDP,2022-03-16 00:30,69.80,68.00,94.01,250.00,5.00,0.00,29.71,M,1.30,M,NSC,M,M,M,M,M,M,M,BR,M,M,M,M,M,M,69.80,VIDP 160030Z 25005KT 2100 BR NSC 21/20 Q1006 NOSIG,M
VIDP,2022-03-16 01:00,69.80,68.00,94.01,260.00,5.00,0.00,29.71,M,0.99,M,NSC,M,M,M,M,M,M,M,BR,M,M,M,M,M,M,69.80,VIDP 160100Z 26005KT 1600 R28/P2000 R29/P2000 BR NSC 21/20 Q1006 BECMG 1500 BR,M
VIDP,2022-03-16 01:30,69.80,68.00,94.01,250.00,5.00,0.00,29.74,M,0.62,M,NSC,M,M,M,M,M,M,M,BR,M,M,M,M,M,M,69.80,VIDP 160130Z 25005KT 1000 R28/2000 R29/1500 BR NSC 21/20 Q1007 NOSIG,M
VIDP,2022-03-16 02:00,71.60,68.00,88.43,240.00,5.00,0.00,29.77,M,0.62,M,NSC,M,M,M,M,M,M,M,BR,M,M,M,M,M,M,71.60,VIDP 160200Z 24005KT 1000 R28/2000 R29/1600 BR NSC 22/20 Q1008 NOSIG,M
VIDP,2022-03-16 02:30,71.60,69.80,94.06,240.00,6.00,0.00,29.77,M,0.56,M,NSC,M,M,M,M,M,M,M,BR,M,M,M,M,M,M,71.60,VIDP 160230Z 24006KT 0900 R28/2000 R29/2000 BR NSC 22/21 Q1008 NOSIG,M
VIDP,2022-03-16 03:00,71.60,69.80,94.06,250.00,6.00,0.00,29.77,M,0.62,M,NSC,M,M,M,M,M,M,M,BR,M,M,M,M,M,M,71.60,VIDP 160300Z 25006KT 1000 R28/2000 R29/2000 BR NSC 22/21 Q1008 BECMG 1500 BR,M
VIDP,2022-03-16 03:30,75.20,69.80,83.32,250.00,7.00,0.00,29.77,M,0.81,M,NSC,M,M,M,M,M,M,M,BR,M,M,M,M,M,M,75.20,VIDP 160330Z 25007KT 1300 R28/2000 R29/2000 BR NSC 24/21 Q1008 BECMG 1500 BR,M
VIDP,2022-03-16 04:00,77.00,69.80,78.48,260.00,6.00,0.00,29.77,M,0.93,M,NSC,M,M,M,M,M,M,M,BR,M,M,M,M,M,M,77.00,VIDP 160400Z 26006KT 1500 R28/P2000 R29/P2000 BR NSC 25/21 Q1008 NOSIG,M
VIDP,2022-03-16 04:30,80.60,69.80,69.71,260.00,8.00,0.00,29.80,M,1.37,M,NSC,M,M,M,M,M,M,M,HZ,M,M,M,M,M,M,83.90,VIDP 160430Z 26008KT 2200 HZ NSC 27/21 Q1009 NOSIG,M
VIDP,2022-03-16 05:00,84.20,69.80,62.03,260.00,10.00,0.00,29.80,M,1.43,M,NSC,M,M,M,M,M,M,M,HZ,M,M,M,M,M,M,88.43,VIDP 160500Z 26010KT 2300 HZ NSC 29/21 Q1009 NOSIG,M
VIDP,2022-03-16 05:30,86.00,69.80,58.55,280.00,11.00,0.00,29.77,M,1.55,M,NSC,M,M,M,M,M,M,M,HZ,M,M,M,M,M,M,90.58,VIDP 160530Z 28011KT 2500 HZ NSC 30/21 Q1008 BECMG 3000 HZ,M
VIDP,2022-03-16 06:00,87.80,68.00,51.98,270.00,8.00,0.00,29.77,M,1.86,18.00,NSC,M,M,M,M,M,M,M,HZ,M,M,M,M,M,M,91.43,VIDP 160600Z 27008G18KT 3000 HZ NSC 31/20 Q1008 NOSIG,M
VIDP,2022-03-16 06:30,87.80,68.00,51.98,270.00,10.00,0.00,29.77,M,2.17,20.00,NSC,M,M,M,M,M,M,M,HZ,M,M,M,M,M,M,91.43,VIDP 160630Z 27010G20KT 3500 HZ NSC 31/20 Q1008 NOSIG,M
VIDP,2022-03-16 07:00,89.60,68.00,49.10,270.00,10.00,0.00,29.74,M,2.49,20.00,NSC,M,M,M,M,M,M,M,HZ,M,M,M,M,M,M,93.47,VIDP 160700Z 27010G20KT 4000 HZ NSC 32/20 Q1007 NOSIG,M
VIDP,2022-03-16 07:30,91.40,66.20,43.61,270.00,8.00,0.00,29.74,M,2.80,18.00,NSC,M,M,M,M,M,M,M,HZ,M,M,M,M,M,M,94.29,VIDP 160730Z 27008G18KT 4500 HZ NSC 33/19 Q1007 BECMG 5000 HZ,M
VIDP,2022-03-16 08:00,91.40,62.60,38.45,290.00,10.00,0.00,29.71,M,3.11,20.00,NSC,M,M,M,M,M,M,M,HZ,M,M,M,M,M,M,92.23,VIDP 160800Z 29010G20KT 5000 HZ NSC 33/17 Q1006 NOSIG,M
VIDP,2022-03-16 08:30,93.20,60.80,34.11,290.00,10.00,0.00,29.71,M,3.11,20.00,NSC,M,M,M,M,M,M,M,HZ,M,M,M,M,M,M,93.32,VIDP 160830Z 29010G20KT 5000 HZ NSC 34/16 Q1006 NOSIG,M
VIDP,2022-03-16 09:00,93.20,59.00,31.99,290.00,12.00,0.00,29.68,M,3.11,22.00,NSC,M,M,M,M,M,M,M,HZ,M,M,M,M,M,M,92.57,VIDP 160900Z 29012G22KT 5000 HZ NSC 34/15 Q1005 NOSIG,M
VIDP,2022-03-16 09:30,93.20,59.00,31.99,290.00,12.00,0.00,29.68,M,3.11,22.00,NSC,M,M,M,M,M,M,M,HZ,M,M,M,M,M,M,92.57,VIDP 160930Z 29012G22KT 5000 HZ NSC 34/15 Q1005 NOSIG,M
VIDP,2022-03-16 10:00,93.20,57.20,29.99,290.00,12.00,0.00,29.68,M,3.11,22.00,NSC,M,M,M,M,M,M,M,HZ,M,M,M,M,M,M,91.91,VIDP 161000Z 29012G22KT 5000 HZ NSC 34/14 Q1005 NOSIG,M
VIDP,2022-03-16 10:30,93.20,57.20,29.99,290.00,10.00,0.00,29.68,M,3.11,20.00,NSC,M,M,M,M,M,M,M,HZ,M,M,M,M,M,M,91.91,VIDP 161030Z 29010G20KT 5000 HZ NSC 34/14 Q1005 NOSIG,M
VIDP,2022-03-16 11:00,93.20,59.00,31.99,290.00,8.00,0.00,29.65,M,3.11,18.00,NSC,M,M,M,M,M,M,M,HZ,M,M,M,M,M,M,92.57,VIDP 161100Z 29008G18KT 5000 HZ NSC 34/15 Q1004 NOSIG,M
VIDP,2022-03-16 11:30,91.40,57.20,31.72,290.00,9.00,0.00,29.65,M,3.11,M,NSC,M,M,M,M,M,M,M,HZ,M,M,M,M,M,M,90.06,VIDP 161130Z 29009KT 5000 HZ NSC 33/14 Q1004 NOSIG,M
VIDP,2022-03-16 12:00,91.40,60.80,36.08,290.00,8.00,0.00,29.65,M,2.80,M,NSC,M,M,M,M,M,M,M,HZ,M,M,M,M,M,M,91.40,VIDP 161200Z 29008KT 4500 HZ NSC 33/16 Q1004 NOSIG,M
VIDP,2022-03-16 12:30,89.60,62.60,40.69,290.00,8.00,0.00,29.68,M,2.80,M,NSC,M,M,M,M,M,M,M,HZ,M,M,M,M,M,M,90.32,VIDP 161230Z 29008KT 4500 HZ NSC 32/17 Q1005 NOSIG,M
VIDP,2022-03-16 13:00,87.80,64.40,45.88,280.00,6.00,0.00,29.68,M,2.80,M,NSC,M,M,M,M,M,M,M,HZ,M,M,M,M,M,M,89.33,VIDP 161300Z 28006KT 4500 HZ NSC 31/18 Q1005 NOSIG,M
VIDP,2022-03-16 13:30,86.00,64.40,48.58,270.00,6.00,0.00,29.68,M,2.80,M,NSC,M,M,M,M,M,M,M,HZ,M,M,M,M,M,M,87.49,VIDP 161330Z 27006KT 4500 HZ NSC 30/18 Q1005 NOSIG,M
VIDP,2022-03-16 14:00,86.00,68.00,55.04,270.00,6.00,0.00,29.68,M,2.80,M,NSC,M,M,M,M,M,M,M,HZ,M,M,M,M,M,M,89.41,VIDP 161400Z 27006KT 4500 HZ NSC 30/20 Q1005 NOSIG,M
VIDP,2022-03-16 14:30,86.00,68.00,55.04,280.00,6.00,0.00,29.68,M,2.80,M,NSC,M,M,M,M,M,M,M,HZ,M,M,M,M,M,M,89.41,VIDP 161430Z 28006KT 4500 HZ NSC 30/20 Q1005 NOSIG,M
VIDP,2022-03-16 15:00,84.20,66.20,54.80,280.00,6.00,0.00,29.68,M,2.49,M,NSC,M,M,M,M,M,M,M,HZ,M,M,M,M,M,M,86.50,VIDP 161500Z 28006KT 4000 HZ NSC 29/19 Q1005 NOSIG,M
VIDP,2022-03-16 15:30,84.20,66.20,54.80,280.00,4.00,0.00,29.71,M,2.49,M,NSC,M,M,M,M,M,M,M,HZ,M,M,M,M,M,M,86.50,VIDP 161530Z 28004KT 4000 HZ NSC 29/19 Q1006 NOSIG,M
VIDP,2022-03-16 16:00,82.40,68.00,61.81,270.00,4.00,0.00,29.71,M,2.49,M,NSC,M,M,M,M,M,M,M,HZ,M,M,M,M,M,M,85.38,VIDP 161600Z 27004KT 4000 HZ NSC 28/20 Q1006 NOSIG,M
VIDP,2022-03-16 16:30,80.60,69.80,69.71,270.00,5.00,0.00,29.71,M,2.17,M,NSC,M,M,M,M,M,M,M,HZ,M,M,M,M,M,M,83.90,VIDP 161630Z 27005KT 3500 HZ NSC 27/21 Q1006 NOSIG,M
VIDP,2022-03-16 17:00,78.80,69.80,73.95,250.00,4.00,0.00,29.71,M,2.17,M,NSC,M,M,M,M,M,M,M,HZ,M,M,M,M,M,M,78.80,VIDP 161700Z 25004KT 3500 HZ NSC 26/21 Q1006 NOSIG,M
VIDP,2022-03-16 17:30,78.80,69.80,73.95,250.00,4.00,0.00,29.71,M,2.17,M,NSC,M,M,M,M,M,M,M,BR,M,M,M,M,M,M,78.80,VIDP 161730Z 25004KT 3500 BR NSC 26/21 Q1006 NOSIG,M
VIDP,2022-03-16 18:00,78.80,69.80,73.95,250.00,5.00,0.00,29.71,M,2.17,M,NSC,M,M,M,M,M,M,M,BR,M,M,M,M,M,M,78.80,VIDP 161800Z 25005KT 3500 BR NSC 26/21 Q1006 NOSIG,M
VIDP,2022-03-16 18:30,78.80,69.80,73.95,250.00,3.00,0.00,29.71,M,2.17,M,NSC,M,M,M,M,M,M,M,BR,M,M,M,M,M,M,78.80,VIDP 161830Z 25003KT 3500 BR NSC 26/21 Q1006 NOSIG,M
VIDP,2022-03-16 19:00,77.00,69.80,78.48,240.00,3.00,0.00,29.71,M,2.17,M,NSC,M,M,M,M,M,M,M,BR,M,M,M,M,M,M,77.00,VIDP 161900Z 24003KT 3500 BR NSC 25/21 Q1006 NOSIG,M
VIDP,2022-03-16 19:30,75.20,69.80,83.32,220.00,3.00,0.00,29.71,M,2.17,M,NSC,M,M,M,M,M,M,M,BR,M,M,M,M,M,M,75.20,VIDP 161930Z 22003KT 3500 BR NSC 24/21 Q1006 NOSIG,M
VIDP,2022-03-16 20:00,75.20,69.80,83.32,230.00,3.00,0.00,29.68,M,1.86,M,NSC,M,M,M,M,M,M,M,BR,M,M,M,M,M,M,75.20,VIDP 162000Z 23003KT 3000 BR NSC 24/21 Q1005 NOSIG,M
VIDP,2022-03-16 20:30,75.20,69.80,83.32,230.00,3.00,0.00,29.68,M,1.86,M,NSC,M,M,M,M,M,M,M,BR,M,M,M,M,M,M,75.20,VIDP 162030Z 23003KT 3000 BR NSC 24/21 Q1005 NOSIG,M
VIDP,2022-03-16 21:00,75.20,69.80,83.32,250.00,3.00,0.00,29.68,M,1.86,M,NSC,M,M,M,M,M,M,M,BR,M,M,M,M,M,M,75.20,VIDP 162100Z 25003KT 3000 BR NSC 24/21 Q1005 NOSIG,M
VIDP,2022-03-16 21:30,73.40,69.80,88.51,0.00,0.00,0.00,29.68,M,1.86,M,NSC,M,M,M,M,M,M,M,BR,M,M,M,M,M,M,73.40,VIDP 162130Z 00000KT 3000 BR NSC 23/21 Q1005 NOSIG,M
VIDP,2022-03-16 22:00,73.40,69.80,88.51,0.00,0.00,0.00,29.68,M,1.86,M,NSC,M,M,M,M,M,M,M,BR,M,M,M,M,M,M,73.40,VIDP 162200Z 00000KT 3000 BR NSC 23/21 Q1005 NOSIG,M
VIDP,2022-03-16 22:30,73.40,69.80,88.51,M,1.00,0.00,29.68,M,1.86,M,NSC,M,M,M,M,M,M,M,BR,M,M,M,M,M,M,73.40,VIDP 162230Z VRB01KT 3000 BR NSC 23/21 Q1005 NOSIG,M
VIDP,2022-03-16 23:00,71.60,68.00,88.43,M,2.00,0.00,29.68,M,1.86,M,NSC,M,M,M,M,M,M,M,BR,M,M,M,M,M,M,71.60,VIDP 162300Z VRB02KT 3000 BR NSC 22/20 Q1005 NOSIG,M
VIDP,2022-03-16 23:30,71.60,69.80,94.06,M,2.00,0.00,29.68,M,1.86,M,NSC,M,M,M,M,M,M,M,BR,M,M,M,M,M,M,71.60,VIDP 162330Z VRB02KT 3000 BR NSC 22/21 Q1005 NOSIG,M
VIDP,2022-03-17 00:00,71.60,68.00,88.43,M,2.00,0.00,29.71,M,1.86,M,NSC,M,M,M,M,M,M,M,BR,M,M,M,M,M,M,71.60,VIDP 170000Z VRB02KT 3000 BR NSC 22/20 Q1006 NOSIG,M
VIDP,2022-03-17 00:30,71.60,68.00,88.43,M,2.00,0.00,29.71,M,1.55,M,NSC,M,M,M,M,M,M,M,BR,M,M,M,M,M,M,71.60,VIDP 170030Z VRB02KT 2500 BR NSC 22/20 Q1006 NOSIG,M
VIDP,2022-03-17 01:00,71.60,69.80,94.06,250.00,3.00,0.00,29.74,M,1.24,M,NSC,M,M,M,M,M,M,M,BR,M,M,M,M,M,M,71.60,VIDP 170100Z 25003KT 2000 BR NSC 22/21 Q1007 NOSIG,M
VIDP,2022-03-17 01:30,71.60,68.00,88.43,250.00,4.00,0.00,29.74,M,1.12,M,NSC,M,M,M,M,M,M,M,BR,M,M,M,M,M,M,71.60,VIDP 170130Z 25004KT 1800 R28/2000 R29/2000 BR NSC 22/20 Q1007 NOSIG,M
VIDP,2022-03-17 02:00,71.60,68.00,88.43,250.00,4.00,0.00,29.74,M,0.99,M,NSC,M,M,M,M,M,M,M,BR,M,M,M,M,M,M,71.60,VIDP 170200Z 25004KT 1600 R28/2000 R29/2000 BR NSC 22/20 Q1007 NOSIG,M
VIDP,2022-03-17 02:30,71.60,69.80,94.06,230.00,6.00,0.00,29.77,M,0.99,M,NSC,M,M,M,M,M,M,M,BR,M,M,M,M,M,M,71.60,VIDP 170230Z 23006KT 1600 R28/2000 R29///// BR NSC 22/21 Q1008 BECMG 1500 BR,M
VIDP,2022-03-17 03:00,73.40,69.80,88.51,250.00,4.00,0.00,29.77,M,0.99,M,NSC,M,M,M,M,M,M,M,BR,M,M,M,M,M,M,73.40,VIDP 170300Z 25004KT 1600 R28/2000 R29///// BR NSC 23/21 Q1008 NOSIG,M
VIDP,2022-03-17 03:30,75.20,69.80,83.32,0.00,0.00,0.00,29.80,M,1.12,M,NSC,M,M,M,M,M,M,M,BR,M,M,M,M,M,M,75.20,VIDP 170330Z 00000KT 1800 R28/2000 R29///// BR NSC 24/21 Q1009 NOSIG,M
VIDP,2022-03-17 04:00,78.80,71.60,78.62,0.00,0.00,0.00,29.80,M,1.37,M,NSC,M,M,M,M,M,M,M,BR,M,M,M,M,M,M,78.80,VIDP 170400Z 00000KT 2200 BR NSC 26/22 Q1009 NOSIG,M
VIDP,2022-03-17 04:30,80.60,69.80,69.71,0.00,0.00,0.00,29.80,M,1.37,M,NSC,M,M,M,M,M,M,M,HZ,M,M,M,M,M,M,83.90,VIDP 170430Z 00000KT 2200 HZ NSC 27/21 Q1009 NOSIG,M
VIDP,2022-03-17 05:00,82.40,68.00,61.81,0.00,0.00,0.00,29.80,M,1.37,M,NSC,M,M,M,M,M,M,M,HZ,M,M,M,M,M,M,85.38,VIDP 170500Z 00000KT 2200 HZ NSC 28/20 Q1009 NOSIG,M
VIDP,2022-03-17 05:30,84.20,68.00,58.32,290.00,4.00,0.00,29.80,M,1.55,M,NSC,M,M,M,M,M,M,M,HZ,M,M,M,M,M,M,87.40,VIDP 170530Z 29004KT 2500 HZ NSC 29/20 Q1009 NOSIG,M
VIDP,2022-03-17 06:00,86.00,68.00,55.04,310.00,4.00,0.00,29.80,M,1.55,M,NSC,M,M,M,M,M,M,M,HZ,M,M,M,M,M,M,89.41,VIDP 170600Z 31004KT 2500 HZ NSC 30/20 Q1009 NOSIG,M
VIDP,2022-03-17 06:30,87.80,64.40,45.88,M,2.00,0.00,29.80,M,1.55,M,NSC,M,M,M,M,M,M,M,HZ,M,M,M,M,M,M,89.33,VIDP 170630Z VRB02KT 2500 HZ NSC 31/18 Q1009 NOSIG,M
VIDP,2022-03-17 07:00,89.60,62.60,40.69,270.00,3.00,0.00,29.77,M,1.86,M,NSC,M,M,M,M,M,M,M,HZ,M,M,M,M,M,M,90.32,VIDP 170700Z 27003KT 3000 HZ NSC 32/17 Q1008 NOSIG,M
VIDP,2022-03-17 07:30,91.40,62.60,38.45,300.00,4.00,0.00,29.77,M,2.17,M,NSC,M,M,M,M,M,M,M,HZ,M,M,M,M,M,M,92.23,VIDP 170730Z 30004KT 3500 HZ NSC 33/17 Q1008 NOSIG,M
VIDP,2022-03-17 08:00,91.40,62.60,38.45,270.00,4.00,0.00,29.74,M,2.17,M,NSC,M,M,M,M,M,M,M,HZ,M,M,M,M,M,M,92.23,VIDP 170800Z 27004KT 3500 HZ NSC 33/17 Q1007 NOSIG,M
VIDP,2022-03-17 08:30,93.20,62.60,36.35,290.00,4.00,0.00,29.74,M,2.49,M,NSC,M,M,M,M,M,M,M,HZ,M,M,M,M,M,M,94.20,VIDP 170830Z 29004KT 4000 HZ NSC 34/17 Q1007 NOSIG,M
VIDP,2022-03-17 09:00,93.20,62.60,36.35,290.00,4.00,0.00,29.71,M,2.49,M,NSC,M,M,M,M,M,M,M,HZ,M,M,M,M,M,M,94.20,VIDP 170900Z 29004KT 4000 HZ NSC 34/17 Q1006 NOSIG,M
VIDP,2022-03-17 09:30,93.20,62.60,36.35,300.00,4.00,0.00,29.71,M,2.49,M,NSC,M,M,M,M,M,M,M,HZ,M,M,M,M,M,M,94.20,VIDP 170930Z 30004KT 4000 HZ NSC 34/17 Q1006 NOSIG,M
VIDP,2022-03-17 10:00,93.20,62.60,36.35,280.00,4.00,0.00,29.71,M,2.49,M,NSC,M,M,M,M,M,M,M,HZ,M,M,M,M,M,M,94.20,VIDP 171000Z 28004KT 4000 HZ NSC 34/17 Q1006 NOSIG,M
VIDP,2022-03-17 10:30,93.20,62.60,36.35,270.00,4.00,0.00,29.71,M,2.49,M,NSC,M,M,M,M,M,M,M,HZ,M,M,M,M,M,M,94.20,VIDP 171030Z 27004KT 4000 HZ NSC 34/17 Q1006 NOSIG,M
VIDP,2022-03-17 11:00,93.20,62.60,36.35,290.00,4.00,0.00,29.71,M,2.49,M,NSC,M,M,M,M,M,M,M,HZ,M,M,M,M,M,M,94.20,VIDP 171100Z 29004KT 4000 HZ NSC 34/17 Q1006 NOSIG,M
VIDP,2022-03-17 11:30,91.40,64.40,40.96,290.00,5.00,0.00,29.71,M,2.49,M,NSC,M,M,M,M,M,M,M,HZ,M,M,M,M,M,M,93.19,VIDP 171130Z 29005KT 4000 HZ NSC 33/18 Q1006 NOSIG,M
VIDP,2022-03-17 12:00,91.40,64.40,40.96,290.00,5.00,0.00,29.71,M,2.49,M,NSC,M,M,M,M,M,M,M,HZ,M,M,M,M,M,M,93.19,VIDP 171200Z 29005KT 4000 HZ NSC 33/18 Q1006 NOSIG,M
VIDP,2022-03-17 12:30,89.60,66.20,46.14,300.00,5.00,0.00,29.71,M,2.49,M,NSC,M,M,M,M,M,M,M,HZ,M,M,M,M,M,M,92.27,VIDP 171230Z 30005KT 4000 HZ NSC 32/19 Q1006 NOSIG,M
VIDP,2022-03-17 13:00,87.80,66.20,48.84,300.00,3.00,0.00,29.71,M,2.17,M,NSC,M,M,M,M,M,M,M,HZ,M,M,M,M,M,M,90.31,VIDP 171300Z 30003KT 3500 HZ NSC 31/19 Q1006 NOSIG,M
VIDP,2022-03-17 13:30,86.00,66.20,51.72,300.00,3.00,0.00,29.74,M,2.17,M,NSC,M,M,M,M,M,M,M,HZ,M,M,M,M,M,M,88.39,VIDP 171330Z 30003KT 3500 HZ NSC 30/19 Q1007 NOSIG,M
VIDP,2022-03-17 14:00,84.20,68.00,58.32,90.00,3.00,0.00,29.74,M,2.17,M,NSC,M,M,M,M,M,M,M,HZ,M,M,M,M,M,M,87.40,VIDP 171400Z 09003KT 3500 HZ NSC 29/20 Q1007 NOSIG,M
VIDP,2022-03-17 14:30,84.20,69.80,62.03,80.00,3.00,0.00,29.77,M,2.17,M,NSC,M,M,M,M,M,M,M,HZ,M,M,M,M,M,M,88.43,VIDP 171430Z 08003KT 3500 HZ NSC 29/21 Q1008 NOSIG,M
VIDP,2022-03-17 15:00,82.40,69.80,65.74,90.00,3.00,0.00,29.77,M,2.17,M,NSC,M,M,M,M,M,M,M,HZ,M,M,M,M,M,M,86.22,VIDP 171500Z 09003KT 3500 HZ NSC 28/21 Q1008 NOSIG,M
VIDP,2022-03-17 15:30,82.40,71.60,69.90,100.00,5.00,0.00,29.77,M,1.99,M,NSC,M,M,M,M,M,M,M,HZ,M,M,M,M,M,M,87.18,VIDP 171530Z 10005KT 3200 HZ NSC 28/22 Q1008 NOSIG,M
VIDP,2022-03-17 16:00,82.40,71.60,69.90,90.00,5.00,0.00,29.77,M,1.99,M,NSC,M,M,M,M,M,M,M,HZ,M,M,M,M,M,M,87.18,VIDP 171600Z 09005KT 3200 HZ NSC 28/22 Q1008 BECMG 3000 HZ,M
VIDP,2022-03-17 16:30,82.40,71.60,69.90,100.00,5.00,0.00,29.80,M,1.86,M,NSC,M,M,M,M,M,M,M,HZ,M,M,M,M,M,M,87.18,VIDP 171630Z 10005KT 3000 HZ NSC 28/22 Q1009 NOSIG,M
VIDP,2022-03-17 17:00,82.40,71.60,69.90,90.00,4.00,0.00,29.80,M,1.86,M,NSC,M,M,M,M,M,M,M,HZ,M,M,M,M,M,M,87.18,VIDP 171700Z 09004KT 3000 HZ NSC 28/22 Q1009 NOSIG,M
VIDP,2022-03-17 17:30,80.60,71.60,74.11,90.00,3.00,0.00,29.80,M,1.86,M,NSC,M,M,M,M,M,M,M,HZ,M,M,M,M,M,M,84.57,VIDP 171730Z 09003KT 3000 HZ NSC 27/22 Q1009 NOSIG,M
VIDP,2022-03-17 18:00,80.60,73.40,78.76,90.00,4.00,0.00,29.77,M,1.74,M,NSC,M,M,M,M,M,M,M,BR,M,M,M,M,M,M,85.32,VIDP 171800Z 09004KT 2800 BR NSC 27/23 Q1008 NOSIG,M
VIDP,2022-03-17 18:30,78.80,73.40,83.55,90.00,4.00,0.00,29.77,M,1.55,M,NSC,M,M,M,M,M,M,M,BR,M,M,M,M,M,M,78.80,VIDP 171830Z 09004KT 2500 BR NSC 26/23 Q1008 NOSIG,M
VIDP,2022-03-17 19:00,78.80,73.40,83.55,100.00,4.00,0.00,29.77,M,1.55,M,NSC,M,M,M,M,M,M,M,BR,M,M,M,M,M,M,78.80,VIDP 171900Z 10004KT 2500 BR NSC 26/23 Q1008 NOSIG,M
VIDP,2022-03-17 19:30,78.80,73.40,83.55,90.00,4.00,0.00,29.77,M,1.43,M,NSC,M,M,M,M,M,M,M,BR,M,M,M,M,M,M,78.80,VIDP 171930Z 09004KT 2300 BR NSC 26/23 Q1008 NOSIG,M
VIDP,2022-03-17 20:00,78.80,73.40,83.55,100.00,4.00,0.00,29.77,M,1.37,M,NSC,M,M,M,M,M,M,M,BR,M,M,M,M,M,M,78.80,VIDP 172000Z 10004KT 2200 BR NSC 26/23 Q1008 NOSIG,M
VIDP,2022-03-17 20:30,77.00,73.40,88.67,90.00,4.00,0.00,29.77,M,1.37,M,NSC,M,M,M,M,M,M,M,BR,M,M,M,M,M,M,77.00,VIDP 172030Z 09004KT 2200 BR NSC 25/23 Q1008 NOSIG,M
VIDP,2022-03-17 21:00,77.00,75.20,94.19,0.00,0.00,0.00,29.77,M,1.37,M,NSC,M,M,M,M,M,M,M,BR,M,M,M,M,M,M,77.00,VIDP 172100Z 00000KT 2200 BR NSC 25/24 Q1008 NOSIG,M
VIDP,2022-03-17 21:30,77.00,75.20,94.19,80.00,3.00,0.00,29.74,M,1.37,M,NSC,M,M,M,M,M,M,M,BR,M,M,M,M,M,M,77.00,VIDP 172130Z 08003KT 2200 BR NSC 25/24 Q1007 NOSIG,M
VIDP,2022-03-17 22:00,77.00,75.20,94.19,90.00,3.00,0.00,29.74,M,1.37,M,NSC,M,M,M,M,M,M,M,BR,M,M,M,M,M,M,77.00,VIDP 172200Z 09003KT 2200 BR NSC 25/24 Q1007 NOSIG,M
VIDP,2022-03-17 22:30,77.00,75.20,94.19,90.00,3.00,0.00,29.74,M,1.37,M,NSC,M,M,M,M,M,M,M,BR,M,M,M,M,M,M,77.00,VIDP 172230Z 09003KT 2200 BR NSC 25/24 Q1007 NOSIG,M
VIDP,2022-03-17 23:00,75.20,73.40,94.14,100.00,3.00,0.00,29.74,M,1.37,M,NSC,M,M,M,M,M,M,M,BR,M,M,M,M,M,M,75.20,VIDP 172300Z 10003KT 2200 BR NSC 24/23 Q1007 NOSIG,M
VIDP,2022-03-17 23:30,75.20,73.40,94.14,100.00,3.00,0.00,29.74,M,1.37,M,NSC,M,M,M,M,M,M,M,BR,M,M,M,M,M,M,75.20,VIDP 172330Z 10003KT 2200 BR NSC 24/23 Q1007 NOSIG,M
VIDP,2022-03-18 00:00,75.20,73.40,94.14,90.00,3.00,0.00,29.77,M,1.37,M,NSC,M,M,M,M,M,M,M,BR,M,M,M,M,M,M,75.20,VIDP 180000Z 09003KT 2200 BR NSC 24/23 Q1008 NOSIG,M
VIDP,2022-03-18 00:30,75.20,73.40,94.14,100.00,4.00,0.00,29.77,M,1.37,M,NSC,M,M,M,M,M,M,M,BR,M,M,M,M,M,M,75.20,VIDP 180030Z 10004KT 2200 BR NSC 24/23 Q1008 NOSIG,M
VIDP,2022-03-18 01:00,75.20,73.40,94.14,90.00,4.00,0.00,29.77,M,1.37,M,NSC,M,M,M,M,M,M,M,BR,M,M,M,M,M,M,75.20,VIDP 180100Z 09004KT 2200 BR NSC 24/23 Q1008 NOSIG,M
VIDP,2022-03-18 01:30,75.20,73.40,94.14,110.00,5.00,0.00,29.80,M,0.99,M,NSC,M,M,M,M,M,M,M,BR,M,M,M,M,M,M,75.20,VIDP 180130Z 11005KT 1600 R28/P2000 R29/P2000 BR NSC 24/23 Q1009 BECMG 1500 BR,M
VIDP,2022-03-18 02:00,75.20,73.40,94.14,100.00,5.00,0.00,29.80,M,0.93,M,NSC,M,M,M,M,M,M,M,BR,M,M,M,M,M,M,75.20,VIDP 180200Z 10005KT 1500 R28/P2000 R29/P2000 BR NSC 24/23 Q1009 NOSIG,M
VIDP,2022-03-18 02:30,77.00,73.40,88.67,130.00,4.00,0.00,29.83,M,0.93,M,NSC,M,M,M,M,M,M,M,BR,M,M,M,M,M,M,77.00,VIDP 180230Z 13004KT 1500 R28/P2000 R29/P2000 BR NSC 25/23 Q1010 NOSIG,M
VIDP,2022-03-18 03:00,78.80,73.40,83.55,130.00,6.00,0.00,29.83,M,0.93,M,NSC,M,M,M,M,M,M,M,BR,M,M,M,M,M,M,78.80,VIDP 180300Z 13006KT 1500 R28/P2000 R29/P2000 BR NSC 26/23 Q1010 NOSIG,M
VIDP,2022-03-18 03:30,80.60,73.40,78.76,140.00,7.00,0.00,29.85,M,0.99,M,NSC,M,M,M,M,M,M,M,BR,M,M,M,M,M,M,85.32,VIDP 180330Z 14007KT 1600 R28/P2000 R29/P2000 BR NSC 27/23 Q1011 NOSIG,M
VIDP,2022-03-18 04:00,82.40,73.40,74.28,150.00,7.00,0.00,29.85,M,1.12,M,NSC,M,M,M,M,M,M,M,HZ,M,M,M,M,M,M,88.26,VIDP 180400Z 15007KT 1800 R28/P2000 R29/P2000 HZ NSC 28/23 Q1011 NOSIG,M
VIDP,2022-03-18 04:30,84.20,71.60,65.95,150.00,7.00,0.00,29.85,M,1.12,M,NSC,M,M,M,M,M,M,M,HZ,M,M,M,M,M,M,89.60,VIDP 180430Z 15007KT 1800 R28/P2000 R29/P2000 HZ NSC 29/22 Q1011 NOSIG,M
VIDP,2022-03-18 05:00,86.00,71.60,62.25,150.00,7.00,0.00,29.85,M,1.12,M,NSC,M,M,M,M,M,M,M,HZ,M,M,M,M,M,M,91.92,VIDP 180500Z 15007KT 1800 R28/P2000 R29/P2000 HZ NSC 30/22 Q1011 NOSIG,M
VIDP,2022-03-18 05:30,87.80,71.60,58.78,150.00,7.00,0.00,29.85,M,1.12,M,NSC,M,M,M,M,M,M,M,HZ,M,M,M,M,M,M,94.18,VIDP 180530Z 15007KT 1800 R28/P2000 R29/P2000 HZ NSC 31/22 Q1011 NOSIG,M
VIDP,2022-03-18 06:00,89.60,71.60,55.53,140.00,8.00,0.00,29.85,M,1.24,M,NSC,M,M,M,M,M,M,M,HZ,M,M,M,M,M,M,96.41,VIDP 180600Z 14008KT 2000 R28/P2000 R29/P2000 HZ NSC 32/22 Q1011 NOSIG,M
VIDP,2022-03-18 06:30,89.60,69.80,52.23,130.00,10.00,0.00,29.83,M,1.37,M,NSC,M,M,M,M,M,M,M,HZ,M,M,M,M,M,M,94.85,VIDP 180630Z 13010KT 2200 HZ NSC 32/21 Q1010 NOSIG,M
VIDP,2022-03-18 07:00,91.40,69.80,49.36,140.00,7.00,0.00,29.83,M,1.55,M,NSC,M,M,M,M,M,M,M,HZ,M,M,M,M,M,M,96.99,VIDP 180700Z 14007KT 2500 HZ NSC 33/21 Q1010 NOSIG,M
VIDP,2022-03-18 07:30,91.40,69.80,49.36,150.00,8.00,0.00,29.80,M,1.74,M,NSC,M,M,M,M,M,M,M,HZ,M,M,M,M,M,M,96.99,VIDP 180730Z 15008KT 2800 HZ NSC 33/21 Q1009 NOSIG,M
VIDP,2022-03-18 08:00,91.40,69.80,49.36,150.00,6.00,0.00,29.80,M,1.74,M,NSC,M,M,M,M,M,M,M,HZ,M,M,M,M,M,M,96.99,VIDP 180800Z 15006KT 2800 HZ NSC 33/21 Q1009 NOSIG,M
VIDP,2022-03-18 08:30,91.40,71.60,52.48,130.00,8.00,0.00,29.77,M,1.74,M,NSC,M,M,M,M,M,M,M,HZ,M,M,M,M,M,M,98.64,VIDP 180830Z 13008KT 2800 HZ NSC 33/22 Q1008 NOSIG,M
VIDP,2022-03-18 09:00,91.40,71.60,52.48,120.00,8.00,0.00,29.77,M,1.74,M,NSC,M,M,M,M,M,M,M,HZ,M,M,M,M,M,M,98.64,VIDP 180900Z 12008KT 2800 HZ NSC 33/22 Q1008 BECMG 3000 HZ,M
VIDP,2022-03-18 09:30,91.40,71.60,52.48,120.00,7.00,0.00,29.74,M,1.99,M,NSC,M,M,M,M,M,M,M,HZ,M,M,M,M,M,M,98.64,VIDP 180930Z 12007KT 3200 HZ NSC 33/22 Q1007 NOSIG,M
VIDP,2022-03-18 10:00,91.40,69.80,49.36,110.00,7.00,0.00,29.74,M,2.17,M,NSC,M,M,M,M,M,M,M,HZ,M,M,M,M,M,M,96.99,VIDP 181000Z 11007KT 3500 HZ NSC 33/21 Q1007 NOSIG,M
VIDP,2022-03-18 10:30,91.40,71.60,52.48,110.00,7.00,0.00,29.74,M,2.17,M,NSC,M,M,M,M,M,M,M,HZ,M,M,M,M,M,M,98.64,VIDP 181030Z 11007KT 3500 HZ NSC 33/22 Q1007 NOSIG,M
VIDP,2022-03-18 11:00,91.40,73.40,55.77,110.00,6.00,0.00,29.74,M,2.17,M,NSC,M,M,M,M,M,M,M,HZ,M,M,M,M,M,M,100.52,VIDP 181100Z 11006KT 3500 HZ NSC 33/23 Q1007 NOSIG,M
VIDP,2022-03-18 11:30,89.60,71.60,55.53,100.00,6.00,0.00,29.71,M,2.17,M,NSC,M,M,M,M,M,M,M,HZ,M,M,M,M,M,M,96.41,VIDP 181130Z 10006KT 3500 HZ NSC 32/22 Q1006 NOSIG,M
VIDP,2022-03-18 12:00,89.60,71.60,55.53,110.00,6.00,0.00,29.71,M,2.17,M,NSC,M,M,M,M,M,M,M,HZ,M,M,M,M,M,M,96.41,VIDP 181200Z 11006KT 3500 HZ NSC 32/22 Q1006 NOSIG,M
VIDP,2022-03-18 12:30,87.80,71.60,58.78,100.00,5.00,0.00,29.71,M,1.99,M,NSC,M,M,M,M,M,M,M,HZ,M,M,M,M,M,M,94.18,VIDP 181230Z 10005KT 3200 HZ NSC 31/22 Q1006 BECMG 3000 HZ,M
VIDP,2022-03-18 13:00,86.00,69.80,58.55,110.00,6.00,0.00,29.74,M,1.74,M,NSC,M,M,M,M,M,M,M,HZ,M,M,M,M,M,M,90.58,VIDP 181300Z 11006KT 2800 HZ NSC 30/21 Q1007 NOSIG,M
VIDP,2022-03-18 13:30,86.00,69.80,58.55,110.00,5.00,0.00,29.74,M,1.74,M,NSC,M,M,M,M,M,M,M,HZ,M,M,M,M,M,M,90.58,VIDP 181330Z 11005KT 2800 HZ NSC 30/21 Q1007 NOSIG,M
VIDP,2022-03-18 14:00,86.00,69.80,58.55,100.00,4.00,0.00,29.74,M,1.74,M,NSC,M,M,M,M,M,M,M,HZ,M,M,M,M,M,M,90.58,VIDP 181400Z 10004KT 2800 HZ NSC 30/21 Q1007 NOSIG,M
VIDP,2022-03-18 14:30,84.20,71.60,65.95,110.00,4.00,0.00,29.74,M,1.74,M,NSC,M,M,M,M,M,M,M,HZ,M,M,M,M,M,M,89.60,VIDP 181430Z 11004KT 2800 HZ NSC 29/22 Q1007 NOSIG,M
VIDP,2022-03-18 15:00,82.40,71.60,69.90,110.00,4.00,0.00,29.74,M,1.74,M,NSC,M,M,M,M,M,M,M,HZ,M,M,M,M,M,M,87.18,VIDP 181500Z 11004KT 2800 HZ NSC 28/22 Q1007 NOSIG,M
VIDP,2022-03-18 15:30,80.60,69.80,69.71,100.00,4.00,0.00,29.77,M,1.74,M,NSC,M,M,M,M,M,M,M,HZ,M,M,M,M,M,M,83.90,VIDP 181530Z 10004KT 2800 HZ NSC 27/21 Q1008 NOSIG,M
VIDP,2022-03-18 16:00,78.80,68.00,69.52,110.00,4.00,0.00,29.77,M,1.74,M,NSC,M,M,M,M,M,M,M,HZ,M,M,M,M,M,M,78.80,VIDP 181600Z 11004KT 2800 HZ NSC 26/20 Q1008 NOSIG,M
VIDP,2022-03-18 16:30,78.80,69.80,73.95,100.00,4.00,0.00,29.77,M,1.74,M,NSC,M,M,M,M,M,M,M,HZ,M,M,M,M,M,M,78.80,VIDP 181630Z 10004KT 2800 HZ NSC 26/21 Q1008 NOSIG,M
VIDP,2022-03-18 17:00,78.80,68.00,69.52,100.00,4.00,0.00,29.77,M,1.74,M,NSC,M,M,M,M,M,M,M,HZ,M,M,M,M,M,M,78.80,VIDP 181700Z 10004KT 2800 HZ NSC 26/20 Q1008 NOSIG,M
VIDP,2022-03-18 17:30,77.00,69.80,78.48,100.00,4.00,0.00,29.74,M,1.74,M,NSC,M,M,M,M,M,M,M,BR,M,M,M,M,M,M,77.00,VIDP 181730Z 10004KT 2800 BR NSC 25/21 Q1007 NOSIG,M
VIDP,2022-03-18 18:00,75.20,71.60,88.59,110.00,5.00,0.00,29.74,M,1.74,M,NSC,M,M,M,M,M,M,M,HZ,M,M,M,M,M,M,75.20,VIDP 181800Z 11005KT 2800 HZ NSC 24/22 Q1007 NOSIG,M
VIDP,2022-03-18 18:30,77.00,71.60,83.44,110.00,5.00,0.00,29.74,M,1.55,M,NSC,M,M,M,M,M,M,M,BR,M,M,M,M,M,M,77.00,VIDP 181830Z 11005KT 2500 BR NSC 25/22 Q1007 NOSIG,M
VIDP,2022-03-18 19:00,77.00,71.60,83.44,120.00,4.00,0.00,29.74,M,1.55,M,NSC,M,M,M,M,M,M,M,BR,M,M,M,M,M,M,77.00,VIDP 181900Z 12004KT 2500 BR NSC 25/22 Q1007 NOSIG,M
VIDP,2022-03-18 19:30,75.20,71.60,88.59,100.00,4.00,0.00,29.74,M,1.55,M,NSC,M,M,M,M,M,M,M,BR,M,M,M,M,M,M,75.20,VIDP 181930Z 10004KT 2500 BR NSC 24/22 Q1007 NOSIG,M
VIDP,2022-03-18 20:00,73.40,71.60,94.10,100.00,4.00,0.00,29.74,M,1.55,M,NSC,M,M,M,M,M,M,M,BR,M,M,M,M,M,M,73.40,VIDP 182000Z 10004KT 2500 BR NSC 23/22 Q1007 NOSIG,M
VIDP,2022-03-18 20:30,73.40,71.60,94.10,0.00,0.00,0.00,29.71,M,1.55,M,NSC,M,M,M,M,M,M,M,BR,M,M,M,M,M,M,73.40,VIDP 182030Z 00000KT 2500 BR NSC 23/22 Q1006 NOSIG,M
VIDP,2022-03-18 21:00,73.40,71.60,94.10,0.00,0.00,0.00,29.71,M,1.55,M,NSC,M,M,M,M,M,M,M,BR,M,M,M,M,M,M,73.40,VIDP 182100Z 00000KT 2500 BR NSC 23/22 Q1006 NOSIG,M
VIDP,2022-03-18 21:30,73.40,71.60,94.10,110.00,3.00,0.00,29.71,M,1.55,M,NSC,M,M,M,M,M,M,M,BR,M,M,M,M,M,M,73.40,VIDP 182130Z 11003KT 2500 BR NSC 23/22 Q1006 NOSIG,M
VIDP,2022-03-18 22:00,73.40,71.60,94.10,130.00,4.00,0.00,29.68,M,1.55,M,NSC,M,M,M,M,M,M,M,BR,M,M,M,M,M,M,73.40,VIDP 182200Z 13004KT 2500 BR NSC 23/22 Q1005 NOSIG,M
VIDP,2022-03-18 22:30,73.40,71.60,94.10,130.00,4.00,0.00,29.68,M,1.55,M,NSC,M,M,M,M,M,M,M,BR,M,M,M,M,M,M,73.40,VIDP 182230Z 13004KT 2500 BR NSC 23/22 Q1005 NOSIG,M
VIDP,2022-03-18 23:00,73.40,69.80,88.51,110.00,4.00,0.00,29.68,M,1.55,M,NSC,M,M,M,M,M,M,M,BR,M,M,M,M,M,M,73.40,VIDP 182300Z 11004KT 2500 BR NSC 23/21 Q1005 NOSIG,M
VIDP,2022-03-18 23:30,73.40,69.80,88.51,0.00,0.00,0.00,29.71,M,1.55,M,NSC,M,M,M,M,M,M,M,BR,M,M,M,M,M,M,73.40,VIDP 182330Z 00000KT 2500 BR NSC 23/21 Q1006 NOSIG,M
VIDP,2022-03-19 00:00,73.40,69.80,88.51,0.00,0.00,0.00,29.71,M,1.55,M,NSC,M,M,M,M,M,M,M,BR,M,M,M,M,M,M,73.40,VIDP 190000Z 00000KT 2500 BR NSC 23/21 Q1006 NOSIG,M
VIDP,2022-03-19 00:30,73.40,71.60,94.10,0.00,0.00,0.00,29.71,M,1.55,M,NSC,M,M,M,M,M,M,M,BR,M,M,M,M,M,M,73.40,VIDP 190030Z 00000KT 2500 BR NSC 23/22 Q1006 NOSIG,M
VIDP,2022-03-19 01:00,73.40,69.80,88.51,0.00,0.00,0.00,29.74,M,1.55,M,NSC,M,M,M,M,M,M,M,BR,M,M,M,M,M,M,73.40,VIDP 190100Z 00000KT 2500 BR NSC 23/21 Q1007 NOSIG,M
VIDP,2022-03-19 01:30,73.40,71.60,94.10,100.00,3.00,0.00,29.77,M,1.55,M,NSC,M,M,M,M,M,M,M,BR,M,M,M,M,M,M,73.40,VIDP 190130Z 10003KT 2500 BR NSC 23/22 Q1008 NOSIG,M
VIDP,2022-03-19 02:00,73.40,71.60,94.10,0.00,0.00,0.00,29.77,M,1.37,M,NSC,M,M,M,M,M,M,M,BR,M,M,M,M,M,M,73.40,VIDP 190200Z 00000KT 2200 BR NSC 23/22 Q1008 NOSIG,M
VIDP,2022-03-19 02:30,77.00,69.80,78.48,110.00,3.00,0.00,29.77,M,1.24,M,NSC,M,M,M,M,M,M,M,BR,M,M,M,M,M,M,77.00,VIDP 190230Z 11003KT 2000 BR NSC 25/21 Q1008 NOSIG,M
VIDP,2022-03-19 03:00,78.80,68.00,69.52,M,2.00,0.00,29.80,M,1.24,M,NSC,M,M,M,M,M,M,M,HZ,M,M,M,M,M,M,78.80,VIDP 190300Z VRB02KT 2000 HZ NSC 26/20 Q1009 NOSIG,M
VIDP,2022-03-19 03:30,80.60,69.80,69.71,170.00,5.00,0.00,29.80,M,1.24,M,NSC,M,M,M,M,M,M,M,HZ,M,M,M,M,M,M,83.90,VIDP 190330Z 17005KT 2000 HZ NSC 27/21 Q1009 NOSIG,M
VIDP,2022-03-19 04:00,84.20,69.80,62.03,190.00,5.00,0.00,29.80,M,1.30,M,NSC,M,M,M,M,M,M,M,HZ,M,M,M,M,M,M,88.43,VIDP 190400Z 19005KT 2100 HZ NSC 29/21 Q1009 NOSIG,M
VIDP,2022-03-19 04:30,86.00,66.20,51.72,180.00,6.00,0.00,29.80,M,1.30,M,NSC,M,M,M,M,M,M,M,HZ,M,M,M,M,M,M,88.39,VIDP 190430Z 18006KT 2100 HZ NSC 30/19 Q1009 NOSIG,M
VIDP,2022-03-19 05:00,86.00,64.40,48.58,160.00,6.00,0.00,29.80,M,1.55,M,NSC,M,M,M,M,M,M,M,HZ,M,M,M,M,M,M,87.49,VIDP 190500Z 16006KT 2500 HZ NSC 30/18 Q1009 NOSIG,M
VIDP,2022-03-19 05:30,87.80,64.40,45.88,160.00,9.00,0.00,29.80,M,1.55,M,NSC,M,M,M,M,M,M,M,HZ,M,M,M,M,M,M,89.33,VIDP 190530Z 16009KT 2500 HZ NSC 31/18 Q1009 BECMG 3000 HZ,M
VIDP,2022-03-19 06:00,89.60,66.20,46.14,160.00,6.00,0.00,29.77,M,1.74,M,NSC,M,M,M,M,M,M,M,HZ,M,M,M,M,M,M,92.27,VIDP 190600Z 16006KT 2800 HZ NSC 32/19 Q1008 BECMG 3000 HZ,M
VIDP,2022-03-19 06:30,91.40,64.40,40.96,170.00,5.00,0.00,29.77,M,1.86,M,NSC,M,M,M,M,M,M,M,HZ,M,M,M,M,M,M,93.19,VIDP 190630Z 17005KT 3000 HZ NSC 33/18 Q1008 NOSIG,M
VIDP,2022-03-19 07:00,91.40,64.40,40.96,160.00,6.00,0.00,29.77,M,1.86,M,NSC,M,M,M,M,M,M,M,HZ,M,M,M,M,M,M,93.19,VIDP 190700Z 16006KT 3000 HZ NSC 33/18 Q1008 NOSIG,M
VIDP,2022-03-19 07:30,93.20,66.20,41.23,180.00,4.00,0.00,29.74,M,1.86,M,NSC,M,M,M,M,M,M,M,HZ,M,M,M,M,M,M,96.35,VIDP 190730Z 18004KT 3000 HZ NSC 34/19 Q1007 NOSIG,M
VIDP,2022-03-19 08:00,93.20,66.20,41.23,170.00,5.00,0.00,29.74,M,1.86,M,NSC,M,M,M,M,M,M,M,HZ,M,M,M,M,M,M,96.35,VIDP 190800Z 17005KT 3000 HZ NSC 34/19 Q1007 NOSIG,M
VIDP,2022-03-19 08:30,95.00,62.60,34.39,180.00,4.00,0.00,29.71,M,2.17,M,NSC,M,M,M,M,M,M,M,HZ,M,M,M,M,M,M,96.22,VIDP 190830Z 18004KT 3500 HZ NSC 35/17 Q1006 NOSIG,M
VIDP,2022-03-19 09:00,96.80,60.80,30.53,270.00,3.00,0.00,29.68,M,2.49,M,NSC,M,M,M,M,M,M,M,HZ,M,M,M,M,M,M,97.33,VIDP 190900Z 27003KT 4000 HZ NSC 36/16 Q1005 NOSIG,M
VIDP,2022-03-19 09:30,96.80,59.00,28.63,200.00,4.00,0.00,29.68,M,2.49,M,NSC,M,M,M,M,M,M,M,HZ,M,M,M,M,M,M,96.50,VIDP 190930Z 20004KT 4000 HZ NSC 36/15 Q1005 NOSIG,M
VIDP,2022-03-19 10:00,96.80,59.00,28.63,280.00,4.00,0.00,29.65,M,2.49,M,NSC,M,M,M,M,M,M,M,HZ,M,M,M,M,M,M,96.50,VIDP 191000Z 28004KT 4000 HZ NSC 36/15 Q1004 NOSIG,M
VIDP,2022-03-19 10:30,96.80,59.00,28.63,250.00,4.00,0.00,29.65,M,2.49,M,NSC,M,M,M,M,M,M,M,HZ,M,M,M,M,M,M,96.50,VIDP 191030Z 25004KT 4000 HZ NSC 36/15 Q1004 NOSIG,M
VIDP,2022-03-19 11:00,96.80,59.00,28.63,250.00,4.00,0.00,29.65,M,2.49,M,NSC,M,M,M,M,M,M,M,HZ,M,M,M,M,M,M,96.50,VIDP 191100Z 25004KT 4000 HZ NSC 36/15 Q1004 NOSIG,M
VIDP,2022-03-19 11:30,95.00,59.00,30.26,110.00,4.00,0.00,29.65,M,2.49,M,NSC,M,M,M,M,M,M,M,HZ,M,M,M,M,M,M,94.51,VIDP 191130Z 11004KT 4000 HZ NSC 35/15 Q1004 NOSIG,M
VIDP,2022-03-19 12:00,95.00,60.80,32.27,100.00,7.00,0.00,29.62,M,2.49,M,NSC,M,M,M,M,M,M,M,HZ,M,M,M,M,M,M,95.30,VIDP 191200Z 10007KT 4000 HZ NSC 35/16 Q1003 NOSIG,M
VIDP,2022-03-19 12:30,93.20,62.60,36.35,100.00,5.00,0.00,29.62,M,2.17,M,NSC,M,M,M,M,M,M,M,HZ,M,M,M,M,M,M,94.20,VIDP 191230Z 10005KT 3500 HZ NSC 34/17 Q1003 NOSIG,M
VIDP,2022-03-19 13:00,93.20,62.60,36.35,90.00,5.00,0.00,29.62,M,2.17,M,NSC,M,M,M,M,M,M,M,HZ,M,M,M,M,M,M,94.20,VIDP 191300Z 09005KT 3500 HZ NSC 34/17 Q1003 NOSIG,M
VIDP,2022-03-19 13:30,89.60,64.40,43.34,90.00,3.00,0.00,29.65,M,2.17,M,NSC,M,M,M,M,M,M,M,HZ,M,M,M,M,M,M,91.23,VIDP 191330Z 09003KT 3500 HZ NSC 32/18 Q1004 NOSIG,M
VIDP,2022-03-19 14:00,87.80,66.20,48.84,90.00,3.00,0.00,29.65,M,2.17,M,NSC,M,M,M,M,M,M,M,HZ,M,M,M,M,M,M,90.31,VIDP 191400Z 09003KT 3500 HZ NSC 31/19 Q1004 NOSIG,M
VIDP,2022-03-19 14:30,86.00,66.20,51.72,100.00,3.00,0.00,29.65,M,2.17,M,NSC,M,M,M,M,M,M,M,HZ,M,M,M,M,M,M,88.39,VIDP 191430Z 10003KT 3500 HZ NSC 30/19 Q1004 NOSIG,M
VIDP,2022-03-19 15:00,84.20,66.20,54.80,0.00,0.00,0.00,29.65,M,2.17,M,NSC,M,M,M,M,M,M,M,HZ,M,M,M,M,M,M,86.50,VIDP 191500Z 00000KT 3500 HZ NSC 29/19 Q1004 NOSIG,M
VIDP,2022-03-19 15:30,82.40,66.20,58.08,0.00,0.00,0.00,29.68,M,2.17,M,NSC,M,M,M,M,M,M,M,HZ,M,M,M,M,M,M,84.63,VIDP 191530Z 00000KT 3500 HZ NSC 28/19 Q1005 NOSIG,M
VIDP,2022-03-19 16:00,80.60,66.20,61.58,0.00,0.00,0.00,29.68,M,2.17,M,NSC,M,M,M,M,M,M,M,HZ,M,M,M,M,M,M,82.75,VIDP 191600Z 00000KT 3500 HZ NSC 27/19 Q1005 NOSIG,M
VIDP,2022-03-19 16:30,80.60,66.20,61.58,0.00,0.00,0.00,29.68,M,2.17,M,NSC,M,M,M,M,M,M,M,HZ,M,M,M,M,M,M,82.75,VIDP 191630Z 00000KT 3500 HZ NSC 27/19 Q1005 NOSIG,M
VIDP,2022-03-19 17:00,80.60,68.00,65.54,70.00,4.00,0.00,29.68,M,2.17,M,NSC,M,M,M,M,M,M,M,HZ,M,M,M,M,M,M,83.29,VIDP 191700Z 07004KT 3500 HZ NSC 27/20 Q1005 NOSIG,M
VIDP,2022-03-19 17:30,80.60,69.80,69.71,80.00,4.00,0.00,29.68,M,2.17,M,NSC,M,M,M,M,M,M,M,HZ,M,M,M,M,M,M,83.90,VIDP 191730Z 08004KT 3500 HZ NSC 27/21 Q1005 BECMG 3000 HZ,M
VIDP,2022-03-19 18:00,78.80,69.80,73.95,70.00,4.00,0.00,29.68,M,1.86,M,NSC,M,M,M,M,M,M,M,HZ,M,M,M,M,M,M,78.80,VIDP 191800Z 07004KT 3000 HZ NSC 26/21 Q1005 NOSIG,M
VIDP,2022-03-19 18:30,78.80,69.80,73.95,0.00,0.00,0.00,29.68,M,1.86,M,NSC,M,M,M,M,M,M,M,HZ,M,M,M,M,M,M,78.80,VIDP 191830Z 00000KT 3000 HZ NSC 26/21 Q1005 NOSIG,M
VIDP,2022-03-19 19:00,78.80,71.60,78.62,60.00,4.00,0.00,29.68,M,1.86,M,NSC,M,M,M,M,M,M,M,BR,M,M,M,M,M,M,78.80,VIDP 191900Z 06004KT 3000 BR NSC 26/22 Q1005 NOSIG,M
VIDP,2022-03-19 19:30,78.80,71.60,78.62,0.00,0.00,0.00,29.68,M,1.86,M,NSC,M,M,M,M,M,M,M,BR,M,M,M,M,M,M,78.80,VIDP 191930Z 00000KT 3000 BR NSC 26/22 Q1005 NOSIG,M
VIDP,2022-03-19 20:00,77.00,71.60,83.44,80.00,5.00,0.00,29.65,M,1.86,M,NSC,M,M,M,M,M,M,M,BR,M,M,M,M,M,M,77.00,VIDP 192000Z 08005KT 3000 BR NSC 25/22 Q1004 NOSIG,M
VIDP,2022-03-19 20:30,77.00,71.60,83.44,90.00,5.00,0.00,29.65,M,1.86,M,NSC,M,M,M,M,M,M,M,BR,M,M,M,M,M,M,77.00,VIDP 192030Z 09005KT 3000 BR NSC 25/22 Q1004 NOSIG,M
VIDP,2022-03-19 21:00,77.00,71.60,83.44,90.00,5.00,0.00,29.65,M,1.86,M,NSC,M,M,M,M,M,M,M,BR,M,M,M,M,M,M,77.00,VIDP 192100Z 09005KT 3000 BR NSC 25/22 Q1004 NOSIG,M
VIDP,2022-03-19 21:30,77.00,71.60,83.44,180.00,4.00,0.00,29.65,M,1.86,M,NSC,M,M,M,M,M,M,M,BR,M,M,M,M,M,M,77.00,VIDP 192130Z 18004KT 3000 BR NSC 25/22 Q1004 NOSIG,M
VIDP,2022-03-19 22:00,77.00,71.60,83.44,170.00,4.00,0.00,29.65,M,1.86,M,NSC,M,M,M,M,M,M,M,BR,M,M,M,M,M,M,77.00,VIDP 192200Z 17004KT 3000 BR NSC 25/22 Q1004 NOSIG,M
VIDP,2022-03-19 22:30,77.00,71.60,83.44,170.00,4.00,0.00,29.65,M,1.86,M,NSC,M,M,M,M,M,M,M,BR,M,M,M,M,M,M,77.00,VIDP 192230Z 17004KT 3000 BR NSC 25/22 Q1004 NOSIG,M
VIDP,2022-03-19 23:00,75.20,71.60,88.59,120.00,4.00,0.00,29.65,M,1.86,M,NSC,M,M,M,M,M,M,M,BR,M,M,M,M,M,M,75.20,VIDP 192300Z 12004KT 3000 BR NSC 24/22 Q1004 NOSIG,M
VIDP,2022-03-19 23:30,75.20,69.80,83.32,90.00,4.00,0.00,29.65,M,1.86,M,NSC,M,M,M,M,M,M,M,BR,M,M,M,M,M,M,75.20,VIDP 192330Z 09004KT 3000 BR NSC 24/21 Q1004 NOSIG,M
VIDP,2022-03-20 00:00,75.20,69.80,83.32,90.00,4.00,0.00,29.65,M,1.86,M,NSC,M,M,M,M,M,M,M,BR,M,M,M,M,M,M,75.20,VIDP 200000Z 09004KT 3000 BR NSC 24/21 Q1004 NOSIG,M
VIDP,2022-03-20 00:30,75.20,69.80,83.32,100.00,4.00,0.00,29.65,M,1.86,M,NSC,M,M,M,M,M,M,M,BR,M,M,M,M,M,M,75.20,VIDP 200030Z 10004KT 3000 BR NSC 24/21 Q1004 NOSIG,M
VIDP,2022-03-20 01:00,77.00,69.80,78.48,130.00,4.00,0.00,29.65,M,1.86,M,NSC,M,M,M,M,M,M,M,BR,M,M,M,M,M,M,77.00,VIDP 200100Z 13004KT 3000 BR NSC 25/21 Q1004 NOSIG,M
VIDP,2022-03-20 01:30,77.00,68.00,73.78,130.00,4.00,0.00,29.65,M,1.55,M,NSC,M,M,M,M,M,M,M,HZ,M,M,M,M,M,M,77.00,VIDP 200130Z 13004KT 2500 HZ NSC 25/20 Q1004 NOSIG,M
VIDP,2022-03-20 02:00,78.80,66.20,65.33,140.00,6.00,0.00,29.68,M,1.55,M,NSC,M,M,M,M,M,M,M,HZ,M,M,M,M,M,M,78.80,VIDP 200200Z 14006KT 2500 HZ NSC 26/19 Q1005 NOSIG,M
VIDP,2022-03-20 02:30,80.60,64.40,57.84,130.00,6.00,0.00,29.71,M,1.74,M,NSC,M,M,M,M,M,M,M,HZ,M,M,M,M,M,M,82.27,VIDP 200230Z 13006KT 2800 HZ NSC 27/18 Q1006 BECMG 3000 HZ,M
VIDP,2022-03-20 03:00,82.40,64.40,54.55,140.00,5.00,0.00,29.71,M,1.86,M,NSC,M,M,M,M,M,M,M,HZ,M,M,M,M,M,M,83.98,VIDP 200300Z 14005KT 3000 HZ NSC 28/18 Q1006 NOSIG,M
VIDP,2022-03-20 03:30,82.40,64.40,54.55,140.00,6.00,0.00,29.71,M,1.86,M,FEW,M,M,M,10000.00,M,M,M,HZ,M,M,M,M,M,M,83.98,VIDP 200330Z 14006KT 3000 HZ FEW100 28/18 Q1006 NOSIG,M
VIDP,2022-03-20 04:00,84.20,64.40,51.47,150.00,6.00,0.00,29.71,M,1.99,M,FEW,M,M,M,10000.00,M,M,M,HZ,M,M,M,M,M,M,85.71,VIDP 200400Z 15006KT 3200 HZ FEW100 29/18 Q1006 NOSIG,M
VIDP,2022-03-20 04:30,86.00,60.80,42.80,160.00,5.00,0.00,29.71,M,2.17,M,FEW,M,M,M,10000.00,M,M,M,HZ,M,M,M,M,M,M,86.05,VIDP 200430Z 16005KT 3500 HZ FEW100 30/16 Q1006 NOSIG,M
VIDP,2022-03-20 05:00,87.80,57.20,35.53,180.00,6.00,0.00,29.71,M,2.49,M,FEW,M,M,M,10000.00,M,M,M,HZ,M,M,M,M,M,M,86.58,VIDP 200500Z 18006KT 4000 HZ FEW100 31/14 Q1006 NOSIG,M
VIDP,2022-03-20 05:30,91.40,53.60,27.83,190.00,6.00,0.00,29.71,M,2.49,M,FEW,M,M,M,10000.00,M,M,M,HZ,M,M,M,M,M,M,89.08,VIDP 200530Z 19006KT 4000 HZ FEW100 33/12 Q1006 NOSIG,M
VIDP,2022-03-20 06:00,93.20,53.60,26.31,250.00,6.00,0.00,29.71,M,2.49,M,FEW,M,M,M,10000.00,M,M,M,HZ,M,M,M,M,M,M,90.86,VIDP 200600Z 25006KT 4000 HZ FEW100 34/12 Q1006 NOSIG,M
VIDP,2022-03-20 06:30,93.20,50.00,23.04,230.00,5.00,0.00,29.71,M,2.49,M,SCT,M,M,M,10000.00,M,M,M,HZ,M,M,M,M,M,M,90.10,VIDP 200630Z 23005KT 4000 HZ SCT100 34/10 Q1006 NOSIG,M
VIDP,2022-03-20 07:00,93.20,48.20,21.54,240.00,5.00,0.00,29.71,M,2.49,M,SCT,M,M,M,10000.00,M,M,M,HZ,M,M,M,M,M,M,89.80,VIDP 200700Z 24005KT 4000 HZ SCT100 34/09 Q1006 NOSIG,M
VIDP,2022-03-20 07:30,95.00,48.20,20.38,180.00,3.00,0.00,29.68,M,2.80,M,SCT,M,M,M,10000.00,M,M,M,HZ,M,M,M,M,M,M,91.56,VIDP 200730Z 18003KT 4500 HZ SCT100 35/09 Q1005 NOSIG,M
VIDP,2022-03-20 08:00,96.80,44.60,16.83,240.00,4.00,0.00,29.68,M,2.80,M,SCT,M,M,M,10000.00,M,M,M,HZ,M,M,M,M,M,M,92.79,VIDP 200800Z 24004KT 4500 HZ SCT100 36/07 Q1005 NOSIG,M
VIDP,2022-03-20 08:30,96.80,42.80,15.71,290.00,4.00,0.00,29.65,M,2.80,M,SCT,M,M,M,10000.00,M,M,M,HZ,M,M,M,M,M,M,92.57,VIDP 200830Z 29004KT 4500 HZ SCT100 36/06 Q1004 NOSIG,M
VIDP,2022-03-20 09:00,96.80,41.00,14.66,270.00,5.00,0.00,29.65,M,2.80,M,SCT,M,M,M,10000.00,M,M,M,HZ,M,M,M,M,M,M,92.39,VIDP 200900Z 27005KT 4500 HZ SCT100 36/05 Q1004 BECMG 5000 HZ,M
VIDP,2022-03-20 09:30,96.80,41.00,14.66,260.00,4.00,0.00,29.65,M,3.11,M,SCT,M,M,M,10000.00,M,M,M,HZ,M,M,M,M,M,M,92.39,VIDP 200930Z 26004KT 5000 HZ SCT100 36/05 Q1004 NOSIG,M
VIDP,2022-03-20 10:00,98.60,41.00,13.87,260.00,5.00,0.00,29.65,M,3.11,M,SCT,M,M,M,10000.00,M,M,M,HZ,M,M,M,M,M,M,94.09,VIDP 201000Z 26005KT 5000 HZ SCT100 37/05 Q1004 NOSIG,M
VIDP,2022-03-20 10:30,98.60,41.00,13.87,300.00,7.00,0.00,29.62,M,3.11,M,SCT,M,M,M,10000.00,M,M,M,HZ,M,M,M,M,M,M,94.09,VIDP 201030Z 30007KT 5000 HZ SCT100 37/05 Q1003 NOSIG,M
VIDP,2022-03-20 11:00,98.60,39.20,12.94,300.00,7.00,0.00,29.62,M,3.11,M,SCT,M,M,M,10000.00,M,M,M,HZ,M,M,M,M,M,M,93.89,VIDP 201100Z 30007KT 5000 HZ SCT100 37/04 Q1003 NOSIG,M
VIDP,2022-03-20 11:30,96.80,39.20,13.66,290.00,7.00,0.00,29.62,M,3.11,M,SCT,M,M,M,10000.00,M,M,M,HZ,M,M,M,M,M,M,92.23,VIDP 201130Z 29007KT 5000 HZ SCT100 36/04 Q1003 NOSIG,M
VIDP,2022-03-20 12:00,95.00,41.00,15.49,310.00,5.00,0.00,29.62,M,2.80,M,FEW,M,M,M,10000.00,M,M,M,HZ,M,M,M,M,M,M,90.70,VIDP 201200Z 31005KT 4500 HZ FEW100 35/05 Q1003 NOSIG,M
VIDP,2022-03-20 12:30,95.00,41.00,15.49,310.00,4.00,0.00,29.62,M,2.80,M,FEW,M,M,M,10000.00,M,M,M,HZ,M,M,M,M,M,M,90.70,VIDP 201230Z 31004KT 4500 HZ FEW100 35/05 Q1003 NOSIG,M
VIDP,2022-03-20 13:00,93.20,46.40,20.13,320.00,4.00,0.00,29.62,M,2.49,M,FEW,M,M,M,10000.00,M,M,M,HZ,M,M,M,M,M,M,89.55,VIDP 201300Z 32004KT 4000 HZ FEW100 34/08 Q1003 NOSIG,M
VIDP,2022-03-20 13:30,91.40,46.40,21.29,0.00,0.00,0.00,29.65,M,2.49,M,FEW,M,M,M,10000.00,M,M,M,HZ,M,M,M,M,M,M,87.86,VIDP 201330Z 00000KT 4000 HZ FEW100 33/08 Q1004 NOSIG,M
VIDP,2022-03-20 14:00,89.60,48.20,24.11,0.00,0.00,0.00,29.65,M,2.49,M,FEW,M,M,M,10000.00,M,M,M,HZ,M,M,M,M,M,M,86.44,VIDP 201400Z 00000KT 4000 HZ FEW100 32/09 Q1004 NOSIG,M
VIDP,2022-03-20 14:30,87.80,50.00,27.29,M,2.00,0.00,29.65,M,2.49,M,FEW,M,M,M,10000.00,M,M,M,HZ,M,M,M,M,M,M,85.11,VIDP 201430Z VRB02KT 4000 HZ FEW100 31/10 Q1004 NOSIG,M
VIDP,2022-03-20 15:00,87.80,53.60,31.17,M,2.00,0.00,29.65,M,2.17,M,FEW,M,M,M,10000.00,M,M,M,HZ,M,M,M,M,M,M,85.72,VIDP 201500Z VRB02KT 3500 HZ FEW100 31/12 Q1004 NOSIG,M
VIDP,2022-03-20 15:30,86.00,55.40,35.25,100.00,3.00,0.00,29.68,M,2.17,M,FEW,M,M,M,10000.00,M,M,M,HZ,M,M,M,M,M,M,84.54,VIDP 201530Z 10003KT 3500 HZ FEW100 30/13 Q1005 NOSIG,M
VIDP,2022-03-20 16:00,84.20,57.20,39.86,80.00,3.00,0.00,29.68,M,2.17,M,FEW,M,M,M,10000.00,M,M,M,HZ,M,M,M,M,M,M,83.47,VIDP 201600Z 08003KT 3500 HZ FEW100 29/14 Q1005 NOSIG,M
VIDP,2022-03-20 16:30,82.40,59.00,45.07,110.00,3.00,0.00,29.68,M,2.17,M,FEW,M,M,M,10000.00,M,M,M,HZ,M,M,M,M,M,M,82.46,VIDP 201630Z 11003KT 3500 HZ FEW100 28/15 Q1005 NOSIG,M
VIDP,2022-03-20 17:00,80.60,57.20,44.80,150.00,3.00,0.00,29.68,M,2.17,M,FEW,M,M,M,10000.00,M,M,M,HZ,M,M,M,M,M,M,80.81,VIDP 201700Z 15003KT 3500 HZ FEW100 27/14 Q1005 NOSIG,M
VIDP,2022-03-20 17:30,80.60,59.00,47.79,0.00,0.00,0.00,29.68,M,2.17,M,FEW,M,M,M,10000.00,M,M,M,HZ,M,M,M,M,M,M,81.11,VIDP 201730Z 00000KT 3500 HZ FEW100 27/15 Q1005 NOSIG,M
VIDP,2022-03-20 18:00,80.60,59.00,47.79,0.00,0.00,0.00,29.68,M,2.17,M,FEW,M,M,M,10000.00,M,M,M,HZ,M,M,M,M,M,M,81.11,VIDP 201800Z 00000KT 3500 HZ FEW100 27/15 Q1005 NOSIG,M
VIDP,2022-03-20 18:30,78.80,57.20,47.52,0.00,0.00,0.00,29.68,M,2.17,M,FEW,M,M,M,10000.00,M,M,M,HZ,M,M,M,M,M,M,78.80,VIDP 201830Z 00000KT 3500 HZ FEW100 26/14 Q1005 NOSIG,M
VIDP,2022-03-20 19:00,78.80,57.20,47.52,0.00,0.00,0.00,29.68,M,2.17,M,FEW,M,M,M,10000.00,M,M,M,HZ,M,M,M,M,M,M,78.80,VIDP 201900Z 00000KT 3500 HZ FEW100 26/14 Q1005 NOSIG,M
VIDP,2022-03-20 19:30,78.80,59.00,50.69,0.00,0.00,0.00,29.68,M,1.86,M,FEW,M,M,M,10000.00,M,M,M,HZ,M,M,M,M,M,M,78.80,VIDP 201930Z 00000KT 3000 HZ FEW100 26/15 Q1005 NOSIG,M
VIDP,2022-03-20 20:00,78.80,59.00,50.69,0.00,0.00,0.00,29.68,M,1.86,M,FEW,M,M,M,10000.00,M,M,M,HZ,M,M,M,M,M,M,78.80,VIDP 202000Z 00000KT 3000 HZ FEW100 26/15 Q1005 NOSIG,M
VIDP,2022-03-20 20:30,78.80,60.80,54.05,0.00,0.00,0.00,29.68,M,1.86,M,FEW,M,M,M,10000.00,M,M,M,HZ,M,M,M,M,M,M,78.80,VIDP 202030Z 00000KT 3000 HZ FEW100 26/16 Q1005 NOSIG,M
VIDP,2022-03-20 21:00,78.80,60.80,54.05,0.00,0.00,0.00,29.68,M,1.86,M,FEW,M,M,M,10000.00,M,M,M,HZ,M,M,M,M,M,M,78.80,VIDP 202100Z 00000KT 3000 HZ FEW100 26/16 Q1005 NOSIG,M
VIDP,2022-03-20 21:30,78.80,60.80,54.05,0.00,0.00,0.00,29.68,M,1.86,M,FEW,M,M,M,10000.00,M,M,M,HZ,M,M,M,M,M,M,78.80,VIDP 202130Z 00000KT 3000 HZ FEW100 26/16 Q1005 NOSIG,M
VIDP,2022-03-20 22:00,75.20,62.60,64.91,M,2.00,0.00,29.68,M,1.86,M,FEW,M,M,M,10000.00,M,M,M,HZ,M,M,M,M,M,M,75.20,VIDP 202200Z VRB02KT 3000 HZ FEW100 24/17 Q1005 NOSIG,M
VIDP,2022-03-20 22:30,75.20,62.60,64.91,0.00,0.00,0.00,29.68,M,1.86,M,FEW,M,M,M,10000.00,M,M,M,HZ,M,M,M,M,M,M,75.20,VIDP 202230Z 00000KT 3000 HZ FEW100 24/17 Q1005 NOSIG,M
VIDP,2022-03-20 23:00,75.20,64.40,69.14,M,2.00,0.00,29.68,M,1.86,M,FEW,M,M,M,10000.00,M,M,M,HZ,M,M,M,M,M,M,75.20,VIDP 202300Z VRB02KT 3000 HZ FEW100 24/18 Q1005 NOSIG,M
VIDP,2022-03-20 23:30,75.20,64.40,69.14,M,2.00,0.00,29.68,M,1.86,M,FEW,M,M,M,10000.00,M,M,M,HZ,M,M,M,M,M,M,75.20,VIDP 202330Z VRB02KT 3000 HZ FEW100 24/18 Q1005 NOSIG,M
VIDP,2022-03-21 00:00,75.20,66.20,73.61,M,2.00,0.00,29.68,M,1.55,M,FEW,M,M,M,10000.00,M,M,M,HZ,M,M,M,M,M,M,75.20,VIDP 210000Z VRB02KT 2500 HZ FEW100 24/19 Q1005 NOSIG,M
VIDP,2022-03-21 00:30,73.40,66.20,78.19,M,2.00,0.00,29.71,M,1.55,M,FEW,M,M,M,10000.00,M,M,M,BR,M,M,M,M,M,M,73.40,VIDP 210030Z VRB02KT 2500 BR FEW100 23/19 Q1006 NOSIG,M
VIDP,2022-03-21 01:00,73.40,68.00,83.21,M,2.00,0.00,29.71,M,1.30,M,FEW,M,M,M,10000.00,M,M,M,BR,M,M,M,M,M,M,73.40,VIDP 210100Z VRB02KT 2100 BR FEW100 23/20 Q1006 NOSIG,M
VIDP,2022-03-21 01:30,73.40,68.00,83.21,M,2.00,0.00,29.74,M,1.12,M,FEW,M,M,M,10000.00,M,M,M,BR,M,M,M,M,M,M,73.40,VIDP 210130Z VRB02KT 1800 R28/2000 R29/2000 BR FEW100 23/20 Q1007 NOSIG,M
VIDP,2022-03-21 02:00,73.40,68.00,83.21,240.00,3.00,0.00,29.74,M,0.99,M,FEW,M,M,M,10000.00,M,M,M,BR,M,M,M,M,M,M,73.40,VIDP 210200Z 24003KT 1600 R28/2000 R29/2000 BR FEW100 23/20 Q1007 BECMG 1500 BR,M
VIDP,2022-03-21 02:30,75.20,68.00,78.34,250.00,5.00,0.00,29.74,M,0.99,M,FEW,M,M,M,10000.00,M,M,M,BR,M,M,M,M,M,M,75.20,VIDP 210230Z 25005KT 1600 R28/2000 R29/2000 BR FEW100 24/20 Q1007 BECMG 1500 BR,M
VIDP,2022-03-21 03:00,77.00,68.00,73.78,250.00,4.00,0.00,29.77,M,1.12,M,FEW,M,M,M,10000.00,M,M,M,HZ,M,M,M,M,M,M,77.00,VIDP 210300Z 25004KT 1800 R28/2000 R29/2000 HZ FEW100 25/20 Q1008 NOSIG,M
VIDP,2022-03-21 03:30,78.80,69.80,73.95,260.00,5.00,0.00,29.80,M,1.12,M,FEW,M,M,M,10000.00,M,M,M,FU,M,M,M,M,M,M,78.80,VIDP 210330Z 26005KT 1800 R28/2000 R29/2000 FU FEW100 26/21 Q1009 NOSIG,M
VIDP,2022-03-21 04:00,80.60,68.00,65.54,260.00,6.00,0.00,29.80,M,1.12,M,FEW,M,M,M,10000.00,M,M,M,FU,M,M,M,M,M,M,83.29,VIDP 210400Z 26006KT 1800 R28/2000 R29/2000 FU FEW100 27/20 Q1009 NOSIG,M
VIDP,2022-03-21 04:30,82.40,69.80,65.74,250.00,4.00,0.00,29.80,M,1.12,M,FEW,M,M,M,10000.00,M,M,M,FU,M,M,M,M,M,M,86.22,VIDP 210430Z 25004KT 1800 R28/2000 R29/2000 FU FEW100 28/21 Q1009 NOSIG,M
VIDP,2022-03-21 05:00,86.00,69.80,58.55,250.00,3.00,0.00,29.80,M,1.12,M,FEW,M,M,M,10000.00,M,M,M,FU,M,M,M,M,M,M,90.58,VIDP 210500Z 25003KT 1800 R28/2000 R29/2000 FU FEW100 30/21 Q1009 NOSIG,M
VIDP,2022-03-21 05:30,89.60,66.20,46.14,200.00,2.00,0.00,29.80,M,1.12,M,NSC,M,M,M,M,M,M,M,FU,M,M,M,M,M,M,92.27,VIDP 210530Z 20002KT 1800 R28/2000 R29/2000 FU NSC 32/19 Q1009 NOSIG,M
VIDP,2022-03-21 06:00,89.60,68.00,49.10,280.00,5.00,0.00,29.80,M,1.12,M,NSC,M,M,M,M,M,M,M,FU,M,M,M,M,M,M,93.47,VIDP 210600Z 28005KT 1800 R28/2000 R29/2000 FU NSC 32/20 Q1009 NOSIG,M
VIDP,2022-03-21 06:30,91.40,66.20,43.61,320.00,5.00,0.00,29.80,M,1.12,M,NSC,M,M,M,M,M,M,M,FU,M,M,M,M,M,M,94.29,VIDP 210630Z 32005KT 1800 R29/2000 FU NSC 33/19 Q1009 NOSIG,M
VIDP,2022-03-21 07:00,93.20,62.60,36.35,290.00,7.00,0.00,29.80,M,1.24,M,NSC,M,M,M,M,M,M,M,HZ,M,M,M,M,M,M,94.20,VIDP 210700Z 29007KT 2000 R29/2000 HZ NSC 34/17 Q1009 NOSIG,M
VIDP,2022-03-21 07:30,93.20,60.80,34.11,310.00,10.00,0.00,29.77,M,1.37,M,NSC,M,M,M,M,M,M,M,HZ,M,M,M,M,M,M,93.32,VIDP 210730Z 31010KT 2200 HZ NSC 34/16 Q1008 NOSIG,M
VIDP,2022-03-21 08:00,95.00,60.80,32.27,330.00,10.00,0.00,29.77,M,1.37,M,NSC,M,M,M,M,M,M,M,HZ,M,M,M,M,M,M,95.30,VIDP 210800Z 33010KT 2200 HZ NSC 35/16 Q1008 NOSIG,M
VIDP,2022-03-21 08:30,96.80,57.20,26.84,300.00,8.00,0.00,29.74,M,1.74,M,NSC,M,M,M,M,M,M,M,HZ,M,M,M,M,M,M,95.77,VIDP 210830Z 30008KT 2800 HZ NSC 36/14 Q1007 BECMG 3000 HZ,M
VIDP,2022-03-21 09:00,96.80,57.20,26.84,300.00,8.00,0.00,29.74,M,1.86,M,NSC,M,M,M,M,M,M,M,HZ,M,M,M,M,M,M,95.77,VIDP 210900Z 30008KT 3000 HZ NSC 36/14 Q1007 NOSIG,M
VIDP,2022-03-21 09:30,96.80,55.40,25.15,290.00,10.00,0.00,29.74,M,2.49,M,NSC,M,M,M,M,M,M,M,HZ,M,M,M,M,M,M,95.14,VIDP 210930Z 29010KT 4000 HZ NSC 36/13 Q1007 NOSIG,M
VIDP,2022-03-21 10:00,96.80,55.40,25.15,300.00,10.00,0.00,29.71,M,2.49,M,FEW,M,M,M,10000.00,M,M,M,HZ,M,M,M,M,M,M,95.14,VIDP 211000Z 30010KT 4000 HZ FEW100 36/13 Q1006 NOSIG,M
VIDP,2022-03-21 10:30,95.00,53.60,24.89,310.00,10.00,0.00,29.71,M,2.49,M,FEW,M,M,M,10000.00,M,M,M,HZ,M,M,M,M,M,M,92.71,VIDP 211030Z 31010KT 4000 HZ FEW100 35/12 Q1006 NOSIG,M
VIDP,2022-03-21 11:00,95.00,51.80,23.30,300.00,9.00,0.00,29.71,M,2.49,M,FEW,M,M,M,10000.00,M,M,M,HZ,M,M,M,M,M,M,92.26,VIDP 211100Z 30009KT 4000 HZ FEW100 35/11 Q1006 NOSIG,M
VIDP,2022-03-21 11:30,93.20,53.60,26.31,300.00,8.00,0.00,29.71,M,2.49,M,NSC,M,M,M,M,M,M,M,HZ,M,M,M,M,M,M,90.86,VIDP 211130Z 30008KT 4000 HZ NSC 34/12 Q1006 NOSIG,M
VIDP,2022-03-21 12:00,91.40,53.60,27.83,290.00,8.00,0.00,29.71,M,2.49,M,NSC,M,M,M,M,M,M,M,HZ,M,M,M,M,M,M,89.08,VIDP 211200Z 29008KT 4000 HZ NSC 33/12 Q1006 NOSIG,M
VIDP,2022-03-21 12:30,91.40,53.60,27.83,300.00,6.00,0.00,29.71,M,2.49,M,NSC,M,M,M,M,M,M,M,HZ,M,M,M,M,M,M,89.08,VIDP 211230Z 30006KT 4000 HZ NSC 33/12 Q1006 NOSIG,M
VIDP,2022-03-21 13:00,89.60,55.40,31.45,310.00,6.00,0.00,29.71,M,2.17,M,NSC,M,M,M,M,M,M,M,HZ,M,M,M,M,M,M,87.78,VIDP 211300Z 31006KT 3500 HZ NSC 32/13 Q1006 NOSIG,M
VIDP,2022-03-21 13:30,87.80,57.20,35.53,300.00,6.00,0.00,29.74,M,2.17,M,NSC,M,M,M,M,M,M,M,HZ,M,M,M,M,M,M,86.58,VIDP 211330Z 30006KT 3500 HZ NSC 31/14 Q1007 NOSIG,M
VIDP,2022-03-21 14:00,87.80,60.80,40.41,310.00,6.00,0.00,29.74,M,2.17,M,NSC,M,M,M,M,M,M,M,HZ,M,M,M,M,M,M,87.75,VIDP 211400Z 31006KT 3500 HZ NSC 31/16 Q1007 NOSIG,M
VIDP,2022-03-21 14:30,86.00,62.60,45.61,310.00,5.00,0.00,29.74,M,2.17,M,NSC,M,M,M,M,M,M,M,HZ,M,M,M,M,M,M,86.72,VIDP 211430Z 31005KT 3500 HZ NSC 30/17 Q1007 NOSIG,M
VIDP,2022-03-21 15:00,86.00,64.40,48.58,320.00,5.00,0.00,29.77,M,2.17,M,NSC,M,M,M,M,M,M,M,HZ,M,M,M,M,M,M,87.49,VIDP 211500Z 32005KT 3500 HZ NSC 30/18 Q1008 NOSIG,M
VIDP,2022-03-21 15:30,84.20,64.40,51.47,310.00,5.00,0.00,29.77,M,2.17,M,NSC,M,M,M,M,M,M,M,HZ,M,M,M,M,M,M,85.71,VIDP 211530Z 31005KT 3500 HZ NSC 29/18 Q1008 NOSIG,M
VIDP,2022-03-21 16:00,84.20,64.40,51.47,320.00,8.00,0.00,29.77,M,2.17,M,NSC,M,M,M,M,M,M,M,HZ,M,M,M,M,M,M,85.71,VIDP 211600Z 32008KT 3500 HZ NSC 29/18 Q1008 NOSIG,M
VIDP,2022-03-21 16:30,84.20,66.20,54.80,310.00,7.00,0.00,29.77,M,2.17,M,NSC,M,M,M,M,M,M,M,HZ,M,M,M,M,M,M,86.50,VIDP 211630Z 31007KT 3500 HZ NSC 29/19 Q1008 NOSIG,M
VIDP,2022-03-21 17:00,84.20,68.00,58.32,330.00,6.00,0.00,29.77,M,2.17,M,NSC,M,M,M,M,M,M,M,HZ,M,M,M,M,M,M,87.40,VIDP 211700Z 33006KT 3500 HZ NSC 29/20 Q1008 NOSIG,M
VIDP,2022-03-21 17:30,82.40,68.00,61.81,300.00,7.00,0.00,29.77,M,2.17,M,NSC,M,M,M,M,M,M,M,HZ,M,M,M,M,M,M,85.38,VIDP 211730Z 30007KT 3500 HZ NSC 28/20 Q1008 NOSIG,M
VIDP,2022-03-21 18:00,80.60,69.80,69.71,310.00,5.00,0.00,29.77,M,2.17,M,NSC,M,M,M,M,M,M,M,HZ,M,M,M,M,M,M,83.90,VIDP 211800Z 31005KT 3500 HZ NSC 27/21 Q1008 NOSIG,M
VIDP,2022-03-21 18:30,80.60,69.80,69.71,310.00,7.00,0.00,29.77,M,2.17,M,NSC,M,M,M,M,M,M,M,HZ,M,M,M,M,M,M,83.90,VIDP 211830Z 31007KT 3500 HZ NSC 27/21 Q1008 NOSIG,M
VIDP,2022-03-21 19:00,80.60,69.80,69.71,300.00,7.00,0.00,29.77,M,2.17,M,NSC,M,M,M,M,M,M,M,HZ,M,M,M,M,M,M,83.90,VIDP 211900Z 30007KT 3500 HZ NSC 27/21 Q1008 NOSIG,M
VIDP,2022-03-21 19:30,80.60,71.60,74.11,310.00,7.00,0.00,29.77,M,2.17,M,NSC,M,M,M,M,M,M,M,HZ,M,M,M,M,M,M,84.57,VIDP 211930Z 31007KT 3500 HZ NSC 27/22 Q1008 NOSIG,M
VIDP,2022-03-21 20:00,80.60,71.60,74.11,310.00,7.00,0.00,29.77,M,2.17,M,NSC,M,M,M,M,M,M,M,HZ,M,M,M,M,M,M,84.57,VIDP 212000Z 31007KT 3500 HZ NSC 27/22 Q1008 NOSIG,M
VIDP,2022-03-21 20:30,80.60,71.60,74.11,270.00,6.00,0.00,29.74,M,2.17,M,NSC,M,M,M,M,M,M,M,HZ,M,M,M,M,M,M,84.57,VIDP 212030Z 27006KT 3500 HZ NSC 27/22 Q1007 NOSIG,M
VIDP,2022-03-21 21:00,80.60,71.60,74.11,300.00,4.00,0.00,29.74,M,2.17,M,NSC,M,M,M,M,M,M,M,HZ,M,M,M,M,M,M,84.57,VIDP 212100Z 30004KT 3500 HZ NSC 27/22 Q1007 NOSIG,M
VIDP,2022-03-21 21:30,78.80,69.80,73.95,320.00,5.00,0.00,29.74,M,2.17,M,NSC,M,M,M,M,M,M,M,HZ,M,M,M,M,M,M,78.80,VIDP 212130Z 32005KT 3500 HZ NSC 26/21 Q1007 NOSIG,M
VIDP,2022-03-21 22:00,78.80,69.80,73.95,310.00,5.00,0.00,29.74,M,2.17,M,NSC,M,M,M,M,M,M,M,HZ,M,M,M,M,M,M,78.80,VIDP 212200Z 31005KT 3500 HZ NSC 26/21 Q1007 NOSIG,M
VIDP,2022-03-21 22:30,78.80,69.80,73.95,300.00,4.00,0.00,29.74,M,2.17,M,NSC,M,M,M,M,M,M,M,HZ,M,M,M,M,M,M,78.80,VIDP 212230Z 30004KT 3500 HZ NSC 26/21 Q1007 NOSIG,M
VIDP,2022-03-21 23:00,77.00,68.00,73.78,310.00,5.00,0.00,29.74,M,2.17,M,NSC,M,M,M,M,M,M,M,HZ,M,M,M,M,M,M,77.00,VIDP 212300Z 31005KT 3500 HZ NSC 25/20 Q1007 NOSIG,M
VIDP,2022-03-21 23:30,75.20,66.20,73.61,290.00,4.00,0.00,29.74,M,1.99,M,NSC,M,M,M,M,M,M,M,HZ,M,M,M,M,M,M,75.20,VIDP 212330Z 29004KT 3200 HZ NSC 24/19 Q1007 BECMG 3000 HZ,M
VIDP,2022-03-22 00:00,73.40,64.40,73.44,250.00,4.00,0.00,29.74,M,1.86,M,NSC,M,M,M,M,M,M,M,HZ,M,M,M,M,M,M,73.40,VIDP 220000Z 25004KT 3000 HZ NSC 23/18 Q1007 NOSIG,M
VIDP,2022-03-22 00:30,73.40,64.40,73.44,240.00,4.00,0.00,29.74,M,1.86,M,NSC,M,M,M,M,M,M,M,HZ,M,M,M,M,M,M,73.40,VIDP 220030Z 24004KT 3000 HZ NSC 23/18 Q1007 NOSIG,M
VIDP,2022-03-22 01:00,71.60,64.40,78.04,250.00,4.00,0.00,29.74,M,1.55,M,NSC,M,M,M,M,M,M,M,BR,M,M,M,M,M,M,71.60,VIDP 220100Z 25004KT 2500 BR NSC 22/18 Q1007 NOSIG,M
VIDP,2022-03-22 01:30,71.60,64.40,78.04,240.00,4.00,0.00,29.77,M,1.12,M,NSC,M,M,M,M,M,M,M,BR,M,M,M,M,M,M,71.60,VIDP 220130Z 24004KT 1800 R28/P2000 R29/P2000 BR NSC 22/18 Q1008 NOSIG,M
VIDP,2022-03-22 02:00,71.60,64.40,78.04,240.00,4.00,0.00,29.77,M,1.37,M,NSC,M,M,M,M,M,M,M,BR,M,M,M,M,M,M,71.60,VIDP 220200Z 24004KT 2200 BR NSC 22/18 Q1008 NOSIG,M
VIDP,2022-03-22 02:30,71.60,64.40,78.04,250.00,4.00,0.00,29.80,M,1.37,M,NSC,M,M,M,M,M,M,M,BR,M,M,M,M,M,M,71.60,VIDP 220230Z 25004KT 2200 BR NSC 22/18 Q1009 NOSIG,M
VIDP,2022-03-22 03:00,73.40,64.40,73.44,250.00,4.00,0.00,29.80,M,1.55,M,NSC,M,M,M,M,M,M,M,HZ,M,M,M,M,M,M,73.40,VIDP 220300Z 25004KT 2500 HZ NSC 23/18 Q1009 NOSIG,M
VIDP,2022-03-22 03:30,77.00,64.40,65.12,260.00,6.00,0.00,29.80,M,1.55,M,NSC,M,M,M,M,M,M,M,HZ,M,M,M,M,M,M,77.00,VIDP 220330Z 26006KT 2500 HZ NSC 25/18 Q1009 NOSIG,M
VIDP,2022-03-22 04:00,82.40,64.40,54.55,250.00,8.00,0.00,29.83,M,1.86,M,NSC,M,M,M,M,M,M,M,HZ,M,M,M,M,M,M,83.98,VIDP 220400Z 25008KT 3000 HZ NSC 28/18 Q1010 NOSIG,M
VIDP,2022-03-22 04:30,82.40,64.40,54.55,250.00,8.00,0.00,29.83,M,1.86,M,NSC,M,M,M,M,M,M,M,HZ,M,M,M,M,M,M,83.98,VIDP 220430Z 25008KT 3000 HZ NSC 28/18 Q1010 NOSIG,M
VIDP,2022-03-22 05:00,82.40,64.40,54.55,240.00,7.00,0.00,29.83,M,1.86,M,NSC,M,M,M,M,M,M,M,HZ,M,M,M,M,M,M,83.98,VIDP 220500Z 24007KT 3000 HZ NSC 28/18 Q1010 NOSIG,M
VIDP,2022-03-22 05:30,86.00,60.80,42.80,270.00,8.00,0.00,29.83,M,1.86,M,NSC,M,M,M,M,M,M,M,HZ,M,M,M,M,M,M,86.05,VIDP 220530Z 27008KT 3000 HZ NSC 30/16 Q1010 NOSIG,M
VIDP,2022-03-22 06:00,87.80,55.40,33.29,290.00,10.00,0.00,29.83,M,1.86,M,NSC,M,M,M,M,M,M,M,HZ,M,M,M,M,M,M,86.11,VIDP 220600Z 29010KT 3000 HZ NSC 31/13 Q1010 NOSIG,M
VIDP,2022-03-22 06:30,89.60,53.60,29.45,290.00,8.00,0.00,29.80,M,1.99,18.00,NSC,M,M,M,M,M,M,M,HZ,M,M,M,M,M,M,87.36,VIDP 220630Z 29008G18KT 3200 HZ NSC 32/12 Q1009 TEMPO 29010G20KT,M
VIDP,2022-03-22 07:00,91.40,53.60,27.83,290.00,14.00,0.00,29.80,M,1.99,M,NSC,M,M,M,M,M,M,M,HZ,M,M,M,M,M,M,89.08,VIDP 220700Z 29014KT 3200 HZ NSC 33/12 Q1009 TEMPO 29010G20KT,M
VIDP,2022-03-22 07:30,91.40,51.80,26.05,290.00,10.00,0.00,29.80,M,2.17,20.00,NSC,M,M,M,M,M,M,M,HZ,M,M,M,M,M,M,88.69,VIDP 220730Z 29010G20KT 3500 HZ NSC 33/11 Q1009 TEMPO 29010G20KT,M
VIDP,2022-03-22 08:00,93.20,50.00,23.04,290.00,10.00,0.00,29.77,M,2.17,20.00,NSC,M,M,M,M,M,M,M,HZ,M,M,M,M,M,M,90.10,VIDP 220800Z 29010G20KT 3500 HZ NSC 34/10 Q1008 TEMPO 29010G20KT,M
VIDP,2022-03-22 08:30,93.20,48.20,21.54,290.00,10.00,0.00,29.77,M,2.17,20.00,NSC,M,M,M,M,M,M,M,HZ,M,M,M,M,M,M,89.80,VIDP 220830Z 29010G20KT 3500 HZ NSC 34/09 Q1008 NOSIG,M
VIDP,2022-03-22 09:00,93.20,48.20,21.54,290.00,10.00,0.00,29.77,M,2.17,20.00,NSC,M,M,M,M,M,M,M,HZ,M,M,M,M,M,M,89.80,VIDP 220900Z 29010G20KT 3500 HZ NSC 34/09 Q1008 TEMPO 29010G20KT,M
VIDP,2022-03-22 09:30,93.20,48.20,21.54,280.00,7.00,0.00,29.74,M,2.17,17.00,NSC,M,M,M,M,M,M,M,HZ,M,M,M,M,M,M,89.80,VIDP 220930Z 28007G17KT 3500 HZ NSC 34/09 Q1007 NOSIG,M
VIDP,2022-03-22 10:00,93.20,48.20,21.54,280.00,10.00,0.00,29.74,M,2.17,20.00,NSC,M,M,M,M,M,M,M,HZ,M,M,M,M,M,M,89.80,VIDP 221000Z 28010G20KT 3500 HZ NSC 34/09 Q1007 TEMPO 29010G20KT,M
VIDP,2022-03-22 10:30,93.20,48.20,21.54,280.00,7.00,0.00,29.74,M,2.49,17.00,NSC,M,M,M,M,M,M,M,HZ,M,M,M,M,M,M,89.80,VIDP 221030Z 28007G17KT 4000 HZ NSC 34/09 Q1007 TEMPO 29010G20KT,M
VIDP,2022-03-22 11:00,93.20,50.00,23.04,270.00,10.00,0.00,29.74,M,2.49,20.00,NSC,M,M,M,M,M,M,M,HZ,M,M,M,M,M,M,90.10,VIDP 221100Z 27010G20KT 4000 HZ NSC 34/10 Q1007 TEMPO 30015G25KT,M
VIDP,2022-03-22 11:30,87.80,50.00,27.29,270.00,10.00,0.00,29.74,M,2.49,20.00,NSC,M,M,M,M,M,M,M,HZ,M,M,M,M,M,M,85.11,VIDP 221130Z 27010G20KT 4000 HZ NSC 31/10 Q1007 TEMPO 30015G25KT,M
VIDP,2022-03-22 12:00,91.40,51.80,26.05,300.00,10.00,0.00,29.74,M,2.49,20.00,NSC,M,M,M,M,M,M,M,HZ,M,M,M,M,M,M,88.69,VIDP 221200Z 30010G20KT 4000 HZ NSC 33/11 Q1007 TEMPO 30015G25KT,M
VIDP,2022-03-22 12:30,89.60,51.80,27.56,300.00,9.00,0.00,29.74,M,2.49,M,NSC,M,M,M,M,M,M,M,HZ,M,M,M,M,M,M,87.00,VIDP 221230Z 30009KT 4000 HZ NSC 32/11 Q1007 NOSIG,M
VIDP,2022-03-22 13:00,87.80,51.80,29.18,300.00,8.00,0.00,29.74,M,2.49,M,NSC,M,M,M,M,M,M,M,HZ,M,M,M,M,M,M,85.39,VIDP 221300Z 30008KT 4000 HZ NSC 31/11 Q1007 NOSIG,M
VIDP,2022-03-22 13:30,87.80,53.60,31.17,300.00,8.00,0.00,29.74,M,2.49,M,NSC,M,M,M,M,M,M,M,HZ,M,M,M,M,M,M,85.72,VIDP 221330Z 30008KT 4000 HZ NSC 31/12 Q1007 NOSIG,M
VIDP,2022-03-22 14:00,86.00,55.40,35.25,290.00,6.00,0.00,29.74,M,2.49,M,NSC,M,M,M,M,M,M,M,HZ,M,M,M,M,M,M,84.54,VIDP 221400Z 29006KT 4000 HZ NSC 30/13 Q1007 NOSIG,M
VIDP,2022-03-22 14:30,86.00,57.20,37.62,300.00,7.00,0.00,29.77,M,2.49,M,NSC,M,M,M,M,M,M,M,HZ,M,M,M,M,M,M,84.97,VIDP 221430Z 30007KT 4000 HZ NSC 30/14 Q1008 NOSIG,M
VIDP,2022-03-22 15:00,86.00,57.20,37.62,300.00,7.00,0.00,29.77,M,2.49,M,NSC,M,M,M,M,M,M,M,HZ,M,M,M,M,M,M,84.97,VIDP 221500Z 30007KT 4000 HZ NSC 30/14 Q1008 NOSIG,M
VIDP,2022-03-22 15:30,84.20,57.20,39.86,310.00,7.00,0.00,29.77,M,2.49,M,NSC,M,M,M,M,M,M,M,HZ,M,M,M,M,M,M,83.47,VIDP 221530Z 31007KT 4000 HZ NSC 29/14 Q1008 NOSIG,M
VIDP,2022-03-22 16:00,82.40,57.20,42.25,330.00,8.00,0.00,29.77,M,2.49,M,NSC,M,M,M,M,M,M,M,HZ,M,M,M,M,M,M,82.08,VIDP 221600Z 33008KT 4000 HZ NSC 28/14 Q1008 NOSIG,M
VIDP,2022-03-22 16:30,82.40,57.20,42.25,330.00,7.00,0.00,29.77,M,2.49,M,NSC,M,M,M,M,M,M,M,HZ,M,M,M,M,M,M,82.08,VIDP 221630Z 33007KT 4000 HZ NSC 28/14 Q1008 NOSIG,M
VIDP,2022-03-22 17:00,82.40,57.20,42.25,320.00,7.00,0.00,29.77,M,2.17,M,NSC,M,M,M,M,M,M,M,HZ,M,M,M,M,M,M,82.08,VIDP 221700Z 32007KT 3500 HZ NSC 28/14 Q1008 NOSIG,M
VIDP,2022-03-22 17:30,82.40,60.80,48.05,330.00,6.00,0.00,29.77,M,2.17,M,NSC,M,M,M,M,M,M,M,HZ,M,M,M,M,M,M,82.90,VIDP 221730Z 33006KT 3500 HZ NSC 28/16 Q1008 NOSIG,M
VIDP,2022-03-22 18:00,80.60,62.60,54.30,320.00,6.00,0.00,29.77,M,2.17,M,NSC,M,M,M,M,M,M,M,HZ,M,M,M,M,M,M,81.84,VIDP 221800Z 32006KT 3500 HZ NSC 27/17 Q1008 NOSIG,M
VIDP,2022-03-22 18:30,80.60,62.60,54.30,310.00,6.00,0.00,29.77,M,2.17,M,NSC,M,M,M,M,M,M,M,HZ,M,M,M,M,M,M,81.84,VIDP 221830Z 31006KT 3500 HZ NSC 27/17 Q1008 NOSIG,M
VIDP,2022-03-22 19:00,78.80,62.60,57.60,320.00,3.00,0.00,29.77,M,2.17,M,NSC,M,M,M,M,M,M,M,HZ,M,M,M,M,M,M,78.80,VIDP 221900Z 32003KT 3500 HZ NSC 26/17 Q1008 NOSIG,M
VIDP,2022-03-22 19:30,78.80,62.60,57.60,270.00,3.00,0.00,29.77,M,1.99,M,NSC,M,M,M,M,M,M,M,HZ,M,M,M,M,M,M,78.80,VIDP 221930Z 27003KT 3200 HZ NSC 26/17 Q1008 BECMG 3000 HZ,M
VIDP,2022-03-22 20:00,77.00,64.40,65.12,0.00,0.00,0.00,29.77,M,1.74,M,NSC,M,M,M,M,M,M,M,HZ,M,M,M,M,M,M,77.00,VIDP 222000Z 00000KT 2800 HZ NSC 25/18 Q1008 NOSIG,M
VIDP,2022-03-22 20:30,77.00,64.40,65.12,0.00,0.00,0.00,29.77,M,1.74,M,NSC,M,M,M,M,M,M,M,HZ,M,M,M,M,M,M,77.00,VIDP 222030Z 00000KT 2800 HZ NSC 25/18 Q1008 NOSIG,M
VIDP,2022-03-22 21:00,75.20,66.20,73.61,220.00,4.00,0.00,29.74,M,1.55,M,NSC,M,M,M,M,M,M,M,HZ,M,M,M,M,M,M,75.20,VIDP 222100Z 22004KT 2500 HZ NSC 24/19 Q1007 NOSIG,M
VIDP,2022-03-22 21:30,73.40,64.40,73.44,220.00,3.00,0.00,29.74,M,1.55,M,NSC,M,M,M,M,M,M,M,HZ,M,M,M,M,M,M,73.40,VIDP 222130Z 22003KT 2500 HZ NSC 23/18 Q1007 NOSIG,M
VIDP,2022-03-22 22:00,73.40,64.40,73.44,230.00,4.00,0.00,29.74,M,1.55,M,NSC,M,M,M,M,M,M,M,HZ,M,M,M,M,M,M,73.40,VIDP 222200Z 23004KT 2500 HZ NSC 23/18 Q1007 NOSIG,M
VIDP,2022-03-22 22:30,71.60,66.20,83.09,0.00,0.00,0.00,29.74,M,1.55,M,NSC,M,M,M,M,M,M,M,HZ,M,M,M,M,M,M,71.60,VIDP 222230Z 00000KT 2500 HZ NSC 22/19 Q1007 NOSIG,M
VIDP,2022-03-22 23:00,71.60,66.20,83.09,0.00,0.00,0.00,29.74,M,1.55,M,NSC,M,M,M,M,M,M,M,BR,M,M,M,M,M,M,71.60,VIDP 222300Z 00000KT 2500 BR NSC 22/19 Q1007 NOSIG,M
VIDP,2022-03-22 23:30,71.60,66.20,83.09,250.00,4.00,0.00,29.74,M,1.55,M,NSC,M,M,M,M,M,M,M,BR,M,M,M,M,M,M,71.60,VIDP 222330Z 25004KT 2500 BR NSC 22/19 Q1007 NOSIG,M
VIDP,2022-03-23 00:00,71.60,66.20,83.09,0.00,0.00,0.00,29.74,M,1.55,M,NSC,M,M,M,M,M,M,M,BR,M,M,M,M,M,M,71.60,VIDP 230000Z 00000KT 2500 BR NSC 22/19 Q1007 NOSIG,M
VIDP,2022-03-23 00:30,71.60,64.40,78.04,270.00,4.00,0.00,29.77,M,1.55,M,NSC,M,M,M,M,M,M,M,BR,M,M,M,M,M,M,71.60,VIDP 230030Z 27004KT 2500 BR NSC 22/18 Q1008 NOSIG,M
VIDP,2022-03-23 01:00,71.60,64.40,78.04,260.00,5.00,0.00,29.77,M,1.55,M,NSC,M,M,M,M,M,M,M,BR,M,M,M,M,M,M,71.60,VIDP 230100Z 26005KT 2500 BR NSC 22/18 Q1008 NOSIG,M
VIDP,2022-03-23 01:30,71.60,62.60,73.27,0.00,0.00,0.00,29.80,M,1.37,M,NSC,M,M,M,M,M,M,M,FU,M,M,M,M,M,M,71.60,VIDP 230130Z 00000KT 2200 FU NSC 22/17 Q1009 NOSIG,M
VIDP,2022-03-23 02:00,71.60,62.60,73.27,260.00,4.00,0.00,29.80,M,1.37,M,NSC,M,M,M,M,M,M,M,FU,M,M,M,M,M,M,71.60,VIDP 230200Z 26004KT 2200 FU NSC 22/17 Q1009 NOSIG,M
VIDP,2022-03-23 02:30,73.40,64.40,73.44,250.00,2.00,0.00,29.80,M,1.37,M,NSC,M,M,M,M,M,M,M,FU,M,M,M,M,M,M,73.40,VIDP 230230Z 25002KT 2200 FU NSC 23/18 Q1009 NOSIG,M
VIDP,2022-03-23 03:00,75.20,64.40,69.14,240.00,4.00,0.00,29.83,M,1.37,M,NSC,M,M,M,M,M,M,M,FU,M,M,M,M,M,M,75.20,VIDP 230300Z 24004KT 2200 FU NSC 24/18 Q1010 NOSIG,M
VIDP,2022-03-23 03:30,77.00,64.40,65.12,270.00,4.00,0.00,29.83,M,1.37,M,NSC,M,M,M,M,M,M,M,FU,M,M,M,M,M,M,77.00,VIDP 230330Z 27004KT 2200 FU NSC 25/18 Q1010 NOSIG,M
VIDP,2022-03-23 04:00,80.60,60.80,50.95,260.00,5.00,0.00,29.83,M,1.55,M,NSC,M,M,M,M,M,M,M,FU,M,M,M,M,M,M,81.46,VIDP 230400Z 26005KT 2500 FU NSC 27/16 Q1010 NOSIG,M
VIDP,2022-03-23 04:30,82.40,60.80,48.05,250.00,6.00,0.00,29.83,M,1.55,M,NSC,M,M,M,M,M,M,M,FU,M,M,M,M,M,M,82.90,VIDP 230430Z 25006KT 2500 FU NSC 28/16 Q1010 NOSIG,M
VIDP,2022-03-23 05:00,82.40,60.80,48.05,250.00,5.00,0.00,29.83,M,1.55,M,NSC,M,M,M,M,M,M,M,FU,M,M,M,M,M,M,82.90,VIDP 230500Z 25005KT 2500 FU NSC 28/16 Q1010 NOSIG,M
VIDP,2022-03-23 05:30,84.20,62.60,48.32,270.00,4.00,0.00,29.83,M,1.55,M,NSC,M,M,M,M,M,M,M,FU,M,M,M,M,M,M,85.03,VIDP 230530Z 27004KT 2500 FU NSC 29/17 Q1010 NOSIG,M
VIDP,2022-03-23 06:00,87.80,64.40,45.88,270.00,5.00,0.00,29.83,M,1.55,M,NSC,M,M,M,M,M,M,M,FU,M,M,M,M,M,M,89.33,VIDP 230600Z 27005KT 2500 FU NSC 31/18 Q1010 BECMG 3000 HZ,M
VIDP,2022-03-23 06:30,89.60,60.80,38.18,280.00,5.00,0.00,29.83,M,1.86,M,NSC,M,M,M,M,M,M,M,HZ,M,M,M,M,M,M,89.54,VIDP 230630Z 28005KT 3000 HZ NSC 32/16 Q1010 NOSIG,M
VIDP,2022-03-23 07:00,91.40,59.00,33.84,290.00,4.00,0.00,29.80,M,1.86,M,NSC,M,M,M,M,M,M,M,HZ,M,M,M,M,M,M,90.68,VIDP 230700Z 29004KT 3000 HZ NSC 33/15 Q1009 NOSIG,M
VIDP,2022-03-23 07:30,91.40,57.20,31.72,300.00,5.00,0.00,29.80,M,1.86,M,NSC,M,M,M,M,M,M,M,HZ,M,M,M,M,M,M,90.06,VIDP 230730Z 30005KT 3000 HZ NSC 33/14 Q1009 NOSIG,M
VIDP,2022-03-23 08:00,91.40,51.80,26.05,310.00,5.00,0.00,29.77,M,1.86,M,NSC,M,M,M,M,M,M,M,HZ,M,M,M,M,M,M,88.69,VIDP 230800Z 31005KT 3000 HZ NSC 33/11 Q1008 NOSIG,M
VIDP,2022-03-23 08:30,93.20,50.00,23.04,280.00,5.00,0.00,29.77,M,2.17,M,FEW,M,M,M,10000.00,M,M,M,HZ,M,M,M,M,M,M,90.10,VIDP 230830Z 28005KT 3500 HZ FEW100 34/10 Q1008 NOSIG,M
VIDP,2022-03-23 09:00,93.20,48.20,21.54,290.00,6.00,0.00,29.74,M,2.17,M,SCT,M,M,M,10000.00,M,M,M,HZ,M,M,M,M,M,M,89.80,VIDP 230900Z 29006KT 3500 HZ SCT100 34/09 Q1007 NOSIG,M
VIDP,2022-03-23 09:30,93.20,48.20,21.54,300.00,5.00,0.00,29.74,M,2.49,M,SCT,M,M,M,10000.00,M,M,M,HZ,M,M,M,M,M,M,89.80,VIDP 230930Z 30005KT 4000 HZ SCT100 34/09 Q1007 NOSIG,M
VIDP,2022-03-23 10:00,95.00,48.20,20.38,320.00,5.00,0.00,29.71,M,2.49,M,FEW,SCT,M,M,4000.00,10000.00,M,M,HZ,M,M,M,M,M,M,91.56,VIDP 231000Z 32005KT 4000 HZ FEW040 SCT100 35/09 Q1006 NOSIG,M
VIDP,2022-03-23 10:30,95.00,48.20,20.38,260.00,5.00,0.00,29.71,M,2.49,M,FEW,SCT,M,M,4000.00,10000.00,M,M,HZ,M,M,M,M,M,M,91.56,VIDP 231030Z 26005KT 4000 HZ FEW040 SCT100 35/09 Q1006 NOSIG,M
VIDP,2022-03-23 11:00,93.20,48.20,21.54,290.00,7.00,0.00,29.71,M,2.49,M,SCT,SCT,M,M,4000.00,10000.00,M,M,HZ,M,M,M,M,M,M,89.80,VIDP 231100Z 29007KT 4000 HZ SCT040 SCT100 34/09 Q1006 NOSIG,M
VIDP,2022-03-23 11:30,93.20,48.20,21.54,300.00,5.00,0.00,29.71,M,2.49,M,SCT,SCT,M,M,4000.00,10000.00,M,M,HZ,M,M,M,M,M,M,89.80,VIDP 231130Z 30005KT 4000 HZ SCT040 SCT100 34/09 Q1006 NOSIG,M
VIDP,2022-03-23 12:00,91.40,50.00,24.37,290.00,5.00,0.00,29.71,M,2.49,M,SCT,SCT,M,M,4000.00,10000.00,M,M,HZ,M,M,M,M,M,M,88.36,VIDP 231200Z 29005KT 4000 HZ SCT040 SCT100 33/10 Q1006 NOSIG,M
VIDP,2022-03-23 12:30,89.60,51.80,27.56,300.00,5.00,0.00,29.71,M,2.49,M,FEW,SCT,M,M,4000.00,10000.00,M,M,HZ,M,M,M,M,M,M,87.00,VIDP 231230Z 30005KT 4000 HZ FEW040 SCT100 32/11 Q1006 NOSIG,M
VIDP,2022-03-23 13:00,89.60,51.80,27.56,300.00,3.00,0.00,29.71,M,2.49,M,FEW,SCT,M,M,4000.00,10000.00,M,M,HZ,M,M,M,M,M,M,87.00,VIDP 231300Z 30003KT 4000 HZ FEW040 SCT100 32/11 Q1006 NOSIG,M
VIDP,2022-03-23 13:30,87.80,51.80,29.18,260.00,4.00,0.00,29.71,M,2.49,M,FEW,SCT,M,M,4000.00,10000.00,M,M,HZ,M,M,M,M,M,M,85.39,VIDP 231330Z 26004KT 4000 HZ FEW040 SCT100 31/11 Q1006 NOSIG,M
VIDP,2022-03-23 14:00,87.80,53.60,31.17,0.00,0.00,0.00,29.71,M,2.49,M,FEW,SCT,M,M,4000.00,10000.00,M,M,HZ,M,M,M,M,M,M,85.72,VIDP 231400Z 00000KT 4000 HZ FEW040 SCT100 31/12 Q1006 NOSIG,M
VIDP,2022-03-23 14:30,84.20,55.40,37.35,0.00,0.00,0.00,29.71,M,2.49,M,FEW,SCT,M,M,4000.00,10000.00,M,M,HZ,M,M,M,M,M,M,83.09,VIDP 231430Z 00000KT 4000 HZ FEW040 SCT100 29/13 Q1006 NOSIG,M
VIDP,2022-03-23 15:00,82.40,57.20,42.25,0.00,0.00,0.00,29.71,M,2.17,M,FEW,SCT,M,M,4000.00,10000.00,M,M,HZ,M,M,M,M,M,M,82.08,VIDP 231500Z 00000KT 3500 HZ FEW040 SCT100 28/14 Q1006 NOSIG,M
VIDP,2022-03-23 15:30,82.40,55.40,39.58,0.00,0.00,0.00,29.74,M,2.17,M,FEW,SCT,M,M,4000.00,10000.00,M,M,HZ,M,M,M,M,M,M,81.75,VIDP 231530Z 00000KT 3500 HZ FEW040 SCT100 28/13 Q1007 NOSIG,M
VIDP,2022-03-23 16:00,80.60,55.40,41.97,0.00,0.00,0.00,29.74,M,2.17,M,FEW,SCT,M,M,4000.00,10000.00,M,M,HZ,M,M,M,M,M,M,80.53,VIDP 231600Z 00000KT 3500 HZ FEW040 SCT100 27/13 Q1007 NOSIG,M
VIDP,2022-03-23 16:30,78.80,57.20,47.52,0.00,0.00,0.00,29.74,M,2.17,M,FEW,M,M,M,10000.00,M,M,M,HZ,M,M,M,M,M,M,78.80,VIDP 231630Z 00000KT 3500 HZ FEW100 26/14 Q1007 NOSIG,M
VIDP,2022-03-23 17:00,78.80,57.20,47.52,0.00,0.00,0.00,29.74,M,2.17,M,FEW,M,M,M,10000.00,M,M,M,HZ,M,M,M,M,M,M,78.80,VIDP 231700Z 00000KT 3500 HZ FEW100 26/14 Q1007 NOSIG,M
VIDP,2022-03-23 17:30,78.80,57.20,47.52,0.00,0.00,0.00,29.74,M,2.17,M,FEW,M,M,M,10000.00,M,M,M,HZ,M,M,M,M,M,M,78.80,VIDP 231730Z 00000KT 3500 HZ FEW100 26/14 Q1007 NOSIG,M
VIDP,2022-03-23 18:00,78.80,57.20,47.52,0.00,0.00,0.00,29.74,M,2.17,M,FEW,M,M,M,10000.00,M,M,M,HZ,M,M,M,M,M,M,78.80,VIDP 231800Z 00000KT 3500 HZ FEW100 26/14 Q1007 NOSIG,M
VIDP,2022-03-23 18:30,78.80,57.20,47.52,0.00,0.00,0.00,29.74,M,2.17,M,FEW,M,M,M,10000.00,M,M,M,HZ,M,M,M,M,M,M,78.80,VIDP 231830Z 00000KT 3500 HZ FEW100 26/14 Q1007 NOSIG,M
VIDP,2022-03-23 19:00,77.00,57.20,50.43,0.00,0.00,0.00,29.74,M,2.17,M,FEW,M,M,M,10000.00,M,M,M,HZ,M,M,M,M,M,M,77.00,VIDP 231900Z 00000KT 3500 HZ FEW100 25/14 Q1007 NOSIG,M
VIDP,2022-03-23 19:30,75.20,57.20,53.55,0.00,0.00,0.00,29.71,M,2.17,M,FEW,M,M,M,10000.00,M,M,M,HZ,M,M,M,M,M,M,75.20,VIDP 231930Z 00000KT 3500 HZ FEW100 24/14 Q1006 NOSIG,M
VIDP,2022-03-23 20:00,75.20,57.20,53.55,0.00,0.00,0.00,29.71,M,2.17,M,FEW,M,M,M,10000.00,M,M,M,HZ,M,M,M,M,M,M,75.20,VIDP 232000Z 00000KT 3500 HZ FEW100 24/14 Q1006 NOSIG,M
VIDP,2022-03-23 20:30,75.20,57.20,53.55,0.00,0.00,0.00,29.71,M,2.17,M,FEW,M,M,M,10000.00,M,M,M,HZ,M,M,M,M,M,M,75.20,VIDP 232030Z 00000KT 3500 HZ FEW100 24/14 Q1006 NOSIG,M
VIDP,2022-03-23 21:00,75.20,57.20,53.55,0.00,0.00,0.00,29.71,M,2.17,M,FEW,M,M,M,10000.00,M,M,M,HZ,M,M,M,M,M,M,75.20,VIDP 232100Z 00000KT 3500 HZ FEW100 24/14 Q1006 NOSIG,M
VIDP,2022-03-23 21:30,75.20,57.20,53.55,0.00,0.00,0.00,29.68,M,2.17,M,FEW,M,M,M,10000.00,M,M,M,HZ,M,M,M,M,M,M,75.20,VIDP 232130Z 00000KT 3500 HZ FEW100 24/14 Q1005 NOSIG,M
VIDP,2022-03-23 22:00,75.20,57.20,53.55,0.00,0.00,0.00,29.68,M,2.17,M,FEW,M,M,M,10000.00,M,M,M,HZ,M,M,M,M,M,M,75.20,VIDP 232200Z 00000KT 3500 HZ FEW100 24/14 Q1005 NOSIG,M
VIDP,2022-03-23 22:30,75.20,57.20,53.55,0.00,0.00,0.00,29.68,M,2.17,M,FEW,M,M,M,10000.00,M,M,M,HZ,M,M,M,M,M,M,75.20,VIDP 232230Z 00000KT 3500 HZ FEW100 24/14 Q1005 NOSIG,M
VIDP,2022-03-23 23:00,73.40,57.20,56.88,0.00,0.00,0.00,29.68,M,2.17,M,FEW,M,M,M,10000.00,M,M,M,HZ,M,M,M,M,M,M,73.40,VIDP 232300Z 00000KT 3500 HZ FEW100 23/14 Q1005 NOSIG,M
VIDP,2022-03-23 23:30,71.60,57.20,60.44,0.00,0.00,0.00,29.68,M,1.99,M,FEW,M,M,M,10000.00,M,M,M,HZ,M,M,M,M,M,M,71.60,VIDP 232330Z 00000KT 3200 HZ FEW100 22/14 Q1005 BECMG 3000 HZ,M
VIDP,2022-03-24 00:00,71.60,59.00,64.48,0.00,0.00,0.00,29.68,M,1.86,M,NSC,M,M,M,M,M,M,M,HZ,M,M,M,M,M,M,71.60,VIDP 240000Z 00000KT 3000 HZ NSC 22/15 Q1005 NOSIG,M
VIDP,2022-03-24 00:30,71.60,60.80,68.75,0.00,0.00,0.00,29.71,M,1.86,M,NSC,M,M,M,M,M,M,M,HZ,M,M,M,M,M,M,71.60,VIDP 240030Z 00000KT 3000 HZ NSC 22/16 Q1006 NOSIG,M
VIDP,2022-03-24 01:00,69.80,60.80,73.09,0.00,0.00,0.00,29.71,M,1.86,M,NSC,M,M,M,M,M,M,M,HZ,M,M,M,M,M,M,69.80,VIDP 240100Z 00000KT 3000 HZ NSC 21/16 Q1006 NOSIG,M
VIDP,2022-03-24 01:30,73.40,60.80,64.69,0.00,0.00,0.00,29.74,M,1.55,M,NSC,M,M,M,M,M,M,M,HZ,M,M,M,M,M,M,73.40,VIDP 240130Z 00000KT 2500 HZ NSC 23/16 Q1007 NOSIG,M
VIDP,2022-03-24 02:00,75.20,60.80,60.90,230.00,3.00,0.00,29.74,M,1.55,M,NSC,M,M,M,M,M,M,M,HZ,M,M,M,M,M,M,75.20,VIDP 240200Z 23003KT 2500 HZ NSC 24/16 Q1007 NOSIG,M
VIDP,2022-03-24 02:30,77.00,60.80,57.36,0.00,0.00,0.00,29.74,M,1.37,M,NSC,M,M,M,M,M,M,M,HZ,M,M,M,M,M,M,77.00,VIDP 240230Z 00000KT 2200 HZ NSC 25/16 Q1007 NOSIG,M
VIDP,2022-03-24 03:00,78.80,60.80,54.05,0.00,0.00,0.00,29.74,M,1.43,M,NSC,M,M,M,M,M,M,M,HZ,M,M,M,M,M,M,78.80,VIDP 240300Z 00000KT 2300 HZ NSC 26/16 Q1007 NOSIG,M
VIDP,2022-03-24 03:30,80.60,57.20,44.80,250.00,5.00,0.00,29.77,M,1.55,M,NSC,M,M,M,M,M,M,M,HZ,M,M,M,M,M,M,80.81,VIDP 240330Z 25005KT 2500 HZ NSC 27/14 Q1008 NOSIG,M
VIDP,2022-03-24 04:00,82.40,55.40,39.58,260.00,6.00,0.00,29.77,M,1.74,M,NSC,M,M,M,M,M,M,M,HZ,M,M,M,M,M,M,81.75,VIDP 240400Z 26006KT 2800 HZ NSC 28/13 Q1008 BECMG 3000 HZ,M
VIDP,2022-03-24 04:30,84.20,53.60,34.97,250.00,6.00,0.00,29.77,M,1.99,M,NSC,M,M,M,M,M,M,M,HZ,M,M,M,M,M,M,82.76,VIDP 240430Z 25006KT 3200 HZ NSC 29/12 Q1008 NOSIG,M
VIDP,2022-03-24 05:00,86.00,48.20,27.03,260.00,7.00,0.00,29.77,M,1.99,M,NSC,M,M,M,M,M,M,M,HZ,M,M,M,M,M,M,83.40,VIDP 240500Z 26007KT 3200 HZ NSC 30/09 Q1008 NOSIG,M
VIDP,2022-03-24 05:30,87.80,48.20,25.52,290.00,7.00,0.00,29.77,M,1.99,M,NSC,M,M,M,M,M,M,M,HZ,M,M,M,M,M,M,84.87,VIDP 240530Z 29007KT 3200 HZ NSC 31/09 Q1008 NOSIG,M
VIDP,2022-03-24 06:00,87.80,46.40,23.85,270.00,9.00,0.00,29.77,M,2.17,M,NSC,M,M,M,M,M,M,M,HZ,M,M,M,M,M,M,84.68,VIDP 240600Z 27009KT 3500 HZ NSC 31/08 Q1008 NOSIG,M
VIDP,2022-03-24 06:30,89.60,46.40,22.53,280.00,10.00,0.00,29.74,M,2.49,M,NSC,M,M,M,M,M,M,M,HZ,M,M,M,M,M,M,86.24,VIDP 240630Z 28010KT 4000 HZ NSC 32/08 Q1007 NOSIG,M
VIDP,2022-03-24 07:00,91.40,44.60,19.89,270.00,8.00,0.00,29.74,M,2.80,M,NSC,M,M,M,M,M,M,M,HZ,M,M,M,M,M,M,87.68,VIDP 240700Z 27008KT 4500 HZ NSC 33/07 Q1007 NOSIG,M
VIDP,2022-03-24 07:30,91.40,46.40,21.29,280.00,9.00,0.00,29.71,M,2.80,M,NSC,M,M,M,M,M,M,M,HZ,M,M,M,M,M,M,87.86,VIDP 240730Z 28009KT 4500 HZ NSC 33/08 Q1006 BECMG 5000 HZ,M
VIDP,2022-03-24 08:00,93.20,46.40,20.13,270.00,9.00,0.00,29.71,M,3.11,M,NSC,M,M,M,M,M,M,M,HZ,M,M,M,M,M,M,89.55,VIDP 240800Z 27009KT 5000 HZ NSC 34/08 Q1006 NOSIG,M
VIDP,2022-03-24 08:30,93.20,42.80,17.55,290.00,10.00,0.00,29.68,M,3.11,M,NSC,M,M,M,M,M,M,M,HZ,M,M,M,M,M,M,89.17,VIDP 240830Z 29010KT 5000 HZ NSC 34/06 Q1005 NOSIG,M
VIDP,2022-03-24 09:00,93.20,41.00,16.37,290.00,10.00,0.00,29.68,M,3.11,M,NSC,M,M,M,M,M,M,M,HZ,M,M,M,M,M,M,89.03,VIDP 240900Z 29010KT 5000 HZ NSC 34/05 Q1005 NOSIG,M
VIDP,2022-03-24 09:30,93.20,42.80,17.55,290.00,8.00,0.00,29.65,M,3.11,M,NSC,M,M,M,M,M,M,M,HZ,M,M,M,M,M,M,89.17,VIDP 240930Z 29008KT 5000 HZ NSC 34/06 Q1004 NOSIG,M
VIDP,2022-03-24 10:00,93.20,44.60,18.80,300.00,9.00,0.00,29.65,M,3.11,M,NSC,M,M,M,M,M,M,M,HZ,M,M,M,M,M,M,89.34,VIDP 241000Z 30009KT 5000 HZ NSC 34/07 Q1004 NOSIG,M
VIDP,2022-03-24 10:30,93.20,44.60,18.80,300.00,9.00,0.00,29.65,M,3.11,M,NSC,M,M,M,M,M,M,M,HZ,M,M,M,M,M,M,89.34,VIDP 241030Z 30009KT 5000 HZ NSC 34/07 Q1004 NOSIG,M
VIDP,2022-03-24 11:00,91.40,44.60,19.89,300.00,8.00,0.00,29.65,M,3.11,M,NSC,M,M,M,M,M,M,M,HZ,M,M,M,M,M,M,87.68,VIDP 241100Z 30008KT 5000 HZ NSC 33/07 Q1004 NOSIG,M
VIDP,2022-03-24 11:30,91.40,44.60,19.89,300.00,8.00,0.00,29.65,M,3.11,M,NSC,M,M,M,M,M,M,M,HZ,M,M,M,M,M,M,87.68,VIDP 241130Z 30008KT 5000 HZ NSC 33/07 Q1004 NOSIG,M
VIDP,2022-03-24 12:00,89.60,42.80,19.64,290.00,7.00,0.00,29.65,M,3.11,M,NSC,M,M,M,M,M,M,M,HZ,M,M,M,M,M,M,85.93,VIDP 241200Z 29007KT 5000 HZ NSC 32/06 Q1004 NOSIG,M
VIDP,2022-03-24 12:30,89.60,44.60,21.04,320.00,6.00,0.00,29.68,M,2.80,M,NSC,M,M,M,M,M,M,M,HZ,M,M,M,M,M,M,86.07,VIDP 241230Z 32006KT 4500 HZ NSC 32/07 Q1005 NOSIG,M
VIDP,2022-03-24 13:00,87.80,44.60,22.27,320.00,5.00,0.00,29.68,M,2.80,M,NSC,M,M,M,M,M,M,M,HZ,M,M,M,M,M,M,84.53,VIDP 241300Z 32005KT 4500 HZ NSC 31/07 Q1005 NOSIG,M
VIDP,2022-03-24 13:30,87.80,46.40,23.85,310.00,4.00,0.00,29.68,M,2.80,M,NSC,M,M,M,M,M,M,M,HZ,M,M,M,M,M,M,84.68,VIDP 241330Z 31004KT 4500 HZ NSC 31/08 Q1005 NOSIG,M
VIDP,2022-03-24 14:00,86.00,46.40,25.26,340.00,3.00,0.00,29.68,M,2.80,M,NSC,M,M,M,M,M,M,M,HZ,M,M,M,M,M,M,83.22,VIDP 241400Z 34003KT 4500 HZ NSC 30/08 Q1005 NOSIG,M
VIDP,2022-03-24 14:30,86.00,48.20,27.03,0.00,0.00,0.00,29.71,M,2.49,M,NSC,M,M,M,M,M,M,M,HZ,M,M,M,M,M,M,83.40,VIDP 241430Z 00000KT 4000 HZ NSC 30/09 Q1006 NOSIG,M
VIDP,2022-03-24 15:00,82.40,50.00,32.46,0.00,0.00,0.00,29.71,M,2.49,M,NSC,M,M,M,M,M,M,M,HZ,M,M,M,M,M,M,80.99,VIDP 241500Z 00000KT 4000 HZ NSC 28/10 Q1006 NOSIG,M
VIDP,2022-03-24 15:30,84.20,50.00,30.62,0.00,0.00,0.00,29.71,M,2.49,M,NSC,M,M,M,M,M,M,M,HZ,M,M,M,M,M,M,82.24,VIDP 241530Z 00000KT 4000 HZ NSC 29/10 Q1006 NOSIG,M
VIDP,2022-03-24 16:00,82.40,50.00,32.46,0.00,0.00,0.00,29.74,M,2.17,M,NSC,M,M,M,M,M,M,M,HZ,M,M,M,M,M,M,80.99,VIDP 241600Z 00000KT 3500 HZ NSC 28/10 Q1007 NOSIG,M
VIDP,2022-03-24 16:30,84.20,50.00,30.62,320.00,4.00,0.00,29.74,M,2.17,M,NSC,M,M,M,M,M,M,M,HZ,M,M,M,M,M,M,82.24,VIDP 241630Z 32004KT 3500 HZ NSC 29/10 Q1007 NOSIG,M
VIDP,2022-03-24 17:00,84.20,50.00,30.62,320.00,4.00,0.00,29.74,M,2.17,M,NSC,M,M,M,M,M,M,M,HZ,M,M,M,M,M,M,82.24,VIDP 241700Z 32004KT 3500 HZ NSC 29/10 Q1007 NOSIG,M
VIDP,2022-03-24 17:30,80.60,51.80,36.79,270.00,3.00,0.00,29.74,M,1.99,M,NSC,M,M,M,M,M,M,M,HZ,M,M,M,M,M,M,80.08,VIDP 241730Z 27003KT 3200 HZ NSC 27/11 Q1007 BECMG 3000 HZ,M
VIDP,2022-03-24 18:00,82.40,55.40,39.58,0.00,0.00,0.00,29.74,M,1.86,M,NSC,M,M,M,M,M,M,M,HZ,M,M,M,M,M,M,81.75,VIDP 241800Z 00000KT 3000 HZ NSC 28/13 Q1007 NOSIG,M
VIDP,2022-03-24 18:30,80.60,55.40,41.97,210.00,3.00,0.00,29.74,M,1.86,M,NSC,M,M,M,M,M,M,M,HZ,M,M,M,M,M,M,80.53,VIDP 241830Z 21003KT 3000 HZ NSC 27/13 Q1007 NOSIG,M
VIDP,2022-03-24 19:00,78.80,55.40,44.52,0.00,0.00,0.00,29.74,M,1.55,M,NSC,M,M,M,M,M,M,M,HZ,M,M,M,M,M,M,78.80,VIDP 241900Z 00000KT 2500 HZ NSC 26/13 Q1007 NOSIG,M
VIDP,2022-03-24 19:30,78.80,59.00,50.69,0.00,0.00,0.00,29.74,M,1.55,M,NSC,M,M,M,M,M,M,M,HZ,M,M,M,M,M,M,78.80,VIDP 241930Z 00000KT 2500 HZ NSC 26/15 Q1007 NOSIG,M
VIDP,2022-03-24 20:00,78.80,60.80,54.05,0.00,0.00,0.00,29.71,M,1.55,M,NSC,M,M,M,M,M,M,M,HZ,M,M,M,M,M,M,78.80,VIDP 242000Z 00000KT 2500 HZ NSC 26/16 Q1006 NOSIG,M
VIDP,2022-03-24 20:30,77.00,62.60,61.13,0.00,0.00,0.00,29.71,M,1.55,M,NSC,M,M,M,M,M,M,M,HZ,M,M,M,M,M,M,77.00,VIDP 242030Z 00000KT 2500 HZ NSC 25/17 Q1006 NOSIG,M
VIDP,2022-03-24 21:00,75.20,62.60,64.91,0.00,0.00,0.00,29.71,M,1.55,M,NSC,M,M,M,M,M,M,M,HZ,M,M,M,M,M,M,75.20,VIDP 242100Z 00000KT 2500 HZ NSC 24/17 Q1006 NOSIG,M
VIDP,2022-03-24 21:30,75.20,64.40,69.14,0.00,0.00,0.00,29.71,M,1.55,M,NSC,M,M,M,M,M,M,M,HZ,M,M,M,M,M,M,75.20,VIDP 242130Z 00000KT 2500 HZ NSC 24/18 Q1006 NOSIG,M
VIDP,2022-03-24 22:00,75.20,68.00,78.34,270.00,3.00,0.00,29.71,M,1.55,M,NSC,M,M,M,M,M,M,M,HZ,M,M,M,M,M,M,75.20,VIDP 242200Z 27003KT 2500 HZ NSC 24/20 Q1006 NOSIG,M
VIDP,2022-03-24 22:30,75.20,68.00,78.34,240.00,2.00,0.00,29.68,M,1.55,M,NSC,M,M,M,M,M,M,M,HZ,M,M,M,M,M,M,75.20,VIDP 242230Z 24002KT 2500 HZ NSC 24/20 Q1005 NOSIG,M
VIDP,2022-03-24 23:00,73.40,68.00,83.21,230.00,3.00,0.00,29.68,M,1.55,M,NSC,M,M,M,M,M,M,M,HZ,M,M,M,M,M,M,73.40,VIDP 242300Z 23003KT 2500 HZ NSC 23/20 Q1005 NOSIG,M
VIDP,2022-03-24 23:30,71.60,68.00,88.43,250.00,4.00,0.00,29.71,M,1.55,M,NSC,M,M,M,M,M,M,M,HZ,M,M,M,M,M,M,71.60,VIDP 242330Z 25004KT 2500 HZ NSC 22/20 Q1006 NOSIG,M
VIDP,2022-03-25 00:00,71.60,68.00,88.43,270.00,3.00,0.00,29.71,M,1.55,M,NSC,M,M,M,M,M,M,M,HZ,M,M,M,M,M,M,71.60,VIDP 250000Z 27003KT 2500 HZ NSC 22/20 Q1006 NOSIG,M
VIDP,2022-03-25 00:30,71.60,68.00,88.43,240.00,3.00,0.00,29.71,M,1.37,M,NSC,M,M,M,M,M,M,M,BR,M,M,M,M,M,M,71.60,VIDP 250030Z 24003KT 2200 BR NSC 22/20 Q1006 NOSIG,M
VIDP,2022-03-25 01:00,71.60,68.00,88.43,240.00,4.00,0.00,29.71,M,1.37,M,NSC,M,M,M,M,M,M,M,BR,M,M,M,M,M,M,71.60,VIDP 250100Z 24004KT 2200 BR NSC 22/20 Q1006 NOSIG,M
VIDP,2022-03-25 01:30,69.80,68.00,94.01,260.00,4.00,0.00,29.74,M,1.24,M,NSC,M,M,M,M,M,M,M,BR,M,M,M,M,M,M,69.80,VIDP 250130Z 26004KT 2000 BR NSC 21/20 Q1007 NOSIG,M
VIDP,2022-03-25 02:00,71.60,69.80,94.06,260.00,5.00,0.00,29.77,M,1.24,M,NSC,M,M,M,M,M,M,M,BR,M,M,M,M,M,M,71.60,VIDP 250200Z 26005KT 2000 BR NSC 22/21 Q1008 NOSIG,M
VIDP,2022-03-25 02:30,73.40,68.00,83.21,250.00,5.00,0.00,29.77,M,1.24,M,NSC,M,M,M,M,M,M,M,BR,M,M,M,M,M,M,73.40,VIDP 250230Z 25005KT 2000 BR NSC 23/20 Q1008 NOSIG,M
VIDP,2022-03-25 03:00,75.20,68.00,78.34,250.00,5.00,0.00,29.77,M,1.37,M,NSC,M,M,M,M,M,M,M,BR,M,M,M,M,M,M,75.20,VIDP 250300Z 25005KT 2200 BR NSC 24/20 Q1008 NOSIG,M
VIDP,2022-03-25 03:30,77.00,68.00,73.78,260.00,7.00,0.00,29.80,M,1.37,M,NSC,M,M,M,M,M,M,M,FU,M,M,M,M,M,M,77.00,VIDP 250330Z 26007KT 2200 FU NSC 25/20 Q1009 NOSIG,M
VIDP,2022-03-25 04:00,78.80,66.20,65.33,270.00,6.00,0.00,29.80,M,1.37,M,NSC,M,M,M,M,M,M,M,FU,M,M,M,M,M,M,78.80,VIDP 250400Z 27006KT 2200 FU NSC 26/19 Q1009 NOSIG,M
VIDP,2022-03-25 04:30,80.60,66.20,61.58,260.00,6.00,0.00,29.80,M,1.37,M,NSC,M,M,M,M,M,M,M,FU,M,M,M,M,M,M,82.75,VIDP 250430Z 26006KT 2200 FU NSC 27/19 Q1009 NOSIG,M
VIDP,2022-03-25 05:00,84.20,64.40,51.47,260.00,7.00,0.00,29.80,M,1.55,M,NSC,M,M,M,M,M,M,M,HZ,M,M,M,M,M,M,85.71,VIDP 250500Z 26007KT 2500 HZ NSC 29/18 Q1009 BECMG 3000 HZ,M
VIDP,2022-03-25 05:30,86.00,62.60,45.61,270.00,6.00,0.00,29.80,M,1.86,M,NSC,M,M,M,M,M,M,M,HZ,M,M,M,M,M,M,86.72,VIDP 250530Z 27006KT 3000 HZ NSC 30/17 Q1009 NOSIG,M
VIDP,2022-03-25 06:00,86.00,60.80,42.80,270.00,6.00,0.00,29.80,M,1.86,M,NSC,M,M,M,M,M,M,M,HZ,M,M,M,M,M,M,86.05,VIDP 250600Z 27006KT 3000 HZ NSC 30/16 Q1009 NOSIG,M
VIDP,2022-03-25 06:30,87.80,59.00,37.90,280.00,8.00,0.00,29.80,M,1.86,M,NSC,M,M,M,M,M,M,M,HZ,M,M,M,M,M,M,87.12,VIDP 250630Z 28008KT 3000 HZ NSC 31/15 Q1009 NOSIG,M
VIDP,2022-03-25 07:00,89.60,55.40,31.45,290.00,10.00,0.00,29.77,M,2.17,M,NSC,M,M,M,M,M,M,M,HZ,M,M,M,M,M,M,87.78,VIDP 250700Z 29010KT 3500 HZ NSC 32/13 Q1008 NOSIG,M
VIDP,2022-03-25 07:30,91.40,53.60,27.83,270.00,9.00,0.00,29.77,M,2.17,M,NSC,M,M,M,M,M,M,M,HZ,M,M,M,M,M,M,89.08,VIDP 250730Z 27009KT 3500 HZ NSC 33/12 Q1008 NOSIG,M
VIDP,2022-03-25 08:00,93.20,51.80,24.63,290.00,10.00,0.00,29.77,M,2.17,M,NSC,M,M,M,M,M,M,M,HZ,M,M,M,M,M,M,90.45,VIDP 250800Z 29010KT 3500 HZ NSC 34/11 Q1008 NOSIG,M
VIDP,2022-03-25 08:30,93.20,50.00,23.04,300.00,10.00,0.00,29.74,M,2.49,M,NSC,M,M,M,M,M,M,M,HZ,M,M,M,M,M,M,90.10,VIDP 250830Z 30010KT 4000 HZ NSC 34/10 Q1007 NOSIG,M
VIDP,2022-03-25 09:00,93.20,50.00,23.04,320.00,10.00,0.00,29.74,M,2.80,M,NSC,M,M,M,M,M,M,M,HZ,M,M,M,M,M,M,90.10,VIDP 250900Z 32010KT 4500 HZ NSC 34/10 Q1007 NOSIG,M
VIDP,2022-03-25 09:30,93.20,46.40,20.13,290.00,10.00,0.00,29.74,M,2.80,M,NSC,M,M,M,M,M,M,M,HZ,M,M,M,M,M,M,89.55,VIDP 250930Z 29010KT 4500 HZ NSC 34/08 Q1007 NOSIG,M
VIDP,2022-03-25 10:00,93.20,42.80,17.55,280.00,10.00,0.00,29.74,M,2.80,M,NSC,M,M,M,M,M,M,M,HZ,M,M,M,M,M,M,89.17,VIDP 251000Z 28010KT 4500 HZ NSC 34/06 Q1007 NOSIG,M
VIDP,2022-03-25 10:30,93.20,42.80,17.55,290.00,10.00,0.00,29.74,M,2.80,M,NSC,M,M,M,M,M,M,M,HZ,M,M,M,M,M,M,89.17,VIDP 251030Z 29010KT 4500 HZ NSC 34/06 Q1007 NOSIG,M
VIDP,2022-03-25 11:00,93.20,42.80,17.55,300.00,10.00,0.00,29.74,M,2.80,M,NSC,M,M,M,M,M,M,M,HZ,M,M,M,M,M,M,89.17,VIDP 251100Z 30010KT 4500 HZ NSC 34/06 Q1007 NOSIG,M
VIDP,2022-03-25 11:30,91.40,44.60,19.89,310.00,11.00,0.00,29.74,M,2.80,M,NSC,M,M,M,M,M,M,M,HZ,M,M,M,M,M,M,87.68,VIDP 251130Z 31011KT 4500 HZ NSC 33/07 Q1007 NOSIG,M
VIDP,2022-03-25 12:00,91.40,44.60,19.89,300.00,10.00,0.00,29.74,M,2.80,M,NSC,M,M,M,M,M,M,M,HZ,M,M,M,M,M,M,87.68,VIDP 251200Z 30010KT 4500 HZ NSC 33/07 Q1007 NOSIG,M
VIDP,2022-03-25 12:30,89.60,46.40,22.53,300.00,8.00,0.00,29.74,M,2.80,M,NSC,M,M,M,M,M,M,M,HZ,M,M,M,M,M,M,86.24,VIDP 251230Z 30008KT 4500 HZ NSC 32/08 Q1007 NOSIG,M
VIDP,2022-03-25 13:00,87.80,48.20,25.52,300.00,7.00,0.00,29.74,M,2.49,M,NSC,M,M,M,M,M,M,M,HZ,M,M,M,M,M,M,84.87,VIDP 251300Z 30007KT 4000 HZ NSC 31/09 Q1007 NOSIG,M
VIDP,2022-03-25 13:30,86.00,50.00,28.90,300.00,7.00,0.00,29.77,M,2.49,M,NSC,M,M,M,M,M,M,M,HZ,M,M,M,M,M,M,83.62,VIDP 251330Z 30007KT 4000 HZ NSC 30/10 Q1008 NOSIG,M
VIDP,2022-03-25 14:00,86.00,53.60,33.01,290.00,6.00,0.00,29.77,M,2.49,M,NSC,M,M,M,M,M,M,M,HZ,M,M,M,M,M,M,84.18,VIDP 251400Z 29006KT 4000 HZ NSC 30/12 Q1008 NOSIG,M
VIDP,2022-03-25 14:30,84.20,53.60,34.97,260.00,4.00,0.00,29.80,M,2.49,M,NSC,M,M,M,M,M,M,M,HZ,M,M,M,M,M,M,82.76,VIDP 251430Z 26004KT 4000 HZ NSC 29/12 Q1009 NOSIG,M
VIDP,2022-03-25 15:00,82.40,53.60,37.07,250.00,4.00,0.00,29.80,M,2.49,M,NSC,M,M,M,M,M,M,M,HZ,M,M,M,M,M,M,81.46,VIDP 251500Z 25004KT 4000 HZ NSC 28/12 Q1009 NOSIG,M
VIDP,2022-03-25 15:30,82.40,53.60,37.07,280.00,4.00,0.00,29.80,M,2.49,M,NSC,M,M,M,M,M,M,M,HZ,M,M,M,M,M,M,81.46,VIDP 251530Z 28004KT 4000 HZ NSC 28/12 Q1009 NOSIG,M
VIDP,2022-03-25 16:00,82.40,53.60,37.07,260.00,4.00,0.00,29.83,M,2.49,M,NSC,M,M,M,M,M,M,M,HZ,M,M,M,M,M,M,81.46,VIDP 251600Z 26004KT 4000 HZ NSC 28/12 Q1010 NOSIG,M
VIDP,2022-03-25 16:30,80.60,55.40,41.97,270.00,4.00,0.00,29.83,M,2.49,M,NSC,M,M,M,M,M,M,M,HZ,M,M,M,M,M,M,80.53,VIDP 251630Z 27004KT 4000 HZ NSC 27/13 Q1010 NOSIG,M
VIDP,2022-03-25 17:00,78.80,55.40,44.52,0.00,0.00,0.00,29.83,M,2.17,M,NSC,M,M,M,M,M,M,M,HZ,M,M,M,M,M,M,78.80,VIDP 251700Z 00000KT 3500 HZ NSC 26/13 Q1010 NOSIG,M
VIDP,2022-03-25 17:30,77.00,57.20,50.43,0.00,0.00,0.00,29.83,M,2.17,M,NSC,M,M,M,M,M,M,M,HZ,M,M,M,M,M,M,77.00,VIDP 251730Z 00000KT 3500 HZ NSC 25/14 Q1010 NOSIG,M
VIDP,2022-03-25 18:00,77.00,57.20,50.43,0.00,0.00,0.00,29.83,M,2.17,M,NSC,M,M,M,M,M,M,M,HZ,M,M,M,M,M,M,77.00,VIDP 251800Z 00000KT 3500 HZ NSC 25/14 Q1010 NOSIG,M
VIDP,2022-03-25 18:30,77.00,57.20,50.43,0.00,0.00,0.00,29.83,M,2.17,M,NSC,M,M,M,M,M,M,M,HZ,M,M,M,M,M,M,77.00,VIDP 251830Z 00000KT 3500 HZ NSC 25/14 Q1010 NOSIG,M
VIDP,2022-03-25 19:00,75.20,59.00,57.12,0.00,0.00,0.00,29.80,M,2.17,M,NSC,M,M,M,M,M,M,M,HZ,M,M,M,M,M,M,75.20,VIDP 251900Z 00000KT 3500 HZ NSC 24/15 Q1009 NOSIG,M
VIDP,2022-03-25 19:30,75.20,60.80,60.90,0.00,0.00,0.00,29.80,M,2.17,M,NSC,M,M,M,M,M,M,M,HZ,M,M,M,M,M,M,75.20,VIDP 251930Z 00000KT 3500 HZ NSC 24/16 Q1009 NOSIG,M
VIDP,2022-03-25 20:00,73.40,60.80,64.69,0.00,0.00,0.00,29.80,M,2.17,M,NSC,M,M,M,M,M,M,M,HZ,M,M,M,M,M,M,73.40,VIDP 252000Z 00000KT 3500 HZ NSC 23/16 Q1009 NOSIG,M
VIDP,2022-03-25 20:30,73.40,60.80,64.69,0.00,0.00,0.00,29.80,M,2.17,M,NSC,M,M,M,M,M,M,M,HZ,M,M,M,M,M,M,73.40,VIDP 252030Z 00000KT 3500 HZ NSC 23/16 Q1009 NOSIG,M
VIDP,2022-03-25 21:00,71.60,60.80,68.75,0.00,0.00,0.00,29.80,M,2.17,M,NSC,M,M,M,M,M,M,M,HZ,M,M,M,M,M,M,71.60,VIDP 252100Z 00000KT 3500 HZ NSC 22/16 Q1009 NOSIG,M
VIDP,2022-03-25 21:30,69.80,60.80,73.09,0.00,0.00,0.00,29.77,M,2.17,M,NSC,M,M,M,M,M,M,M,HZ,M,M,M,M,M,M,69.80,VIDP 252130Z 00000KT 3500 HZ NSC 21/16 Q1008 NOSIG,M
VIDP,2022-03-25 22:00,69.80,60.80,73.09,230.00,3.00,0.00,29.77,M,1.99,M,NSC,M,M,M,M,M,M,M,HZ,M,M,M,M,M,M,69.80,VIDP 252200Z 23003KT 3200 HZ NSC 21/16 Q1008 NOSIG,M
VIDP,2022-03-25 22:30,69.80,60.80,73.09,240.00,4.00,0.00,29.77,M,1.99,M,NSC,M,M,M,M,M,M,M,HZ,M,M,M,M,M,M,69.80,VIDP 252230Z 24004KT 3200 HZ NSC 21/16 Q1008 NOSIG,M
VIDP,2022-03-25 23:00,69.80,60.80,73.09,230.00,4.00,0.00,29.77,M,1.99,M,NSC,M,M,M,M,M,M,M,HZ,M,M,M,M,M,M,69.80,VIDP 252300Z 23004KT 3200 HZ NSC 21/16 Q1008 NOSIG,M
VIDP,2022-03-25 23:30,69.80,60.80,73.09,240.00,3.00,0.00,29.77,M,1.99,M,NSC,M,M,M,M,M,M,M,HZ,M,M,M,M,M,M,69.80,VIDP 252330Z 24003KT 3200 HZ NSC 21/16 Q1008 NOSIG,M
VIDP,2022-03-26 00:00,68.00,59.00,72.92,230.00,3.00,0.00,29.80,M,1.99,M,NSC,M,M,M,M,M,M,M,HZ,M,M,M,M,M,M,68.00,VIDP 260000Z 23003KT 3200 HZ NSC 20/15 Q1009 BECMG 3000 HZ,M
VIDP,2022-03-26 00:30,68.00,59.00,72.92,250.00,3.00,0.00,29.80,M,1.86,M,NSC,M,M,M,M,M,M,M,HZ,M,M,M,M,M,M,68.00,VIDP 260030Z 25003KT 3000 HZ NSC 20/15 Q1009 NOSIG,M
VIDP,2022-03-26 01:00,68.00,59.00,72.92,250.00,5.00,0.00,29.80,M,1.74,M,NSC,M,M,M,M,M,M,M,HZ,M,M,M,M,M,M,68.00,VIDP 260100Z 25005KT 2800 HZ NSC 20/15 Q1009 NOSIG,M
VIDP,2022-03-26 01:30,68.00,59.00,72.92,250.00,4.00,0.00,29.83,M,1.55,M,NSC,M,M,M,M,M,M,M,HZ,M,M,M,M,M,M,68.00,VIDP 260130Z 25004KT 2500 HZ NSC 20/15 Q1010 NOSIG,M
VIDP,2022-03-26 02:00,69.80,59.00,68.55,250.00,6.00,0.00,29.83,M,1.55,M,NSC,M,M,M,M,M,M,M,HZ,M,M,M,M,M,M,69.80,VIDP 260200Z 25006KT 2500 HZ NSC 21/15 Q1010 NOSIG,M
VIDP,2022-03-26 02:30,71.60,59.00,64.48,250.00,6.00,0.00,29.83,M,1.55,M,NSC,M,M,M,M,M,M,M,HZ,M,M,M,M,M,M,71.60,VIDP 260230Z 25006KT 2500 HZ NSC 22/15 Q1010 NOSIG,M
VIDP,2022-03-26 03:00,73.40,57.20,56.88,260.00,7.00,0.00,29.85,M,1.55,M,NSC,M,M,M,M,M,M,M,HZ,M,M,M,M,M,M,73.40,VIDP 260300Z 26007KT 2500 HZ NSC 23/14 Q1011 BECMG 3000 HZ,M
VIDP,2022-03-26 03:30,75.20,57.20,53.55,250.00,7.00,0.00,29.85,M,1.74,M,NSC,M,M,M,M,M,M,M,HZ,M,M,M,M,M,M,75.20,VIDP 260330Z 25007KT 2800 HZ NSC 24/14 Q1011 BECMG 3000 HZ,M
VIDP,2022-03-26 04:00,77.00,57.20,50.43,250.00,8.00,0.00,29.88,M,1.74,M,NSC,M,M,M,M,M,M,M,HZ,M,M,M,M,M,M,77.00,VIDP 260400Z 25008KT 2800 HZ NSC 25/14 Q1012 BECMG 3000 HZ,M
VIDP,2022-03-26 04:30,78.80,57.20,47.52,260.00,7.00,0.00,29.88,M,1.86,M,NSC,M,M,M,M,M,M,M,HZ,M,M,M,M,M,M,78.80,VIDP 260430Z 26007KT 3000 HZ NSC 26/14 Q1012 NOSIG,M
VIDP,2022-03-26 05:00,82.40,55.40,39.58,270.00,8.00,0.00,29.88,M,1.99,M,NSC,M,M,M,M,M,M,M,HZ,M,M,M,M,M,M,81.75,VIDP 260500Z 27008KT 3200 HZ NSC 28/13 Q1012 NOSIG,M
VIDP,2022-03-26 05:30,84.20,53.60,34.97,290.00,9.00,0.00,29.88,M,2.17,19.00,NSC,M,M,M,M,M,M,M,HZ,M,M,M,M,M,M,82.76,VIDP 260530Z 29009G19KT 3500 HZ NSC 29/12 Q1012 NOSIG,M
VIDP,2022-03-26 06:00,86.00,51.80,30.90,280.00,10.00,0.00,29.85,M,2.49,20.00,NSC,M,M,M,M,M,M,M,HZ,M,M,M,M,M,M,83.87,VIDP 260600Z 28010G20KT 4000 HZ NSC 30/11 Q1011 NOSIG,M
VIDP,2022-03-26 06:30,87.80,51.80,29.18,280.00,12.00,0.00,29.85,M,2.49,22.00,NSC,M,M,M,M,M,M,M,HZ,M,M,M,M,M,M,85.39,VIDP 260630Z 28012G22KT 4000 HZ NSC 31/11 Q1011 NOSIG,M
VIDP,2022-03-26 07:00,89.60,50.00,25.79,290.00,15.00,0.00,29.85,M,2.49,25.00,NSC,M,M,M,M,M,M,M,HZ,M,M,M,M,M,M,86.70,VIDP 260700Z 29015G25KT 4000 HZ NSC 32/10 Q1011 NOSIG,M
VIDP,2022-03-26 07:30,91.40,48.20,22.78,290.00,15.00,0.00,29.83,M,2.49,25.00,NSC,M,M,M,M,M,M,M,HZ,M,M,M,M,M,M,88.09,VIDP 260730Z 29015G25KT 4000 HZ NSC 33/09 Q1010 NOSIG,M
VIDP,2022-03-26 08:00,91.40,46.40,21.29,300.00,14.00,0.00,29.83,M,2.49,24.00,NSC,M,M,M,M,M,M,M,HZ,M,M,M,M,M,M,87.86,VIDP 260800Z 30014G24KT 4000 HZ NSC 33/08 Q1010 NOSIG,M
VIDP,2022-03-26 08:30,93.20,46.40,20.13,270.00,14.00,0.00,29.80,M,2.49,24.00,NSC,M,M,M,M,M,M,M,HZ,M,M,M,M,M,M,89.55,VIDP 260830Z 27014G24KT 4000 HZ NSC 34/08 Q1009 NOSIG,M
VIDP,2022-03-26 09:00,93.20,48.20,21.54,290.00,14.00,0.00,29.80,M,2.49,22.00,NSC,M,M,M,M,M,M,M,HZ,M,M,M,M,M,M,89.80,VIDP 260900Z 29014G22KT 4000 HZ NSC 34/09 Q1009 NOSIG,M
VIDP,2022-03-26 09:30,93.20,46.40,20.13,290.00,15.00,0.00,29.77,M,2.49,23.00,NSC,M,M,M,M,M,M,M,HZ,M,M,M,M,M,M,89.55,VIDP 260930Z 29015G23KT 4000 HZ NSC 34/08 Q1008 NOSIG,M
VIDP,2022-03-26 10:00,93.20,44.60,18.80,290.00,14.00,0.00,29.77,M,2.49,21.00,NSC,M,M,M,M,M,M,M,HZ,M,M,M,M,M,M,89.34,VIDP 261000Z 29014G21KT 4000 HZ NSC 34/07 Q1008 NOSIG,M
VIDP,2022-03-26 10:30,93.20,44.60,18.80,280.00,13.00,0.00,29.77,M,2.49,20.00,NSC,M,M,M,M,M,M,M,HZ,M,M,M,M,M,M,89.34,VIDP 261030Z 28013G20KT 4000 HZ NSC 34/07 Q1008 NOSIG,M
VIDP,2022-03-26 11:30,91.40,44.60,19.89,280.00,10.00,0.00,29.77,M,2.49,20.00,NSC,M,M,M,M,M,M,M,HZ,M,M,M,M,M,M,87.68,VIDP 261130Z 28010G20KT 4000 HZ NSC 33/07 Q1008 NOSIG,M
VIDP,2022-03-26 12:00,91.40,44.60,19.89,280.00,10.00,0.00,29.77,M,2.49,M,NSC,M,M,M,M,M,M,M,HZ,M,M,M,M,M,M,87.68,VIDP 261200Z 28010KT 4000 HZ NSC 33/07 Q1008 NOSIG,M
VIDP,2022-03-26 12:30,89.60,41.00,18.33,280.00,10.00,0.00,29.77,M,2.49,M,NSC,M,M,M,M,M,M,M,HZ,M,M,M,M,M,M,85.82,VIDP 261230Z 28010KT 4000 HZ NSC 32/05 Q1008 NOSIG,M
VIDP,2022-03-26 13:00,87.80,42.80,20.79,280.00,8.00,0.00,29.77,M,2.49,M,NSC,M,M,M,M,M,M,M,HZ,M,M,M,M,M,M,84.40,VIDP 261300Z 28008KT 4000 HZ NSC 31/06 Q1008 NOSIG,M
VIDP,2022-03-26 13:30,86.00,44.60,23.59,270.00,7.00,0.00,29.77,M,2.49,M,NSC,M,M,M,M,M,M,M,HZ,M,M,M,M,M,M,83.07,VIDP 261330Z 27007KT 4000 HZ NSC 30/07 Q1008 NOSIG,M
VIDP,2022-03-26 14:00,84.20,44.60,24.99,260.00,6.00,0.00,29.80,M,2.49,M,NSC,M,M,M,M,M,M,M,HZ,M,M,M,M,M,M,81.73,VIDP 261400Z 26006KT 4000 HZ NSC 29/07 Q1009 NOSIG,M
VIDP,2022-03-26 14:30,84.20,46.40,26.76,260.00,6.00,0.00,29.80,M,2.49,M,NSC,M,M,M,M,M,M,M,HZ,M,M,M,M,M,M,81.87,VIDP 261430Z 26006KT 4000 HZ NSC 29/08 Q1009 NOSIG,M
VIDP,2022-03-26 15:00,82.40,46.40,28.36,260.00,5.00,0.00,29.80,M,2.49,M,NSC,M,M,M,M,M,M,M,HZ,M,M,M,M,M,M,80.64,VIDP 261500Z 26005KT 4000 HZ NSC 28/08 Q1009 NOSIG,M
VIDP,2022-03-26 15:30,80.60,48.20,32.18,270.00,5.00,0.00,29.80,M,2.49,M,NSC,M,M,M,M,M,M,M,HZ,M,M,M,M,M,M,79.71,VIDP 261530Z 27005KT 4000 HZ NSC 27/09 Q1009 NOSIG,M
VIDP,2022-03-26 16:00,80.60,48.20,32.18,260.00,5.00,0.00,29.83,M,2.49,M,NSC,M,M,M,M,M,M,M,HZ,M,M,M,M,M,M,79.71,VIDP 261600Z 26005KT 4000 HZ NSC 27/09 Q1010 NOSIG,M
VIDP,2022-03-26 16:30,80.60,50.00,34.41,260.00,4.00,0.00,29.83,M,2.49,M,NSC,M,M,M,M,M,M,M,HZ,M,M,M,M,M,M,79.88,VIDP 261630Z 26004KT 4000 HZ NSC 27/10 Q1010 NOSIG,M
VIDP,2022-03-26 17:00,80.60,50.00,34.41,250.00,5.00,0.00,29.83,M,2.49,M,NSC,M,M,M,M,M,M,M,HZ,M,M,M,M,M,M,79.88,VIDP 261700Z 25005KT 4000 HZ NSC 27/10 Q1010 NOSIG,M
VIDP,2022-03-26 17:30,80.60,51.80,36.79,250.00,3.00,0.00,29.83,M,2.49,M,NSC,M,M,M,M,M,M,M,HZ,M,M,M,M,M,M,80.08,VIDP 261730Z 25003KT 4000 HZ NSC 27/11 Q1010 NOSIG,M
VIDP,2022-03-26 18:00,78.80,51.80,39.02,260.00,4.00,0.00,29.83,M,2.49,M,NSC,M,M,M,M,M,M,M,HZ,M,M,M,M,M,M,78.80,VIDP 261800Z 26004KT 4000 HZ NSC 26/11 Q1010 NOSIG,M
VIDP,2022-03-26 18:30,77.00,51.80,41.42,280.00,4.00,0.00,29.83,M,2.49,M,NSC,M,M,M,M,M,M,M,HZ,M,M,M,M,M,M,77.00,VIDP 261830Z 28004KT 4000 HZ NSC 25/11 Q1010 NOSIG,M
VIDP,2022-03-27 09:30,96.80,39.20,13.66,280.00,8.00,0.00,29.80,M,3.11,18.00,NSC,M,M,M,M,M,M,M,HZ,M,M,M,M,M,M,92.23,VIDP 270930Z 28008G18KT 5000 HZ NSC 36/04 Q1009 NOSIG,M
VIDP,2022-03-27 10:00,96.80,37.40,12.73,280.00,7.00,0.00,29.77,M,3.11,17.00,NSC,M,M,M,M,M,M,M,HZ,M,M,M,M,M,M,92.04,VIDP 271000Z 28007G17KT 5000 HZ NSC 36/03 Q1008 NOSIG,M
VIDP,2022-03-27 10:30,96.80,37.40,12.73,300.00,7.00,0.00,29.77,M,3.11,17.00,NSC,M,M,M,M,M,M,M,HZ,M,M,M,M,M,M,92.04,VIDP 271030Z 30007G17KT 5000 HZ NSC 36/03 Q1008 NOSIG,M
VIDP,2022-03-27 11:00,96.80,37.40,12.73,290.00,7.00,0.00,29.77,M,3.11,17.00,NSC,M,M,M,M,M,M,M,HZ,M,M,M,M,M,M,92.04,VIDP 271100Z 29007G17KT 5000 HZ NSC 36/03 Q1008 NOSIG,M
VIDP,2022-03-27 11:30,96.80,37.40,12.73,290.00,8.00,0.00,29.77,M,3.11,M,NSC,M,M,M,M,M,M,M,HZ,M,M,M,M,M,M,92.04,VIDP 271130Z 29008KT 5000 HZ NSC 36/03 Q1008 NOSIG,M
VIDP,2022-03-27 12:00,95.00,37.40,13.46,290.00,8.00,0.00,29.77,M,3.11,M,NSC,M,M,M,M,M,M,M,HZ,M,M,M,M,M,M,90.46,VIDP 271200Z 29008KT 5000 HZ NSC 35/03 Q1008 NOSIG,M
VIDP,2022-03-27 12:30,93.20,37.40,14.23,310.00,7.00,0.00,29.77,M,3.11,M,NSC,M,M,M,M,M,M,M,HZ,M,M,M,M,M,M,88.83,VIDP 271230Z 31007KT 5000 HZ NSC 34/03 Q1008 NOSIG,M
VIDP,2022-03-27 13:00,91.40,39.20,16.15,300.00,5.00,0.00,29.77,M,2.80,M,NSC,M,M,M,M,M,M,M,HZ,M,M,M,M,M,M,87.30,VIDP 271300Z 30005KT 4500 HZ NSC 33/04 Q1008 NOSIG,M
VIDP,2022-03-27 13:30,89.60,41.00,18.33,320.00,3.00,0.00,29.77,M,2.49,M,NSC,M,M,M,M,M,M,M,HZ,M,M,M,M,M,M,85.82,VIDP 271330Z 32003KT 4000 HZ NSC 32/05 Q1008 NOSIG,M
VIDP,2022-03-27 14:00,87.80,44.60,22.27,0.00,0.00,0.00,29.77,M,2.49,M,NSC,M,M,M,M,M,M,M,HZ,M,M,M,M,M,M,84.53,VIDP 271400Z 00000KT 4000 HZ NSC 31/07 Q1008 NOSIG,M
VIDP,2022-03-27 14:30,84.20,44.60,24.99,0.00,0.00,0.00,29.80,M,2.49,M,NSC,M,M,M,M,M,M,M,HZ,M,M,M,M,M,M,81.73,VIDP 271430Z 00000KT 4000 HZ NSC 29/07 Q1009 NOSIG,M
VIDP,2022-03-27 15:00,84.20,46.40,26.76,0.00,0.00,0.00,29.80,M,2.49,M,NSC,M,M,M,M,M,M,M,HZ,M,M,M,M,M,M,81.87,VIDP 271500Z 00000KT 4000 HZ NSC 29/08 Q1009 NOSIG,M
VIDP,2022-03-27 15:30,82.40,48.20,30.35,0.00,0.00,0.00,29.80,M,2.49,M,NSC,M,M,M,M,M,M,M,HZ,M,M,M,M,M,M,80.80,VIDP 271530Z 00000KT 4000 HZ NSC 28/09 Q1009 NOSIG,M
VIDP,2022-03-27 16:00,82.40,48.20,30.35,0.00,0.00,0.00,29.83,M,2.49,M,NSC,M,M,M,M,M,M,M,HZ,M,M,M,M,M,M,80.80,VIDP 271600Z 00000KT 4000 HZ NSC 28/09 Q1010 NOSIG,M
VIDP,2022-03-27 16:30,80.60,50.00,34.41,0.00,0.00,0.00,29.83,M,2.49,M,NSC,M,M,M,M,M,M,M,HZ,M,M,M,M,M,M,79.88,VIDP 271630Z 00000KT 4000 HZ NSC 27/10 Q1010 NOSIG,M
VIDP,2022-03-27 17:00,80.60,50.00,34.41,0.00,0.00,0.00,29.83,M,2.49,M,NSC,M,M,M,M,M,M,M,HZ,M,M,M,M,M,M,79.88,VIDP 271700Z 00000KT 4000 HZ NSC 27/10 Q1010 NOSIG,M
VIDP,2022-03-27 17:30,78.80,50.00,36.51,0.00,0.00,0.00,29.83,M,2.49,M,NSC,M,M,M,M,M,M,M,HZ,M,M,M,M,M,M,78.80,VIDP 271730Z 00000KT 4000 HZ NSC 26/10 Q1010 NOSIG,M
VIDP,2022-03-27 18:00,78.80,51.80,39.02,0.00,0.00,0.00,29.83,M,2.49,M,NSC,M,M,M,M,M,M,M,HZ,M,M,M,M,M,M,78.80,VIDP 271800Z 00000KT 4000 HZ NSC 26/11 Q1010 NOSIG,M
VIDP,2022-03-27 18:30,77.00,51.80,41.42,0.00,0.00,0.00,29.83,M,2.49,M,NSC,M,M,M,M,M,M,M,HZ,M,M,M,M,M,M,77.00,VIDP 271830Z 00000KT 4000 HZ NSC 25/11 Q1010 NOSIG,M
VIDP,2022-03-27 19:00,75.20,53.60,46.98,0.00,0.00,0.00,29.80,M,2.49,M,NSC,M,M,M,M,M,M,M,HZ,M,M,M,M,M,M,75.20,VIDP 271900Z 00000KT 4000 HZ NSC 24/12 Q1009 NOSIG,M
VIDP,2022-03-27 19:30,75.20,53.60,46.98,0.00,0.00,0.00,29.80,M,2.49,M,NSC,M,M,M,M,M,M,M,HZ,M,M,M,M,M,M,75.20,VIDP 271930Z 00000KT 4000 HZ NSC 24/12 Q1009 NOSIG,M
VIDP,2022-03-27 20:00,73.40,53.60,49.90,0.00,0.00,0.00,29.80,M,2.49,M,NSC,M,M,M,M,M,M,M,HZ,M,M,M,M,M,M,73.40,VIDP 272000Z 00000KT 4000 HZ NSC 23/12 Q1009 NOSIG,M
VIDP,2022-03-27 20:30,73.40,53.60,49.90,0.00,0.00,0.00,29.80,M,2.49,M,NSC,M,M,M,M,M,M,M,HZ,M,M,M,M,M,M,73.40,VIDP 272030Z 00000KT 4000 HZ NSC 23/12 Q1009 NOSIG,M
VIDP,2022-03-27 21:00,73.40,53.60,49.90,0.00,0.00,0.00,29.80,M,2.49,M,NSC,M,M,M,M,M,M,M,HZ,M,M,M,M,M,M,73.40,VIDP 272100Z 00000KT 4000 HZ NSC 23/12 Q1009 NOSIG,M
VIDP,2022-03-27 21:30,73.40,53.60,49.90,0.00,0.00,0.00,29.80,M,2.49,M,NSC,M,M,M,M,M,M,M,HZ,M,M,M,M,M,M,73.40,VIDP 272130Z 00000KT 4000 HZ NSC 23/12 Q1009 NOSIG,M
VIDP,2022-03-27 22:00,73.40,53.60,49.90,0.00,0.00,0.00,29.77,M,2.17,M,NSC,M,M,M,M,M,M,M,HZ,M,M,M,M,M,M,73.40,VIDP 272200Z 00000KT 3500 HZ NSC 23/12 Q1008 NOSIG,M
VIDP,2022-03-27 22:30,73.40,53.60,49.90,0.00,0.00,0.00,29.77,M,2.17,M,NSC,M,M,M,M,M,M,M,HZ,M,M,M,M,M,M,73.40,VIDP 272230Z 00000KT 3500 HZ NSC 23/12 Q1008 NOSIG,M
VIDP,2022-03-27 23:00,71.60,53.60,53.03,0.00,0.00,0.00,29.77,M,2.17,M,NSC,M,M,M,M,M,M,M,HZ,M,M,M,M,M,M,71.60,VIDP 272300Z 00000KT 3500 HZ NSC 22/12 Q1008 NOSIG,M
VIDP,2022-03-27 23:30,71.60,53.60,53.03,0.00,0.00,0.00,29.77,M,2.17,M,NSC,M,M,M,M,M,M,M,HZ,M,M,M,M,M,M,71.60,VIDP 272330Z 00000KT 3500 HZ NSC 22/12 Q1008 NOSIG,M
VIDP,2022-03-28 00:00,71.60,55.40,56.63,0.00,0.00,0.00,29.77,M,2.17,M,NSC,M,M,M,M,M,M,M,HZ,M,M,M,M,M,M,71.60,VIDP 280000Z 00000KT 3500 HZ NSC 22/13 Q1008 NOSIG,M
VIDP,2022-03-28 00:30,71.60,55.40,56.63,0.00,0.00,0.00,29.80,M,2.17,M,NSC,M,M,M,M,M,M,M,HZ,M,M,M,M,M,M,71.60,VIDP 280030Z 00000KT 3500 HZ NSC 22/13 Q1009 BECMG 3000 HZ,M
VIDP,2022-03-28 01:00,69.80,55.40,60.21,100.00,3.00,0.00,29.80,M,1.86,M,NSC,M,M,M,M,M,M,M,HZ,M,M,M,M,M,M,69.80,VIDP 280100Z 10003KT 3000 HZ NSC 21/13 Q1009 NOSIG,M
VIDP,2022-03-28 01:30,71.60,55.40,56.63,50.00,3.00,0.00,29.80,M,1.86,M,NSC,M,M,M,M,M,M,M,HZ,M,M,M,M,M,M,71.60,VIDP 280130Z 05003KT 3000 HZ NSC 22/13 Q1009 NOSIG,M
VIDP,2022-03-28 02:00,73.40,55.40,53.29,0.00,0.00,0.00,29.80,M,1.86,M,NSC,M,M,M,M,M,M,M,HZ,M,M,M,M,M,M,73.40,VIDP 280200Z 00000KT 3000 HZ NSC 23/13 Q1009 NOSIG,M
VIDP,2022-03-28 02:30,77.00,53.60,44.25,0.00,0.00,0.00,29.83,M,1.86,M,NSC,M,M,M,M,M,M,M,HZ,M,M,M,M,M,M,77.00,VIDP 280230Z 00000KT 3000 HZ NSC 25/12 Q1010 NOSIG,M
VIDP,2022-03-28 03:00,82.40,50.00,32.46,200.00,3.00,0.00,29.83,M,1.86,M,NSC,M,M,M,M,M,M,M,HZ,M,M,M,M,M,M,80.99,VIDP 280300Z 20003KT 3000 HZ NSC 28/10 Q1010 NOSIG,M
VIDP,2022-03-28 03:30,86.00,50.00,28.90,230.00,4.00,0.00,29.83,M,1.86,M,NSC,M,M,M,M,M,M,M,HZ,M,M,M,M,M,M,83.62,VIDP 280330Z 23004KT 3000 HZ NSC 30/10 Q1010 NOSIG,M
VIDP,2022-03-28 04:00,89.60,50.00,25.79,220.00,4.00,0.00,29.85,M,1.86,M,NSC,M,M,M,M,M,M,M,HZ,M,M,M,M,M,M,86.70,VIDP 280400Z 22004KT 3000 HZ NSC 32/10 Q1011 NOSIG,M
VIDP,2022-03-28 04:30,89.60,44.60,21.04,240.00,5.00,0.00,29.85,M,1.86,M,NSC,M,M,M,M,M,M,M,HZ,M,M,M,M,M,M,86.07,VIDP 280430Z 24005KT 3000 HZ NSC 32/07 Q1011 NOSIG,M
VIDP,2022-03-28 05:00,93.20,41.00,16.37,220.00,7.00,0.00,29.83,M,1.99,M,NSC,M,M,M,M,M,M,M,HZ,M,M,M,M,M,M,89.03,VIDP 280500Z 22007KT 3200 HZ NSC 34/05 Q1010 NOSIG,M
VIDP,2022-03-28 05:30,93.20,37.40,14.23,160.00,8.00,0.00,29.83,M,1.99,M,NSC,M,M,M,M,M,M,M,HZ,M,M,M,M,M,M,88.83,VIDP 280530Z 16008KT 3200 HZ NSC 34/03 Q1010 NOSIG,M
VIDP,2022-03-28 06:00,96.80,39.20,13.66,200.00,6.00,0.00,29.83,M,1.99,M,NSC,M,M,M,M,M,M,M,HZ,M,M,M,M,M,M,92.23,VIDP 280600Z 20006KT 3200 HZ NSC 36/04 Q1010 NOSIG,M
VIDP,2022-03-28 06:30,96.80,33.80,11.04,260.00,6.00,0.00,29.83,M,1.99,M,NSC,M,M,M,M,M,M,M,HZ,M,M,M,M,M,M,91.44,VIDP 280630Z 26006KT 3200 HZ NSC 36/01 Q1010 NOSIG,M
VIDP,2022-03-28 07:00,98.60,35.60,11.23,250.00,7.00,0.00,29.80,M,2.05,M,NSC,M,M,M,M,M,M,M,HZ,M,M,M,M,M,M,93.23,VIDP 280700Z 25007KT 3300 HZ NSC 37/02 Q1009 NOSIG,M
VIDP,2022-03-28 07:30,96.80,33.80,11.04,260.00,7.00,0.00,29.80,M,2.05,M,NSC,M,M,M,M,M,M,M,HZ,M,M,M,M,M,M,91.44,VIDP 280730Z 26007KT 3300 HZ NSC 36/01 Q1009 NOSIG,M
VIDP,2022-03-28 08:00,98.60,33.80,10.45,270.00,8.00,0.00,29.77,M,2.17,M,NSC,M,M,M,M,M,M,M,HZ,M,M,M,M,M,M,92.94,VIDP 280800Z 27008KT 3500 HZ NSC 37/01 Q1008 NOSIG,M
VIDP,2022-03-28 08:30,98.60,33.80,10.45,280.00,6.00,0.00,29.74,M,2.17,M,NSC,M,M,M,M,M,M,M,HZ,M,M,M,M,M,M,92.94,VIDP 280830Z 28006KT 3500 HZ NSC 37/01 Q1007 NOSIG,M
VIDP,2022-03-28 09:00,100.40,35.60,10.63,290.00,6.00,0.00,29.74,M,2.17,M,NSC,M,M,M,M,M,M,M,HZ,M,M,M,M,M,M,94.76,VIDP 280900Z 29006KT 3500 HZ NSC 38/02 Q1007 NOSIG,M
VIDP,2022-03-28 09:30,100.40,35.60,10.63,290.00,9.00,0.00,29.74,M,2.49,M,NSC,M,M,M,M,M,M,M,HZ,M,M,M,M,M,M,94.76,VIDP 280930Z 29009KT 4000 HZ NSC 38/02 Q1007 NOSIG,M
VIDP,2022-03-28 10:00,100.40,35.60,10.63,290.00,10.00,0.00,29.71,M,2.80,M,NSC,M,M,M,M,M,M,M,HZ,M,M,M,M,M,M,94.76,VIDP 281000Z 29010KT 4500 HZ NSC 38/02 Q1006 NOSIG,M
VIDP,2022-03-28 10:30,100.40,35.60,10.63,290.00,9.00,0.00,29.71,M,2.80,M,NSC,M,M,M,M,M,M,M,HZ,M,M,M,M,M,M,94.76,VIDP 281030Z 29009KT 4500 HZ NSC 38/02 Q1006 NOSIG,M
VIDP,2022-03-28 11:00,100.40,35.60,10.63,300.00,9.00,0.00,29.71,M,2.80,M,NSC,M,M,M,M,M,M,M,HZ,M,M,M,M,M,M,94.76,VIDP 281100Z 30009KT 4500 HZ NSC 38/02 Q1006 NOSIG,M
VIDP,2022-03-28 11:30,98.60,30.20,9.04,300.00,9.00,0.00,29.71,M,2.80,M,NSC,M,M,M,M,M,M,M,HZ,M,M,M,M,M,M,92.46,VIDP 281130Z 30009KT 4500 HZ NSC 37/M01 Q1006 NOSIG,M
VIDP,2022-03-28 12:00,98.60,32.00,9.72,300.00,8.00,0.00,29.71,M,2.80,M,NSC,M,M,M,M,M,M,M,HZ,M,M,M,M,M,M,92.69,VIDP 281200Z 30008KT 4500 HZ NSC 37/00 Q1006 NOSIG,M
VIDP,2022-03-28 12:30,96.80,35.60,11.86,310.00,7.00,0.00,29.71,M,2.80,M,NSC,M,M,M,M,M,M,M,HZ,M,M,M,M,M,M,91.72,VIDP 281230Z 31007KT 4500 HZ NSC 36/02 Q1006 NOSIG,M
VIDP,2022-03-28 13:00,96.80,39.20,13.66,320.00,6.00,0.00,29.71,M,2.80,M,NSC,M,M,M,M,M,M,M,HZ,M,M,M,M,M,M,92.23,VIDP 281300Z 32006KT 4500 HZ NSC 36/04 Q1006 NOSIG,M
VIDP,2022-03-28 13:30,93.20,42.80,17.55,330.00,4.00,0.00,29.71,M,2.80,M,NSC,M,M,M,M,M,M,M,HZ,M,M,M,M,M,M,89.17,VIDP 281330Z 33004KT 4500 HZ NSC 34/06 Q1006 NOSIG,M
VIDP,2022-03-28 14:00,89.60,42.80,19.64,310.00,3.00,0.00,29.74,M,2.49,M,NSC,M,M,M,M,M,M,M,HZ,M,M,M,M,M,M,85.93,VIDP 281400Z 31003KT 4000 HZ NSC 32/06 Q1007 NOSIG,M
VIDP,2022-03-28 14:30,87.80,42.80,20.79,0.00,0.00,0.00,29.74,M,2.49,M,NSC,M,M,M,M,M,M,M,HZ,M,M,M,M,M,M,84.40,VIDP 281430Z 00000KT 4000 HZ NSC 31/06 Q1007 NOSIG,M
VIDP,2022-03-28 15:00,86.00,46.40,25.26,M,2.00,0.00,29.74,M,2.49,M,NSC,M,M,M,M,M,M,M,HZ,M,M,M,M,M,M,83.22,VIDP 281500Z VRB02KT 4000 HZ NSC 30/08 Q1007 NOSIG,M
VIDP,2022-03-28 15:30,84.20,48.20,28.63,0.00,0.00,0.00,29.74,M,2.49,M,NSC,M,M,M,M,M,M,M,HZ,M,M,M,M,M,M,82.04,VIDP 281530Z 00000KT 4000 HZ NSC 29/09 Q1007 NOSIG,M
VIDP,2022-03-28 16:00,84.20,48.20,28.63,0.00,0.00,0.00,29.74,M,2.49,M,NSC,M,M,M,M,M,M,M,HZ,M,M,M,M,M,M,82.04,VIDP 281600Z 00000KT 4000 HZ NSC 29/09 Q1007 NOSIG,M
VIDP,2022-03-28 16:30,82.40,50.00,32.46,0.00,0.00,0.00,29.74,M,2.49,M,NSC,M,M,M,M,M,M,M,HZ,M,M,M,M,M,M,80.99,VIDP 281630Z 00000KT 4000 HZ NSC 28/10 Q1007 NOSIG,M
VIDP,2022-03-28 17:00,80.60,51.80,36.79,0.00,0.00,0.00,29.74,M,2.49,M,NSC,M,M,M,M,M,M,M,HZ,M,M,M,M,M,M,80.08,VIDP 281700Z 00000KT 4000 HZ NSC 27/11 Q1007 NOSIG,M
VIDP,2022-03-28 17:30,80.60,48.20,32.18,0.00,0.00,0.00,29.74,M,2.49,M,NSC,M,M,M,M,M,M,M,HZ,M,M,M,M,M,M,79.71,VIDP 281730Z 00000KT 4000 HZ NSC 27/09 Q1007 NOSIG,M
VIDP,2022-03-28 18:00,78.80,51.80,39.02,0.00,0.00,0.00,29.74,M,2.17,M,NSC,M,M,M,M,M,M,M,HZ,M,M,M,M,M,M,78.80,VIDP 281800Z 00000KT 3500 HZ NSC 26/11 Q1007 NOSIG,M
VIDP,2022-03-28 18:30,80.60,53.60,39.30,0.00,0.00,0.00,29.74,M,2.17,M,NSC,M,M,M,M,M,M,M,HZ,M,M,M,M,M,M,80.29,VIDP 281830Z 00000KT 3500 HZ NSC 27/12 Q1007 NOSIG,M
VIDP,2022-03-28 19:00,78.80,53.60,41.69,280.00,4.00,0.00,29.74,M,2.17,M,NSC,M,M,M,M,M,M,M,HZ,M,M,M,M,M,M,78.80,VIDP 281900Z 28004KT 3500 HZ NSC 26/12 Q1007 NOSIG,M
VIDP,2022-03-28 19:30,78.80,53.60,41.69,0.00,0.00,0.00,29.74,M,2.17,M,NSC,M,M,M,M,M,M,M,HZ,M,M,M,M,M,M,78.80,VIDP 281930Z 00000KT 3500 HZ NSC 26/12 Q1007 NOSIG,M
VIDP,2022-03-28 20:00,77.00,55.40,47.25,0.00,0.00,0.00,29.74,M,2.17,M,NSC,M,M,M,M,M,M,M,HZ,M,M,M,M,M,M,77.00,VIDP 282000Z 00000KT 3500 HZ NSC 25/13 Q1007 NOSIG,M
VIDP,2022-03-28 20:30,77.00,53.60,44.25,270.00,3.00,0.00,29.74,M,2.17,M,NSC,M,M,M,M,M,M,M,HZ,M,M,M,M,M,M,77.00,VIDP 282030Z 27003KT 3500 HZ NSC 25/12 Q1007 NOSIG,M
VIDP,2022-03-28 21:00,75.20,51.80,43.97,0.00,0.00,0.00,29.71,M,2.17,M,NSC,M,M,M,M,M,M,M,HZ,M,M,M,M,M,M,75.20,VIDP 282100Z 00000KT 3500 HZ NSC 24/11 Q1006 NOSIG,M
VIDP,2022-03-28 21:30,75.20,51.80,43.97,0.00,0.00,0.00,29.71,M,1.99,M,NSC,M,M,M,M,M,M,M,HZ,M,M,M,M,M,M,75.20,VIDP 282130Z 00000KT 3200 HZ NSC 24/11 Q1006 NOSIG,M
VIDP,2022-03-28 22:00,75.20,51.80,43.97,0.00,0.00,0.00,29.74,M,1.99,M,NSC,M,M,M,M,M,M,M,HZ,M,M,M,M,M,M,75.20,VIDP 282200Z 00000KT 3200 HZ NSC 24/11 Q1007 NOSIG,M
VIDP,2022-03-28 22:30,75.20,50.00,41.14,M,2.00,0.00,29.71,M,1.99,M,NSC,M,M,M,M,M,M,M,HZ,M,M,M,M,M,M,75.20,VIDP 282230Z VRB02KT 3200 HZ NSC 24/10 Q1006 NOSIG,M
VIDP,2022-03-28 23:00,75.20,48.20,38.46,M,2.00,0.00,29.71,M,1.99,M,NSC,M,M,M,M,M,M,M,HZ,M,M,M,M,M,M,75.20,VIDP 282300Z VRB02KT 3200 HZ NSC 24/09 Q1006 NOSIG,M
VIDP,2022-03-28 23:30,73.40,50.00,43.69,M,2.00,0.00,29.71,M,1.99,M,NSC,M,M,M,M,M,M,M,HZ,M,M,M,M,M,M,73.40,VIDP 282330Z VRB02KT 3200 HZ NSC 23/10 Q1006 NOSIG,M
VIDP,2022-03-29 00:00,75.20,50.00,41.14,0.00,0.00,0.00,29.71,M,1.99,M,NSC,M,M,M,M,M,M,M,HZ,M,M,M,M,M,M,75.20,VIDP 290000Z 00000KT 3200 HZ NSC 24/10 Q1006 NOSIG,M
VIDP,2022-03-29 00:30,75.20,50.00,41.14,M,2.00,0.00,29.71,M,1.99,M,NSC,M,M,M,M,M,M,M,HZ,M,M,M,M,M,M,75.20,VIDP 290030Z VRB02KT 3200 HZ NSC 24/10 Q1006 BECMG 3000 HZ,M
VIDP,2022-03-29 01:00,75.20,48.20,38.46,M,2.00,0.00,29.71,M,1.68,M,NSC,M,M,M,M,M,M,M,HZ,M,M,M,M,M,M,75.20,VIDP 290100Z VRB02KT 2700 HZ NSC 24/09 Q1006 NOSIG,M
VIDP,2022-03-29 01:30,75.20,46.40,35.94,M,2.00,0.00,29.74,M,1.37,M,NSC,M,M,M,M,M,M,M,HZ,M,M,M,M,M,M,75.20,VIDP 290130Z VRB02KT 2200 HZ NSC 24/08 Q1007 NOSIG,M
VIDP,2022-03-29 02:00,77.00,46.40,33.85,M,2.00,0.00,29.74,M,1.24,M,NSC,M,M,M,M,M,M,M,HZ,M,M,M,M,M,M,77.00,VIDP 290200Z VRB02KT 2000 HZ NSC 25/08 Q1007 NOSIG,M
VIDP,2022-03-29 02:30,78.80,46.40,31.90,260.00,3.00,0.00,29.77,M,1.24,M,NSC,M,M,M,M,M,M,M,HZ,M,M,M,M,M,M,78.80,VIDP 290230Z 26003KT 2000 HZ NSC 26/08 Q1008 NOSIG,M
VIDP,2022-03-29 03:00,80.60,42.80,26.22,250.00,3.00,0.00,29.77,M,1.37,M,NSC,M,M,M,M,M,M,M,HZ,M,M,M,M,M,M,79.30,VIDP 290300Z 25003KT 2200 HZ NSC 27/06 Q1008 NOSIG,M
VIDP,2022-03-29 03:30,82.40,41.00,23.07,230.00,4.00,0.00,29.77,M,1.55,M,NSC,M,M,M,M,M,M,M,HZ,M,M,M,M,M,M,80.29,VIDP 290330Z 23004KT 2500 HZ NSC 28/05 Q1008 NOSIG,M
VIDP,2022-03-29 04:00,86.00,42.80,22.02,250.00,7.00,0.00,29.77,M,1.55,M,NSC,M,M,M,M,M,M,M,HZ,M,M,M,M,M,M,82.95,VIDP 290400Z 25007KT 2500 HZ NSC 30/06 Q1008 NOSIG,M
VIDP,2022-03-29 04:30,87.80,44.60,22.27,260.00,5.00,0.00,29.77,M,1.74,M,NSC,M,M,M,M,M,M,M,HZ,M,M,M,M,M,M,84.53,VIDP 290430Z 26005KT 2800 HZ NSC 31/07 Q1008 NOSIG,M
VIDP,2022-03-29 05:00,91.40,44.60,19.89,270.00,4.00,0.00,29.77,M,1.74,M,NSC,M,M,M,M,M,M,M,HZ,M,M,M,M,M,M,87.68,VIDP 290500Z 27004KT 2800 HZ NSC 33/07 Q1008 NOSIG,M
VIDP,2022-03-29 05:30,93.20,42.80,17.55,290.00,3.00,0.00,29.77,M,1.74,M,NSC,M,M,M,M,M,M,M,HZ,M,M,M,M,M,M,89.17,VIDP 290530Z 29003KT 2800 HZ NSC 34/06 Q1008 NOSIG,M
VIDP,2022-03-29 06:00,95.00,39.20,14.44,280.00,5.00,0.00,29.77,M,1.74,M,NSC,M,M,M,M,M,M,M,HZ,M,M,M,M,M,M,90.57,VIDP 290600Z 28005KT 2800 HZ NSC 35/04 Q1008 NOSIG,M
VIDP,2022-03-29 06:30,96.80,39.20,13.66,280.00,4.00,0.00,29.77,M,1.74,M,NSC,M,M,M,M,M,M,M,HZ,M,M,M,M,M,M,92.23,VIDP 290630Z 28004KT 2800 HZ NSC 36/04 Q1008 BECMG 3000 HZ,M
VIDP,2022-03-29 07:00,100.40,39.20,12.25,270.00,5.00,0.00,29.74,M,1.86,M,NSC,M,M,M,M,M,M,M,HZ,M,M,M,M,M,M,95.43,VIDP 290700Z 27005KT 3000 HZ NSC 38/04 Q1007 NOSIG,M
VIDP,2022-03-29 07:30,100.40,37.40,11.41,290.00,5.00,0.00,29.74,M,1.86,M,NSC,M,M,M,M,M,M,M,HZ,M,M,M,M,M,M,95.08,VIDP 290730Z 29005KT 3000 HZ NSC 38/03 Q1007 NOSIG,M
VIDP,2022-03-29 08:00,102.20,37.40,10.81,280.00,7.00,0.00,29.71,M,1.86,M,NSC,M,M,M,M,M,M,M,HZ,M,M,M,M,M,M,96.63,VIDP 290800Z 28007KT 3000 HZ NSC 39/03 Q1006 NOSIG,M
VIDP,2022-03-29 08:30,102.20,35.60,10.07,280.00,9.00,0.00,29.71,M,2.49,M,NSC,M,M,M,M,M,M,M,HZ,M,M,M,M,M,M,96.30,VIDP 290830Z 28009KT 4000 HZ NSC 39/02 Q1006 NOSIG,M
VIDP,2022-03-29 09:00,104.00,33.80,8.88,290.00,9.00,0.00,29.71,M,2.49,M,NSC,M,M,M,M,M,M,M,HZ,M,M,M,M,M,M,97.55,VIDP 290900Z 29009KT 4000 HZ NSC 40/01 Q1006 NOSIG,M
VIDP,2022-03-29 09:30,104.00,33.80,8.88,310.00,10.00,0.00,29.68,M,2.49,M,NSC,M,M,M,M,M,M,M,HZ,M,M,M,M,M,M,97.55,VIDP 290930Z 31010KT 4000 HZ NSC 40/01 Q1005 NOSIG,M
VIDP,2022-03-29 10:00,104.00,33.80,8.88,290.00,10.00,0.00,29.68,M,2.49,M,NSC,M,M,M,M,M,M,M,HZ,M,M,M,M,M,M,97.55,VIDP 291000Z 29010KT 4000 HZ NSC 40/01 Q1005 NOSIG,M
VIDP,2022-03-29 10:30,102.20,35.60,10.07,280.00,10.00,0.00,29.68,M,2.49,M,NSC,M,M,M,M,M,M,M,HZ,M,M,M,M,M,M,96.30,VIDP 291030Z 28010KT 4000 HZ NSC 39/02 Q1005 NOSIG,M
VIDP,2022-03-29 11:00,102.20,37.40,10.81,300.00,9.00,0.00,29.68,M,2.49,M,NSC,M,M,M,M,M,M,M,HZ,M,M,M,M,M,M,96.63,VIDP 291100Z 30009KT 4000 HZ NSC 39/03 Q1005 NOSIG,M
VIDP,2022-03-29 11:30,102.20,39.20,11.60,290.00,7.00,0.00,29.68,M,2.49,M,NSC,M,M,M,M,M,M,M,HZ,M,M,M,M,M,M,96.99,VIDP 291130Z 29007KT 4000 HZ NSC 39/04 Q1005 NOSIG,M
VIDP,2022-03-29 12:00,100.40,41.00,13.14,330.00,7.00,0.00,29.68,M,2.49,M,NSC,M,M,M,M,M,M,M,HZ,M,M,M,M,M,M,95.79,VIDP 291200Z 33007KT 4000 HZ NSC 38/05 Q1005 NOSIG,M
VIDP,2022-03-29 12:30,98.60,41.00,13.87,320.00,7.00,0.00,29.68,M,2.49,M,NSC,M,M,M,M,M,M,M,HZ,M,M,M,M,M,M,94.09,VIDP 291230Z 32007KT 4000 HZ NSC 37/05 Q1005 NOSIG,M
VIDP,2022-03-29 13:00,96.80,42.80,15.71,330.00,4.00,0.00,29.68,M,2.49,M,NSC,M,M,M,M,M,M,M,HZ,M,M,M,M,M,M,92.57,VIDP 291300Z 33004KT 4000 HZ NSC 36/06 Q1005 NOSIG,M
VIDP,2022-03-29 13:30,95.00,44.60,17.78,0.00,0.00,0.00,29.68,M,2.49,M,NSC,M,M,M,M,M,M,M,HZ,M,M,M,M,M,M,91.06,VIDP 291330Z 00000KT 4000 HZ NSC 35/07 Q1005 NOSIG,M
VIDP,2022-03-29 14:00,93.20,46.40,20.13,0.00,0.00,0.00,29.68,M,2.49,M,NSC,M,M,M,M,M,M,M,HZ,M,M,M,M,M,M,89.55,VIDP 291400Z 00000KT 4000 HZ NSC 34/08 Q1005 NOSIG,M
VIDP,2022-03-29 14:30,89.60,46.40,22.53,0.00,0.00,0.00,29.68,M,2.49,M,NSC,M,M,M,M,M,M,M,HZ,M,M,M,M,M,M,86.24,VIDP 291430Z 00000KT 4000 HZ NSC 32/08 Q1005 NOSIG,M
VIDP,2022-03-29 15:00,87.80,48.20,25.52,0.00,0.00,0.00,29.71,M,2.49,M,NSC,M,M,M,M,M,M,M,HZ,M,M,M,M,M,M,84.87,VIDP 291500Z 00000KT 4000 HZ NSC 31/09 Q1006 NOSIG,M
VIDP,2022-03-29 15:30,86.00,50.00,28.90,0.00,0.00,0.00,29.71,M,2.49,M,NSC,M,M,M,M,M,M,M,HZ,M,M,M,M,M,M,83.62,VIDP 291530Z 00000KT 4000 HZ NSC 30/10 Q1006 NOSIG,M
VIDP,2022-03-29 16:00,86.00,50.00,28.90,0.00,0.00,0.00,29.71,M,2.49,M,NSC,M,M,M,M,M,M,M,HZ,M,M,M,M,M,M,83.62,VIDP 291600Z 00000KT 4000 HZ NSC 30/10 Q1006 NOSIG,M
VIDP,2022-03-29 16:30,84.20,50.00,30.62,0.00,0.00,0.00,29.71,M,2.49,M,NSC,M,M,M,M,M,M,M,HZ,M,M,M,M,M,M,82.24,VIDP 291630Z 00000KT 4000 HZ NSC 29/10 Q1006 NOSIG,M
VIDP,2022-03-29 17:00,82.40,50.00,32.46,0.00,0.00,0.00,29.71,M,2.49,M,NSC,M,M,M,M,M,M,M,HZ,M,M,M,M,M,M,80.99,VIDP 291700Z 00000KT 4000 HZ NSC 28/10 Q1006 NOSIG,M
VIDP,2022-03-29 17:30,80.60,51.80,36.79,0.00,0.00,0.00,29.71,M,2.17,M,NSC,M,M,M,M,M,M,M,HZ,M,M,M,M,M,M,80.08,VIDP 291730Z 00000KT 3500 HZ NSC 27/11 Q1006 NOSIG,M
VIDP,2022-03-29 18:00,78.80,53.60,41.69,0.00,0.00,0.00,29.71,M,2.17,M,NSC,M,M,M,M,M,M,M,HZ,M,M,M,M,M,M,78.80,VIDP 291800Z 00000KT 3500 HZ NSC 26/12 Q1006 NOSIG,M
VIDP,2022-03-29 18:30,78.80,53.60,41.69,0.00,0.00,0.00,29.71,M,2.17,M,NSC,M,M,M,M,M,M,M,HZ,M,M,M,M,M,M,78.80,VIDP 291830Z 00000KT 3500 HZ NSC 26/12 Q1006 NOSIG,M
VIDP,2022-03-29 19:00,78.80,55.40,44.52,0.00,0.00,0.00,29.71,M,2.17,M,NSC,M,M,M,M,M,M,M,HZ,M,M,M,M,M,M,78.80,VIDP 291900Z 00000KT 3500 HZ NSC 26/13 Q1006 NOSIG,M
VIDP,2022-03-29 19:30,78.80,55.40,44.52,0.00,0.00,0.00,29.71,M,2.17,M,NSC,M,M,M,M,M,M,M,HZ,M,M,M,M,M,M,78.80,VIDP 291930Z 00000KT 3500 HZ NSC 26/13 Q1006 NOSIG,M
VIDP,2022-03-29 20:00,78.80,55.40,44.52,0.00,0.00,0.00,29.71,M,2.17,M,NSC,M,M,M,M,M,M,M,HZ,M,M,M,M,M,M,78.80,VIDP 292000Z 00000KT 3500 HZ NSC 26/13 Q1006 NOSIG,M
VIDP,2022-03-29 20:30,78.80,55.40,44.52,0.00,0.00,0.00,29.71,M,2.17,M,NSC,M,M,M,M,M,M,M,HZ,M,M,M,M,M,M,78.80,VIDP 292030Z 00000KT 3500 HZ NSC 26/13 Q1006 NOSIG,M
VIDP,2022-03-29 21:00,78.80,55.40,44.52,0.00,0.00,0.00,29.68,M,2.17,M,NSC,M,M,M,M,M,M,M,HZ,M,M,M,M,M,M,78.80,VIDP 292100Z 00000KT 3500 HZ NSC 26/13 Q1005 NOSIG,M
VIDP,2022-03-29 21:30,78.80,55.40,44.52,0.00,0.00,0.00,29.68,M,2.17,M,NSC,M,M,M,M,M,M,M,HZ,M,M,M,M,M,M,78.80,VIDP 292130Z 00000KT 3500 HZ NSC 26/13 Q1005 NOSIG,M
VIDP,2022-03-29 22:00,77.00,55.40,47.25,0.00,0.00,0.00,29.68,M,2.17,M,NSC,M,M,M,M,M,M,M,HZ,M,M,M,M,M,M,77.00,VIDP 292200Z 00000KT 3500 HZ NSC 25/13 Q1005 NOSIG,M
VIDP,2022-03-29 22:30,75.20,55.40,50.17,240.00,3.00,0.00,29.68,M,2.17,M,NSC,M,M,M,M,M,M,M,HZ,M,M,M,M,M,M,75.20,VIDP 292230Z 24003KT 3500 HZ NSC 24/13 Q1005 NOSIG,M
VIDP,2022-03-29 23:00,75.20,55.40,50.17,0.00,0.00,0.00,29.68,M,2.17,M,NSC,M,M,M,M,M,M,M,HZ,M,M,M,M,M,M,75.20,VIDP 292300Z 00000KT 3500 HZ NSC 24/13 Q1005 NOSIG,M
VIDP,2022-03-29 23:30,75.20,55.40,50.17,0.00,0.00,0.00,29.68,M,1.99,M,NSC,M,M,M,M,M,M,M,HZ,M,M,M,M,M,M,75.20,VIDP 292330Z 00000KT 3200 HZ NSC 24/13 Q1005 NOSIG,M
VIDP,2022-03-30 00:00,75.20,55.40,50.17,0.00,0.00,0.00,29.68,M,1.99,M,NSC,M,M,M,M,M,M,M,HZ,M,M,M,M,M,M,75.20,VIDP 300000Z 00000KT 3200 HZ NSC 24/13 Q1005 NOSIG,M
VIDP,2022-03-30 00:30,75.20,55.40,50.17,0.00,0.00,0.00,29.71,M,1.99,M,NSC,M,M,M,M,M,M,M,HZ,M,M,M,M,M,M,75.20,VIDP 300030Z 00000KT 3200 HZ NSC 24/13 Q1006 BECMG 3000 HZ,M
VIDP,2022-03-30 01:00,75.20,55.40,50.17,0.00,0.00,0.00,29.71,M,1.86,M,NSC,M,M,M,M,M,M,M,HZ,M,M,M,M,M,M,75.20,VIDP 300100Z 00000KT 3000 HZ NSC 24/13 Q1006,M
VIDP,2022-03-30 02:00,77.00,53.60,44.25,0.00,0.00,0.00,29.74,M,1.55,M,NSC,M,M,M,M,M,M,M,HZ,M,M,M,M,M,M,77.00,VIDP 300200Z 00000KT 2500 HZ NSC 25/12 Q1007 NOSIG,M
VIDP,2022-03-30 02:30,78.80,53.60,41.69,0.00,0.00,0.00,29.74,M,1.55,M,NSC,M,M,M,M,M,M,M,HZ,M,M,M,M,M,M,78.80,VIDP 300230Z 00000KT 2500 HZ NSC 26/12 Q1007 NOSIG,M
VIDP,2022-03-30 03:00,80.60,53.60,39.30,280.00,3.00,0.00,29.77,M,1.55,M,NSC,M,M,M,M,M,M,M,HZ,M,M,M,M,M,M,80.29,VIDP 300300Z 28003KT 2500 HZ NSC 27/12 Q1008 NOSIG,M
VIDP,2022-03-30 03:30,84.20,51.80,32.73,260.00,3.00,0.00,29.77,M,1.74,M,NSC,M,M,M,M,M,M,M,HZ,M,M,M,M,M,M,82.48,VIDP 300330Z 26003KT 2800 HZ NSC 29/11 Q1008 BECMG 3000 HZ,M
VIDP,2022-03-30 04:00,87.80,48.20,25.52,240.00,3.00,0.00,29.80,M,1.86,M,NSC,M,M,M,M,M,M,M,HZ,M,M,M,M,M,M,84.87,VIDP 300400Z 24003KT 3000 HZ NSC 31/09 Q1009 NOSIG,M
VIDP,2022-03-30 04:30,89.60,48.20,24.11,280.00,3.00,0.00,29.80,M,1.86,M,NSC,M,M,M,M,M,M,M,HZ,M,M,M,M,M,M,86.44,VIDP 300430Z 28003KT 3000 HZ NSC 32/09 Q1009 NOSIG,M
VIDP,2022-03-30 05:00,91.40,48.20,22.78,260.00,3.00,0.00,29.80,M,2.17,M,NSC,M,M,M,M,M,M,M,HZ,M,M,M,M,M,M,88.09,VIDP 300500Z 26003KT 3500 HZ NSC 33/09 Q1009 NOSIG,M
VIDP,2022-03-30 05:30,93.20,48.20,21.54,270.00,3.00,0.00,29.80,M,2.49,M,NSC,M,M,M,M,M,M,M,HZ,M,M,M,M,M,M,89.80,VIDP 300530Z 27003KT 4000 HZ NSC 34/09 Q1009 NOSIG,M
VIDP,2022-03-30 06:00,96.80,48.20,19.28,M,3.00,0.00,29.80,M,2.49,M,NSC,M,M,M,M,M,M,M,HZ,M,M,M,M,M,M,93.36,VIDP 300600Z VRB03KT 4000 HZ NSC 36/09 Q1009 NOSIG,M
VIDP,2022-03-30 06:30,98.60,48.20,18.25,M,3.00,0.00,29.77,M,2.49,M,NSC,M,M,M,M,M,M,M,HZ,M,M,M,M,M,M,95.17,VIDP 300630Z VRB03KT 4000 HZ NSC 37/09 Q1008 NOSIG,M
VIDP,2022-03-30 07:00,100.40,44.60,15.08,M,3.00,0.00,29.77,M,2.49,M,NSC,M,M,M,M,M,M,M,HZ,M,M,M,M,M,M,96.31,VIDP 300700Z VRB03KT 4000 HZ NSC 38/07 Q1008 NOSIG,M
VIDP,2022-03-30 07:30,100.40,41.00,13.14,280.00,3.00,0.00,29.74,M,2.49,M,NSC,M,M,M,M,M,M,M,HZ,M,M,M,M,M,M,95.79,VIDP 300730Z 28003KT 4000 HZ NSC 38/05 Q1007 NOSIG,M
VIDP,2022-03-30 08:00,100.40,37.40,11.41,270.00,3.00,0.00,29.74,M,2.80,M,NSC,M,M,M,M,M,M,M,HZ,M,M,M,M,M,M,95.08,VIDP 300800Z 27003KT 4500 HZ NSC 38/03 Q1007 BECMG 5000 HZ,M
VIDP,2022-03-30 08:30,100.40,35.60,10.63,290.00,3.00,0.00,29.71,M,3.11,M,NSC,M,M,M,M,M,M,M,HZ,M,M,M,M,M,M,94.76,VIDP 300830Z 29003KT 5000 HZ NSC 38/02 Q1006 NOSIG,M
VIDP,2022-03-30 09:00,102.20,35.60,10.07,270.00,3.00,0.00,29.71,M,3.11,M,NSC,M,M,M,M,M,M,M,HZ,M,M,M,M,M,M,96.30,VIDP 300900Z 27003KT 5000 HZ NSC 39/02 Q1006 NOSIG,M
VIDP,2022-03-30 09:30,102.20,35.60,10.07,290.00,3.00,0.00,29.71,M,3.11,M,NSC,M,M,M,M,M,M,M,HZ,M,M,M,M,M,M,96.30,VIDP 300930Z 29003KT 5000 HZ NSC 39/02 Q1006 NOSIG,M
VIDP,2022-03-30 10:00,102.20,35.60,10.07,280.00,4.00,0.00,29.68,M,3.11,M,NSC,M,M,M,M,M,M,M,HZ,M,M,M,M,M,M,96.30,VIDP 301000Z 28004KT 5000 HZ NSC 39/02 Q1005 NOSIG,M
VIDP,2022-03-30 10:30,102.20,33.80,9.37,310.00,4.00,0.00,29.68,M,3.11,M,NSC,M,M,M,M,M,M,M,HZ,M,M,M,M,M,M,96.01,VIDP 301030Z 31004KT 5000 HZ NSC 39/01 Q1005 NOSIG,M
VIDP,2022-03-30 11:00,100.40,33.80,9.90,320.00,5.00,0.00,29.68,M,3.11,M,NSC,M,M,M,M,M,M,M,HZ,M,M,M,M,M,M,94.47,VIDP 301100Z 32005KT 5000 HZ NSC 38/01 Q1005 NOSIG,M
VIDP,2022-03-30 11:30,100.40,33.80,9.90,320.00,5.00,0.00,29.68,M,3.11,M,NSC,M,M,M,M,M,M,M,HZ,M,M,M,M,M,M,94.47,VIDP 301130Z 32005KT 5000 HZ NSC 38/01 Q1005 NOSIG,M
VIDP,2022-03-30 12:00,98.60,37.40,12.05,290.00,4.00,0.00,29.68,M,3.11,M,NSC,M,M,M,M,M,M,M,HZ,M,M,M,M,M,M,93.54,VIDP 301200Z 29004KT 5000 HZ NSC 37/03 Q1005 NOSIG,M
VIDP,2022-03-30 12:30,98.60,39.20,12.94,310.00,3.00,0.00,29.71,M,3.11,M,NSC,M,M,M,M,M,M,M,HZ,M,M,M,M,M,M,93.89,VIDP 301230Z 31003KT 5000 HZ NSC 37/04 Q1006 NOSIG,M
VIDP,2022-03-30 13:00,96.80,41.00,14.66,40.00,3.00,0.00,29.71,M,2.80,M,NSC,M,M,M,M,M,M,M,HZ,M,M,M,M,M,M,92.39,VIDP 301300Z 04003KT 4500 HZ NSC 36/05 Q1006 NOSIG,M
VIDP,2022-03-30 13:30,95.00,44.60,17.78,50.00,4.00,0.00,29.71,M,2.49,M,NSC,M,M,M,M,M,M,M,HZ,M,M,M,M,M,M,91.06,VIDP 301330Z 05004KT 4000 HZ NSC 35/07 Q1006 NOSIG,M
VIDP,2022-03-30 14:00,93.20,46.40,20.13,40.00,3.00,0.00,29.71,M,2.49,M,NSC,M,M,M,M,M,M,M,HZ,M,M,M,M,M,M,89.55,VIDP 301400Z 04003KT 4000 HZ NSC 34/08 Q1006 NOSIG,M
VIDP,2022-03-30 14:30,89.60,44.60,21.04,80.00,3.00,0.00,29.71,M,2.49,M,NSC,M,M,M,M,M,M,M,HZ,M,M,M,M,M,M,86.07,VIDP 301430Z 08003KT 4000 HZ NSC 32/07 Q1006 NOSIG,M
VIDP,2022-03-30 15:00,86.00,46.40,25.26,100.00,3.00,0.00,29.74,M,2.49,M,NSC,M,M,M,M,M,M,M,HZ,M,M,M,M,M,M,83.22,VIDP 301500Z 10003KT 4000 HZ NSC 30/08 Q1007 NOSIG,M
VIDP,2022-03-30 15:30,86.00,46.40,25.26,100.00,3.00,0.00,29.74,M,2.49,M,NSC,M,M,M,M,M,M,M,HZ,M,M,M,M,M,M,83.22,VIDP 301530Z 10003KT 4000 HZ NSC 30/08 Q1007 NOSIG,M
VIDP,2022-03-30 16:00,86.00,46.40,25.26,90.00,3.00,0.00,29.74,M,2.49,M,NSC,M,M,M,M,M,M,M,HZ,M,M,M,M,M,M,83.22,VIDP 301600Z 09003KT 4000 HZ NSC 30/08 Q1007 NOSIG,M
VIDP,2022-03-30 16:30,84.20,46.40,26.76,100.00,3.00,0.00,29.74,M,2.49,M,NSC,M,M,M,M,M,M,M,HZ,M,M,M,M,M,M,81.87,VIDP 301630Z 10003KT 4000 HZ NSC 29/08 Q1007 NOSIG,M
VIDP,2022-03-30 17:00,84.20,50.00,30.62,90.00,4.00,0.00,29.74,M,2.49,M,NSC,M,M,M,M,M,M,M,HZ,M,M,M,M,M,M,82.24,VIDP 301700Z 09004KT 4000 HZ NSC 29/10 Q1007 NOSIG,M
VIDP,2022-03-30 17:30,82.40,50.00,32.46,0.00,0.00,0.00,29.74,M,2.49,M,NSC,M,M,M,M,M,M,M,HZ,M,M,M,M,M,M,80.99,VIDP 301730Z 00000KT 4000 HZ NSC 28/10 Q1007 NOSIG,M
VIDP,2022-03-30 18:00,82.40,50.00,32.46,0.00,0.00,0.00,29.74,M,2.49,M,NSC,M,M,M,M,M,M,M,HZ,M,M,M,M,M,M,80.99,VIDP 301800Z 00000KT 4000 HZ NSC 28/10 Q1007 NOSIG,M
VIDP,2022-03-30 18:30,82.40,51.80,34.69,0.00,0.00,0.00,29.74,M,2.49,M,NSC,M,M,M,M,M,M,M,HZ,M,M,M,M,M,M,81.20,VIDP 301830Z 00000KT 4000 HZ NSC 28/11 Q1007 NOSIG,M
VIDP,2022-03-30 19:00,80.60,51.80,36.79,130.00,4.00,0.00,29.74,M,2.49,M,NSC,M,M,M,M,M,M,M,HZ,M,M,M,M,M,M,80.08,VIDP 301900Z 13004KT 4000 HZ NSC 27/11 Q1007 NOSIG,M
VIDP,2022-03-30 19:30,80.60,51.80,36.79,120.00,4.00,0.00,29.74,M,2.17,M,NSC,M,M,M,M,M,M,M,HZ,M,M,M,M,M,M,80.08,VIDP 301930Z 12004KT 3500 HZ NSC 27/11 Q1007 NOSIG,M
VIDP,2022-03-30 20:00,80.60,51.80,36.79,130.00,5.00,0.00,29.74,M,2.17,M,NSC,M,M,M,M,M,M,M,HZ,M,M,M,M,M,M,80.08,VIDP 302000Z 13005KT 3500 HZ NSC 27/11 Q1007 NOSIG,M
VIDP,2022-03-30 20:30,80.60,51.80,36.79,0.00,0.00,0.00,29.74,M,2.17,M,NSC,M,M,M,M,M,M,M,HZ,M,M,M,M,M,M,80.08,VIDP 302030Z 00000KT 3500 HZ NSC 27/11 Q1007 NOSIG,M
VIDP,2022-03-30 21:00,78.80,51.80,39.02,0.00,0.00,0.00,29.71,M,2.17,M,NSC,M,M,M,M,M,M,M,HZ,M,M,M,M,M,M,78.80,VIDP 302100Z 00000KT 3500 HZ NSC 26/11 Q1006 NOSIG,M
VIDP,2022-03-30 21:30,77.00,51.80,41.42,0.00,0.00,0.00,29.71,M,2.17,M,NSC,M,M,M,M,M,M,M,HZ,M,M,M,M,M,M,77.00,VIDP 302130Z 00000KT 3500 HZ NSC 25/11 Q1006 NOSIG,M
VIDP,2022-03-30 22:00,77.00,51.80,41.42,0.00,0.00,0.00,29.71,M,2.17,M,NSC,M,M,M,M,M,M,M,HZ,M,M,M,M,M,M,77.00,VIDP 302200Z 00000KT 3500 HZ NSC 25/11 Q1006 NOSIG,M
VIDP,2022-03-30 22:30,75.20,51.80,43.97,0.00,0.00,0.00,29.71,M,2.17,M,NSC,M,M,M,M,M,M,M,HZ,M,M,M,M,M,M,75.20,VIDP 302230Z 00000KT 3500 HZ NSC 24/11 Q1006 NOSIG,M
VIDP,2022-03-30 23:00,75.20,53.60,46.98,90.00,3.00,0.00,29.71,M,1.99,M,NSC,M,M,M,M,M,M,M,HZ,M,M,M,M,M,M,75.20,VIDP 302300Z 09003KT 3200 HZ NSC 24/12 Q1006 NOSIG,M
VIDP,2022-03-30 23:30,73.40,53.60,49.90,60.00,3.00,0.00,29.71,M,1.99,M,NSC,M,M,M,M,M,M,M,HZ,M,M,M,M,M,M,73.40,VIDP 302330Z 06003KT 3200 HZ NSC 23/12 Q1006 NOSIG,M
VIDP,2022-03-31 00:00,75.20,51.80,43.97,70.00,3.00,0.00,29.71,M,1.86,M,NSC,M,M,M,M,M,M,M,HZ,M,M,M,M,M,M,75.20,VIDP 310000Z 07003KT 3000 HZ NSC 24/11 Q1006 NOSIG,M
VIDP,2022-03-31 00:30,75.20,51.80,43.97,90.00,3.00,0.00,29.74,M,1.74,M,NSC,M,M,M,M,M,M,M,HZ,M,M,M,M,M,M,75.20,VIDP 310030Z 09003KT 2800 HZ NSC 24/11 Q1007 NOSIG,M
VIDP,2022-03-31 01:00,75.20,51.80,43.97,100.00,3.00,0.00,29.74,M,1.55,M,NSC,M,M,M,M,M,M,M,HZ,M,M,M,M,M,M,75.20,VIDP 310100Z 10003KT 2500 HZ NSC 24/11 Q1007 NOSIG,M
VIDP,2022-03-31 01:30,75.20,51.80,43.97,100.00,3.00,0.00,29.74,M,1.24,M,NSC,M,M,M,M,M,M,M,HZ,M,M,M,M,M,M,75.20,VIDP 310130Z 10003KT 2000 HZ NSC 24/11 Q1007 NOSIG,M
VIDP,2022-03-31 02:00,78.80,50.00,36.51,100.00,4.00,0.00,29.74,M,1.24,M,NSC,M,M,M,M,M,M,M,HZ,M,M,M,M,M,M,78.80,VIDP 310200Z 10004KT 2000 HZ NSC 26/10 Q1007 NOSIG,M
VIDP,2022-03-31 02:30,82.40,48.20,30.35,130.00,5.00,0.00,29.77,M,1.37,M,NSC,M,M,M,M,M,M,M,HZ,M,M,M,M,M,M,80.80,VIDP 310230Z 13005KT 2200 HZ NSC 28/09 Q1008 NOSIG,M
VIDP,2022-03-31 03:00,84.20,48.20,28.63,130.00,4.00,0.00,29.77,M,1.55,M,NSC,M,M,M,M,M,M,M,HZ,M,M,M,M,M,M,82.04,VIDP 310300Z 13004KT 2500 HZ NSC 29/09 Q1008 NOSIG,M
VIDP,2022-03-31 03:30,87.80,48.20,25.52,150.00,5.00,0.00,29.80,M,1.55,M,NSC,M,M,M,M,M,M,M,HZ,M,M,M,M,M,M,84.87,VIDP 310330Z 15005KT 2500 HZ NSC 31/09 Q1009 NOSIG,M
VIDP,2022-03-31 04:00,89.60,48.20,24.11,150.00,4.00,0.00,29.80,M,1.55,M,NSC,M,M,M,M,M,M,M,HZ,M,M,M,M,M,M,86.44,VIDP 310400Z 15004KT 2500 HZ NSC 32/09 Q1009 NOSIG,M
VIDP,2022-03-31 04:30,91.40,46.40,21.29,120.00,7.00,0.00,29.80,M,1.74,M,NSC,M,M,M,M,M,M,M,HZ,M,M,M,M,M,M,87.86,VIDP 310430Z 12007KT 2800 HZ NSC 33/08 Q1009 NOSIG,M
VIDP,2022-03-31 05:00,93.20,48.20,21.54,90.00,7.00,0.00,29.80,M,1.74,M,NSC,M,M,M,M,M,M,M,HZ,M,M,M,M,M,M,89.80,VIDP 310500Z 09007KT 2800 HZ NSC 34/09 Q1009 NOSIG,M
VIDP,2022-03-31 05:30,93.20,44.60,18.80,100.00,8.00,0.00,29.80,M,1.74,M,NSC,M,M,M,M,M,M,M,HZ,M,M,M,M,M,M,89.34,VIDP 310530Z 10008KT 2800 HZ NSC 34/07 Q1009 NOSIG,M
VIDP,2022-03-31 06:00,96.80,46.40,18.02,90.00,6.00,0.00,29.80,M,1.74,M,NSC,M,M,M,M,M,M,M,HZ,M,M,M,M,M,M,93.05,VIDP 310600Z 09006KT 2800 HZ NSC 36/08 Q1009 NOSIG,M
VIDP,2022-03-31 06:30,96.80,46.40,18.02,90.00,5.00,0.00,29.77,M,1.74,M,NSC,M,M,M,M,M,M,M,HZ,M,M,M,M,M,M,93.05,VIDP 310630Z 09005KT 2800 HZ NSC 36/08 Q1008 NOSIG,M
VIDP,2022-03-31 07:00,98.60,46.40,17.05,100.00,6.00,0.00,29.77,M,1.74,M,NSC,M,M,M,M,M,M,M,HZ,M,M,M,M,M,M,94.84,VIDP 310700Z 10006KT 2800 HZ NSC 37/08 Q1008 NOSIG,M
VIDP,2022-03-31 07:30,98.60,46.40,17.05,110.00,5.00,0.00,29.74,M,1.74,M,NSC,M,M,M,M,M,M,M,HZ,M,M,M,M,M,M,94.84,VIDP 310730Z 11005KT 2800 HZ NSC 37/08 Q1007 BECMG 3000 HZ,M
VIDP,2022-03-31 08:00,100.40,48.20,17.28,100.00,5.00,0.00,29.74,M,1.74,M,NSC,M,M,M,M,M,M,M,HZ,M,M,M,M,M,M,97.00,VIDP 310800Z 10005KT 2800 HZ NSC 38/09 Q1007 NOSIG,M
VIDP,2022-03-31 08:30,100.40,48.20,17.28,90.00,5.00,0.00,29.74,M,1.74,M,NSC,M,M,M,M,M,M,M,HZ,M,M,M,M,M,M,97.00,VIDP 310830Z 09005KT 2800 HZ NSC 38/09 Q1007 BECMG 3000 HZ,M
VIDP,2022-03-31 09:00,100.40,48.20,17.28,50.00,5.00,0.00,29.71,M,1.86,M,NSC,M,M,M,M,M,M,M,HZ,M,M,M,M,M,M,97.00,VIDP 310900Z 05005KT 3000 HZ NSC 38/09 Q1006 NOSIG,M
VIDP,2022-03-31 09:30,100.40,46.40,16.15,40.00,5.00,0.00,29.71,M,1.86,M,NSC,M,M,M,M,M,M,M,HZ,M,M,M,M,M,M,96.63,VIDP 310930Z 04005KT 3000 HZ NSC 38/08 Q1006 NOSIG,M
VIDP,2022-03-31 10:00,100.40,46.40,16.15,60.00,7.00,0.00,29.71,M,1.86,M,NSC,M,M,M,M,M,M,M,HZ,M,M,M,M,M,M,96.63,VIDP 311000Z 06007KT 3000 HZ NSC 38/08 Q1006 NOSIG,M
VIDP,2022-03-31 10:30,98.60,48.20,18.25,60.00,7.00,0.00,29.68,M,1.86,M,NSC,M,M,M,M,M,M,M,HZ,M,M,M,M,M,M,95.17,VIDP 311030Z 06007KT 3000 HZ NSC 37/09 Q1005 NOSIG,M
VIDP,2022-03-31 11:00,96.80,46.40,18.02,50.00,6.00,0.00,29.68,M,1.86,M,NSC,M,M,M,M,M,M,M,HZ,M,M,M,M,M,M,93.05,VIDP 311100Z 05006KT 3000 HZ NSC 36/08 Q1005 NOSIG,M
VIDP,2022-03-31 11:30,96.80,48.20,19.28,50.00,5.00,0.00,29.68,M,1.86,M,NSC,M,M,M,M,M,M,M,HZ,M,M,M,M,M,M,93.36,VIDP 311130Z 05005KT 3000 HZ NSC 36/09 Q1005 NOSIG,M
VIDP,2022-03-31 12:00,96.80,48.20,19.28,50.00,6.00,0.00,29.68,M,1.74,M,NSC,M,M,M,M,M,M,M,HZ,M,M,M,M,M,M,93.36,VIDP 311200Z 05006KT 2800 HZ NSC 36/09 Q1005 NOSIG,M
VIDP,2022-03-31 12:30,96.80,48.20,19.28,40.00,5.00,0.00,29.68,M,1.74,M,NSC,M,M,M,M,M,M,M,HZ,M,M,M,M,M,M,93.36,VIDP 311230Z 04005KT 2800 HZ NSC 36/09 Q1005 NOSIG,M
VIDP,2022-03-31 13:00,95.00,48.20,20.38,20.00,4.00,0.00,29.71,M,1.74,M,NSC,M,M,M,M,M,M,M,HZ,M,M,M,M,M,M,91.56,VIDP 311300Z 02004KT 2800 HZ NSC 35/09 Q1006 NOSIG,M
VIDP,2022-03-31 13:30,93.20,48.20,21.54,30.00,4.00,0.00,29.71,M,1.74,M,NSC,M,M,M,M,M,M,M,HZ,M,M,M,M,M,M,89.80,VIDP 311330Z 03004KT 2800 HZ NSC 34/09 Q1006 NOSIG,M
VIDP,2022-03-31 14:00,91.40,48.20,22.78,30.00,3.00,0.00,29.71,M,1.74,M,NSC,M,M,M,M,M,M,M,HZ,M,M,M,M,M,M,88.09,VIDP 311400Z 03003KT 2800 HZ NSC 33/09 Q1006 NOSIG,M
VIDP,2022-03-31 14:30,89.60,48.20,24.11,320.00,3.00,0.00,29.74,M,1.74,M,NSC,M,M,M,M,M,M,M,HZ,M,M,M,M,M,M,86.44,VIDP 311430Z 32003KT 2800 HZ NSC 32/09 Q1007 NOSIG,M
VIDP,2022-03-31 15:00,87.80,48.20,25.52,0.00,0.00,0.00,29.74,M,1.74,M,NSC,M,M,M,M,M,M,M,HZ,M,M,M,M,M,M,84.87,VIDP 311500Z 00000KT 2800 HZ NSC 31/09 Q1007 NOSIG,M
VIDP,2022-03-31 15:30,86.00,50.00,28.90,0.00,0.00,0.00,29.77,M,1.55,M,NSC,M,M,M,M,M,M,M,HZ,M,M,M,M,M,M,83.62,VIDP 311530Z 00000KT 2500 HZ NSC 30/10 Q1008 NOSIG,M
VIDP,2022-03-31 16:00,86.00,51.80,30.90,0.00,0.00,0.00,29.77,M,1.55,M,NSC,M,M,M,M,M,M,M,HZ,M,M,M,M,M,M,83.87,VIDP 311600Z 00000KT 2500 HZ NSC 30/11 Q1008 NOSIG,M
VIDP,2022-03-31 16:30,84.20,53.60,34.97,0.00,0.00,0.00,29.77,M,1.55,M,NSC,M,M,M,M,M,M,M,HZ,M,M,M,M,M,M,82.76,VIDP 311630Z 00000KT 2500 HZ NSC 29/12 Q1008 NOSIG,M
VIDP,2022-03-31 17:00,86.00,53.60,33.01,300.00,5.00,0.00,29.77,M,1.55,M,NSC,M,M,M,M,M,M,M,HZ,M,M,M,M,M,M,84.18,VIDP 311700Z 30005KT 2500 HZ NSC 30/12 Q1008 NOSIG,M
VIDP,2022-03-31 17:30,86.00,53.60,33.01,320.00,5.00,0.00,29.77,M,1.55,M,NSC,M,M,M,M,M,M,M,HZ,M,M,M,M,M,M,84.18,VIDP 311730Z 32005KT 2500 HZ NSC 30/12 Q1008 NOSIG,M
VIDP,2022-03-31 18:00,84.20,53.60,34.97,320.00,6.00,0.00,29.77,M,1.55,M,NSC,M,M,M,M,M,M,M,HZ,M,M,M,M,M,M,82.76,VIDP 311800Z 32006KT 2500 HZ NSC 29/12 Q1008 NOSIG,M
VIDP,2022-03-31 18:30,84.20,51.80,32.73,310.00,7.00,0.00,29.77,M,1.55,M,NSC,M,M,M,M,M,M,M,HZ,M,M,M,M,M,M,82.48,VIDP 311830Z 31007KT 2500 HZ NSC 29/11 Q1008 NOSIG,M
VIDP,2022-03-31 19:00,84.20,51.80,32.73,330.00,6.00,0.00,29.77,M,1.55,M,NSC,M,M,M,M,M,M,M,HZ,M,M,M,M,M,M,82.48,VIDP 311900Z 33006KT 2500 HZ NSC 29/11 Q1008 NOSIG,M
VIDP,2022-03-31 19:30,84.20,50.00,30.62,320.00,6.00,0.00,29.77,M,1.55,M,NSC,M,M,M,M,M,M,M,HZ,M,M,M,M,M,M,82.24,VIDP 311930Z 32006KT 2500 HZ NSC 29/10 Q1008 NOSIG,M
VIDP,2022-03-31 20:00,82.40,50.00,32.46,320.00,8.00,0.00,29.77,M,1.55,M,NSC,M,M,M,M,M,M,M,HZ,M,M,M,M,M,M,80.99,VIDP 312000Z 32008KT 2500 HZ NSC 28/10 Q1008 NOSIG,M
VIDP,2022-03-31 20:30,82.40,50.00,32.46,320.00,6.00,0.00,29.74,M,1.55,M,NSC,M,M,M,M,M,M,M,HZ,M,M,M,M,M,M,80.99,VIDP 312030Z 32006KT 2500 HZ NSC 28/10 Q1007 NOSIG,M
VIDP,2022-03-31 21:00,82.40,50.00,32.46,330.00,6.00,0.00,29.74,M,1.55,M,NSC,M,M,M,M,M,M,M,HZ,M,M,M,M,M,M,80.99,VIDP 312100Z 33006KT 2500 HZ NSC 28/10 Q1007 NOSIG,M
VIDP,2022-03-31 21:30,82.40,50.00,32.46,330.00,6.00,0.00,29.74,M,1.55,M,NSC,M,M,M,M,M,M,M,HZ,M,M,M,M,M,M,80.99,VIDP 312130Z 33006KT 2500 HZ NSC 28/10 Q1007 NOSIG,M
VIDP,2022-03-31 22:00,80.60,50.00,34.41,320.00,6.00,0.00,29.74,M,1.55,M,NSC,M,M,M,M,M,M,M,HZ,M,M,M,M,M,M,79.88,VIDP 312200Z 32006KT 2500 HZ NSC 27/10 Q1007 NOSIG,M
VIDP,2022-03-31 22:30,80.60,50.00,34.41,320.00,5.00,0.00,29.74,M,1.55,M,NSC,M,M,M,M,M,M,M,HZ,M,M,M,M,M,M,79.88,VIDP 312230Z 32005KT 2500 HZ NSC 27/10 Q1007 NOSIG,M
VIDP,2022-03-31 23:00,80.60,51.80,36.79,300.00,4.00,0.00,29.74,M,1.55,M,NSC,M,M,M,M,M,M,M,HZ,M,M,M,M,M,M,80.08,VIDP 312300Z 30004KT 2500 HZ NSC 27/11 Q1007 NOSIG,M
VIDP,2022-03-31 23:30,80.60,51.80,36.79,290.00,4.00,0.00,29.74,M,1.55,M,NSC,M,M,M,M,M,M,M,HZ,M,M,M,M,M,M,80.08,VIDP 312330Z 29004KT 2500 HZ NSC 27/11 Q1007 NOSIG,M
VIDP,2022-04-01 00:00,77.00,53.60,44.25,270.00,4.00,0.00,29.74,M,1.55,M,NSC,M,M,M,M,M,M,M,HZ,M,M,M,M,M,M,77.00,VIDP 010000Z 27004KT 2500 HZ NSC 25/12 Q1007 NOSIG,M
VIDP,2022-04-01 00:30,77.00,53.60,44.25,280.00,4.00,0.00,29.74,M,1.55,M,NSC,M,M,M,M,M,M,M,HZ,M,M,M,M,M,M,77.00,VIDP 010030Z 28004KT 2500 HZ NSC 25/12 Q1007 NOSIG,M
VIDP,2022-04-01 01:00,75.20,55.40,50.17,0.00,0.00,0.00,29.74,M,1.55,M,NSC,M,M,M,M,M,M,M,HZ,M,M,M,M,M,M,75.20,VIDP 010100Z 00000KT 2500 HZ NSC 24/13 Q1007 NOSIG,M
VIDP,2022-04-01 01:30,75.20,55.40,50.17,240.00,3.00,0.00,29.77,M,1.55,M,NSC,M,M,M,M,M,M,M,HZ,M,M,M,M,M,M,75.20,VIDP 010130Z 24003KT 2500 HZ NSC 24/13 Q1008 NOSIG,M
VIDP,2022-04-01 02:00,77.00,55.40,47.25,250.00,3.00,0.00,29.77,M,1.55,M,NSC,M,M,M,M,M,M,M,HZ,M,M,M,M,M,M,77.00,VIDP 010200Z 25003KT 2500 HZ NSC 25/13 Q1008 NOSIG,M
VIDP,2022-04-01 02:30,77.00,57.20,50.43,220.00,5.00,0.00,29.80,M,1.37,M,NSC,M,M,M,M,M,M,M,HZ,M,M,M,M,M,M,77.00,VIDP 010230Z 22005KT 2200 HZ NSC 25/14 Q1009 NOSIG,M
VIDP,2022-04-01 03:00,78.80,57.20,47.52,230.00,5.00,0.00,29.80,M,1.55,M,NSC,M,M,M,M,M,M,M,HZ,M,M,M,M,M,M,78.80,VIDP 010300Z 23005KT 2500 HZ NSC 26/14 Q1009 NOSIG,M
VIDP,2022-04-01 03:30,80.60,57.20,44.80,240.00,5.00,0.00,29.80,M,1.74,M,NSC,M,M,M,M,M,M,M,HZ,M,M,M,M,M,M,80.81,VIDP 010330Z 24005KT 2800 HZ NSC 27/14 Q1009 BECMG 3000 HZ,M
VIDP,2022-04-01 04:00,82.40,55.40,39.58,270.00,5.00,0.00,29.80,M,1.86,M,NSC,M,M,M,M,M,M,M,HZ,M,M,M,M,M,M,81.75,VIDP 010400Z 27005KT 3000 HZ NSC 28/13 Q1009 NOSIG,M
VIDP,2022-04-01 04:30,86.00,50.00,28.90,270.00,6.00,0.00,29.80,M,1.86,M,NSC,M,M,M,M,M,M,M,HZ,M,M,M,M,M,M,83.62,VIDP 010430Z 27006KT 3000 HZ NSC 30/10 Q1009 NOSIG,M
VIDP,2022-04-01 05:00,89.60,46.40,22.53,280.00,6.00,0.00,29.80,M,1.86,M,NSC,M,M,M,M,M,M,M,HZ,M,M,M,M,M,M,86.24,VIDP 010500Z 28006KT 3000 HZ NSC 32/08 Q1009 NOSIG,M
VIDP,2022-04-01 05:30,91.40,42.80,18.56,280.00,8.00,0.00,29.80,M,1.86,M,NSC,M,M,M,M,M,M,M,HZ,M,M,M,M,M,M,87.52,VIDP 010530Z 28008KT 3000 HZ NSC 33/06 Q1009 NOSIG,M
VIDP,2022-04-01 06:00,93.20,37.40,14.23,290.00,8.00,0.00,29.80,M,2.17,M,NSC,M,M,M,M,M,M,M,HZ,M,M,M,M,M,M,88.83,VIDP 010600Z 29008KT 3500 HZ NSC 34/03 Q1009 NOSIG,M
VIDP,2022-04-01 06:30,95.00,26.60,8.71,290.00,11.00,0.00,29.80,M,2.49,M,NSC,M,M,M,M,M,M,M,HZ,M,M,M,M,M,M,89.08,VIDP 010630Z 29011KT 4000 HZ NSC 35/M03 Q1009 NOSIG,M
VIDP,2022-04-01 07:00,96.80,24.80,7.65,300.00,8.00,0.00,29.80,M,2.80,18.00,NSC,M,M,M,M,M,M,M,HZ,M,M,M,M,M,M,90.40,VIDP 010700Z 30008G18KT 4500 HZ NSC 36/M04 Q1009 BECMG 5000 HZ,M
VIDP,2022-04-01 07:30,96.80,24.80,7.65,270.00,10.00,0.00,29.77,M,3.11,20.00,NSC,M,M,M,M,M,M,M,HZ,M,M,M,M,M,M,90.40,VIDP 010730Z 27010G20KT 5000 HZ NSC 36/M04 Q1008 NOSIG,M
VIDP,2022-04-01 08:00,96.80,24.80,7.65,290.00,8.00,0.00,29.77,M,3.73,18.00,NSC,M,M,M,M,M,M,M,M,M,M,M,M,M,M,90.40,VIDP 010800Z 29008G18KT 6000 NSC 36/M04 Q1008 NOSIG,M
VIDP,2022-04-01 08:30,95.00,24.80,8.08,280.00,8.00,0.00,29.74,M,3.73,18.00,NSC,M,M,M,M,M,M,M,M,M,M,M,M,M,M,88.91,VIDP 010830Z 28008G18KT 6000 NSC 35/M04 Q1007 NOSIG,M
VIDP,2022-04-01 09:00,95.00,24.80,8.08,300.00,8.00,0.00,29.74,M,3.73,18.00,NSC,M,M,M,M,M,M,M,M,M,M,M,M,M,M,88.91,VIDP 010900Z 30008G18KT 6000 NSC 35/M04 Q1007 NOSIG,M
VIDP,2022-04-01 09:30,95.00,24.80,8.08,280.00,8.00,0.00,29.74,M,3.73,18.00,NSC,M,M,M,M,M,M,M,M,M,M,M,M,M,M,88.91,VIDP 010930Z 28008G18KT 6000 NSC 35/M04 Q1007 NOSIG,M
VIDP,2022-04-01 10:00,95.00,21.20,6.95,280.00,8.00,0.00,29.71,M,3.73,18.00,NSC,M,M,M,M,M,M,M,M,M,M,M,M,M,M,88.62,VIDP 011000Z 28008G18KT 6000 NSC 35/M06 Q1006 NOSIG,M
VIDP,2022-04-01 10:30,95.00,23.00,7.49,280.00,8.00,0.00,29.71,M,3.73,18.00,NSC,M,M,M,M,M,M,M,M,M,M,M,M,M,M,88.76,VIDP 011030Z 28008G18KT 6000 NSC 35/M05 Q1006 NOSIG,M
VIDP,2022-04-01 11:00,95.00,21.20,6.95,280.00,8.00,0.00,29.71,M,3.73,18.00,NSC,M,M,M,M,M,M,M,M,M,M,M,M,M,M,88.62,VIDP 011100Z 28008G18KT 6000 NSC 35/M06 Q1006 NOSIG,M
VIDP,2022-04-01 11:30,95.00,24.80,8.08,290.00,8.00,0.00,29.71,M,3.73,18.00,NSC,M,M,M,M,M,M,M,M,M,M,M,M,M,M,88.91,VIDP 011130Z 29008G18KT 6000 NSC 35/M04 Q1006 NOSIG,M
VIDP,2022-04-01 12:00,95.00,24.80,8.08,300.00,10.00,0.00,29.71,M,3.73,M,NSC,M,M,M,M,M,M,M,M,M,M,M,M,M,M,88.91,VIDP 011200Z 30010KT 6000 NSC 35/M04 Q1006 NOSIG,M
VIDP,2022-04-01 12:30,93.20,26.60,9.21,310.00,7.00,0.00,29.71,M,3.11,M,NSC,M,M,M,M,M,M,M,HZ,M,M,M,M,M,M,87.72,VIDP 011230Z 31007KT 5000 HZ NSC 34/M03 Q1006 NOSIG,M
VIDP,2022-04-01 13:00,93.20,28.40,9.91,280.00,5.00,0.00,29.71,M,3.11,M,NSC,M,M,M,M,M,M,M,HZ,M,M,M,M,M,M,87.89,VIDP 011300Z 28005KT 5000 HZ NSC 34/M02 Q1006 NOSIG,M
VIDP,2022-04-01 13:30,91.40,30.20,11.28,310.00,5.00,0.00,29.71,M,3.73,M,NSC,M,M,M,M,M,M,M,M,M,M,M,M,M,M,86.71,VIDP 011330Z 31005KT 6000 NSC 33/M01 Q1006 NOSIG,M
VIDP,2022-04-01 14:00,89.60,30.20,11.94,0.00,0.00,0.00,29.74,M,3.11,M,NSC,M,M,M,M,M,M,M,HZ,M,M,M,M,M,M,85.34,VIDP 011400Z 00000KT 5000 HZ NSC 32/M01 Q1007 NOSIG,M
VIDP,2022-04-01 14:30,93.20,33.80,12.34,280.00,3.00,0.00,29.74,M,3.11,M,NSC,M,M,M,M,M,M,M,HZ,M,M,M,M,M,M,88.55,VIDP 011430Z 28003KT 5000 HZ NSC 34/01 Q1007 NOSIG,M
VIDP,2022-04-01 15:00,87.80,33.80,14.61,M,3.00,0.00,29.74,M,3.11,M,NSC,M,M,M,M,M,M,M,HZ,M,M,M,M,M,M,84.10,VIDP 011500Z VRB03KT 5000 HZ NSC 31/01 Q1007 NOSIG,M
VIDP,2022-04-01 15:30,86.00,37.40,17.85,M,2.00,0.00,29.77,M,3.11,M,NSC,M,M,M,M,M,M,M,HZ,M,M,M,M,M,M,82.73,VIDP 011530Z VRB02KT 5000 HZ NSC 30/03 Q1008 NOSIG,M
VIDP,2022-04-01 16:00,86.00,37.40,17.85,M,2.00,0.00,29.77,M,3.11,M,NSC,M,M,M,M,M,M,M,HZ,M,M,M,M,M,M,82.73,VIDP 011600Z VRB02KT 5000 HZ NSC 30/03 Q1008 NOSIG,M
VIDP,2022-04-01 16:30,82.40,41.00,23.07,0.00,0.00,0.00,29.80,M,3.11,M,NSC,M,M,M,M,M,M,M,HZ,M,M,M,M,M,M,80.29,VIDP 011630Z 00000KT 5000 HZ NSC 28/05 Q1009 NOSIG,M
VIDP,2022-04-01 17:00,82.40,41.00,23.07,0.00,0.00,0.00,29.80,M,3.11,M,NSC,M,M,M,M,M,M,M,HZ,M,M,M,M,M,M,80.29,VIDP 011700Z 00000KT 5000 HZ NSC 28/05 Q1009 NOSIG,M
VIDP,2022-04-01 17:30,80.60,42.80,26.22,0.00,0.00,0.00,29.80,M,2.80,M,NSC,M,M,M,M,M,M,M,HZ,M,M,M,M,M,M,79.30,VIDP 011730Z 00000KT 4500 HZ NSC 27/06 Q1009 NOSIG,M
VIDP,2022-04-01 18:00,78.80,42.80,27.81,0.00,0.00,0.00,29.80,M,2.80,M,NSC,M,M,M,M,M,M,M,HZ,M,M,M,M,M,M,78.80,VIDP 011800Z 00000KT 4500 HZ NSC 26/06 Q1009 NOSIG,M
VIDP,2022-04-01 18:30,78.80,42.80,27.81,0.00,0.00,0.00,29.77,M,2.49,M,NSC,M,M,M,M,M,M,M,HZ,M,M,M,M,M,M,78.80,VIDP 011830Z 00000KT 4000 HZ NSC 26/06 Q1008 NOSIG,M
VIDP,2022-04-01 19:00,78.80,44.60,29.79,0.00,0.00,0.00,29.77,M,2.49,M,NSC,M,M,M,M,M,M,M,HZ,M,M,M,M,M,M,78.80,VIDP 011900Z 00000KT 4000 HZ NSC 26/07 Q1008 NOSIG,M
VIDP,2022-04-01 19:30,77.00,44.60,31.62,0.00,0.00,0.00,29.77,M,2.49,M,NSC,M,M,M,M,M,M,M,HZ,M,M,M,M,M,M,77.00,VIDP 011930Z 00000KT 4000 HZ NSC 25/07 Q1008 NOSIG,M
VIDP,2022-04-01 20:00,77.00,46.40,33.85,0.00,0.00,0.00,29.77,M,2.49,M,NSC,M,M,M,M,M,M,M,HZ,M,M,M,M,M,M,77.00,VIDP 012000Z 00000KT 4000 HZ NSC 25/08 Q1008 NOSIG,M
VIDP,2022-04-01 20:30,75.20,46.40,35.94,0.00,0.00,0.00,29.77,M,2.49,M,NSC,M,M,M,M,M,M,M,HZ,M,M,M,M,M,M,75.20,VIDP 012030Z 00000KT 4000 HZ NSC 24/08 Q1008 NOSIG,M
VIDP,2022-04-01 21:00,75.20,46.40,35.94,0.00,0.00,0.00,29.74,M,2.17,M,NSC,M,M,M,M,M,M,M,HZ,M,M,M,M,M,M,75.20,VIDP 012100Z 00000KT 3500 HZ NSC 24/08 Q1007 NOSIG,M
VIDP,2022-04-01 21:30,73.40,46.40,38.18,0.00,0.00,0.00,29.74,M,2.17,M,NSC,M,M,M,M,M,M,M,HZ,M,M,M,M,M,M,73.40,VIDP 012130Z 00000KT 3500 HZ NSC 23/08 Q1007 NOSIG,M
VIDP,2022-04-01 22:00,73.40,46.40,38.18,M,2.00,0.00,29.74,M,2.17,M,NSC,M,M,M,M,M,M,M,HZ,M,M,M,M,M,M,73.40,VIDP 012200Z VRB02KT 3500 HZ NSC 23/08 Q1007 NOSIG,M
VIDP,2022-04-01 22:30,73.40,46.40,38.18,260.00,3.00,0.00,29.74,M,2.17,M,NSC,M,M,M,M,M,M,M,HZ,M,M,M,M,M,M,73.40,VIDP 012230Z 26003KT 3500 HZ NSC 23/08 Q1007 NOSIG,M
VIDP,2022-04-01 23:00,71.60,46.40,40.57,M,3.00,0.00,29.77,M,2.17,M,NSC,M,M,M,M,M,M,M,HZ,M,M,M,M,M,M,71.60,VIDP 012300Z VRB03KT 3500 HZ NSC 22/08 Q1008 NOSIG,M
VIDP,2022-04-01 23:30,71.60,44.60,37.89,M,2.00,0.00,29.77,M,2.17,M,NSC,M,M,M,M,M,M,M,HZ,M,M,M,M,M,M,71.60,VIDP 012330Z VRB02KT 3500 HZ NSC 22/07 Q1008 NOSIG,M
VIDP,2022-04-02 00:00,71.60,42.80,35.37,M,2.00,0.00,29.77,M,2.17,M,NSC,M,M,M,M,M,M,M,HZ,M,M,M,M,M,M,71.60,VIDP 020000Z VRB02KT 3500 HZ NSC 22/06 Q1008 NOSIG,M
VIDP,2022-04-02 00:30,73.40,42.80,33.29,0.00,0.00,0.00,29.77,M,1.93,M,NSC,M,M,M,M,M,M,M,HZ,M,M,M,M,M,M,73.40,VIDP 020030Z 00000KT 3100 HZ NSC 23/06 Q1008 BECMG 3000 HZ,M
VIDP,2022-04-02 01:00,71.60,42.80,35.37,0.00,0.00,0.00,29.80,M,1.55,M,NSC,M,M,M,M,M,M,M,HZ,M,M,M,M,M,M,71.60,VIDP 020100Z 00000KT 2500 HZ NSC 22/06 Q1009 NOSIG,M
VIDP,2022-04-02 01:30,73.40,42.80,33.29,0.00,0.00,0.00,29.80,M,1.30,M,NSC,M,M,M,M,M,M,M,HZ,M,M,M,M,M,M,73.40,VIDP 020130Z 00000KT 2100 HZ NSC 23/06 Q1009 NOSIG,M
VIDP,2022-04-02 02:00,75.20,46.40,35.94,0.00,0.00,0.00,29.80,M,1.30,M,NSC,M,M,M,M,M,M,M,HZ,M,M,M,M,M,M,75.20,VIDP 020200Z 00000KT 2100 HZ NSC 24/08 Q1009 NOSIG,M
VIDP,2022-04-02 02:30,78.80,44.60,29.79,0.00,0.00,0.00,29.83,M,1.30,M,NSC,M,M,M,M,M,M,M,HZ,M,M,M,M,M,M,78.80,VIDP 020230Z 00000KT 2100 HZ NSC 26/07 Q1010 NOSIG,M
VIDP,2022-04-02 03:00,82.40,39.20,21.51,250.00,3.00,0.00,29.85,M,1.30,M,NSC,M,M,M,M,M,M,M,HZ,M,M,M,M,M,M,80.21,VIDP 020300Z 25003KT 2100 HZ NSC 28/04 Q1011 NOSIG,M
VIDP,2022-04-02 03:30,86.00,39.20,19.15,250.00,3.00,0.00,29.85,M,1.30,M,NSC,M,M,M,M,M,M,M,HZ,M,M,M,M,M,M,82.79,VIDP 020330Z 25003KT 2100 HZ NSC 30/04 Q1011 NOSIG,M
VIDP,2022-04-02 04:00,87.80,37.40,16.86,220.00,3.00,0.00,29.85,M,1.55,M,NSC,M,M,M,M,M,M,M,HZ,M,M,M,M,M,M,84.16,VIDP 020400Z 22003KT 2500 HZ NSC 31/03 Q1011 NOSIG,M
VIDP,2022-04-02 04:30,89.60,37.40,15.92,230.00,3.00,0.00,29.88,M,1.55,M,NSC,M,M,M,M,M,M,M,HZ,M,M,M,M,M,M,85.67,VIDP 020430Z 23003KT 2500 HZ NSC 32/03 Q1012 NOSIG,M
VIDP,2022-04-02 05:00,93.20,33.80,12.34,220.00,3.00,0.00,29.88,M,1.55,M,NSC,M,M,M,M,M,M,M,HZ,M,M,M,M,M,M,88.55,VIDP 020500Z 22003KT 2500 HZ NSC 34/01 Q1012 BECMG 3000 HZ,M
VIDP,2022-04-02 05:30,95.00,33.80,11.67,230.00,3.00,0.00,29.88,M,1.74,M,NSC,M,M,M,M,M,M,M,HZ,M,M,M,M,M,M,89.97,VIDP 020530Z 23003KT 2800 HZ NSC 35/01 Q1012 BECMG 3000 HZ,M
VIDP,2022-04-02 06:00,96.80,35.60,11.86,220.00,3.00,0.00,29.88,M,2.17,M,NSC,M,M,M,M,M,M,M,HZ,M,M,M,M,M,M,91.72,VIDP 020600Z 22003KT 3500 HZ NSC 36/02 Q1012 NOSIG,M
VIDP,2022-04-02 06:30,98.60,35.60,11.23,200.00,4.00,0.00,29.85,M,2.49,M,NSC,M,M,M,M,M,M,M,HZ,M,M,M,M,M,M,93.23,VIDP 020630Z 20004KT 4000 HZ NSC 37/02 Q1011 NOSIG,M
VIDP,2022-04-02 07:00,98.60,35.60,11.23,250.00,4.00,0.00,29.85,M,2.49,M,NSC,M,M,M,M,M,M,M,HZ,M,M,M,M,M,M,93.23,VIDP 020700Z 25004KT 4000 HZ NSC 37/02 Q1011 NOSIG,M
VIDP,2022-04-02 07:30,100.40,35.60,10.63,230.00,3.00,0.00,29.85,M,2.80,M,NSC,M,M,M,M,M,M,M,HZ,M,M,M,M,M,M,94.76,VIDP 020730Z 23003KT 4500 HZ NSC 38/02 Q1011 BECMG 5000 HZ,M
VIDP,2022-04-02 08:00,100.40,35.60,10.63,250.00,5.00,0.00,29.83,M,3.11,M,NSC,M,M,M,M,M,M,M,HZ,M,M,M,M,M,M,94.76,VIDP 020800Z 25005KT 5000 HZ NSC 38/02 Q1010 NOSIG,M
VIDP,2022-04-02 08:30,100.40,33.80,9.90,240.00,5.00,0.00,29.80,M,3.11,M,NSC,M,M,M,M,M,M,M,HZ,M,M,M,M,M,M,94.47,VIDP 020830Z 24005KT 5000 HZ NSC 38/01 Q1009 NOSIG,M
VIDP,2022-04-02 09:00,100.40,33.80,9.90,270.00,4.00,0.00,29.80,M,3.11,M,NSC,M,M,M,M,M,M,M,HZ,M,M,M,M,M,M,94.47,VIDP 020900Z 27004KT 5000 HZ NSC 38/01 Q1009 NOSIG,M
VIDP,2022-04-02 09:30,102.20,33.80,9.37,240.00,4.00,0.00,29.80,M,3.11,M,NSC,M,M,M,M,M,M,M,HZ,M,M,M,M,M,M,96.01,VIDP 020930Z 24004KT 5000 HZ NSC 39/01 Q1009 NOSIG,M
VIDP,2022-04-02 10:00,102.20,33.80,9.37,290.00,4.00,0.00,29.77,M,3.11,M,NSC,M,M,M,M,M,M,M,HZ,M,M,M,M,M,M,96.01,VIDP 021000Z 29004KT 5000 HZ NSC 39/01 Q1008 NOSIG,M
VIDP,2022-04-02 10:30,100.40,33.80,9.90,250.00,5.00,0.00,29.77,M,3.11,M,NSC,M,M,M,M,M,M,M,HZ,M,M,M,M,M,M,94.47,VIDP 021030Z 25005KT 5000 HZ NSC 38/01 Q1008 NOSIG,M
VIDP,2022-04-02 11:00,100.40,33.80,9.90,0.00,0.00,0.00,29.74,M,3.11,M,NSC,M,M,M,M,M,M,M,HZ,M,M,M,M,M,M,94.47,VIDP 021100Z 00000KT 5000 HZ NSC 38/01 Q1007 NOSIG,M
VIDP,2022-04-02 11:30,100.40,33.80,9.90,0.00,0.00,0.00,29.74,M,3.11,M,NSC,M,M,M,M,M,M,M,HZ,M,M,M,M,M,M,94.47,VIDP 021130Z 00000KT 5000 HZ NSC 38/01 Q1007 NOSIG,M
VIDP,2022-04-02 12:00,100.40,33.80,9.90,0.00,0.00,0.00,29.74,M,3.11,M,NSC,M,M,M,M,M,M,M,HZ,M,M,M,M,M,M,94.47,VIDP 021200Z 00000KT 5000 HZ NSC 38/01 Q1007 NOSIG,M
VIDP,2022-04-02 12:30,98.60,33.80,10.45,0.00,0.00,0.00,29.74,M,3.11,M,NSC,M,M,M,M,M,M,M,HZ,M,M,M,M,M,M,92.94,VIDP 021230Z 00000KT 5000 HZ NSC 37/01 Q1007 NOSIG,M
VIDP,2022-04-02 13:00,96.80,35.60,11.86,0.00,0.00,0.00,29.74,M,3.11,M,NSC,M,M,M,M,M,M,M,HZ,M,M,M,M,M,M,91.72,VIDP 021300Z 00000KT 5000 HZ NSC 36/02 Q1007 NOSIG,M
VIDP,2022-04-02 13:30,93.20,39.20,15.27,80.00,3.00,0.00,29.77,M,2.49,M,NSC,M,M,M,M,M,M,M,HZ,M,M,M,M,M,M,88.92,VIDP 021330Z 08003KT 4000 HZ NSC 34/04 Q1008 NOSIG,M
VIDP,2022-04-02 14:00,89.60,42.80,19.64,90.00,3.00,0.00,29.77,M,2.49,M,NSC,M,M,M,M,M,M,M,HZ,M,M,M,M,M,M,85.93,VIDP 021400Z 09003KT 4000 HZ NSC 32/06 Q1008 NOSIG,M
VIDP,2022-04-02 14:30,89.60,42.80,19.64,80.00,4.00,0.00,29.77,M,2.49,M,NSC,M,M,M,M,M,M,M,HZ,M,M,M,M,M,M,85.93,VIDP 021430Z 08004KT 4000 HZ NSC 32/06 Q1008 NOSIG,M
VIDP,2022-04-02 15:00,87.80,42.80,20.79,90.00,3.00,0.00,29.77,M,2.49,M,NSC,M,M,M,M,M,M,M,HZ,M,M,M,M,M,M,84.40,VIDP 021500Z 09003KT 4000 HZ NSC 31/06 Q1008 NOSIG,M
VIDP,2022-04-02 15:30,86.00,42.80,22.02,100.00,3.00,0.00,29.80,M,2.49,M,NSC,M,M,M,M,M,M,M,HZ,M,M,M,M,M,M,82.95,VIDP 021530Z 10003KT 4000 HZ NSC 30/06 Q1009 NOSIG,M
VIDP,2022-04-02 16:00,84.20,44.60,24.99,90.00,3.00,0.00,29.80,M,2.49,M,NSC,M,M,M,M,M,M,M,HZ,M,M,M,M,M,M,81.73,VIDP 021600Z 09003KT 4000 HZ NSC 29/07 Q1009 NOSIG,M
VIDP,2022-04-02 16:30,84.20,44.60,24.99,90.00,5.00,0.00,29.80,M,2.49,M,NSC,M,M,M,M,M,M,M,HZ,M,M,M,M,M,M,81.73,VIDP 021630Z 09005KT 4000 HZ NSC 29/07 Q1009 NOSIG,M
VIDP,2022-04-02 17:00,84.20,44.60,24.99,100.00,6.00,0.00,29.77,M,2.49,M,NSC,M,M,M,M,M,M,M,HZ,M,M,M,M,M,M,81.73,VIDP 021700Z 10006KT 4000 HZ NSC 29/07 Q1008 NOSIG,M
VIDP,2022-04-02 17:30,84.20,44.60,24.99,100.00,5.00,0.00,29.77,M,2.49,M,NSC,M,M,M,M,M,M,M,HZ,M,M,M,M,M,M,81.73,VIDP 021730Z 10005KT 4000 HZ NSC 29/07 Q1008 NOSIG,M
VIDP,2022-04-02 18:00,82.40,44.60,26.49,90.00,5.00,0.00,29.77,M,2.36,M,NSC,M,M,M,M,M,M,M,HZ,M,M,M,M,M,M,80.50,VIDP 021800Z 09005KT 3800 HZ NSC 28/07 Q1008 NOSIG,M
VIDP,2022-04-02 18:30,80.60,44.60,28.08,90.00,5.00,0.00,29.77,M,2.17,M,NSC,M,M,M,M,M,M,M,HZ,M,M,M,M,M,M,79.42,VIDP 021830Z 09005KT 3500 HZ NSC 27/07 Q1008 NOSIG,M
VIDP,2022-04-02 19:00,80.60,46.40,30.07,80.00,4.00,0.00,29.77,M,2.17,M,NSC,M,M,M,M,M,M,M,HZ,M,M,M,M,M,M,79.56,VIDP 021900Z 08004KT 3500 HZ NSC 27/08 Q1008 NOSIG,M
VIDP,2022-04-02 19:30,80.60,46.40,30.07,110.00,5.00,0.00,29.77,M,2.17,M,NSC,M,M,M,M,M,M,M,HZ,M,M,M,M,M,M,79.56,VIDP 021930Z 11005KT 3500 HZ NSC 27/08 Q1008 NOSIG,M
VIDP,2022-04-02 20:00,78.80,46.40,31.90,90.00,4.00,0.00,29.77,M,2.17,M,NSC,M,M,M,M,M,M,M,HZ,M,M,M,M,M,M,78.80,VIDP 022000Z 09004KT 3500 HZ NSC 26/08 Q1008 NOSIG,M
VIDP,2022-04-02 20:30,78.80,46.40,31.90,80.00,4.00,0.00,29.77,M,2.17,M,NSC,M,M,M,M,M,M,M,HZ,M,M,M,M,M,M,78.80,VIDP 022030Z 08004KT 3500 HZ NSC 26/08 Q1008 NOSIG,M
VIDP,2022-04-02 21:00,78.80,46.40,31.90,90.00,4.00,0.00,29.74,M,2.17,M,NSC,M,M,M,M,M,M,M,HZ,M,M,M,M,M,M,78.80,VIDP 022100Z 09004KT 3500 HZ NSC 26/08 Q1007 NOSIG,M
VIDP,2022-04-02 21:30,77.00,46.40,33.85,100.00,4.00,0.00,29.74,M,2.17,M,NSC,M,M,M,M,M,M,M,HZ,M,M,M,M,M,M,77.00,VIDP 022130Z 10004KT 3500 HZ NSC 25/08 Q1007 NOSIG,M
VIDP,2022-04-02 22:00,77.00,46.40,33.85,110.00,4.00,0.00,29.74,M,2.17,M,NSC,M,M,M,M,M,M,M,HZ,M,M,M,M,M,M,77.00,VIDP 022200Z 11004KT 3500 HZ NSC 25/08 Q1007 NOSIG,M
VIDP,2022-04-02 22:30,77.00,46.40,33.85,100.00,4.00,0.00,29.74,M,2.17,M,NSC,M,M,M,M,M,M,M,HZ,M,M,M,M,M,M,77.00,VIDP 022230Z 10004KT 3500 HZ NSC 25/08 Q1007 NOSIG,M
VIDP,2022-04-02 23:00,77.00,46.40,33.85,100.00,4.00,0.00,29.74,M,2.17,M,NSC,M,M,M,M,M,M,M,HZ,M,M,M,M,M,M,77.00,VIDP 022300Z 10004KT 3500 HZ NSC 25/08 Q1007 NOSIG,M
VIDP,2022-04-02 23:30,77.00,46.40,33.85,110.00,4.00,0.00,29.74,M,1.99,M,NSC,M,M,M,M,M,M,M,HZ,M,M,M,M,M,M,77.00,VIDP 022330Z 11004KT 3200 HZ NSC 25/08 Q1007 BECMG 3000 HZ,M
VIDP,2022-04-03 00:00,75.20,46.40,35.94,90.00,4.00,0.00,29.74,M,1.86,M,NSC,M,M,M,M,M,M,M,HZ,M,M,M,M,M,M,75.20,VIDP 030000Z 09004KT 3000 HZ NSC 24/08 Q1007 NOSIG,M
VIDP,2022-04-03 00:30,75.20,46.40,35.94,80.00,4.00,0.00,29.77,M,1.86,M,NSC,M,M,M,M,M,M,M,HZ,M,M,M,M,M,M,75.20,VIDP 030030Z 08004KT 3000 HZ NSC 24/08 Q1008 NOSIG,M
VIDP,2022-04-03 01:00,73.40,48.20,40.85,100.00,4.00,0.00,29.77,M,1.86,M,NSC,M,M,M,M,M,M,M,HZ,M,M,M,M,M,M,73.40,VIDP 030100Z 10004KT 3000 HZ NSC 23/09 Q1008 NOSIG,M
VIDP,2022-04-03 01:30,73.40,48.20,40.85,110.00,4.00,0.00,29.77,M,1.86,M,NSC,M,M,M,M,M,M,M,HZ,M,M,M,M,M,M,73.40,VIDP 030130Z 11004KT 3000 HZ NSC 23/09 Q1008 NOSIG,M
VIDP,2022-04-03 02:00,75.20,46.40,35.94,100.00,4.00,0.00,29.80,M,1.86,M,NSC,M,M,M,M,M,M,M,HZ,M,M,M,M,M,M,75.20,VIDP 030200Z 10004KT 3000 HZ NSC 24/08 Q1009 NOSIG,M
VIDP,2022-04-03 02:30,78.80,46.40,31.90,110.00,5.00,0.00,29.80,M,1.86,M,NSC,M,M,M,M,M,M,M,HZ,M,M,M,M,M,M,78.80,VIDP 030230Z 11005KT 3000 HZ NSC 26/08 Q1009 NOSIG,M
VIDP,2022-04-03 03:30,84.20,41.00,21.76,160.00,4.00,0.00,29.83,M,2.17,M,NSC,M,M,M,M,M,M,M,HZ,M,M,M,M,M,M,81.52,VIDP 030330Z 16004KT 3500 HZ NSC 29/05 Q1010 NOSIG,M
VIDP,2022-04-03 04:00,87.80,39.20,18.09,240.00,4.00,0.00,29.83,M,2.49,M,NSC,M,M,M,M,M,M,M,HZ,M,M,M,M,M,M,84.22,VIDP 030400Z 24004KT 4000 HZ NSC 31/04 Q1010 NOSIG,M
VIDP,2022-04-03 04:30,89.60,35.60,14.83,260.00,4.00,0.00,29.83,M,2.49,M,NSC,M,M,M,M,M,M,M,HZ,M,M,M,M,M,M,85.62,VIDP 030430Z 26004KT 4000 HZ NSC 32/02 Q1010 NOSIG,M
VIDP,2022-04-03 05:00,93.20,33.80,12.34,250.00,4.00,0.00,29.83,M,2.49,M,NSC,M,M,M,M,M,M,M,HZ,M,M,M,M,M,M,88.55,VIDP 030500Z 25004KT 4000 HZ NSC 34/01 Q1010 NOSIG,M
VIDP,2022-04-03 05:30,95.00,32.00,10.85,270.00,4.00,0.00,29.83,M,2.49,M,NSC,M,M,M,M,M,M,M,HZ,M,M,M,M,M,M,89.71,VIDP 030530Z 27004KT 4000 HZ NSC 35/00 Q1010 NOSIG,M
VIDP,2022-04-03 06:00,96.80,30.20,9.55,270.00,6.00,0.00,29.83,M,2.49,M,NSC,M,M,M,M,M,M,M,HZ,M,M,M,M,M,M,90.96,VIDP 030600Z 27006KT 4000 HZ NSC 36/M01 Q1010 NOSIG,M
VIDP,2022-04-03 06:30,98.60,30.20,9.04,270.00,5.00,0.00,29.83,M,2.80,M,NSC,M,M,M,M,M,M,M,HZ,M,M,M,M,M,M,92.46,VIDP 030630Z 27005KT 4500 HZ NSC 37/M01 Q1010 BECMG 5000 HZ,M
VIDP,2022-04-03 07:00,100.40,28.40,7.95,280.00,6.00,0.00,29.80,M,3.11,M,NSC,M,M,M,M,M,M,M,HZ,M,M,M,M,M,M,93.77,VIDP 030700Z 28006KT 5000 HZ NSC 38/M02 Q1009 NOSIG,M
VIDP,2022-04-03 07:30,100.40,26.60,7.39,290.00,7.00,0.00,29.80,M,3.11,M,NSC,M,M,M,M,M,M,M,HZ,M,M,M,M,M,M,93.57,VIDP 030730Z 29007KT 5000 HZ NSC 38/M03 Q1009 NOSIG,M
VIDP,2022-04-03 08:00,100.40,26.60,7.39,310.00,10.00,0.00,29.80,M,3.11,M,NSC,M,M,M,M,M,M,M,HZ,M,M,M,M,M,M,93.57,VIDP 030800Z 31010KT 5000 HZ NSC 38/M03 Q1009 NOSIG,M
VIDP,2022-04-03 08:30,102.20,24.80,6.49,300.00,7.00,0.00,29.77,M,3.11,M,NSC,M,M,M,M,M,M,M,HZ,M,M,M,M,M,M,94.91,VIDP 030830Z 30007KT 5000 HZ NSC 39/M04 Q1008 NOSIG,M
VIDP,2022-04-03 09:00,102.20,24.80,6.49,320.00,6.00,0.00,29.77,M,3.11,M,NSC,M,M,M,M,M,M,M,HZ,M,M,M,M,M,M,94.91,VIDP 030900Z 32006KT 5000 HZ NSC 39/M04 Q1008 NOSIG,M
VIDP,2022-04-03 09:30,102.20,23.00,6.02,320.00,7.00,0.00,29.74,M,3.11,M,NSC,M,M,M,M,M,M,M,HZ,M,M,M,M,M,M,94.75,VIDP 030930Z 32007KT 5000 HZ NSC 39/M05 Q1007 NOSIG,M
VIDP,2022-04-03 10:00,102.20,23.00,6.02,330.00,7.00,0.00,29.74,M,3.11,M,NSC,M,M,M,M,M,M,M,HZ,M,M,M,M,M,M,94.75,VIDP 031000Z 33007KT 5000 HZ NSC 39/M05 Q1007 NOSIG,M
VIDP,2022-04-03 10:30,102.20,21.20,5.58,320.00,8.00,0.00,29.71,M,3.11,M,NSC,M,M,M,M,M,M,M,HZ,M,M,M,M,M,M,94.60,VIDP 031030Z 32008KT 5000 HZ NSC 39/M06 Q1006 NOSIG,M
VIDP,2022-04-03 11:00,100.40,21.20,5.89,300.00,6.00,0.00,29.71,M,3.11,M,NSC,M,M,M,M,M,M,M,HZ,M,M,M,M,M,M,93.11,VIDP 031100Z 30006KT 5000 HZ NSC 38/M06 Q1006 NOSIG,M
VIDP,2022-04-03 11:30,100.40,21.20,5.89,310.00,7.00,0.00,29.71,M,3.11,M,NSC,M,M,M,M,M,M,M,HZ,M,M,M,M,M,M,93.11,VIDP 031130Z 31007KT 5000 HZ NSC 38/M06 Q1006 NOSIG,M
VIDP,2022-04-03 12:00,98.60,21.20,6.22,330.00,4.00,0.00,29.71,M,3.11,M,NSC,M,M,M,M,M,M,M,HZ,M,M,M,M,M,M,91.61,VIDP 031200Z 33004KT 5000 HZ NSC 37/M06 Q1006 NOSIG,M
VIDP,2022-04-03 12:30,98.60,23.00,6.71,360.00,5.00,0.00,29.71,M,3.11,M,NSC,M,M,M,M,M,M,M,HZ,M,M,M,M,M,M,91.75,VIDP 031230Z 36005KT 5000 HZ NSC 37/M05 Q1006 NOSIG,M
VIDP,2022-04-03 13:00,96.80,24.80,7.65,20.00,4.00,0.00,29.74,M,3.11,M,NSC,M,M,M,M,M,M,M,HZ,M,M,M,M,M,M,90.40,VIDP 031300Z 02004KT 5000 HZ NSC 36/M04 Q1007 NOSIG,M
VIDP,2022-04-03 13:30,93.20,30.20,10.67,0.00,0.00,0.00,29.74,M,3.11,M,NSC,M,M,M,M,M,M,M,HZ,M,M,M,M,M,M,88.09,VIDP 031330Z 00000KT 5000 HZ NSC 34/M01 Q1007 NOSIG,M
VIDP,2022-04-03 14:00,91.40,32.00,12.14,0.00,0.00,0.00,29.74,M,3.11,M,NSC,M,M,M,M,M,M,M,HZ,M,M,M,M,M,M,86.91,VIDP 031400Z 00000KT 5000 HZ NSC 33/00 Q1007 NOSIG,M
VIDP,2022-04-03 14:30,87.80,35.60,15.70,0.00,0.00,0.00,29.74,M,2.80,M,NSC,M,M,M,M,M,M,M,HZ,M,M,M,M,M,M,84.12,VIDP 031430Z 00000KT 4500 HZ NSC 31/02 Q1007 NOSIG,M
VIDP,2022-04-03 15:00,86.00,39.20,19.15,M,2.00,0.00,29.74,M,2.49,M,NSC,M,M,M,M,M,M,M,HZ,M,M,M,M,M,M,82.79,VIDP 031500Z VRB02KT 4000 HZ NSC 30/04 Q1007 NOSIG,M
VIDP,2022-04-03 15:30,86.00,39.20,19.15,M,2.00,0.00,29.74,M,2.49,M,NSC,M,M,M,M,M,M,M,HZ,M,M,M,M,M,M,82.79,VIDP 031530Z VRB02KT 4000 HZ NSC 30/04 Q1007 NOSIG,M
VIDP,2022-04-03 16:00,84.20,35.60,17.61,0.00,0.00,0.00,29.77,M,2.49,M,NSC,M,M,M,M,M,M,M,HZ,M,M,M,M,M,M,81.34,VIDP 031600Z 00000KT 4000 HZ NSC 29/02 Q1008 NOSIG,M
VIDP,2022-04-03 16:30,82.40,39.20,21.51,0.00,0.00,0.00,29.77,M,2.49,M,NSC,M,M,M,M,M,M,M,HZ,M,M,M,M,M,M,80.21,VIDP 031630Z 00000KT 4000 HZ NSC 28/04 Q1008 NOSIG,M
VIDP,2022-04-03 17:00,82.40,41.00,23.07,0.00,0.00,0.00,29.77,M,2.49,M,NSC,M,M,M,M,M,M,M,HZ,M,M,M,M,M,M,80.29,VIDP 031700Z 00000KT 4000 HZ NSC 28/05 Q1008 NOSIG,M
VIDP,2022-04-03 17:30,82.40,42.80,24.72,280.00,4.00,0.00,29.77,M,2.49,M,NSC,M,M,M,M,M,M,M,HZ,M,M,M,M,M,M,80.39,VIDP 031730Z 28004KT 4000 HZ NSC 28/06 Q1008 NOSIG,M
VIDP,2022-04-03 18:00,80.60,44.60,28.08,270.00,3.00,0.00,29.77,M,2.36,M,NSC,M,M,M,M,M,M,M,HZ,M,M,M,M,M,M,79.42,VIDP 031800Z 27003KT 3800 HZ NSC 27/07 Q1008 NOSIG,M
VIDP,2022-04-03 18:30,80.60,42.80,26.22,240.00,4.00,0.00,29.77,M,2.17,M,NSC,M,M,M,M,M,M,M,HZ,M,M,M,M,M,M,79.30,VIDP 031830Z 24004KT 3500 HZ NSC 27/06 Q1008 NOSIG,M
VIDP,2022-04-03 19:00,80.60,42.80,26.22,210.00,3.00,0.00,29.74,M,2.17,M,NSC,M,M,M,M,M,M,M,HZ,M,M,M,M,M,M,79.30,VIDP 031900Z 21003KT 3500 HZ NSC 27/06 Q1007 NOSIG,M
VIDP,2022-04-03 19:30,78.80,41.00,25.95,0.00,0.00,0.00,29.74,M,2.17,M,NSC,M,M,M,M,M,M,M,HZ,M,M,M,M,M,M,78.80,VIDP 031930Z 00000KT 3500 HZ NSC 26/05 Q1007 NOSIG,M
VIDP,2022-04-03 20:00,78.80,41.00,25.95,0.00,0.00,0.00,29.74,M,2.17,M,NSC,M,M,M,M,M,M,M,HZ,M,M,M,M,M,M,78.80,VIDP 032000Z 00000KT 3500 HZ NSC 26/05 Q1007 NOSIG,M
VIDP,2022-04-03 20:30,78.80,41.00,25.95,0.00,0.00,0.00,29.74,M,2.17,M,NSC,M,M,M,M,M,M,M,HZ,M,M,M,M,M,M,78.80,VIDP 032030Z 00000KT 3500 HZ NSC 26/05 Q1007 NOSIG,M
VIDP,2022-04-03 21:00,78.80,42.80,27.81,0.00,0.00,0.00,29.74,M,2.17,M,NSC,M,M,M,M,M,M,M,HZ,M,M,M,M,M,M,78.80,VIDP 032100Z 00000KT 3500 HZ NSC 26/06 Q1007 NOSIG,M
VIDP,2022-04-03 21:30,78.80,41.00,25.95,0.00,0.00,0.00,29.71,M,2.17,M,NSC,M,M,M,M,M,M,M,HZ,M,M,M,M,M,M,78.80,VIDP 032130Z 00000KT 3500 HZ NSC 26/05 Q1006 NOSIG,M
VIDP,2022-04-03 22:00,77.00,39.20,25.67,M,2.00,0.00,29.71,M,2.17,M,NSC,M,M,M,M,M,M,M,HZ,M,M,M,M,M,M,77.00,VIDP 032200Z VRB02KT 3500 HZ NSC 25/04 Q1006 NOSIG,M
VIDP,2022-04-03 22:30,75.20,42.80,31.34,M,2.00,0.00,29.71,M,2.17,M,NSC,M,M,M,M,M,M,M,HZ,M,M,M,M,M,M,75.20,VIDP 032230Z VRB02KT 3500 HZ NSC 24/06 Q1006 NOSIG,M
VIDP,2022-04-03 23:00,75.20,39.20,27.26,M,2.00,0.00,29.71,M,2.17,M,NSC,M,M,M,M,M,M,M,HZ,M,M,M,M,M,M,75.20,VIDP 032300Z VRB02KT 3500 HZ NSC 24/04 Q1006 NOSIG,M
VIDP,2022-04-03 23:30,77.00,37.40,23.93,M,2.00,0.00,29.71,M,2.17,M,NSC,M,M,M,M,M,M,M,HZ,M,M,M,M,M,M,77.00,VIDP 032330Z VRB02KT 3500 HZ NSC 25/03 Q1006 NOSIG,M
VIDP,2022-04-04 00:00,75.20,35.60,23.66,220.00,3.00,0.00,29.74,M,2.17,M,NSC,M,M,M,M,M,M,M,HZ,M,M,M,M,M,M,75.20,VIDP 040000Z 22003KT 3500 HZ NSC 24/02 Q1007 NOSIG,M
VIDP,2022-04-04 00:30,75.20,32.00,20.49,230.00,4.00,0.00,29.74,M,2.17,M,NSC,M,M,M,M,M,M,M,HZ,M,M,M,M,M,M,75.20,VIDP 040030Z 23004KT 3500 HZ NSC 24/00 Q1007 BECMG 3000 HZ,M
VIDP,2022-04-04 01:00,75.20,32.00,20.49,230.00,3.00,0.00,29.74,M,1.55,M,NSC,M,M,M,M,M,M,M,HZ,M,M,M,M,M,M,75.20,VIDP 040100Z 23003KT 2500 HZ NSC 24/00 Q1007 NOSIG,M
VIDP,2022-04-04 01:30,77.00,33.80,20.74,250.00,3.00,0.00,29.77,M,1.30,M,NSC,M,M,M,M,M,M,M,HZ,M,M,M,M,M,M,77.00,VIDP 040130Z 25003KT 2100 HZ NSC 25/01 Q1008 NOSIG,M
VIDP,2022-04-04 02:00,77.00,35.60,22.28,250.00,3.00,0.00,29.77,M,1.30,M,NSC,M,M,M,M,M,M,M,HZ,M,M,M,M,M,M,77.00,VIDP 040200Z 25003KT 2100 HZ NSC 25/02 Q1008 NOSIG,M
VIDP,2022-04-04 02:30,78.80,39.20,24.19,250.00,4.00,0.00,29.77,M,1.37,M,NSC,M,M,M,M,M,M,M,HZ,M,M,M,M,M,M,78.80,VIDP 040230Z 25004KT 2200 HZ NSC 26/04 Q1008 NOSIG,M
VIDP,2022-04-04 03:00,80.60,39.20,22.81,240.00,6.00,0.00,29.77,M,1.55,M,NSC,M,M,M,M,M,M,M,HZ,M,M,M,M,M,M,79.10,VIDP 040300Z 24006KT 2500 HZ NSC 27/04 Q1008 NOSIG,M
VIDP,2022-04-04 03:30,82.40,42.80,24.72,230.00,7.00,0.00,29.80,M,1.55,M,NSC,M,M,M,M,M,M,M,HZ,M,M,M,M,M,M,80.39,VIDP 040330Z 23007KT 2500 HZ NSC 28/06 Q1009 NOSIG,M
VIDP,2022-04-04 04:00,84.20,42.80,23.33,250.00,7.00,0.00,29.80,M,1.74,M,NSC,M,M,M,M,M,M,M,HZ,M,M,M,M,M,M,81.61,VIDP 040400Z 25007KT 2800 HZ NSC 29/06 Q1009 NOSIG,M
VIDP,2022-04-04 04:30,87.80,42.80,20.79,260.00,7.00,0.00,29.80,M,1.74,M,NSC,M,M,M,M,M,M,M,HZ,M,M,M,M,M,M,84.40,VIDP 040430Z 26007KT 2800 HZ NSC 31/06 Q1009 NOSIG,M
VIDP,2022-04-04 05:00,89.60,44.60,21.04,230.00,6.00,0.00,29.80,M,1.86,M,NSC,M,M,M,M,M,M,M,HZ,M,M,M,M,M,M,86.07,VIDP 040500Z 23006KT 3000 HZ NSC 32/07 Q1009 NOSIG,M
VIDP,2022-04-04 05:30,91.40,44.60,19.89,280.00,8.00,0.00,29.80,M,1.86,M,NSC,M,M,M,M,M,M,M,HZ,M,M,M,M,M,M,87.68,VIDP 040530Z 28008KT 3000 HZ NSC 33/07 Q1009 NOSIG,M
VIDP,2022-04-04 06:00,93.20,44.60,18.80,270.00,10.00,0.00,29.80,M,2.17,M,NSC,M,M,M,M,M,M,M,HZ,M,M,M,M,M,M,89.34,VIDP 040600Z 27010KT 3500 HZ NSC 34/07 Q1009 NOSIG,M
VIDP,2022-04-04 06:30,95.00,44.60,17.78,280.00,10.00,0.00,29.80,M,2.17,M,NSC,M,M,M,M,M,M,M,HZ,M,M,M,M,M,M,91.06,VIDP 040630Z 28010KT 3500 HZ NSC 35/07 Q1009 NOSIG,M
VIDP,2022-04-04 07:00,96.80,37.40,12.73,280.00,8.00,0.00,29.80,M,2.49,18.00,NSC,M,M,M,M,M,M,M,HZ,M,M,M,M,M,M,92.04,VIDP 040700Z 28008G18KT 4000 HZ NSC 36/03 Q1009 BECMG 5000 HZ,M
VIDP,2022-04-04 07:30,96.80,37.40,12.73,280.00,8.00,0.00,29.80,M,2.80,18.00,NSC,M,M,M,M,M,M,M,HZ,M,M,M,M,M,M,92.04,VIDP 040730Z 28008G18KT 4500 HZ NSC 36/03 Q1009 BECMG 5000 HZ,M
VIDP,2022-04-04 08:00,98.60,35.60,11.23,280.00,8.00,0.00,29.77,M,3.11,18.00,NSC,M,M,M,M,M,M,M,HZ,M,M,M,M,M,M,93.23,VIDP 040800Z 28008G18KT 5000 HZ NSC 37/02 Q1008 NOSIG,M
VIDP,2022-04-04 08:30,100.40,33.80,9.90,290.00,7.00,0.00,29.77,M,3.11,17.00,NSC,M,M,M,M,M,M,M,HZ,M,M,M,M,M,M,94.47,VIDP 040830Z 29007G17KT 5000 HZ NSC 38/01 Q1008 NOSIG,M
VIDP,2022-04-04 09:00,100.40,33.80,9.90,290.00,8.00,0.00,29.77,M,3.11,18.00,NSC,M,M,M,M,M,M,M,HZ,M,M,M,M,M,M,94.47,VIDP 040900Z 29008G18KT 5000 HZ NSC 38/01 Q1008 NOSIG,M
VIDP,2022-04-04 09:30,100.40,28.40,7.95,290.00,9.00,0.00,29.74,M,3.11,M,NSC,M,M,M,M,M,M,M,HZ,M,M,M,M,M,M,93.77,VIDP 040930Z 29009KT 5000 HZ NSC 38/M02 Q1007 NOSIG,M
VIDP,2022-04-04 10:00,100.40,26.60,7.39,280.00,8.00,0.00,29.74,M,3.11,18.00,NSC,M,M,M,M,M,M,M,HZ,M,M,M,M,M,M,93.57,VIDP 041000Z 28008G18KT 5000 HZ NSC 38/M03 Q1007 NOSIG,M
VIDP,2022-04-04 10:30,100.40,26.60,7.39,280.00,7.00,0.00,29.74,M,3.11,17.00,NSC,M,M,M,M,M,M,M,HZ,M,M,M,M,M,M,93.57,VIDP 041030Z 28007G17KT 5000 HZ NSC 38/M03 Q1007 NOSIG,M
VIDP,2022-04-04 11:00,100.40,26.60,7.39,300.00,10.00,0.00,29.74,M,3.11,M,NSC,M,M,M,M,M,M,M,HZ,M,M,M,M,M,M,93.57,VIDP 041100Z 30010KT 5000 HZ NSC 38/M03 Q1007 NOSIG,M
VIDP,2022-04-04 11:30,100.40,26.60,7.39,290.00,9.00,0.00,29.74,M,3.11,M,NSC,M,M,M,M,M,M,M,HZ,M,M,M,M,M,M,93.57,VIDP 041130Z 29009KT 5000 HZ NSC 38/M03 Q1007 NOSIG,M
VIDP,2022-04-04 12:00,98.60,33.80,10.45,290.00,7.00,0.00,29.74,M,3.11,M,NSC,M,M,M,M,M,M,M,HZ,M,M,M,M,M,M,92.94,VIDP 041200Z 29007KT 5000 HZ NSC 37/01 Q1007 NOSIG,M
VIDP,2022-04-04 12:30,98.60,35.60,11.23,280.00,6.00,0.00,29.74,M,3.11,M,NSC,M,M,M,M,M,M,M,HZ,M,M,M,M,M,M,93.23,VIDP 041230Z 28006KT 5000 HZ NSC 37/02 Q1007 NOSIG,M
VIDP,2022-04-04 13:00,96.80,35.60,11.86,280.00,6.00,0.00,29.74,M,3.11,M,NSC,M,M,M,M,M,M,M,HZ,M,M,M,M,M,M,91.72,VIDP 041300Z 28006KT 5000 HZ NSC 36/02 Q1007 NOSIG,M
VIDP,2022-04-04 13:30,93.20,37.40,14.23,270.00,4.00,0.00,29.77,M,2.80,M,NSC,M,M,M,M,M,M,M,HZ,M,M,M,M,M,M,88.83,VIDP 041330Z 27004KT 4500 HZ NSC 34/03 Q1008 NOSIG,M
VIDP,2022-04-04 14:00,93.20,39.20,15.27,280.00,4.00,0.00,29.77,M,2.49,M,NSC,M,M,M,M,M,M,M,HZ,M,M,M,M,M,M,88.92,VIDP 041400Z 28004KT 4000 HZ NSC 34/04 Q1008 NOSIG,M
VIDP,2022-04-04 14:30,91.40,41.00,17.32,260.00,4.00,0.00,29.77,M,2.49,M,NSC,M,M,M,M,M,M,M,HZ,M,M,M,M,M,M,87.40,VIDP 041430Z 26004KT 4000 HZ NSC 33/05 Q1008 NOSIG,M
VIDP,2022-04-04 15:00,89.60,42.80,19.64,260.00,3.00,0.00,29.80,M,2.49,M,NSC,M,M,M,M,M,M,M,HZ,M,M,M,M,M,M,85.93,COR VIDP 041500Z 26003KT 4000 HZ NSC 32/06 Q1009 NOSIG,M
VIDP,2022-04-04 15:30,89.60,42.80,19.64,280.00,3.00,0.00,29.80,M,2.49,M,NSC,M,M,M,M,M,M,M,HZ,M,M,M,M,M,M,85.93,VIDP 041530Z 28003KT 4000 HZ NSC 32/06 Q1009 NOSIG,M
VIDP,2022-04-04 16:00,87.80,44.60,22.27,290.00,3.00,0.00,29.83,M,2.49,M,NSC,M,M,M,M,M,M,M,HZ,M,M,M,M,M,M,84.53,VIDP 041600Z 29003KT 4000 HZ NSC 31/07 Q1010 NOSIG,M
VIDP,2022-04-04 16:30,86.00,44.60,23.59,0.00,0.00,0.00,29.83,M,2.49,M,NSC,M,M,M,M,M,M,M,HZ,M,M,M,M,M,M,83.07,VIDP 041630Z 00000KT 4000 HZ NSC 30/07 Q1010 NOSIG,M
VIDP,2022-04-04 17:00,84.20,46.40,26.76,0.00,0.00,0.00,29.83,M,2.49,M,NSC,M,M,M,M,M,M,M,HZ,M,M,M,M,M,M,81.87,VIDP 041700Z 00000KT 4000 HZ NSC 29/08 Q1010 NOSIG,M
VIDP,2022-04-04 17:30,82.40,46.40,28.36,0.00,0.00,0.00,29.83,M,2.49,M,NSC,M,M,M,M,M,M,M,HZ,M,M,M,M,M,M,80.64,VIDP 041730Z 00000KT 4000 HZ NSC 28/08 Q1010 NOSIG,M
VIDP,2022-04-04 18:00,80.60,46.40,30.07,0.00,0.00,0.00,29.83,M,2.49,M,NSC,M,M,M,M,M,M,M,HZ,M,M,M,M,M,M,79.56,VIDP 041800Z 00000KT 4000 HZ NSC 27/08 Q1010 NOSIG,M
VIDP,2022-04-04 18:30,80.60,46.40,30.07,0.00,0.00,0.00,29.83,M,2.49,M,NSC,M,M,M,M,M,M,M,HZ,M,M,M,M,M,M,79.56,VIDP 041830Z 00000KT 4000 HZ NSC 27/08 Q1010 NOSIG,M
VIDP,2022-04-04 19:00,80.60,46.40,30.07,0.00,0.00,0.00,29.83,M,2.17,M,NSC,M,M,M,M,M,M,M,HZ,M,M,M,M,M,M,79.56,VIDP 041900Z 00000KT 3500 HZ NSC 27/08 Q1010 NOSIG,M
VIDP,2022-04-04 19:30,78.80,48.20,34.13,0.00,0.00,0.00,29.83,M,2.17,M,NSC,M,M,M,M,M,M,M,HZ,M,M,M,M,M,M,78.80,VIDP 041930Z 00000KT 3500 HZ NSC 26/09 Q1010 NOSIG,M
VIDP,2022-04-04 20:00,78.80,48.20,34.13,0.00,0.00,0.00,29.83,M,2.17,M,NSC,M,M,M,M,M,M,M,HZ,M,M,M,M,M,M,78.80,VIDP 042000Z 00000KT 3500 HZ NSC 26/09 Q1010 NOSIG,M
VIDP,2022-04-04 20:30,77.00,48.20,36.22,0.00,0.00,0.00,29.83,M,2.17,M,NSC,M,M,M,M,M,M,M,HZ,M,M,M,M,M,M,77.00,VIDP 042030Z 00000KT 3500 HZ NSC 25/09 Q1010 NOSIG,M
VIDP,2022-04-04 21:00,77.00,50.00,38.74,0.00,0.00,0.00,29.83,M,2.17,M,NSC,M,M,M,M,M,M,M,HZ,M,M,M,M,M,M,77.00,VIDP 042100Z 00000KT 3500 HZ NSC 25/10 Q1010 NOSIG,M
VIDP,2022-04-04 21:30,77.00,50.00,38.74,0.00,0.00,0.00,29.83,M,2.17,M,NSC,M,M,M,M,M,M,M,HZ,M,M,M,M,M,M,77.00,VIDP 042130Z 00000KT 3500 HZ NSC 25/10 Q1010 NOSIG,M
VIDP,2022-04-04 22:00,77.00,50.00,38.74,0.00,0.00,0.00,29.83,M,2.17,M,NSC,M,M,M,M,M,M,M,HZ,M,M,M,M,M,M,77.00,VIDP 042200Z 00000KT 3500 HZ NSC 25/10 Q1010 NOSIG,M
VIDP,2022-04-04 22:30,75.20,50.00,41.14,0.00,0.00,0.00,29.83,M,2.17,M,NSC,M,M,M,M,M,M,M,HZ,M,M,M,M,M,M,75.20,VIDP 042230Z 00000KT 3500 HZ NSC 24/10 Q1010 NOSIG,M
VIDP,2022-04-04 23:00,75.20,50.00,41.14,0.00,0.00,0.00,29.83,M,2.17,M,NSC,M,M,M,M,M,M,M,HZ,M,M,M,M,M,M,75.20,VIDP 042300Z 00000KT 3500 HZ NSC 24/10 Q1010 NOSIG,M
VIDP,2022-04-04 23:30,75.20,50.00,41.14,0.00,0.00,0.00,29.83,M,1.99,M,NSC,M,M,M,M,M,M,M,HZ,M,M,M,M,M,M,75.20,VIDP 042330Z 00000KT 3200 HZ NSC 24/10 Q1010 BECMG 3000 HZ,M
VIDP,2022-04-05 00:00,73.40,50.00,43.69,0.00,0.00,0.00,29.83,M,1.86,M,NSC,M,M,M,M,M,M,M,HZ,M,M,M,M,M,M,73.40,VIDP 050000Z 00000KT 3000 HZ NSC 23/10 Q1010 NOSIG,M
VIDP,2022-04-05 00:30,73.40,50.00,43.69,0.00,0.00,0.00,29.83,M,1.86,M,NSC,M,M,M,M,M,M,M,HZ,M,M,M,M,M,M,73.40,VIDP 050030Z 00000KT 3000 HZ NSC 23/10 Q1010 NOSIG,M
VIDP,2022-04-05 01:00,73.40,50.00,43.69,0.00,0.00,0.00,29.85,M,1.86,M,NSC,M,M,M,M,M,M,M,HZ,M,M,M,M,M,M,73.40,VIDP 050100Z 00000KT 3000 HZ NSC 23/10 Q1011 NOSIG,M
VIDP,2022-04-05 01:30,73.40,50.00,43.69,0.00,0.00,0.00,29.85,M,1.86,M,NSC,M,M,M,M,M,M,M,HZ,M,M,M,M,M,M,73.40,VIDP 050130Z 00000KT 3000 HZ NSC 23/10 Q1011 NOSIG,M
VIDP,2022-04-05 02:00,75.20,48.20,38.46,0.00,0.00,0.00,29.88,M,1.86,M,NSC,M,M,M,M,M,M,M,HZ,M,M,M,M,M,M,75.20,VIDP 050200Z 00000KT 3000 HZ NSC 24/09 Q1012 NOSIG,M
VIDP,2022-04-05 02:30,78.80,46.40,31.90,0.00,0.00,0.00,29.88,M,1.86,M,NSC,M,M,M,M,M,M,M,HZ,M,M,M,M,M,M,78.80,VIDP 050230Z 00000KT 3000 HZ NSC 26/08 Q1012 NOSIG,M
VIDP,2022-04-05 03:00,80.60,44.60,28.08,230.00,5.00,0.00,29.88,M,1.86,M,NSC,M,M,M,M,M,M,M,HZ,M,M,M,M,M,M,79.42,VIDP 050300Z 23005KT 3000 HZ NSC 27/07 Q1012 NOSIG,M
VIDP,2022-04-05 03:30,82.40,44.60,26.49,250.00,5.00,0.00,29.91,M,1.99,M,NSC,M,M,M,M,M,M,M,HZ,M,M,M,M,M,M,80.50,VIDP 050330Z 25005KT 3200 HZ NSC 28/07 Q1013 NOSIG,M
VIDP,2022-04-05 04:00,86.00,44.60,23.59,250.00,4.00,0.00,29.91,M,2.17,M,NSC,M,M,M,M,M,M,M,HZ,M,M,M,M,M,M,83.07,VIDP 050400Z 25004KT 3500 HZ NSC 30/07 Q1013 NOSIG,M
VIDP,2022-04-05 04:30,87.80,44.60,22.27,240.00,5.00,0.00,29.91,M,2.17,M,NSC,M,M,M,M,M,M,M,HZ,M,M,M,M,M,M,84.53,VIDP 050430Z 24005KT 3500 HZ NSC 31/07 Q1013 NOSIG,M
VIDP,2022-04-05 05:00,89.60,44.60,21.04,250.00,4.00,0.00,29.91,M,2.17,M,NSC,M,M,M,M,M,M,M,HZ,M,M,M,M,M,M,86.07,VIDP 050500Z 25004KT 3500 HZ NSC 32/07 Q1013 NOSIG,M
VIDP,2022-04-05 05:30,93.20,42.80,17.55,250.00,4.00,0.00,29.91,M,2.49,M,NSC,M,M,M,M,M,M,M,HZ,M,M,M,M,M,M,89.17,VIDP 050530Z 25004KT 4000 HZ NSC 34/06 Q1013 NOSIG,M
VIDP,2022-04-05 06:00,95.00,39.20,14.44,270.00,5.00,0.00,29.91,M,2.49,M,NSC,M,M,M,M,M,M,M,HZ,M,M,M,M,M,M,90.57,VIDP 050600Z 27005KT 4000 HZ NSC 35/04 Q1013 BECMG 5000 HZ,M
VIDP,2022-04-05 06:30,96.80,37.40,12.73,250.00,5.00,0.00,29.91,M,2.80,M,NSC,M,M,M,M,M,M,M,HZ,M,M,M,M,M,M,92.04,VIDP 050630Z 25005KT 4500 HZ NSC 36/03 Q1013 BECMG 5000 HZ,M
VIDP,2022-04-05 07:00,98.60,37.40,12.05,270.00,8.00,0.00,29.88,M,3.11,M,NSC,M,M,M,M,M,M,M,HZ,M,M,M,M,M,M,93.54,VIDP 050700Z 27008KT 5000 HZ NSC 37/03 Q1012 NOSIG,M
VIDP,2022-04-05 07:30,98.60,35.60,11.23,280.00,8.00,0.00,29.88,M,3.73,M,NSC,M,M,M,M,M,M,M,M,M,M,M,M,M,M,93.23,VIDP 050730Z 28008KT 6000 NSC 37/02 Q1012 NOSIG,M
VIDP,2022-04-05 08:00,100.40,28.40,7.95,290.00,10.00,0.00,29.88,M,3.73,M,FEW,M,M,M,10000.00,M,M,M,M,M,M,M,M,M,M,93.77,VIDP 050800Z 29010KT 6000 FEW100 38/M02 Q1012 NOSIG,M
VIDP,2022-04-05 08:30,100.40,26.60,7.39,280.00,9.00,0.00,29.85,M,3.73,M,FEW,M,M,M,10000.00,M,M,M,M,M,M,M,M,M,M,93.57,VIDP 050830Z 28009KT 6000 FEW100 38/M03 Q1011 NOSIG,M
VIDP,2022-04-05 09:00,102.20,24.80,6.49,280.00,9.00,0.00,29.85,M,3.73,M,FEW,M,M,M,10000.00,M,M,M,M,M,M,M,M,M,M,94.91,VIDP 050900Z 28009KT 6000 FEW100 39/M04 Q1011 NOSIG,M
VIDP,2022-04-05 09:30,100.40,24.80,6.85,290.00,10.00,0.00,29.83,M,3.73,M,FEW,M,M,M,10000.00,M,M,M,M,M,M,M,M,M,M,93.40,VIDP 050930Z 29010KT 6000 FEW100 38/M04 Q1010 BECMG 5000 HZ,M
VIDP,2022-04-05 10:00,98.60,23.00,6.71,300.00,11.00,0.00,29.83,M,3.11,M,FEW,M,M,M,10000.00,M,M,M,HZ,M,M,M,M,M,M,91.75,VIDP 051000Z 30011KT 5000 HZ FEW100 37/M05 Q1010 NOSIG,M
VIDP,2022-04-05 10:30,98.60,23.00,6.71,300.00,8.00,0.00,29.83,M,3.11,18.00,FEW,M,M,M,10000.00,M,M,M,HZ,M,M,M,M,M,M,91.75,VIDP 051030Z 30008G18KT 5000 HZ FEW100 37/M05 Q1010 NOSIG,M
VIDP,2022-04-05 11:00,98.60,23.00,6.71,290.00,10.00,0.00,29.83,M,3.11,M,FEW,M,M,M,10000.00,M,M,M,HZ,M,M,M,M,M,M,91.75,VIDP 051100Z 29010KT 5000 HZ FEW100 37/M05 Q1010 NOSIG,M
VIDP,2022-04-05 11:30,98.60,23.00,6.71,300.00,12.00,0.00,29.83,M,3.11,M,FEW,M,M,M,10000.00,M,M,M,HZ,M,M,M,M,M,M,91.75,VIDP 051130Z 30012KT 5000 HZ FEW100 37/M05 Q1010 NOSIG,M
VIDP,2022-04-05 12:00,96.80,23.00,7.09,290.00,10.00,0.00,29.83,M,3.11,M,FEW,M,M,M,10000.00,M,M,M,HZ,M,M,M,M,M,M,90.25,VIDP 051200Z 29010KT 5000 HZ FEW100 36/M05 Q1010 NOSIG,M
VIDP,2022-04-05 12:30,96.80,23.00,7.09,280.00,7.00,0.00,29.83,M,3.11,M,FEW,M,M,M,10000.00,M,M,M,HZ,M,M,M,M,M,M,90.25,VIDP 051230Z 28007KT 5000 HZ FEW100 36/M05 Q1010 NOSIG,M
VIDP,2022-04-05 13:00,95.00,24.80,8.08,280.00,5.00,0.00,29.83,M,3.11,M,FEW,M,M,M,10000.00,M,M,M,HZ,M,M,M,M,M,M,88.91,VIDP 051300Z 28005KT 5000 HZ FEW100 35/M04 Q1010 NOSIG,M
VIDP,2022-04-05 13:30,95.00,26.60,8.71,300.00,5.00,0.00,29.83,M,3.11,M,FEW,M,M,M,10000.00,M,M,M,HZ,M,M,M,M,M,M,89.08,VIDP 051330Z 30005KT 5000 HZ FEW100 35/M03 Q1010 NOSIG,M
VIDP,2022-04-05 14:00,93.20,30.20,10.67,320.00,4.00,0.00,29.83,M,3.11,M,FEW,M,M,M,10000.00,M,M,M,HZ,M,M,M,M,M,M,88.09,VIDP 051400Z 32004KT 5000 HZ FEW100 34/M01 Q1010 NOSIG,M
VIDP,2022-04-05 14:30,91.40,32.00,12.14,310.00,4.00,0.00,29.85,M,3.11,M,FEW,M,M,M,10000.00,M,M,M,HZ,M,M,M,M,M,M,86.91,VIDP 051430Z 31004KT 5000 HZ FEW100 33/00 Q1011 NOSIG,M
VIDP,2022-04-05 15:00,91.40,33.80,13.05,0.00,0.00,0.00,29.85,M,3.11,M,FEW,M,M,M,10000.00,M,M,M,HZ,M,M,M,M,M,M,87.13,VIDP 051500Z 00000KT 5000 HZ FEW100 33/01 Q1011 NOSIG,M
VIDP,2022-04-05 15:30,89.60,39.20,17.09,0.00,0.00,0.00,29.85,M,3.11,M,FEW,M,M,M,10000.00,M,M,M,HZ,M,M,M,M,M,M,85.73,VIDP 051530Z 00000KT 5000 HZ FEW100 32/04 Q1011 NOSIG,M
VIDP,2022-04-05 16:00,87.80,39.20,18.09,0.00,0.00,0.00,29.85,M,3.11,M,FEW,M,M,M,10000.00,M,M,M,HZ,M,M,M,M,M,M,84.22,VIDP 051600Z 00000KT 5000 HZ FEW100 31/04 Q1011 NOSIG,M
VIDP,2022-04-05 16:30,87.80,39.20,18.09,0.00,0.00,0.00,29.85,M,3.11,M,FEW,M,M,M,10000.00,M,M,M,HZ,M,M,M,M,M,M,84.22,VIDP 051630Z 00000KT 5000 HZ FEW100 31/04 Q1011 NOSIG,M
VIDP,2022-04-05 17:00,86.00,39.20,19.15,0.00,0.00,0.00,29.88,M,3.11,M,FEW,M,M,M,10000.00,M,M,M,HZ,M,M,M,M,M,M,82.79,VIDP 051700Z 00000KT 5000 HZ FEW100 30/04 Q1012 NOSIG,M
VIDP,2022-04-05 17:30,86.00,39.20,19.15,0.00,0.00,0.00,29.85,M,2.80,M,FEW,M,M,M,10000.00,M,M,M,HZ,M,M,M,M,M,M,82.79,VIDP 051730Z 00000KT 4500 HZ FEW100 30/04 Q1011 NOSIG,M
VIDP,2022-04-05 18:00,86.00,39.20,19.15,0.00,0.00,0.00,29.85,M,2.80,M,FEW,M,M,M,10000.00,M,M,M,HZ,M,M,M,M,M,M,82.79,VIDP 051800Z 00000KT 4500 HZ FEW100 30/04 Q1011 NOSIG,M
VIDP,2022-04-05 18:30,82.40,39.20,21.51,0.00,0.00,0.00,29.85,M,2.80,M,FEW,M,M,M,10000.00,M,M,M,HZ,M,M,M,M,M,M,80.21,VIDP 051830Z 00000KT 4500 HZ FEW100 28/04 Q1011 NOSIG,M
VIDP,2022-04-05 19:00,82.40,39.20,21.51,0.00,0.00,0.00,29.85,M,2.49,M,FEW,M,M,M,10000.00,M,M,M,HZ,M,M,M,M,M,M,80.21,VIDP 051900Z 00000KT 4000 HZ FEW100 28/04 Q1011 NOSIG,M
VIDP,2022-04-05 19:30,80.60,41.00,24.46,0.00,0.00,0.00,29.85,M,2.49,M,FEW,M,M,M,10000.00,M,M,M,HZ,M,M,M,M,M,M,79.20,VIDP 051930Z 00000KT 4000 HZ FEW100 27/05 Q1011 NOSIG,M
VIDP,2022-04-05 20:00,80.60,42.80,26.22,0.00,0.00,0.00,29.85,M,2.49,M,FEW,M,M,M,10000.00,M,M,M,HZ,M,M,M,M,M,M,79.30,VIDP 052000Z 00000KT 4000 HZ FEW100 27/06 Q1011 NOSIG,M
VIDP,2022-04-05 20:30,78.80,42.80,27.81,0.00,0.00,0.00,29.83,M,2.17,M,FEW,M,M,M,10000.00,M,M,M,HZ,M,M,M,M,M,M,78.80,VIDP 052030Z 00000KT 3500 HZ FEW100 26/06 Q1010 NOSIG,M
VIDP,2022-04-05 21:00,78.80,42.80,27.81,0.00,0.00,0.00,29.83,M,2.17,M,FEW,M,M,M,10000.00,M,M,M,HZ,M,M,M,M,M,M,78.80,VIDP 052100Z 00000KT 3500 HZ FEW100 26/06 Q1010 NOSIG,M
VIDP,2022-04-05 21:30,78.80,42.80,27.81,0.00,0.00,0.00,29.83,M,2.17,M,FEW,M,M,M,10000.00,M,M,M,HZ,M,M,M,M,M,M,78.80,VIDP 052130Z 00000KT 3500 HZ FEW100 26/06 Q1010 NOSIG,M
VIDP,2022-04-05 22:00,77.00,44.60,31.62,0.00,0.00,0.00,29.83,M,2.17,M,FEW,M,M,M,10000.00,M,M,M,HZ,M,M,M,M,M,M,77.00,VIDP 052200Z 00000KT 3500 HZ FEW100 25/07 Q1010 NOSIG,M
VIDP,2022-04-05 22:30,77.00,44.60,31.62,0.00,0.00,0.00,29.83,M,2.17,M,FEW,M,M,M,10000.00,M,M,M,HZ,M,M,M,M,M,M,77.00,VIDP 052230Z 00000KT 3500 HZ FEW100 25/07 Q1010 BECMG 3000 HZ,M
VIDP,2022-04-05 23:00,77.00,44.60,31.62,0.00,0.00,0.00,29.83,M,1.86,M,FEW,M,M,M,10000.00,M,M,M,HZ,M,M,M,M,M,M,77.00,VIDP 052300Z 00000KT 3000 HZ FEW100 25/07 Q1010 NOSIG,M
VIDP,2022-04-05 23:30,75.20,46.40,35.94,0.00,0.00,0.00,29.83,M,1.86,M,FEW,M,M,M,10000.00,M,M,M,HZ,M,M,M,M,M,M,75.20,VIDP 052330Z 00000KT 3000 HZ FEW100 24/08 Q1010 NOSIG,M
VIDP,2022-04-06 00:00,75.20,46.40,35.94,0.00,0.00,0.00,29.83,M,1.86,M,FEW,M,M,M,10000.00,M,M,M,HZ,M,M,M,M,M,M,75.20,VIDP 060000Z 00000KT 3000 HZ FEW100 24/08 Q1010 NOSIG,M
VIDP,2022-04-06 00:30,75.20,46.40,35.94,0.00,0.00,0.00,29.85,M,1.55,M,FEW,M,M,M,10000.00,M,M,M,HZ,M,M,M,M,M,M,75.20,VIDP 060030Z 00000KT 2500 HZ FEW100 24/08 Q1011 NOSIG,M
VIDP,2022-04-06 01:00,73.40,44.60,35.66,250.00,3.00,0.00,29.85,M,1.30,M,FEW,M,M,M,10000.00,M,M,M,DU,M,M,M,M,M,M,73.40,VIDP 060100Z 25003KT 2100 DU FEW100 23/07 Q1011 NOSIG,M
VIDP,2022-04-06 01:30,75.20,42.80,31.34,230.00,3.00,0.00,29.88,M,1.30,M,FEW,M,M,M,10000.00,M,M,M,DU,M,M,M,M,M,M,75.20,VIDP 060130Z 23003KT 2100 DU FEW100 24/06 Q1012 NOSIG,M
VIDP,2022-04-06 02:00,77.00,41.00,27.53,240.00,3.00,0.00,29.88,M,1.30,M,FEW,M,M,M,10000.00,M,M,M,DU,M,M,M,M,M,M,77.00,VIDP 060200Z 24003KT 2100 DU FEW100 25/05 Q1012 NOSIG,M
VIDP,2022-04-06 02:30,78.80,39.20,24.19,230.00,4.00,0.00,29.88,M,1.37,M,FEW,M,M,M,10000.00,M,M,M,DU,M,M,M,M,M,M,78.80,VIDP 060230Z 23004KT 2200 DU FEW100 26/04 Q1012 NOSIG,M
VIDP,2022-04-06 03:00,80.60,39.20,22.81,220.00,3.00,0.00,29.91,M,1.55,M,FEW,M,M,M,10000.00,M,M,M,HZ,M,M,M,M,M,M,79.10,VIDP 060300Z 22003KT 2500 HZ FEW100 27/04 Q1013 NOSIG,M
VIDP,2022-04-06 03:30,82.40,39.20,21.51,240.00,4.00,0.00,29.91,M,1.55,M,FEW,M,M,M,10000.00,M,M,M,HZ,M,M,M,M,M,M,80.21,VIDP 060330Z 24004KT 2500 HZ FEW100 28/04 Q1013 NOSIG,M
VIDP,2022-04-06 04:00,84.20,39.20,20.29,250.00,4.00,0.00,29.94,M,1.74,M,FEW,M,M,M,10000.00,M,M,M,HZ,M,M,M,M,M,M,81.44,VIDP 060400Z 25004KT 2800 HZ FEW100 29/04 Q1014 NOSIG,M
VIDP,2022-04-06 04:30,86.00,37.40,17.85,240.00,5.00,0.00,29.94,M,1.74,M,FEW,M,M,M,10000.00,M,M,M,HZ,M,M,M,M,M,M,82.73,VIDP 060430Z 24005KT 2800 HZ FEW100 30/03 Q1014 BECMG 3000 HZ,M
VIDP,2022-04-06 05:00,89.60,37.40,15.92,240.00,4.00,0.00,29.94,M,1.86,M,FEW,M,M,M,10000.00,M,M,M,HZ,M,M,M,M,M,M,85.67,VIDP 060500Z 24004KT 3000 HZ FEW100 32/03 Q1014 NOSIG,M
VIDP,2022-04-06 05:30,91.40,37.40,15.05,260.00,4.00,0.00,29.94,M,1.86,M,FEW,M,M,M,10000.00,M,M,M,HZ,M,M,M,M,M,M,87.23,VIDP 060530Z 26004KT 3000 HZ FEW100 33/03 Q1014 NOSIG,M
VIDP,2022-04-06 06:00,95.00,35.60,12.53,280.00,6.00,0.00,29.91,M,2.17,M,FEW,M,M,M,10000.00,M,M,M,HZ,M,M,M,M,M,M,90.25,VIDP 060600Z 28006KT 3500 HZ FEW100 35/02 Q1013 NOSIG,M
VIDP,2022-04-06 06:30,96.80,35.60,11.86,260.00,4.00,0.00,29.91,M,2.17,M,FEW,M,M,M,10000.00,M,M,M,HZ,M,M,M,M,M,M,91.72,VIDP 060630Z 26004KT 3500 HZ FEW100 36/02 Q1013 NOSIG,M
VIDP,2022-04-06 07:00,96.80,33.80,11.04,270.00,6.00,0.00,29.88,M,2.49,M,FEW,M,M,M,10000.00,M,M,M,HZ,M,M,M,M,M,M,91.44,VIDP 060700Z 27006KT 4000 HZ FEW100 36/01 Q1012 NOSIG,M
VIDP,2022-04-06 07:30,98.60,30.20,9.04,300.00,9.00,0.00,29.88,M,2.80,M,FEW,M,M,M,10000.00,M,M,M,HZ,M,M,M,M,M,M,92.46,VIDP 060730Z 30009KT 4500 HZ FEW100 37/M01 Q1012 NOSIG,M
VIDP,2022-04-06 08:00,100.40,30.20,8.56,310.00,8.00,0.00,29.85,M,2.80,M,FEW,M,M,M,10000.00,M,M,M,HZ,M,M,M,M,M,M,93.98,VIDP 060800Z 31008KT 4500 HZ FEW100 38/M01 Q1011 BECMG 5000 HZ,M
VIDP,2022-04-06 08:30,100.40,28.40,7.95,290.00,11.00,0.00,29.85,M,3.11,M,FEW,M,M,M,10000.00,M,M,M,HZ,M,M,M,M,M,M,93.77,VIDP 060830Z 29011KT 5000 HZ FEW100 38/M02 Q1011 NOSIG,M
VIDP,2022-04-06 09:00,104.00,26.60,6.63,280.00,12.00,0.00,29.83,M,3.11,M,FEW,M,M,M,10000.00,M,M,M,HZ,M,M,M,M,M,M,96.60,VIDP 060900Z 28012KT 5000 HZ FEW100 40/M03 Q1010 NOSIG,M
VIDP,2022-04-06 09:30,104.00,26.60,6.63,290.00,12.00,0.00,29.83,M,3.11,M,FEW,M,M,M,10000.00,M,M,M,HZ,M,M,M,M,M,M,96.60,VIDP 060930Z 29012KT 5000 HZ FEW100 40/M03 Q1010 NOSIG,M
VIDP,2022-04-06 10:00,104.00,23.00,5.71,300.00,10.00,0.00,29.83,M,3.11,M,FEW,M,M,M,10000.00,M,M,M,HZ,M,M,M,M,M,M,96.25,VIDP 061000Z 30010KT 5000 HZ FEW100 40/M05 Q1010 NOSIG,M
VIDP,2022-04-06 10:30,104.00,24.80,6.15,310.00,10.00,0.00,29.80,M,3.11,M,FEW,M,M,M,10000.00,M,M,M,HZ,M,M,M,M,M,M,96.42,VIDP 061030Z 31010KT 5000 HZ FEW100 40/M04 Q1009 NOSIG,M
VIDP,2022-04-06 11:00,102.20,24.80,6.49,300.00,8.00,0.00,29.80,M,3.11,M,FEW,M,M,M,10000.00,M,M,M,HZ,M,M,M,M,M,M,94.91,VIDP 061100Z 30008KT 5000 HZ FEW100 39/M04 Q1009 NOSIG,M
VIDP,2022-04-06 11:30,100.40,26.60,7.39,290.00,8.00,0.00,29.80,M,2.49,M,FEW,M,M,M,10000.00,M,M,M,HZ,M,M,M,M,M,M,93.57,VIDP 061130Z 29008KT 4000 HZ FEW100 38/M03 Q1009 NOSIG,M
VIDP,2022-04-06 12:00,100.40,28.40,7.95,290.00,6.00,0.00,29.80,M,2.49,M,FEW,M,M,M,10000.00,M,M,M,HZ,M,M,M,M,M,M,93.77,VIDP 061200Z 29006KT 4000 HZ FEW100 38/M02 Q1009 NOSIG,M
VIDP,2022-04-06 12:30,100.40,28.40,7.95,290.00,5.00,0.00,29.80,M,2.49,M,FEW,M,M,M,10000.00,M,M,M,HZ,M,M,M,M,M,M,93.77,VIDP 061230Z 29005KT 4000 HZ FEW100 38/M02 Q1009 NOSIG,M
VIDP,2022-04-06 13:00,98.60,32.00,9.72,280.00,6.00,0.00,29.80,M,2.49,M,FEW,M,M,M,10000.00,M,M,M,HZ,M,M,M,M,M,M,92.69,VIDP 061300Z 28006KT 4000 HZ FEW100 37/00 Q1009 NOSIG,M
VIDP,2022-04-06 13:30,96.80,35.60,11.86,290.00,3.00,0.00,29.80,M,2.49,M,FEW,M,M,M,10000.00,M,M,M,HZ,M,M,M,M,M,M,91.72,VIDP 061330Z 29003KT 4000 HZ FEW100 36/02 Q1009 NOSIG,M
VIDP,2022-04-06 14:00,95.00,37.40,13.46,0.00,0.00,0.00,29.80,M,2.49,M,FEW,M,M,M,10000.00,M,M,M,HZ,M,M,M,M,M,M,90.46,VIDP 061400Z 00000KT 4000 HZ FEW100 35/03 Q1009 NOSIG,M
VIDP,2022-04-06 14:30,91.40,39.20,16.15,0.00,0.00,0.00,29.83,M,2.49,M,FEW,M,M,M,10000.00,M,M,M,HZ,M,M,M,M,M,M,87.30,VIDP 061430Z 00000KT 4000 HZ FEW100 33/04 Q1010 NOSIG,M
VIDP,2022-04-06 15:00,89.60,41.00,18.33,0.00,0.00,0.00,29.83,M,2.49,M,FEW,M,M,M,10000.00,M,M,M,HZ,M,M,M,M,M,M,85.82,VIDP 061500Z 00000KT 4000 HZ FEW100 32/05 Q1010 NOSIG,M
VIDP,2022-04-06 15:30,87.80,42.80,20.79,0.00,0.00,0.00,29.85,M,2.49,M,FEW,M,M,M,10000.00,M,M,M,HZ,M,M,M,M,M,M,84.40,VIDP 061530Z 00000KT 4000 HZ FEW100 31/06 Q1011 NOSIG,M
VIDP,2022-04-06 16:00,86.00,44.60,23.59,0.00,0.00,0.00,29.85,M,2.49,M,FEW,M,M,M,10000.00,M,M,M,HZ,M,M,M,M,M,M,83.07,VIDP 061600Z 00000KT 4000 HZ FEW100 30/07 Q1011 NOSIG,M
VIDP,2022-04-06 16:30,84.20,44.60,24.99,0.00,0.00,0.00,29.85,M,2.49,M,FEW,M,M,M,10000.00,M,M,M,HZ,M,M,M,M,M,M,81.73,VIDP 061630Z 00000KT 4000 HZ FEW100 29/07 Q1011 NOSIG,M
VIDP,2022-04-06 17:00,82.40,44.60,26.49,0.00,0.00,0.00,29.85,M,2.49,M,FEW,M,M,M,10000.00,M,M,M,HZ,M,M,M,M,M,M,80.50,VIDP 061700Z 00000KT 4000 HZ FEW100 28/07 Q1011 NOSIG,M
VIDP,2022-04-06 17:30,82.40,44.60,26.49,0.00,0.00,0.00,29.85,M,2.17,M,FEW,M,M,M,10000.00,M,M,M,HZ,M,M,M,M,M,M,80.50,VIDP 061730Z 00000KT 3500 HZ FEW100 28/07 Q1011 NOSIG,M
VIDP,2022-04-06 18:00,82.40,44.60,26.49,0.00,0.00,0.00,29.85,M,2.17,M,FEW,M,M,M,10000.00,M,M,M,HZ,M,M,M,M,M,M,80.50,VIDP 061800Z 00000KT 3500 HZ FEW100 28/07 Q1011 NOSIG,M
VIDP,2022-04-06 18:30,82.40,46.40,28.36,0.00,0.00,0.00,29.83,M,2.17,M,FEW,M,M,M,10000.00,M,M,M,HZ,M,M,M,M,M,M,80.64,VIDP 061830Z 00000KT 3500 HZ FEW100 28/08 Q1010 NOSIG,M
VIDP,2022-04-06 19:00,80.60,44.60,28.08,0.00,0.00,0.00,29.83,M,2.17,M,NSC,M,M,M,M,M,M,M,HZ,M,M,M,M,M,M,79.42,VIDP 061900Z 00000KT 3500 HZ NSC 27/07 Q1010 NOSIG,M
VIDP,2022-04-06 19:30,80.60,46.40,30.07,0.00,0.00,0.00,29.83,M,2.17,M,NSC,M,M,M,M,M,M,M,HZ,M,M,M,M,M,M,79.56,VIDP 061930Z 00000KT 3500 HZ NSC 27/08 Q1010 NOSIG,M
VIDP,2022-04-06 20:00,80.60,46.40,30.07,0.00,0.00,0.00,29.83,M,2.17,M,NSC,M,M,M,M,M,M,M,HZ,M,M,M,M,M,M,79.56,VIDP 062000Z 00000KT 3500 HZ NSC 27/08 Q1010 NOSIG,M
VIDP,2022-04-06 20:30,78.80,46.40,31.90,0.00,0.00,0.00,29.83,M,2.17,M,NSC,M,M,M,M,M,M,M,HZ,M,M,M,M,M,M,78.80,VIDP 062030Z 00000KT 3500 HZ NSC 26/08 Q1010 NOSIG,M
VIDP,2022-04-06 21:00,78.80,46.40,31.90,0.00,0.00,0.00,29.83,M,2.17,M,NSC,M,M,M,M,M,M,M,HZ,M,M,M,M,M,M,78.80,VIDP 062100Z 00000KT 3500 HZ NSC 26/08 Q1010 NOSIG,M
VIDP,2022-04-06 21:30,78.80,46.40,31.90,0.00,0.00,0.00,29.83,M,2.17,M,NSC,M,M,M,M,M,M,M,HZ,M,M,M,M,M,M,78.80,VIDP 062130Z 00000KT 3500 HZ NSC 26/08 Q1010 NOSIG,M
VIDP,2022-04-06 22:00,77.00,46.40,33.85,0.00,0.00,0.00,29.83,M,2.17,M,NSC,M,M,M,M,M,M,M,HZ,M,M,M,M,M,M,77.00,VIDP 062200Z 00000KT 3500 HZ NSC 25/08 Q1010 NOSIG,M
VIDP,2022-04-06 22:30,77.00,44.60,31.62,0.00,0.00,0.00,29.83,M,1.99,M,NSC,M,M,M,M,M,M,M,HZ,M,M,M,M,M,M,77.00,VIDP 062230Z 00000KT 3200 HZ NSC 25/07 Q1010 BECMG 3000 HZ,M
VIDP,2022-04-06 23:00,77.00,44.60,31.62,0.00,0.00,0.00,29.83,M,1.86,M,NSC,M,M,M,M,M,M,M,HZ,M,M,M,M,M,M,77.00,VIDP 062300Z 00000KT 3000 HZ NSC 25/07 Q1010 NOSIG,M
VIDP,2022-04-06 23:30,77.00,44.60,31.62,0.00,0.00,0.00,29.83,M,1.86,M,NSC,M,M,M,M,M,M,M,HZ,M,M,M,M,M,M,77.00,VIDP 062330Z 00000KT 3000 HZ NSC 25/07 Q1010 NOSIG,M
VIDP,2022-04-07 00:00,77.00,44.60,31.62,0.00,0.00,0.00,29.83,M,1.86,M,NSC,M,M,M,M,M,M,M,HZ,M,M,M,M,M,M,77.00,VIDP 070000Z 00000KT 3000 HZ NSC 25/07 Q1010 NOSIG,M
VIDP,2022-04-07 00:30,75.20,44.60,33.57,0.00,0.00,0.00,29.83,M,1.74,M,NSC,M,M,M,M,M,M,M,HZ,M,M,M,M,M,M,75.20,VIDP 070030Z 00000KT 2800 HZ NSC 24/07 Q1010 NOSIG,M
VIDP,2022-04-07 01:00,75.20,44.60,33.57,0.00,0.00,0.00,29.85,M,1.55,M,NSC,M,M,M,M,M,M,M,HZ,M,M,M,M,M,M,75.20,VIDP 070100Z 00000KT 2500 HZ NSC 24/07 Q1011 NOSIG,M
VIDP,2022-04-07 01:30,75.20,44.60,33.57,0.00,0.00,0.00,29.85,M,1.43,M,NSC,M,M,M,M,M,M,M,HZ,M,M,M,M,M,M,75.20,VIDP 070130Z 00000KT 2300 HZ NSC 24/07 Q1011 NOSIG,M
VIDP,2022-04-07 02:00,77.00,44.60,31.62,0.00,0.00,0.00,29.85,M,1.37,M,NSC,M,M,M,M,M,M,M,HZ,M,M,M,M,M,M,77.00,VIDP 070200Z 00000KT 2200 HZ NSC 25/07 Q1011 NOSIG,M
VIDP,2022-04-07 02:30,80.60,44.60,28.08,250.00,3.00,0.00,29.88,M,1.37,M,NSC,M,M,M,M,M,M,M,HZ,M,M,M,M,M,M,79.42,VIDP 070230Z 25003KT 2200 HZ NSC 27/07 Q1012 NOSIG,M
VIDP,2022-04-07 03:00,82.40,44.60,26.49,240.00,4.00,0.00,29.88,M,1.55,M,NSC,M,M,M,M,M,M,M,HZ,M,M,M,M,M,M,80.50,VIDP 070300Z 24004KT 2500 HZ NSC 28/07 Q1012 BECMG 3000 HZ,M
VIDP,2022-04-07 03:30,86.00,44.60,23.59,230.00,4.00,0.00,29.91,M,1.55,M,NSC,M,M,M,M,M,M,M,HZ,M,M,M,M,M,M,83.07,VIDP 070330Z 23004KT 2500 HZ NSC 30/07 Q1013 BECMG 3000 HZ,M
VIDP,2022-04-07 04:00,87.80,46.40,23.85,240.00,4.00,0.00,29.91,M,1.74,M,NSC,M,M,M,M,M,M,M,HZ,M,M,M,M,M,M,84.68,VIDP 070400Z 24004KT 2800 HZ NSC 31/08 Q1013 BECMG 3000 HZ,M
VIDP,2022-04-07 04:30,89.60,44.60,21.04,250.00,4.00,0.00,29.91,M,1.86,M,NSC,M,M,M,M,M,M,M,HZ,M,M,M,M,M,M,86.07,VIDP 070430Z 25004KT 3000 HZ NSC 32/07 Q1013 NOSIG,M
VIDP,2022-04-07 05:00,93.20,44.60,18.80,240.00,5.00,0.00,29.91,M,2.17,M,NSC,M,M,M,M,M,M,M,HZ,M,M,M,M,M,M,89.34,VIDP 070500Z 24005KT 3500 HZ NSC 34/07 Q1013 NOSIG,M
VIDP,2022-04-07 05:30,95.00,46.40,19.04,240.00,5.00,0.00,29.91,M,2.49,M,NSC,M,M,M,M,M,M,M,HZ,M,M,M,M,M,M,91.29,VIDP 070530Z 24005KT 4000 HZ NSC 35/08 Q1013 NOSIG,M
VIDP,2022-04-07 06:00,96.80,46.40,18.02,250.00,4.00,0.00,29.91,M,2.80,M,NSC,M,M,M,M,M,M,M,HZ,M,M,M,M,M,M,93.05,VIDP 070600Z 25004KT 4500 HZ NSC 36/08 Q1013 BECMG 5000 HZ,M
VIDP,2022-04-07 06:30,98.60,46.40,17.05,240.00,4.00,0.00,29.88,M,3.11,M,NSC,M,M,M,M,M,M,M,HZ,M,M,M,M,M,M,94.84,VIDP 070630Z 24004KT 5000 HZ NSC 37/08 Q1012 NOSIG,M
VIDP,2022-04-07 07:00,98.60,44.60,15.93,260.00,4.00,0.00,29.85,M,3.11,M,NSC,M,M,M,M,M,M,M,HZ,M,M,M,M,M,M,94.55,VIDP 070700Z 26004KT 5000 HZ NSC 37/07 Q1011 NOSIG,M
VIDP,2022-04-07 07:30,100.40,41.00,13.14,270.00,6.00,0.00,29.85,M,3.11,M,NSC,M,M,M,M,M,M,M,HZ,M,M,M,M,M,M,95.79,VIDP 070730Z 27006KT 5000 HZ NSC 38/05 Q1011 NOSIG,M
VIDP,2022-04-07 08:00,102.20,37.40,10.81,270.00,7.00,0.00,29.85,M,3.11,M,NSC,M,M,M,M,M,M,M,HZ,M,M,M,M,M,M,96.63,VIDP 070800Z 27007KT 5000 HZ NSC 39/03 Q1011 NOSIG,M
VIDP,2022-04-07 08:30,102.20,37.40,10.81,280.00,7.00,0.00,29.83,M,3.11,M,NSC,M,M,M,M,M,M,M,HZ,M,M,M,M,M,M,96.63,VIDP 070830Z 28007KT 5000 HZ NSC 39/03 Q1010 NOSIG,M
VIDP,2022-04-07 09:00,102.20,37.40,10.81,300.00,9.00,0.00,29.83,M,3.11,M,NSC,M,M,M,M,M,M,M,HZ,M,M,M,M,M,M,96.63,VIDP 070900Z 30009KT 5000 HZ NSC 39/03 Q1010 NOSIG,M
VIDP,2022-04-07 09:30,104.00,37.40,10.25,270.00,6.00,0.00,29.83,M,3.11,M,NSC,M,M,M,M,M,M,M,HZ,M,M,M,M,M,M,98.19,VIDP 070930Z 27006KT 5000 HZ NSC 40/03 Q1010 NOSIG,M
VIDP,2022-04-07 10:00,104.00,37.40,10.25,290.00,8.00,0.00,29.80,M,3.11,18.00,NSC,M,M,M,M,M,M,M,HZ,M,M,M,M,M,M,98.19,VIDP 071000Z 29008G18KT 5000 HZ NSC 40/03 Q1009 NOSIG,M
VIDP,2022-04-07 10:30,104.00,39.20,11.00,300.00,8.00,0.00,29.77,M,3.11,18.00,NSC,M,M,M,M,M,M,M,HZ,M,M,M,M,M,M,98.56,VIDP 071030Z 30008G18KT 5000 HZ NSC 40/04 Q1008 NOSIG,M
VIDP,2022-04-07 11:00,104.00,41.00,11.79,300.00,8.00,0.00,29.77,M,3.11,M,NSC,M,M,M,M,M,M,M,HZ,M,M,M,M,M,M,98.97,VIDP 071100Z 30008KT 5000 HZ NSC 40/05 Q1008 NOSIG,M
VIDP,2022-04-07 11:30,102.20,41.00,12.44,290.00,9.00,0.00,29.77,M,3.11,M,NSC,M,M,M,M,M,M,M,HZ,M,M,M,M,M,M,97.39,VIDP 071130Z 29009KT 5000 HZ NSC 39/05 Q1008 NOSIG,M
VIDP,2022-04-07 12:00,100.40,41.00,13.14,290.00,7.00,0.00,29.77,M,3.11,M,NSC,M,M,M,M,M,M,M,HZ,M,M,M,M,M,M,95.79,VIDP 071200Z 29007KT 5000 HZ NSC 38/05 Q1008 NOSIG,M
VIDP,2022-04-07 12:30,100.40,41.00,13.14,290.00,6.00,0.00,29.77,M,3.11,M,NSC,M,M,M,M,M,M,M,HZ,M,M,M,M,M,M,95.79,VIDP 071230Z 29006KT 5000 HZ NSC 38/05 Q1008 NOSIG,M
VIDP,2022-04-07 13:00,98.60,41.00,13.87,290.00,4.00,0.00,29.77,M,3.11,M,NSC,M,M,M,M,M,M,M,HZ,M,M,M,M,M,M,94.09,VIDP 071300Z 29004KT 5000 HZ NSC 37/05 Q1008 NOSIG,M
VIDP,2022-04-07 13:30,96.80,39.20,13.66,290.00,5.00,0.00,29.77,M,3.11,M,NSC,M,M,M,M,M,M,M,HZ,M,M,M,M,M,M,92.23,VIDP 071330Z 29005KT 5000 HZ NSC 36/04 Q1008 NOSIG,M
VIDP,2022-04-07 14:00,96.80,39.20,13.66,280.00,5.00,0.00,29.77,M,3.11,M,NSC,M,M,M,M,M,M,M,HZ,M,M,M,M,M,M,92.23,VIDP 071400Z 28005KT 5000 HZ NSC 36/04 Q1008 NOSIG,M
VIDP,2022-04-07 14:30,95.00,37.40,13.46,220.00,3.00,0.00,29.77,M,3.11,M,NSC,M,M,M,M,M,M,M,HZ,M,M,M,M,M,M,90.46,VIDP 071430Z 22003KT 5000 HZ NSC 35/03 Q1008 NOSIG,M
VIDP,2022-04-07 15:00,93.20,37.40,14.23,0.00,0.00,0.00,29.80,M,3.11,M,NSC,M,M,M,M,M,M,M,HZ,M,M,M,M,M,M,88.83,VIDP 071500Z 00000KT 5000 HZ NSC 34/03 Q1009 NOSIG,M
VIDP,2022-04-07 15:30,89.60,39.20,17.09,0.00,0.00,0.00,29.80,M,2.80,M,NSC,M,M,M,M,M,M,M,HZ,M,M,M,M,M,M,85.73,VIDP 071530Z 00000KT 4500 HZ NSC 32/04 Q1009 NOSIG,M
VIDP,2022-04-07 16:00,87.80,39.20,18.09,0.00,0.00,0.00,29.80,M,2.49,M,NSC,M,M,M,M,M,M,M,HZ,M,M,M,M,M,M,84.22,VIDP 071600Z 00000KT 4000 HZ NSC 31/04 Q1009 NOSIG,M
VIDP,2022-04-07 16:30,87.80,35.60,15.70,0.00,0.00,0.00,29.80,M,2.49,M,NSC,M,M,M,M,M,M,M,HZ,M,M,M,M,M,M,84.12,VIDP 071630Z 00000KT 4000 HZ NSC 31/02 Q1009 NOSIG,M
VIDP,2022-04-07 17:00,86.00,39.20,19.15,0.00,0.00,0.00,29.80,M,2.49,M,NSC,M,M,M,M,M,M,M,HZ,M,M,M,M,M,M,82.79,VIDP 071700Z 00000KT 4000 HZ NSC 30/04 Q1009 NOSIG,M
VIDP,2022-04-07 17:30,84.20,41.00,21.76,0.00,0.00,0.00,29.80,M,2.49,M,NSC,M,M,M,M,M,M,M,HZ,M,M,M,M,M,M,81.52,VIDP 071730Z 00000KT 4000 HZ NSC 29/05 Q1009 NOSIG,M
VIDP,2022-04-07 18:00,82.40,41.00,23.07,0.00,0.00,0.00,29.80,M,2.49,M,NSC,M,M,M,M,M,M,M,HZ,M,M,M,M,M,M,80.29,VIDP 071800Z 00000KT 4000 HZ NSC 28/05 Q1009 NOSIG,M
VIDP,2022-04-07 18:30,84.20,41.00,21.76,0.00,0.00,0.00,29.80,M,2.17,M,NSC,M,M,M,M,M,M,M,HZ,M,M,M,M,M,M,81.52,VIDP 071830Z 00000KT 3500 HZ NSC 29/05 Q1009 BECMG 3000 HZ,M
VIDP,2022-04-07 19:00,82.40,42.80,24.72,0.00,0.00,0.00,29.77,M,1.86,M,NSC,M,M,M,M,M,M,M,HZ,M,M,M,M,M,M,80.39,VIDP 071900Z 00000KT 3000 HZ NSC 28/06 Q1008 NOSIG,M
VIDP,2022-04-07 19:30,82.40,42.80,24.72,0.00,0.00,0.00,29.77,M,1.86,M,NSC,M,M,M,M,M,M,M,HZ,M,M,M,M,M,M,80.39,VIDP 071930Z 00000KT 3000 HZ NSC 28/06 Q1008 NOSIG,M
VIDP,2022-04-07 20:00,80.60,42.80,26.22,0.00,0.00,0.00,29.77,M,1.86,M,NSC,M,M,M,M,M,M,M,HZ,M,M,M,M,M,M,79.30,VIDP 072000Z 00000KT 3000 HZ NSC 27/06 Q1008 NOSIG,M
VIDP,2022-04-07 20:30,78.80,46.40,31.90,0.00,0.00,0.00,29.77,M,1.86,M,NSC,M,M,M,M,M,M,M,HZ,M,M,M,M,M,M,78.80,VIDP 072030Z 00000KT 3000 HZ NSC 26/08 Q1008 NOSIG,M
VIDP,2022-04-07 21:00,77.00,46.40,33.85,0.00,0.00,0.00,29.77,M,1.86,M,NSC,M,M,M,M,M,M,M,HZ,M,M,M,M,M,M,77.00,VIDP 072100Z 00000KT 3000 HZ NSC 25/08 Q1008 NOSIG,M
VIDP,2022-04-07 21:30,77.00,46.40,33.85,0.00,0.00,0.00,29.77,M,1.86,M,NSC,M,M,M,M,M,M,M,HZ,M,M,M,M,M,M,77.00,VIDP 072130Z 00000KT 3000 HZ NSC 25/08 Q1008 NOSIG,M
VIDP,2022-04-07 22:00,77.00,42.80,29.51,0.00,0.00,0.00,29.77,M,1.86,M,NSC,M,M,M,M,M,M,M,HZ,M,M,M,M,M,M,77.00,VIDP 072200Z 00000KT 3000 HZ NSC 25/06 Q1008 NOSIG,M
VIDP,2022-04-07 22:30,78.80,41.00,25.95,0.00,0.00,0.00,29.77,M,1.86,M,NSC,M,M,M,M,M,M,M,HZ,M,M,M,M,M,M,78.80,VIDP 072230Z 00000KT 3000 HZ NSC 26/05 Q1008 NOSIG,M
VIDP,2022-04-07 23:00,77.00,41.00,27.53,0.00,0.00,0.00,29.77,M,1.86,M,NSC,M,M,M,M,M,M,M,HZ,M,M,M,M,M,M,77.00,VIDP 072300Z 00000KT 3000 HZ NSC 25/05 Q1008 NOSIG,M
VIDP,2022-04-07 23:30,77.00,41.00,27.53,0.00,0.00,0.00,29.77,M,1.86,M,NSC,M,M,M,M,M,M,M,HZ,M,M,M,M,M,M,77.00,VIDP 072330Z 00000KT 3000 HZ NSC 25/05 Q1008 NOSIG,M
VIDP,2022-04-08 00:00,77.00,39.20,25.67,0.00,0.00,0.00,29.77,M,1.86,M,NSC,M,M,M,M,M,M,M,HZ,M,M,M,M,M,M,77.00,VIDP 080000Z 00000KT 3000 HZ NSC 25/04 Q1008 NOSIG,M
VIDP,2022-04-08 00:30,78.80,39.20,24.19,0.00,0.00,0.00,29.77,M,1.74,M,NSC,M,M,M,M,M,M,M,HZ,M,M,M,M,M,M,78.80,VIDP 080030Z 00000KT 2800 HZ NSC 26/04 Q1008 NOSIG,M
VIDP,2022-04-08 01:00,78.80,37.40,22.54,0.00,0.00,0.00,29.80,M,1.55,M,NSC,M,M,M,M,M,M,M,HZ,M,M,M,M,M,M,78.80,VIDP 080100Z 00000KT 2500 HZ NSC 26/03 Q1009 NOSIG,M
VIDP,2022-04-08 01:30,78.80,41.00,25.95,0.00,0.00,0.00,29.80,M,1.37,M,NSC,M,M,M,M,M,M,M,HZ,M,M,M,M,M,M,78.80,VIDP 080130Z 00000KT 2200 HZ NSC 26/05 Q1009 NOSIG,M
VIDP,2022-04-08 02:00,78.80,41.00,25.95,0.00,0.00,0.00,29.80,M,1.37,M,NSC,M,M,M,M,M,M,M,HZ,M,M,M,M,M,M,78.80,VIDP 080200Z 00000KT 2200 HZ NSC 26/05 Q1009 NOSIG,M
VIDP,2022-04-08 02:30,82.40,35.60,18.67,0.00,0.00,0.00,29.80,M,1.37,M,NSC,M,M,M,M,M,M,M,HZ,M,M,M,M,M,M,80.08,VIDP 080230Z 00000KT 2200 HZ NSC 28/02 Q1009 NOSIG,M
VIDP,2022-04-08 03:00,86.00,32.00,14.40,220.00,4.00,0.00,29.80,M,1.37,M,NSC,M,M,M,M,M,M,M,DU,M,M,M,M,M,M,82.64,VIDP 080300Z 22004KT 2200 DU NSC 30/00 Q1009 NOSIG,M
VIDP,2022-04-08 03:30,89.60,35.60,14.83,260.00,4.00,0.00,29.83,M,1.37,M,NSC,M,M,M,M,M,M,M,DU,M,M,M,M,M,M,85.62,VIDP 080330Z 26004KT 2200 DU NSC 32/02 Q1010 NOSIG,M
VIDP,2022-04-08 04:00,93.20,41.00,16.37,270.00,3.00,0.00,29.83,M,1.37,M,NSC,M,M,M,M,M,M,M,DU,M,M,M,M,M,M,89.03,VIDP 080400Z 27003KT 2200 DU NSC 34/05 Q1010 NOSIG,M
VIDP,2022-04-08 04:30,93.20,42.80,17.55,280.00,4.00,0.00,29.83,M,1.55,M,NSC,M,M,M,M,M,M,M,DU,M,M,M,M,M,M,89.17,VIDP 080430Z 28004KT 2500 DU NSC 34/06 Q1010 NOSIG,M
VIDP,2022-04-08 05:00,95.00,42.80,16.60,250.00,3.00,0.00,29.83,M,1.55,M,NSC,M,M,M,M,M,M,M,DU,M,M,M,M,M,M,90.86,VIDP 080500Z 25003KT 2500 DU NSC 35/06 Q1010 NOSIG,M
VIDP,2022-04-08 05:30,96.80,42.80,15.71,260.00,3.00,0.00,29.83,M,1.55,M,NSC,M,M,M,M,M,M,M,DU,M,M,M,M,M,M,92.57,VIDP 080530Z 26003KT 2500 DU NSC 36/06 Q1010 NOSIG,M
VIDP,2022-04-08 06:00,98.60,41.00,13.87,270.00,3.00,0.00,29.83,M,1.55,M,NSC,M,M,M,M,M,M,M,DU,M,M,M,M,M,M,94.09,VIDP 080600Z 27003KT 2500 DU NSC 37/05 Q1010 NOSIG,M
VIDP,2022-04-08 06:30,100.40,37.40,11.41,230.00,4.00,0.00,29.80,M,1.55,M,NSC,M,M,M,M,M,M,M,DU,M,M,M,M,M,M,95.08,VIDP 080630Z 23004KT 2500 DU NSC 38/03 Q1009 NOSIG,M
VIDP,2022-04-08 07:00,102.20,33.80,9.37,260.00,5.00,0.00,29.80,M,1.74,M,NSC,M,M,M,M,M,M,M,DU,M,M,M,M,M,M,96.01,VIDP 080700Z 26005KT 2800 DU NSC 39/01 Q1009 BECMG 3000 HZ,M
VIDP,2022-04-08 07:30,104.00,28.40,7.14,240.00,8.00,0.00,29.77,M,1.86,M,NSC,M,M,M,M,M,M,M,HZ,M,M,M,M,M,M,96.81,VIDP 080730Z 24008KT 3000 HZ NSC 40/M02 Q1008 NOSIG,M
VIDP,2022-04-08 08:00,105.80,28.40,6.77,240.00,8.00,0.00,29.77,M,2.17,M,NSC,M,M,M,M,M,M,M,HZ,M,M,M,M,M,M,98.33,VIDP 080800Z 24008KT 3500 HZ NSC 41/M02 Q1008 NOSIG,M
VIDP,2022-04-08 08:30,105.80,28.40,6.77,260.00,7.00,0.00,29.74,M,2.49,M,NSC,M,M,M,M,M,M,M,HZ,M,M,M,M,M,M,98.33,VIDP 080830Z 26007KT 4000 HZ NSC 41/M02 Q1007 NOSIG,M
VIDP,2022-04-08 09:00,105.80,26.60,6.29,290.00,8.00,0.00,29.71,M,2.49,M,NSC,M,M,M,M,M,M,M,HZ,M,M,M,M,M,M,98.12,VIDP 080900Z 29008KT 4000 HZ NSC 41/M03 Q1006 BECMG 5000 HZ,M
VIDP,2022-04-08 09:30,105.80,26.60,6.29,280.00,9.00,0.00,29.71,M,2.80,M,NSC,M,M,M,M,M,M,M,HZ,M,M,M,M,M,M,98.12,VIDP 080930Z 28009KT 4500 HZ NSC 41/M03 Q1006 BECMG 5000 HZ,M
VIDP,2022-04-08 10:00,107.60,23.00,5.13,290.00,8.00,0.00,29.71,M,3.11,M,NSC,M,M,M,M,M,M,M,HZ,M,M,M,M,M,M,99.25,VIDP 081000Z 29008KT 5000 HZ NSC 42/M05 Q1006 NOSIG,M
VIDP,2022-04-08 10:30,107.60,23.00,5.13,300.00,8.00,0.00,29.68,M,3.11,M,NSC,M,M,M,M,M,M,M,HZ,M,M,M,M,M,M,99.25,VIDP 081030Z 30008KT 5000 HZ NSC 42/M05 Q1005 NOSIG,M
VIDP,2022-04-08 11:00,105.80,24.80,5.83,320.00,10.00,0.00,29.68,M,3.11,M,NSC,M,M,M,M,M,M,M,HZ,M,M,M,M,M,M,97.92,VIDP 081100Z 32010KT 5000 HZ NSC 41/M04 Q1005 NOSIG,M
VIDP,2022-04-08 11:30,105.80,24.80,5.83,300.00,9.00,0.00,29.68,M,3.11,M,NSC,M,M,M,M,M,M,M,HZ,M,M,M,M,M,M,97.92,VIDP 081130Z 30009KT 5000 HZ NSC 41/M04 Q1005 NOSIG,M
VIDP,2022-04-08 12:00,105.80,24.80,5.83,290.00,9.00,0.00,29.68,M,3.11,M,NSC,M,M,M,M,M,M,M,HZ,M,M,M,M,M,M,97.92,VIDP 081200Z 29009KT 5000 HZ NSC 41/M04 Q1005 NOSIG,M
VIDP,2022-04-08 12:30,102.20,26.60,7.00,310.00,5.00,0.00,29.68,M,3.11,M,NSC,M,M,M,M,M,M,M,HZ,M,M,M,M,M,M,95.09,VIDP 081230Z 31005KT 5000 HZ NSC 39/M03 Q1005 NOSIG,M
VIDP,2022-04-08 13:00,100.40,26.60,7.39,300.00,4.00,0.00,29.68,M,2.49,M,NSC,M,M,M,M,M,M,M,HZ,M,M,M,M,M,M,93.57,VIDP 081300Z 30004KT 4000 HZ NSC 38/M03 Q1005 NOSIG,M
VIDP,2022-04-08 13:30,96.80,28.40,8.87,300.00,4.00,0.00,29.68,M,2.49,M,NSC,M,M,M,M,M,M,M,HZ,M,M,M,M,M,M,90.75,VIDP 081330Z 30004KT 4000 HZ NSC 36/M02 Q1005 NOSIG,M
VIDP,2022-04-08 14:00,95.00,33.80,11.67,0.00,0.00,0.00,29.71,M,2.49,M,NSC,M,M,M,M,M,M,M,HZ,M,M,M,M,M,M,89.97,VIDP 081400Z 00000KT 4000 HZ NSC 35/01 Q1006 NOSIG,M
VIDP,2022-04-08 14:30,93.20,35.60,13.25,0.00,0.00,0.00,29.71,M,2.49,M,NSC,M,M,M,M,M,M,M,HZ,M,M,M,M,M,M,88.76,VIDP 081430Z 00000KT 4000 HZ NSC 34/02 Q1006 NOSIG,M
VIDP,2022-04-08 15:00,91.40,39.20,16.15,0.00,0.00,0.00,29.71,M,2.49,M,NSC,M,M,M,M,M,M,M,HZ,M,M,M,M,M,M,87.30,VIDP 081500Z 00000KT 4000 HZ NSC 33/04 Q1006 NOSIG,M
VIDP,2022-04-08 15:30,89.60,41.00,18.33,0.00,0.00,0.00,29.71,M,2.49,M,NSC,M,M,M,M,M,M,M,HZ,M,M,M,M,M,M,85.82,VIDP 081530Z 00000KT 4000 HZ NSC 32/05 Q1006 NOSIG,M
VIDP,2022-04-08 16:00,89.60,42.80,19.64,0.00,0.00,0.00,29.71,M,2.49,M,NSC,M,M,M,M,M,M,M,HZ,M,M,M,M,M,M,85.93,VIDP 081600Z 00000KT 4000 HZ NSC 32/06 Q1006 NOSIG,M
VIDP,2022-04-08 16:30,87.80,44.60,22.27,0.00,0.00,0.00,29.71,M,2.49,M,NSC,M,M,M,M,M,M,M,HZ,M,M,M,M,M,M,84.53,VIDP 081630Z 00000KT 4000 HZ NSC 31/07 Q1006 NOSIG,M
VIDP,2022-04-08 17:00,86.00,46.40,25.26,0.00,0.00,0.00,29.71,M,2.17,M,NSC,M,M,M,M,M,M,M,HZ,M,M,M,M,M,M,83.22,VIDP 081700Z 00000KT 3500 HZ NSC 30/08 Q1006 NOSIG,M
VIDP,2022-04-08 17:30,86.00,48.20,27.03,0.00,0.00,0.00,29.71,M,2.17,M,NSC,M,M,M,M,M,M,M,HZ,M,M,M,M,M,M,83.40,VIDP 081730Z 00000KT 3500 HZ NSC 30/09 Q1006 NOSIG,M
VIDP,2022-04-08 18:00,84.20,48.20,28.63,0.00,0.00,0.00,29.71,M,2.17,M,NSC,M,M,M,M,M,M,M,HZ,M,M,M,M,M,M,82.04,VIDP 081800Z 00000KT 3500 HZ NSC 29/09 Q1006 NOSIG,M
VIDP,2022-04-08 18:30,84.20,48.20,28.63,0.00,0.00,0.00,29.71,M,2.17,M,NSC,M,M,M,M,M,M,M,HZ,M,M,M,M,M,M,82.04,VIDP 081830Z 00000KT 3500 HZ NSC 29/09 Q1006 NOSIG,M
VIDP,2022-04-08 19:00,84.20,48.20,28.63,0.00,0.00,0.00,29.71,M,2.17,M,NSC,M,M,M,M,M,M,M,HZ,M,M,M,M,M,M,82.04,VIDP 081900Z 00000KT 3500 HZ NSC 29/09 Q1006 NOSIG,M
VIDP,2022-04-08 19:30,82.40,50.00,32.46,0.00,0.00,0.00,29.68,M,1.99,M,NSC,M,M,M,M,M,M,M,HZ,M,M,M,M,M,M,80.99,VIDP 081930Z 00000KT 3200 HZ NSC 28/10 Q1005 NOSIG,M
VIDP,2022-04-08 20:00,82.40,50.00,32.46,0.00,0.00,0.00,29.68,M,1.86,M,NSC,M,M,M,M,M,M,M,HZ,M,M,M,M,M,M,80.99,VIDP 082000Z 00000KT 3000 HZ NSC 28/10 Q1005 NOSIG,M
VIDP,2022-04-08 20:30,82.40,50.00,32.46,0.00,0.00,0.00,29.68,M,1.86,M,NSC,M,M,M,M,M,M,M,HZ,M,M,M,M,M,M,80.99,VIDP 082030Z 00000KT 3000 HZ NSC 28/10 Q1005 NOSIG,M
VIDP,2022-04-08 21:00,80.60,50.00,34.41,0.00,0.00,0.00,29.68,M,1.86,M,NSC,M,M,M,M,M,M,M,HZ,M,M,M,M,M,M,79.88,VIDP 082100Z 00000KT 3000 HZ NSC 27/10 Q1005 NOSIG,M
VIDP,2022-04-08 21:30,78.80,50.00,36.51,0.00,0.00,0.00,29.68,M,1.86,M,NSC,M,M,M,M,M,M,M,HZ,M,M,M,M,M,M,78.80,VIDP 082130Z 00000KT 3000 HZ NSC 26/10 Q1005 NOSIG,M
VIDP,2022-04-08 22:00,78.80,48.20,34.13,0.00,0.00,0.00,29.68,M,1.86,M,NSC,M,M,M,M,M,M,M,HZ,M,M,M,M,M,M,78.80,VIDP 082200Z 00000KT 3000 HZ NSC 26/09 Q1005 NOSIG,M
VIDP,2022-04-08 22:30,78.80,46.40,31.90,0.00,0.00,0.00,29.68,M,1.86,M,NSC,M,M,M,M,M,M,M,HZ,M,M,M,M,M,M,78.80,VIDP 082230Z 00000KT 3000 HZ NSC 26/08 Q1005 NOSIG,M
VIDP,2022-04-08 23:00,78.80,46.40,31.90,0.00,0.00,0.00,29.68,M,1.86,M,NSC,M,M,M,M,M,M,M,HZ,M,M,M,M,M,M,78.80,VIDP 082300Z 00000KT 3000 HZ NSC 26/08 Q1005 NOSIG,M
VIDP,2022-04-08 23:30,77.00,46.40,33.85,0.00,0.00,0.00,29.68,M,1.86,M,NSC,M,M,M,M,M,M,M,HZ,M,M,M,M,M,M,77.00,VIDP 082330Z 00000KT 3000 HZ NSC 25/08 Q1005 NOSIG,M
VIDP,2022-04-09 00:00,77.00,46.40,33.85,0.00,0.00,0.00,29.71,M,1.86,M,NSC,M,M,M,M,M,M,M,HZ,M,M,M,M,M,M,77.00,VIDP 090000Z 00000KT 3000 HZ NSC 25/08 Q1006 NOSIG,M
VIDP,2022-04-09 00:30,77.00,48.20,36.22,0.00,0.00,0.00,29.71,M,1.86,M,NSC,M,M,M,M,M,M,M,HZ,M,M,M,M,M,M,77.00,VIDP 090030Z 00000KT 3000 HZ NSC 25/09 Q1006 NOSIG,M
VIDP,2022-04-09 01:00,78.80,46.40,31.90,0.00,0.00,0.00,29.71,M,1.74,M,NSC,M,M,M,M,M,M,M,HZ,M,M,M,M,M,M,78.80,VIDP 090100Z 00000KT 2800 HZ NSC 26/08 Q1006 NOSIG,M
VIDP,2022-04-09 01:30,80.60,46.40,30.07,0.00,0.00,0.00,29.74,M,1.55,M,NSC,M,M,M,M,M,M,M,HZ,M,M,M,M,M,M,79.56,VIDP 090130Z 00000KT 2500 HZ NSC 27/08 Q1007 NOSIG,M
VIDP,2022-04-09 02:00,80.60,46.40,30.07,0.00,0.00,0.00,29.74,M,1.55,M,NSC,M,M,M,M,M,M,M,HZ,M,M,M,M,M,M,79.56,VIDP 090200Z 00000KT 2500 HZ NSC 27/08 Q1007 NOSIG,M
VIDP,2022-04-09 02:30,84.20,46.40,26.76,0.00,0.00,0.00,29.74,M,1.74,M,NSC,M,M,M,M,M,M,M,HZ,M,M,M,M,M,M,81.87,VIDP 090230Z 00000KT 2800 HZ NSC 29/08 Q1007 BECMG 3000 HZ,M
VIDP,2022-04-09 03:00,87.80,44.60,22.27,250.00,4.00,0.00,29.74,M,1.86,M,NSC,M,M,M,M,M,M,M,HZ,M,M,M,M,M,M,84.53,VIDP 090300Z 25004KT 3000 HZ NSC 31/07 Q1007 NOSIG,M
VIDP,2022-04-09 03:30,91.40,41.00,17.32,220.00,4.00,0.00,29.77,M,1.86,M,NSC,M,M,M,M,M,M,M,HZ,M,M,M,M,M,M,87.40,VIDP 090330Z 22004KT 3000 HZ NSC 33/05 Q1008 NOSIG,M
VIDP,2022-04-09 04:00,93.20,39.20,15.27,210.00,4.00,0.00,29.77,M,1.86,M,NSC,M,M,M,M,M,M,M,HZ,M,M,M,M,M,M,88.92,VIDP 090400Z 21004KT 3000 HZ NSC 34/04 Q1008 NOSIG,M
VIDP,2022-04-09 04:30,96.80,37.40,12.73,230.00,4.00,0.00,29.77,M,2.17,M,NSC,M,M,M,M,M,M,M,HZ,M,M,M,M,M,M,92.04,VIDP 090430Z 23004KT 3500 HZ NSC 36/03 Q1008 NOSIG,M
VIDP,2022-04-09 05:00,98.60,35.60,11.23,240.00,4.00,0.00,29.77,M,2.49,M,NSC,M,M,M,M,M,M,M,HZ,M,M,M,M,M,M,93.23,VIDP 090500Z 24004KT 4000 HZ NSC 37/02 Q1008 NOSIG,M
VIDP,2022-04-09 05:30,100.40,33.80,9.90,250.00,5.00,0.00,29.77,M,2.49,M,NSC,M,M,M,M,M,M,M,HZ,M,M,M,M,M,M,94.47,VIDP 090530Z 25005KT 4000 HZ NSC 38/01 Q1008 NOSIG,M
VIDP,2022-04-09 06:00,102.20,33.80,9.37,250.00,5.00,0.00,29.74,M,2.49,M,NSC,M,M,M,M,M,M,M,HZ,M,M,M,M,M,M,96.01,VIDP 090600Z 25005KT 4000 HZ NSC 39/01 Q1007 NOSIG,M
VIDP,2022-04-09 06:30,104.00,33.80,8.88,270.00,6.00,0.00,29.74,M,2.49,M,NSC,M,M,M,M,M,M,M,HZ,M,M,M,M,M,M,97.55,VIDP 090630Z 27006KT 4000 HZ NSC 40/01 Q1007 NOSIG,M
VIDP,2022-04-09 07:00,104.00,33.80,8.88,270.00,7.00,0.00,29.74,M,2.49,M,NSC,M,M,M,M,M,M,M,HZ,M,M,M,M,M,M,97.55,VIDP 090700Z 27007KT 4000 HZ NSC 40/01 Q1007 NOSIG,M
VIDP,2022-04-09 07:30,105.80,32.00,7.84,300.00,6.00,0.00,29.74,M,2.49,M,NSC,M,M,M,M,M,M,M,HZ,M,M,M,M,M,M,98.82,VIDP 090730Z 30006KT 4000 HZ NSC 41/00 Q1007 NOSIG,M
VIDP,2022-04-09 08:00,104.00,32.00,8.27,270.00,6.00,0.00,29.71,M,2.49,M,NSC,M,M,M,M,M,M,M,HZ,M,M,M,M,M,M,97.28,VIDP 090800Z 27006KT 4000 HZ NSC 40/00 Q1006 NOSIG,M
VIDP,2022-04-09 08:30,105.80,24.80,5.83,290.00,7.00,0.00,29.68,M,2.80,M,NSC,M,M,M,M,M,M,M,HZ,M,M,M,M,M,M,97.92,VIDP 090830Z 29007KT 4500 HZ NSC 41/M04 Q1005 NOSIG,M
VIDP,2022-04-09 09:00,105.80,26.60,6.29,290.00,9.00,0.00,29.68,M,2.80,M,NSC,M,M,M,M,M,M,M,HZ,M,M,M,M,M,M,98.12,VIDP 090900Z 29009KT 4500 HZ NSC 41/M03 Q1005 BECMG 5000 HZ,M
VIDP,2022-04-09 09:30,105.80,26.60,6.29,280.00,10.00,0.00,29.65,M,3.11,M,NSC,M,M,M,M,M,M,M,HZ,M,M,M,M,M,M,98.12,VIDP 090930Z 28010KT 5000 HZ NSC 41/M03 Q1004 NOSIG,M
VIDP,2022-04-09 10:00,105.80,21.20,5.01,300.00,9.00,0.00,29.65,M,3.11,M,NSC,M,M,M,M,M,M,M,HZ,M,M,M,M,M,M,97.58,VIDP 091000Z 30009KT 5000 HZ NSC 41/M06 Q1004 NOSIG,M
VIDP,2022-04-09 10:30,105.80,26.60,6.29,290.00,9.00,0.00,29.65,M,3.11,M,NSC,M,M,M,M,M,M,M,HZ,M,M,M,M,M,M,98.12,VIDP 091030Z 29009KT 5000 HZ NSC 41/M03 Q1004 NOSIG,M
VIDP,2022-04-09 11:00,105.80,24.80,5.83,300.00,8.00,0.00,29.65,M,3.11,M,NSC,M,M,M,M,M,M,M,HZ,M,M,M,M,M,M,97.92,VIDP 091100Z 30008KT 5000 HZ NSC 41/M04 Q1004 NOSIG,M
VIDP,2022-04-09 11:30,105.80,24.80,5.83,300.00,9.00,0.00,29.62,M,3.11,M,NSC,M,M,M,M,M,M,M,HZ,M,M,M,M,M,M,97.92,VIDP 091130Z 30009KT 5000 HZ NSC 41/M04 Q1003 NOSIG,M
VIDP,2022-04-09 12:00,105.80,24.80,5.83,310.00,7.00,0.00,29.62,M,2.80,M,NSC,M,M,M,M,M,M,M,HZ,M,M,M,M,M,M,97.92,VIDP 091200Z 31007KT 4500 HZ NSC 41/M04 Q1003 NOSIG,M
VIDP,2022-04-09 12:30,104.00,24.80,6.15,300.00,7.00,0.00,29.62,M,2.80,M,NSC,M,M,M,M,M,M,M,HZ,M,M,M,M,M,M,96.42,VIDP 091230Z 30007KT 4500 HZ NSC 40/M04 Q1003 NOSIG,M
VIDP,2022-04-09 13:00,104.00,26.60,6.63,280.00,4.00,0.00,29.65,M,2.80,M,NSC,M,M,M,M,M,M,M,HZ,M,M,M,M,M,M,96.60,VIDP 091300Z 28004KT 4500 HZ NSC 40/M03 Q1004 NOSIG,M
VIDP,2022-04-09 13:30,100.40,28.40,7.95,0.00,0.00,0.00,29.65,M,2.80,M,NSC,M,M,M,M,M,M,M,HZ,M,M,M,M,M,M,93.77,VIDP 091330Z 00000KT 4500 HZ NSC 38/M02 Q1004 NOSIG,M
VIDP,2022-04-09 14:00,96.80,30.20,9.55,0.00,0.00,0.00,29.65,M,2.80,M,NSC,M,M,M,M,M,M,M,HZ,M,M,M,M,M,M,90.96,VIDP 091400Z 00000KT 4500 HZ NSC 36/M01 Q1004 NOSIG,M
VIDP,2022-04-09 14:30,95.00,35.60,12.53,0.00,0.00,0.00,29.65,M,2.49,M,NSC,M,M,M,M,M,M,M,HZ,M,M,M,M,M,M,90.25,VIDP 091430Z 00000KT 4000 HZ NSC 35/02 Q1004 NOSIG,M
VIDP,2022-04-09 15:00,93.20,41.00,16.37,0.00,0.00,0.00,29.68,M,2.49,M,NSC,M,M,M,M,M,M,M,HZ,M,M,M,M,M,M,89.03,VIDP 091500Z 00000KT 4000 HZ NSC 34/05 Q1005 NOSIG,M
VIDP,2022-04-09 15:30,91.40,37.40,15.05,0.00,0.00,0.00,29.68,M,2.49,M,NSC,M,M,M,M,M,M,M,HZ,M,M,M,M,M,M,87.23,VIDP 091530Z 00000KT 4000 HZ NSC 33/03 Q1005 NOSIG,M
VIDP,2022-04-09 16:00,91.40,41.00,17.32,0.00,0.00,0.00,29.68,M,2.49,M,NSC,M,M,M,M,M,M,M,HZ,M,M,M,M,M,M,87.40,VIDP 091600Z 00000KT 4000 HZ NSC 33/05 Q1005 NOSIG,M
VIDP,2022-04-09 16:30,91.40,42.80,18.56,0.00,0.00,0.00,29.68,M,2.49,M,NSC,M,M,M,M,M,M,M,HZ,M,M,M,M,M,M,87.52,VIDP 091630Z 00000KT 4000 HZ NSC 33/06 Q1005 NOSIG,M
VIDP,2022-04-09 17:00,91.40,42.80,18.56,0.00,0.00,0.00,29.68,M,2.49,M,NSC,M,M,M,M,M,M,M,HZ,M,M,M,M,M,M,87.52,VIDP 091700Z 00000KT 4000 HZ NSC 33/06 Q1005 NOSIG,M
VIDP,2022-04-09 17:30,91.40,42.80,18.56,0.00,0.00,0.00,29.68,M,2.49,M,NSC,M,M,M,M,M,M,M,HZ,M,M,M,M,M,M,87.52,VIDP 091730Z 00000KT 4000 HZ NSC 33/06 Q1005 NOSIG,M
VIDP,2022-04-09 18:00,91.40,42.80,18.56,0.00,0.00,0.00,29.68,M,2.49,M,NSC,M,M,M,M,M,M,M,HZ,M,M,M,M,M,M,87.52,VIDP 091800Z 00000KT 4000 HZ NSC 33/06 Q1005 NOSIG,M
VIDP,2022-04-09 18:30,89.60,41.00,18.33,0.00,0.00,0.00,29.68,M,2.36,M,NSC,M,M,M,M,M,M,M,HZ,M,M,M,M,M,M,85.82,VIDP 091830Z 00000KT 3800 HZ NSC 32/05 Q1005 NOSIG,M
VIDP,2022-04-09 19:00,89.60,41.00,18.33,0.00,0.00,0.00,29.68,M,2.36,M,NSC,M,M,M,M,M,M,M,HZ,M,M,M,M,M,M,85.82,VIDP 091900Z 00000KT 3800 HZ NSC 32/05 Q1005 NOSIG,M
VIDP,2022-04-09 19:30,87.80,41.00,19.40,0.00,0.00,0.00,29.68,M,2.17,M,NSC,M,M,M,M,M,M,M,HZ,M,M,M,M,M,M,84.30,VIDP 091930Z 00000KT 3500 HZ NSC 31/05 Q1005 NOSIG,M
VIDP,2022-04-09 20:00,86.00,39.20,19.15,0.00,0.00,0.00,29.65,M,2.17,M,NSC,M,M,M,M,M,M,M,HZ,M,M,M,M,M,M,82.79,VIDP 092000Z 00000KT 3500 HZ NSC 30/04 Q1004 NOSIG,M
VIDP,2022-04-09 20:30,84.20,39.20,20.29,0.00,0.00,0.00,29.65,M,2.17,M,NSC,M,M,M,M,M,M,M,HZ,M,M,M,M,M,M,81.44,VIDP 092030Z 00000KT 3500 HZ NSC 29/04 Q1004 NOSIG,M
VIDP,2022-04-09 21:00,84.20,39.20,20.29,0.00,0.00,0.00,29.65,M,2.17,M,NSC,M,M,M,M,M,M,M,HZ,M,M,M,M,M,M,81.44,VIDP 092100Z 00000KT 3500 HZ NSC 29/04 Q1004 NOSIG,M
VIDP,2022-04-09 21:30,84.20,39.20,20.29,0.00,0.00,0.00,29.65,M,2.17,M,NSC,M,M,M,M,M,M,M,HZ,M,M,M,M,M,M,81.44,VIDP 092130Z 00000KT 3500 HZ NSC 29/04 Q1004 NOSIG,M
VIDP,2022-04-09 22:00,84.20,39.20,20.29,0.00,0.00,0.00,29.65,M,2.17,M,NSC,M,M,M,M,M,M,M,HZ,M,M,M,M,M,M,81.44,VIDP 092200Z 00000KT 3500 HZ NSC 29/04 Q1004 NOSIG,M
VIDP,2022-04-09 22:30,82.40,41.00,23.07,0.00,0.00,0.00,29.65,M,1.99,M,NSC,M,M,M,M,M,M,M,HZ,M,M,M,M,M,M,80.29,VIDP 092230Z 00000KT 3200 HZ NSC 28/05 Q1004 BECMG 3000 HZ,M
VIDP,2022-04-09 23:00,82.40,39.20,21.51,0.00,0.00,0.00,29.65,M,1.86,M,NSC,M,M,M,M,M,M,M,HZ,M,M,M,M,M,M,80.21,VIDP 092300Z 00000KT 3000 HZ NSC 28/04 Q1004 NOSIG,M
VIDP,2022-04-09 23:30,80.60,39.20,22.81,0.00,0.00,0.00,29.65,M,1.86,M,NSC,M,M,M,M,M,M,M,HZ,M,M,M,M,M,M,79.10,VIDP 092330Z 00000KT 3000 HZ NSC 27/04 Q1004 NOSIG,M
VIDP,2022-04-10 00:00,80.60,41.00,24.46,0.00,0.00,0.00,29.68,M,1.86,M,NSC,M,M,M,M,M,M,M,HZ,M,M,M,M,M,M,79.20,VIDP 100000Z 00000KT 3000 HZ NSC 27/05 Q1005 NOSIG,M
VIDP,2022-04-10 00:30,80.60,41.00,24.46,250.00,5.00,0.00,29.68,M,1.86,M,NSC,M,M,M,M,M,M,M,HZ,M,M,M,M,M,M,79.20,VIDP 100030Z 25005KT 3000 HZ NSC 27/05 Q1005 NOSIG,M
VIDP,2022-04-10 01:00,80.60,39.20,22.81,250.00,3.00,0.00,29.71,M,1.55,M,NSC,M,M,M,M,M,M,M,DU,M,M,M,M,M,M,79.10,VIDP 100100Z 25003KT 2500 DU NSC 27/04 Q1006 NOSIG,M
VIDP,2022-04-10 01:30,80.60,41.00,24.46,0.00,0.00,0.00,29.71,M,1.37,M,NSC,M,M,M,M,M,M,M,DU,M,M,M,M,M,M,79.20,VIDP 100130Z 00000KT 2200 DU NSC 27/05 Q1006 NOSIG,M
VIDP,2022-04-10 02:00,82.40,39.20,21.51,250.00,4.00,0.00,29.71,M,1.37,M,NSC,M,M,M,M,M,M,M,DU,M,M,M,M,M,M,80.21,VIDP 100200Z 25004KT 2200 DU NSC 28/04 Q1006 NOSIG,M
VIDP,2022-04-10 02:30,82.40,41.00,23.07,250.00,3.00,0.00,29.74,M,1.37,M,NSC,M,M,M,M,M,M,M,DU,M,M,M,M,M,M,80.29,VIDP 100230Z 25003KT 2200 DU NSC 28/05 Q1007 NOSIG,M
VIDP,2022-04-10 03:00,84.20,39.20,20.29,240.00,4.00,0.00,29.74,M,1.37,M,NSC,M,M,M,M,M,M,M,DU,M,M,M,M,M,M,81.44,VIDP 100300Z 24004KT 2200 DU NSC 29/04 Q1007 NOSIG,M
VIDP,2022-04-10 03:30,87.80,39.20,18.09,260.00,4.00,0.00,29.74,M,1.37,M,NSC,M,M,M,M,M,M,M,DU,M,M,M,M,M,M,84.22,VIDP 100330Z 26004KT 2200 DU NSC 31/04 Q1007 NOSIG,M
VIDP,2022-04-10 04:00,89.60,39.20,17.09,250.00,5.00,0.00,29.77,M,1.37,M,NSC,M,M,M,M,M,M,M,DU,M,M,M,M,M,M,85.73,VIDP 100400Z 25005KT 2200 DU NSC 32/04 Q1008 NOSIG,M
VIDP,2022-04-10 04:30,91.40,46.40,21.29,260.00,5.00,0.00,29.77,M,1.55,M,NSC,M,M,M,M,M,M,M,DU,M,M,M,M,M,M,87.86,VIDP 100430Z 26005KT 2500 DU NSC 33/08 Q1008 NOSIG,M
VIDP,2022-04-10 05:00,95.00,42.80,16.60,260.00,5.00,0.00,29.77,M,1.55,M,NSC,M,M,M,M,M,M,M,DU,M,M,M,M,M,M,90.86,VIDP 100500Z 26005KT 2500 DU NSC 35/06 Q1008 NOSIG,M
VIDP,2022-04-10 05:30,96.80,42.80,15.71,280.00,7.00,0.00,29.74,M,1.74,M,NSC,M,M,M,M,M,M,M,HZ,M,M,M,M,M,M,92.57,VIDP 100530Z 28007KT 2800 HZ NSC 36/06 Q1007 BECMG 3000 HZ,M
VIDP,2022-04-10 06:00,100.40,41.00,13.14,270.00,8.00,0.00,29.74,M,1.99,M,NSC,M,M,M,M,M,M,M,HZ,M,M,M,M,M,M,95.79,VIDP 100600Z 27008KT 3200 HZ NSC 38/05 Q1007 NOSIG,M
VIDP,2022-04-10 06:30,102.20,35.60,10.07,290.00,10.00,0.00,29.74,M,2.17,M,NSC,M,M,M,M,M,M,M,HZ,M,M,M,M,M,M,96.30,VIDP 100630Z 29010KT 3500 HZ NSC 39/02 Q1007 NOSIG,M
VIDP,2022-04-10 07:00,102.20,26.60,7.00,280.00,8.00,0.00,29.71,M,2.49,18.00,NSC,M,M,M,M,M,M,M,HZ,M,M,M,M,M,M,95.09,VIDP 100700Z 28008G18KT 4000 HZ NSC 39/M03 Q1006 NOSIG,M
VIDP,2022-04-10 07:30,102.20,26.60,7.00,290.00,8.00,0.00,29.71,M,2.49,18.00,NSC,M,M,M,M,M,M,M,HZ,M,M,M,M,M,M,95.09,VIDP 100730Z 29008G18KT 4000 HZ NSC 39/M03 Q1006 NOSIG,M
VIDP,2022-04-10 08:00,104.00,26.60,6.63,280.00,10.00,0.00,29.71,M,2.49,20.00,NSC,M,M,M,M,M,M,M,HZ,M,M,M,M,M,M,96.60,VIDP 100800Z 28010G20KT 4000 HZ NSC 40/M03 Q1006 NOSIG,M
VIDP,2022-04-10 08:30,105.80,26.60,6.29,300.00,10.00,0.00,29.68,M,2.49,20.00,NSC,M,M,M,M,M,M,M,HZ,M,M,M,M,M,M,98.12,VIDP 100830Z 30010G20KT 4000 HZ NSC 41/M03 Q1005 NOSIG,M
VIDP,2022-04-10 09:00,105.80,26.60,6.29,300.00,10.00,0.00,29.68,M,2.80,20.00,NSC,M,M,M,M,M,M,M,HZ,M,M,M,M,M,M,98.12,VIDP 100900Z 30010G20KT 4500 HZ NSC 41/M03 Q1005 NOSIG,M
VIDP,2022-04-10 09:30,107.60,24.80,5.53,300.00,8.00,0.00,29.65,M,2.80,18.00,NSC,M,M,M,M,M,M,M,HZ,M,M,M,M,M,M,99.43,VIDP 100930Z 30008G18KT 4500 HZ NSC 42/M04 Q1004 BECMG 5000 HZ,M
VIDP,2022-04-10 10:00,107.60,24.80,5.53,290.00,10.00,0.00,29.65,M,3.11,20.00,NSC,M,M,M,M,M,M,M,HZ,M,M,M,M,M,M,99.43,VIDP 101000Z 29010G20KT 5000 HZ NSC 42/M04 Q1004 NOSIG,M
VIDP,2022-04-10 10:30,107.60,26.60,5.96,290.00,10.00,0.00,29.62,M,3.11,20.00,NSC,M,M,M,M,M,M,M,HZ,M,M,M,M,M,M,99.63,VIDP 101030Z 29010G20KT 5000 HZ NSC 42/M03 Q1003 NOSIG,M
VIDP,2022-04-10 11:00,107.60,26.60,5.96,290.00,10.00,0.00,29.62,M,3.11,20.00,NSC,M,M,M,M,M,M,M,HZ,M,M,M,M,M,M,99.63,VIDP 101100Z 29010G20KT 5000 HZ NSC 42/M03 Q1003 NOSIG,M
VIDP,2022-04-10 11:30,105.80,26.60,6.29,290.00,8.00,0.00,29.62,M,3.11,18.00,NSC,M,M,M,M,M,M,M,HZ,M,M,M,M,M,M,98.12,VIDP 101130Z 29008G18KT 5000 HZ NSC 41/M03 Q1003 NOSIG,M
VIDP,2022-04-10 12:00,104.00,30.20,7.68,290.00,8.00,0.00,29.62,M,2.80,M,NSC,M,M,M,M,M,M,M,HZ,M,M,M,M,M,M,97.03,VIDP 101200Z 29008KT 4500 HZ NSC 40/M01 Q1003 NOSIG,M
VIDP,2022-04-10 12:30,102.20,33.80,9.37,290.00,6.00,0.00,29.62,M,2.49,M,NSC,M,M,M,M,M,M,M,HZ,M,M,M,M,M,M,96.01,VIDP 101230Z 29006KT 4000 HZ NSC 39/01 Q1003 NOSIG,M
VIDP,2022-04-10 13:00,98.60,35.60,11.23,260.00,4.00,0.00,29.62,M,2.49,M,NSC,M,M,M,M,M,M,M,HZ,M,M,M,M,M,M,93.23,VIDP 101300Z 26004KT 4000 HZ NSC 37/02 Q1003 NOSIG,M
VIDP,2022-04-10 13:30,96.80,37.40,12.73,270.00,4.00,0.00,29.62,M,2.49,M,NSC,M,M,M,M,M,M,M,HZ,M,M,M,M,M,M,92.04,VIDP 101330Z 27004KT 4000 HZ NSC 36/03 Q1003 NOSIG,M
VIDP,2022-04-10 14:00,95.00,39.20,14.44,0.00,0.00,0.00,29.65,M,2.49,M,NSC,M,M,M,M,M,M,M,HZ,M,M,M,M,M,M,90.57,VIDP 101400Z 00000KT 4000 HZ NSC 35/04 Q1004 NOSIG,M
VIDP,2022-04-10 14:30,95.00,41.00,15.49,240.00,3.00,0.00,29.65,M,2.49,M,NSC,M,M,M,M,M,M,M,HZ,M,M,M,M,M,M,90.70,VIDP 101430Z 24003KT 4000 HZ NSC 35/05 Q1004 NOSIG,M
VIDP,2022-04-10 15:00,93.20,41.00,16.37,260.00,3.00,0.00,29.65,M,2.49,M,NSC,M,M,M,M,M,M,M,HZ,M,M,M,M,M,M,89.03,VIDP 101500Z 26003KT 4000 HZ NSC 34/05 Q1004 NOSIG,M
VIDP,2022-04-10 15:30,93.20,41.00,16.37,270.00,3.00,0.00,29.65,M,2.17,M,NSC,M,M,M,M,M,M,M,HZ,M,M,M,M,M,M,89.03,VIDP 101530Z 27003KT 3500 HZ NSC 34/05 Q1004 NOSIG,M
VIDP,2022-04-10 16:00,91.40,42.80,18.56,280.00,3.00,0.00,29.65,M,2.17,M,NSC,M,M,M,M,M,M,M,HZ,M,M,M,M,M,M,87.52,VIDP 101600Z 28003KT 3500 HZ NSC 33/06 Q1004 NOSIG,M
VIDP,2022-04-10 16:30,91.40,42.80,18.56,290.00,3.00,0.00,29.65,M,2.17,M,NSC,M,M,M,M,M,M,M,HZ,M,M,M,M,M,M,87.52,VIDP 101630Z 29003KT 3500 HZ NSC 33/06 Q1004 NOSIG,M
VIDP,2022-04-10 17:00,89.60,42.80,19.64,280.00,3.00,0.00,29.65,M,2.17,M,NSC,M,M,M,M,M,M,M,HZ,M,M,M,M,M,M,85.93,VIDP 101700Z 28003KT 3500 HZ NSC 32/06 Q1004 NOSIG,M
VIDP,2022-04-10 17:30,89.60,42.80,19.64,240.00,3.00,0.00,29.65,M,2.17,M,NSC,M,M,M,M,M,M,M,HZ,M,M,M,M,M,M,85.93,VIDP 101730Z 24003KT 3500 HZ NSC 32/06 Q1004 NOSIG,M
VIDP,2022-04-10 18:00,89.60,42.80,19.64,250.00,3.00,0.00,29.65,M,2.17,M,NSC,M,M,M,M,M,M,M,HZ,M,M,M,M,M,M,85.93,VIDP 101800Z 25003KT 3500 HZ NSC 32/06 Q1004 NOSIG,M
VIDP,2022-04-10 18:30,89.60,44.60,21.04,210.00,3.00,0.00,29.65,M,2.17,M,NSC,M,M,M,M,M,M,M,HZ,M,M,M,M,M,M,86.07,VIDP 101830Z 21003KT 3500 HZ NSC 32/07 Q1004 NOSIG,M
VIDP,2022-04-10 19:00,87.80,46.40,23.85,0.00,0.00,0.00,29.65,M,1.99,M,NSC,M,M,M,M,M,M,M,HZ,M,M,M,M,M,M,84.68,VIDP 101900Z 00000KT 3200 HZ NSC 31/08 Q1004 NOSIG,M
VIDP,2022-04-10 19:30,86.00,46.40,25.26,0.00,0.00,0.00,29.65,M,1.99,M,NSC,M,M,M,M,M,M,M,HZ,M,M,M,M,M,M,83.22,VIDP 101930Z 00000KT 3200 HZ NSC 30/08 Q1004 NOSIG,M
VIDP,2022-04-10 20:00,86.00,46.40,25.26,220.00,3.00,0.00,29.65,M,1.99,M,NSC,M,M,M,M,M,M,M,HZ,M,M,M,M,M,M,83.22,VIDP 102000Z 22003KT 3200 HZ NSC 30/08 Q1004 NOSIG,M
VIDP,2022-04-10 20:30,84.20,46.40,26.76,0.00,0.00,0.00,29.65,M,1.99,M,NSC,M,M,M,M,M,M,M,HZ,M,M,M,M,M,M,81.87,VIDP 102030Z 00000KT 3200 HZ NSC 29/08 Q1004 NOSIG,M
VIDP,2022-04-10 21:00,84.20,46.40,26.76,0.00,0.00,0.00,29.65,M,1.99,M,NSC,M,M,M,M,M,M,M,HZ,M,M,M,M,M,M,81.87,VIDP 102100Z 00000KT 3200 HZ NSC 29/08 Q1004 NOSIG,M
VIDP,2022-04-10 21:30,84.20,46.40,26.76,0.00,0.00,0.00,29.65,M,1.99,M,NSC,M,M,M,M,M,M,M,HZ,M,M,M,M,M,M,81.87,VIDP 102130Z 00000KT 3200 HZ NSC 29/08 Q1004 NOSIG,M
VIDP,2022-04-10 22:00,84.20,46.40,26.76,0.00,0.00,0.00,29.65,M,1.99,M,NSC,M,M,M,M,M,M,M,HZ,M,M,M,M,M,M,81.87,VIDP 102200Z 00000KT 3200 HZ NSC 29/08 Q1004 BECMG 3000 HZ,M
VIDP,2022-04-10 22:30,82.40,48.20,30.35,0.00,0.00,0.00,29.65,M,1.86,M,NSC,M,M,M,M,M,M,M,HZ,M,M,M,M,M,M,80.80,VIDP 102230Z 00000KT 3000 HZ NSC 28/09 Q1004 NOSIG,M
VIDP,2022-04-10 23:00,82.40,48.20,30.35,0.00,0.00,0.00,29.65,M,1.86,M,NSC,M,M,M,M,M,M,M,HZ,M,M,M,M,M,M,80.80,VIDP 102300Z 00000KT 3000 HZ NSC 28/09 Q1004 NOSIG,M
VIDP,2022-04-10 23:30,80.60,48.20,32.18,0.00,0.00,0.00,29.65,M,1.86,M,NSC,M,M,M,M,M,M,M,HZ,M,M,M,M,M,M,79.71,VIDP 102330Z 00000KT 3000 HZ NSC 27/09 Q1004 NOSIG,M
VIDP,2022-04-11 00:00,80.60,48.20,32.18,0.00,0.00,0.00,29.68,M,1.86,M,NSC,M,M,M,M,M,M,M,HZ,M,M,M,M,M,M,79.71,VIDP 110000Z 00000KT 3000 HZ NSC 27/09 Q1005 NOSIG,M
VIDP,2022-04-11 00:30,80.60,48.20,32.18,0.00,0.00,0.00,29.68,M,1.86,M,NSC,M,M,M,M,M,M,M,HZ,M,M,M,M,M,M,79.71,VIDP 110030Z 00000KT 3000 HZ NSC 27/09 Q1005 NOSIG,M
VIDP,2022-04-11 01:00,78.80,48.20,34.13,0.00,0.00,0.00,29.68,M,1.86,M,NSC,M,M,M,M,M,M,M,HZ,M,M,M,M,M,M,78.80,VIDP 110100Z 00000KT 3000 HZ NSC 26/09 Q1005 NOSIG,M
VIDP,2022-04-11 01:30,80.60,48.20,32.18,0.00,0.00,0.00,29.68,M,1.86,M,NSC,M,M,M,M,M,M,M,HZ,M,M,M,M,M,M,79.71,VIDP 110130Z 00000KT 3000 HZ NSC 27/09 Q1005 NOSIG,M
VIDP,2022-04-11 02:00,84.20,46.40,26.76,0.00,0.00,0.00,29.71,M,1.86,M,NSC,M,M,M,M,M,M,M,HZ,M,M,M,M,M,M,81.87,VIDP 110200Z 00000KT 3000 HZ NSC 29/08 Q1006 NOSIG,M
VIDP,2022-04-11 02:30,86.00,44.60,23.59,240.00,3.00,0.00,29.71,M,1.86,M,NSC,M,M,M,M,M,M,M,HZ,M,M,M,M,M,M,83.07,VIDP 110230Z 24003KT 3000 HZ NSC 30/07 Q1006 NOSIG,M
VIDP,2022-04-11 03:00,89.60,42.80,19.64,240.00,3.00,0.00,29.71,M,1.86,M,NSC,M,M,M,M,M,M,M,HZ,M,M,M,M,M,M,85.93,VIDP 110300Z 24003KT 3000 HZ NSC 32/06 Q1006 NOSIG,M
VIDP,2022-04-11 03:30,91.40,41.00,17.32,250.00,4.00,0.00,29.74,M,1.86,M,NSC,M,M,M,M,M,M,M,HZ,M,M,M,M,M,M,87.40,VIDP 110330Z 25004KT 3000 HZ NSC 33/05 Q1007 NOSIG,M
VIDP,2022-04-11 04:00,93.20,41.00,16.37,240.00,4.00,0.00,29.74,M,1.86,M,NSC,M,M,M,M,M,M,M,HZ,M,M,M,M,M,M,89.03,VIDP 110400Z 24004KT 3000 HZ NSC 34/05 Q1007 NOSIG,M
VIDP,2022-04-11 04:30,95.00,39.20,14.44,250.00,5.00,0.00,29.74,M,2.17,M,NSC,M,M,M,M,M,M,M,HZ,M,M,M,M,M,M,90.57,VIDP 110430Z 25005KT 3500 HZ NSC 35/04 Q1007 NOSIG,M
VIDP,2022-04-11 05:00,96.80,37.40,12.73,240.00,6.00,0.00,29.74,M,2.17,M,NSC,M,M,M,M,M,M,M,HZ,M,M,M,M,M,M,92.04,VIDP 110500Z 24006KT 3500 HZ NSC 36/03 Q1007 NOSIG,M
VIDP,2022-04-11 05:30,98.60,39.20,12.94,260.00,5.00,0.00,29.74,M,2.17,M,FEW,M,M,M,10000.00,M,M,M,HZ,M,M,M,M,M,M,93.89,VIDP 110530Z 26005KT 3500 HZ FEW100 37/04 Q1007 NOSIG,M
VIDP,2022-04-11 06:00,100.40,39.20,12.25,240.00,5.00,0.00,29.74,M,2.17,M,FEW,M,M,M,10000.00,M,M,M,HZ,M,M,M,M,M,M,95.43,VIDP 110600Z 24005KT 3500 HZ FEW100 38/04 Q1007 NOSIG,M
VIDP,2022-04-11 06:30,102.20,37.40,10.81,280.00,5.00,0.00,29.71,M,2.17,M,NSC,M,M,M,M,M,M,M,HZ,M,M,M,M,M,M,96.63,VIDP 110630Z 28005KT 3500 HZ NSC 39/03 Q1006 NOSIG,M
VIDP,2022-04-11 07:00,104.00,37.40,10.25,270.00,6.00,0.00,29.71,M,2.17,M,NSC,M,M,M,M,M,M,M,HZ,M,M,M,M,M,M,98.19,VIDP 110700Z 27006KT 3500 HZ NSC 40/03 Q1006 NOSIG,M
VIDP,2022-04-11 07:30,105.80,35.60,9.05,280.00,7.00,0.00,29.68,M,2.17,M,NSC,M,M,M,M,M,M,M,HZ,M,M,M,M,M,M,99.42,VIDP 110730Z 28007KT 3500 HZ NSC 41/02 Q1005 NOSIG,M
VIDP,2022-04-11 08:00,105.80,33.80,8.42,280.00,6.00,0.00,29.68,M,2.17,M,FEW,M,M,M,10000.00,M,M,M,HZ,M,M,M,M,M,M,99.10,VIDP 110800Z 28006KT 3500 HZ FEW100 41/01 Q1005 NOSIG,M
VIDP,2022-04-11 08:30,105.80,35.60,9.05,280.00,7.00,0.00,29.65,M,2.17,M,FEW,M,M,M,10000.00,M,M,M,HZ,M,M,M,M,M,M,99.42,VIDP 110830Z 28007KT 3500 HZ FEW100 41/02 Q1004 NOSIG,M
VIDP,2022-04-11 09:00,107.60,33.80,7.99,280.00,7.00,0.00,29.65,M,2.17,M,FEW,M,M,M,10000.00,M,M,M,HZ,M,M,M,M,M,M,100.66,VIDP 110900Z 28007KT 3500 HZ FEW100 42/01 Q1004 NOSIG,M
VIDP,2022-04-11 09:30,107.60,35.60,8.58,290.00,8.00,0.00,29.62,M,2.36,M,FEW,M,M,M,10000.00,M,M,M,HZ,M,M,M,M,M,M,100.98,VIDP 110930Z 29008KT 3800 HZ FEW100 42/02 Q1003 NOSIG,M
VIDP,2022-04-11 10:00,107.60,37.40,9.21,280.00,10.00,0.00,29.62,M,2.49,M,FEW,M,M,M,10000.00,M,M,M,HZ,M,M,M,M,M,M,101.34,VIDP 111000Z 28010KT 4000 HZ FEW100 42/03 Q1003 NOSIG,M
VIDP,2022-04-11 10:30,107.60,39.20,9.89,290.00,8.00,0.00,29.59,M,2.49,M,FEW,M,M,M,10000.00,M,M,M,HZ,M,M,M,M,M,M,101.73,VIDP 111030Z 29008KT 4000 HZ FEW100 42/04 Q1002 NOSIG,M
VIDP,2022-04-11 11:00,105.80,39.20,10.43,280.00,8.00,0.00,29.59,M,2.49,M,SCT,M,M,M,10000.00,M,M,M,HZ,M,M,M,M,M,M,100.14,VIDP 111100Z 28008KT 4000 HZ SCT100 41/04 Q1002 NOSIG,M
VIDP,2022-04-11 11:30,105.80,39.20,10.43,290.00,8.00,0.00,29.59,M,2.49,M,SCT,M,M,M,10000.00,M,M,M,HZ,M,M,M,M,M,M,100.14,VIDP 111130Z 29008KT 4000 HZ SCT100 41/04 Q1002 NOSIG,M
VIDP,2022-04-11 12:00,104.00,33.80,8.88,300.00,6.00,0.00,29.59,M,2.49,M,SCT,M,M,M,10000.00,M,M,M,HZ,M,M,M,M,M,M,97.55,VIDP 111200Z 30006KT 4000 HZ SCT100 40/01 Q1002 NOSIG,M
VIDP,2022-04-11 12:30,104.00,37.40,10.25,280.00,5.00,0.00,29.59,M,2.49,M,FEW,M,M,M,10000.00,M,M,M,HZ,M,M,M,M,M,M,98.19,VIDP 111230Z 28005KT 4000 HZ FEW100 40/03 Q1002 NOSIG,M
VIDP,2022-04-11 12:40,98.60,35.60,11.23,260.00,4.00,0.00,29.62,M,2.49,M,FEW,M,M,M,10000.00,M,M,M,HZ,M,M,M,M,M,M,93.23,VIDP 111240Z 26004KT 4000 HZ FEW100 37/02 Q1003 NOSIG,M
VIDP,2022-04-11 13:00,102.20,33.80,9.37,260.00,4.00,0.00,29.59,M,2.49,M,FEW,M,M,M,10000.00,M,M,M,HZ,M,M,M,M,M,M,96.01,VIDP 111300Z 26004KT 4000 HZ FEW100 39/01 Q1002 NOSIG,M
VIDP,2022-04-11 13:30,100.40,33.80,9.90,260.00,4.00,0.00,29.62,M,2.49,M,FEW,M,M,M,10000.00,M,M,M,HZ,M,M,M,M,M,M,94.47,VIDP 111330Z 26004KT 4000 HZ FEW100 38/01 Q1003 NOSIG,M
VIDP,2022-04-11 14:00,98.60,35.60,11.23,260.00,4.00,0.00,29.62,M,2.49,M,FEW,M,M,M,10000.00,M,M,M,HZ,M,M,M,M,M,M,93.23,VIDP 111400Z 26004KT 4000 HZ FEW100 37/02 Q1003 NOSIG,M
VIDP,2022-04-11 14:30,95.00,35.60,12.53,0.00,0.00,0.00,29.62,M,2.49,M,FEW,M,M,M,10000.00,M,M,M,HZ,M,M,M,M,M,M,90.25,VIDP 111430Z 00000KT 4000 HZ FEW100 35/02 Q1003 NOSIG,M
VIDP,2022-04-11 15:00,93.20,37.40,14.23,0.00,0.00,0.00,29.62,M,2.49,M,FEW,M,M,M,10000.00,M,M,M,HZ,M,M,M,M,M,M,88.83,VIDP 111500Z 00000KT 4000 HZ FEW100 34/03 Q1003 NOSIG,M
VIDP,2022-04-11 15:30,91.40,37.40,15.05,0.00,0.00,0.00,29.65,M,2.49,M,FEW,M,M,M,10000.00,M,M,M,HZ,M,M,M,M,M,M,87.23,VIDP 111530Z 00000KT 4000 HZ FEW100 33/03 Q1004 NOSIG,M
VIDP,2022-04-11 16:00,91.40,37.40,15.05,0.00,0.00,0.00,29.65,M,2.49,M,FEW,M,M,M,10000.00,M,M,M,HZ,M,M,M,M,M,M,87.23,VIDP 111600Z 00000KT 4000 HZ FEW100 33/03 Q1004 NOSIG,M
VIDP,2022-04-11 16:30,91.40,39.20,16.15,0.00,0.00,0.00,29.65,M,2.49,M,FEW,M,M,M,10000.00,M,M,M,HZ,M,M,M,M,M,M,87.30,VIDP 111630Z 00000KT 4000 HZ FEW100 33/04 Q1004 NOSIG,M
VIDP,2022-04-11 17:00,91.40,35.60,14.02,200.00,3.00,0.00,29.65,M,2.49,M,FEW,M,M,M,10000.00,M,M,M,HZ,M,M,M,M,M,M,87.17,VIDP 111700Z 20003KT 4000 HZ FEW100 33/02 Q1004 NOSIG,M
VIDP,2022-04-11 17:30,89.60,37.40,15.92,0.00,0.00,0.00,29.65,M,2.49,M,FEW,M,M,M,10000.00,M,M,M,HZ,M,M,M,M,M,M,85.67,VIDP 111730Z 00000KT 4000 HZ FEW100 32/03 Q1004 NOSIG,M
VIDP,2022-04-11 18:00,87.80,39.20,18.09,0.00,0.00,0.00,29.65,M,2.49,M,FEW,M,M,M,10000.00,M,M,M,HZ,M,M,M,M,M,M,84.22,VIDP 111800Z 00000KT 4000 HZ FEW100 31/04 Q1004 NOSIG,M
VIDP,2022-04-11 18:30,87.80,39.20,18.09,200.00,3.00,0.00,29.65,M,2.49,M,FEW,M,M,M,10000.00,M,M,M,HZ,M,M,M,M,M,M,84.22,VIDP 111830Z 20003KT 4000 HZ FEW100 31/04 Q1004 NOSIG,M
VIDP,2022-04-11 19:00,87.80,39.20,18.09,200.00,3.00,0.00,29.65,M,2.49,M,FEW,M,M,M,10000.00,M,M,M,HZ,M,M,M,M,M,M,84.22,VIDP 111900Z 20003KT 4000 HZ FEW100 31/04 Q1004 NOSIG,M
VIDP,2022-04-11 19:30,89.60,35.60,14.83,200.00,4.00,0.00,29.65,M,2.17,M,FEW,M,M,M,10000.00,M,M,M,HZ,M,M,M,M,M,M,85.62,VIDP 111930Z 20004KT 3500 HZ FEW100 32/02 Q1004 NOSIG,M
VIDP,2022-04-11 20:00,89.60,33.80,13.80,170.00,4.00,0.00,29.62,M,2.17,M,FEW,M,M,M,10000.00,M,M,M,HZ,M,M,M,M,M,M,85.59,VIDP 112000Z 17004KT 3500 HZ FEW100 32/01 Q1003 NOSIG,M
VIDP,2022-04-11 20:30,86.00,37.40,17.85,350.00,4.00,0.00,29.62,M,2.17,M,FEW,M,M,M,10000.00,M,M,M,HZ,M,M,M,M,M,M,82.73,VIDP 112030Z 35004KT 3500 HZ FEW100 30/03 Q1003 NOSIG,M
VIDP,2022-04-11 21:00,84.20,41.00,21.76,0.00,0.00,0.00,29.62,M,2.17,M,FEW,M,M,M,10000.00,M,M,M,HZ,M,M,M,M,M,M,81.52,VIDP 112100Z 00000KT 3500 HZ FEW100 29/05 Q1003 NOSIG,M
VIDP,2022-04-11 21:30,84.20,41.00,21.76,300.00,5.00,0.00,29.62,M,2.17,M,FEW,M,M,M,10000.00,M,M,M,HZ,M,M,M,M,M,M,81.52,VIDP 112130Z 30005KT 3500 HZ FEW100 29/05 Q1003 NOSIG,M
VIDP,2022-04-11 22:00,82.40,44.60,26.49,0.00,0.00,0.00,29.65,M,2.17,M,FEW,M,M,M,10000.00,M,M,M,HZ,M,M,M,M,M,M,80.50,VIDP 112200Z 00000KT 3500 HZ FEW100 28/07 Q1004 NOSIG,M
VIDP,2022-04-11 22:30,82.40,44.60,26.49,0.00,0.00,0.00,29.65,M,2.17,M,FEW,M,M,M,10000.00,M,M,M,HZ,M,M,M,M,M,M,80.50,VIDP 112230Z 00000KT 3500 HZ FEW100 28/07 Q1004 NOSIG,M
VIDP,2022-04-11 23:00,80.60,44.60,28.08,0.00,0.00,0.00,29.65,M,2.17,M,FEW,M,M,M,10000.00,M,M,M,HZ,M,M,M,M,M,M,79.42,VIDP 112300Z 00000KT 3500 HZ FEW100 27/07 Q1004 NOSIG,M
VIDP,2022-04-11 23:30,80.60,44.60,28.08,220.00,5.00,0.00,29.65,M,1.99,M,FEW,M,M,M,10000.00,M,M,M,HZ,M,M,M,M,M,M,79.42,VIDP 112330Z 22005KT 3200 HZ FEW100 27/07 Q1004 BECMG 3000 HZ,M
VIDP,2022-04-12 00:00,82.40,42.80,24.72,0.00,0.00,0.00,29.68,M,1.86,M,FEW,M,M,M,10000.00,M,M,M,HZ,M,M,M,M,M,M,80.39,VIDP 120000Z 00000KT 3000 HZ FEW100 28/06 Q1005 NOSIG,M
VIDP,2022-04-12 00:30,82.40,42.80,24.72,210.00,4.00,0.00,29.68,M,1.86,M,FEW,M,M,M,10000.00,M,M,M,HZ,M,M,M,M,M,M,80.39,VIDP 120030Z 21004KT 3000 HZ FEW100 28/06 Q1005 NOSIG,M
VIDP,2022-04-12 01:00,82.40,42.80,24.72,230.00,4.00,0.00,29.68,M,1.86,M,FEW,M,M,M,10000.00,M,M,M,HZ,M,M,M,M,M,M,80.39,VIDP 120100Z 23004KT 3000 HZ FEW100 28/06 Q1005 NOSIG,M
VIDP,2022-04-12 01:30,84.20,41.00,21.76,250.00,5.00,0.00,29.68,M,1.86,M,FEW,M,M,M,10000.00,M,M,M,HZ,M,M,M,M,M,M,81.52,VIDP 120130Z 25005KT 3000 HZ FEW100 29/05 Q1005 NOSIG,M
VIDP,2022-04-12 02:00,86.00,41.00,20.54,260.00,5.00,0.00,29.71,M,1.86,M,FEW,M,M,M,10000.00,M,M,M,HZ,M,M,M,M,M,M,82.86,VIDP 120200Z 26005KT 3000 HZ FEW100 30/05 Q1006 NOSIG,M
VIDP,2022-04-12 02:30,87.80,33.80,14.61,270.00,5.00,0.00,29.71,M,1.86,M,FEW,M,M,M,10000.00,M,M,M,HZ,M,M,M,M,M,M,84.10,VIDP 120230Z 27005KT 3000 HZ FEW100 31/01 Q1006 NOSIG,M
VIDP,2022-04-12 03:00,87.80,35.60,15.70,260.00,7.00,0.00,29.71,M,1.86,M,FEW,M,M,M,10000.00,M,M,M,HZ,M,M,M,M,M,M,84.12,VIDP 120300Z 26007KT 3000 HZ FEW100 31/02 Q1006 NOSIG,M
VIDP,2022-04-12 03:30,89.60,39.20,17.09,260.00,9.00,0.00,29.71,M,1.86,M,FEW,M,M,M,10000.00,M,M,M,HZ,M,M,M,M,M,M,85.73,VIDP 120330Z 26009KT 3000 HZ FEW100 32/04 Q1006 NOSIG,M
VIDP,2022-04-12 04:00,91.40,39.20,16.15,260.00,10.00,0.00,29.74,M,1.86,M,FEW,M,M,M,10000.00,M,M,M,HZ,M,M,M,M,M,M,87.30,VIDP 120400Z 26010KT 3000 HZ FEW100 33/04 Q1007 NOSIG,M
VIDP,2022-04-12 04:30,93.20,39.20,15.27,270.00,9.00,0.00,29.74,M,2.17,M,FEW,M,M,M,10000.00,M,M,M,HZ,M,M,M,M,M,M,88.92,VIDP 120430Z 27009KT 3500 HZ FEW100 34/04 Q1007 NOSIG,M
VIDP,2022-04-12 05:00,95.00,39.20,14.44,280.00,9.00,0.00,29.74,M,2.17,M,FEW,SCT,M,M,4000.00,10000.00,M,M,HZ,M,M,M,M,M,M,90.57,VIDP 120500Z 28009KT 3500 HZ FEW040 SCT100 35/04 Q1007 NOSIG,M
VIDP,2022-04-12 05:30,96.80,37.40,12.73,270.00,7.00,0.00,29.74,M,2.17,M,FEW,SCT,M,M,4000.00,10000.00,M,M,HZ,M,M,M,M,M,M,92.04,VIDP 120530Z 27007KT 3500 HZ FEW040 SCT100 36/03 Q1007 NOSIG,M
VIDP,2022-04-12 06:00,96.80,37.40,12.73,270.00,8.00,0.00,29.74,M,2.17,M,FEW,SCT,M,M,4000.00,10000.00,M,M,HZ,M,M,M,M,M,M,92.04,VIDP 120600Z 27008KT 3500 HZ FEW040 SCT100 36/03 Q1007 NOSIG,M
VIDP,2022-04-12 06:30,98.60,37.40,12.05,260.00,7.00,0.00,29.71,M,2.17,M,FEW,SCT,M,M,4000.00,10000.00,M,M,HZ,M,M,M,M,M,M,93.54,VIDP 120630Z 26007KT 3500 HZ FEW040 SCT100 37/03 Q1006 NOSIG,M
VIDP,2022-04-12 07:00,98.60,37.40,12.05,270.00,6.00,0.00,29.71,M,2.17,M,FEW,SCT,M,M,4000.00,10000.00,M,M,HZ,M,M,M,M,M,M,93.54,VIDP 120700Z 27006KT 3500 HZ FEW040 SCT100 37/03 Q1006 NOSIG,M
VIDP,2022-04-12 07:30,100.40,33.80,9.90,290.00,9.00,0.00,29.71,M,2.49,M,FEW,SCT,M,M,4000.00,10000.00,M,M,HZ,M,M,M,M,M,M,94.47,VIDP 120730Z 29009KT 4000 HZ FEW040 SCT100 38/01 Q1006 NOSIG,M
VIDP,2022-04-12 08:00,102.20,35.60,10.07,300.00,9.00,0.00,29.68,M,2.80,M,FEW,SCT,M,M,4000.00,10000.00,M,M,HZ,M,M,M,M,M,M,96.30,VIDP 120800Z 30009KT 4500 HZ FEW040 SCT100 39/02 Q1005 NOSIG,M
VIDP,2022-04-12 08:30,102.20,35.60,10.07,290.00,7.00,0.00,29.65,M,3.11,M,FEW,SCT,M,M,4000.00,10000.00,M,M,HZ,M,M,M,M,M,M,96.30,VIDP 120830Z 29007KT 5000 HZ FEW040 SCT100 39/02 Q1004 NOSIG,M
VIDP,2022-04-12 09:00,102.20,37.40,10.81,270.00,5.00,0.00,29.65,M,3.11,M,SCT,BKN,M,M,4000.00,10000.00,M,M,HZ,M,M,M,M,M,M,96.63,VIDP 120900Z 27005KT 5000 HZ SCT040 BKN100 39/03 Q1004 NOSIG,M
VIDP,2022-04-12 09:30,102.20,37.40,10.81,240.00,3.00,0.00,29.65,M,2.80,M,SCT,BKN,M,M,4000.00,10000.00,M,M,HZ,M,M,M,M,M,M,96.63,VIDP 120930Z 24003KT 4500 HZ SCT040 BKN100 39/03 Q1004 NOSIG,M
VIDP,2022-04-12 10:00,100.40,37.40,11.41,50.00,3.00,0.00,29.62,M,2.80,M,SCT,BKN,M,M,4000.00,10000.00,M,M,HZ,M,M,M,M,M,M,95.08,VIDP 121000Z 05003KT 4500 HZ SCT040 BKN100 38/03 Q1003 NOSIG,M
VIDP,2022-04-12 10:30,100.40,37.40,11.41,70.00,3.00,0.00,29.62,M,2.80,M,SCT,BKN,M,M,4000.00,10000.00,M,M,HZ,M,M,M,M,M,M,95.08,VIDP 121030Z 07003KT 4500 HZ SCT040 BKN100 38/03 Q1003 NOSIG,M
VIDP,2022-04-12 11:00,100.40,39.20,12.25,40.00,3.00,0.00,29.62,M,2.49,M,SCT,BKN,M,M,4000.00,10000.00,M,M,HZ,M,M,M,M,M,M,95.43,VIDP 121100Z 04003KT 4000 HZ SCT040 BKN100 38/04 Q1003 NOSIG,M
VIDP,2022-04-12 11:30,100.40,39.20,12.25,50.00,3.00,0.00,29.59,M,2.49,M,SCT,SCT,M,M,4000.00,10000.00,M,M,HZ,M,M,M,M,M,M,95.43,VIDP 121130Z 05003KT 4000 HZ SCT040 SCT100 38/04 Q1002 NOSIG,M
VIDP,2022-04-12 12:00,98.60,41.00,13.87,50.00,3.00,0.00,29.59,M,2.49,M,SCT,SCT,M,M,4000.00,10000.00,M,M,HZ,M,M,M,M,M,M,94.09,VIDP 121200Z 05003KT 4000 HZ SCT040 SCT100 37/05 Q1002 NOSIG,M
VIDP,2022-04-12 12:30,98.60,41.00,13.87,120.00,3.00,0.00,29.59,M,2.49,M,SCT,SCT,M,M,4000.00,10000.00,M,M,HZ,M,M,M,M,M,M,94.09,VIDP 121230Z 12003KT 4000 HZ SCT040 SCT100 37/05 Q1002 NOSIG,M
VIDP,2022-04-12 13:00,96.80,41.00,14.66,130.00,3.00,0.00,29.62,M,2.49,M,SCT,SCT,M,M,4000.00,10000.00,M,M,HZ,M,M,M,M,M,M,92.39,VIDP 121300Z 13003KT 4000 HZ SCT040 SCT100 36/05 Q1003 NOSIG,M
VIDP,2022-04-12 13:30,96.80,42.80,15.71,140.00,3.00,0.00,29.62,M,2.49,M,SCT,SCT,M,M,4000.00,10000.00,M,M,HZ,M,M,M,M,M,M,92.57,VIDP 121330Z 14003KT 4000 HZ SCT040 SCT100 36/06 Q1003 NOSIG,M
VIDP,2022-04-12 14:00,96.80,42.80,15.71,130.00,3.00,0.00,29.62,M,2.49,M,SCT,SCT,M,M,4000.00,10000.00,M,M,HZ,M,M,M,M,M,M,92.57,VIDP 121400Z 13003KT 4000 HZ SCT040 SCT100 36/06 Q1003 NOSIG,M
VIDP,2022-04-12 14:30,95.00,42.80,16.60,120.00,3.00,0.00,29.65,M,2.49,M,SCT,SCT,M,M,4000.00,10000.00,M,M,HZ,M,M,M,M,M,M,90.86,VIDP 121430Z 12003KT 4000 HZ SCT040 SCT100 35/06 Q1004 NOSIG,M
VIDP,2022-04-12 15:00,93.20,44.60,18.80,110.00,3.00,0.00,29.65,M,2.49,M,SCT,SCT,M,M,4000.00,10000.00,M,M,HZ,M,M,M,M,M,M,89.34,VIDP 121500Z 11003KT 4000 HZ SCT040 SCT100 34/07 Q1004 NOSIG,M
VIDP,2022-04-12 15:30,93.20,44.60,18.80,120.00,3.00,0.00,29.65,M,2.49,M,SCT,SCT,M,M,4000.00,10000.00,M,M,HZ,M,M,M,M,M,M,89.34,VIDP 121530Z 12003KT 4000 HZ SCT040 SCT100 34/07 Q1004 NOSIG,M
VIDP,2022-04-12 16:00,89.60,46.40,22.53,110.00,3.00,0.00,29.65,M,2.49,M,SCT,SCT,M,M,4000.00,10000.00,M,M,HZ,M,M,M,M,M,M,86.24,VIDP 121600Z 11003KT 4000 HZ SCT040 SCT100 32/08 Q1004 NOSIG,M
VIDP,2022-04-12 16:30,89.60,46.40,22.53,120.00,3.00,0.00,29.65,M,2.17,M,SCT,SCT,M,M,4000.00,10000.00,M,M,HZ,M,M,M,M,M,M,86.24,VIDP 121630Z 12003KT 3500 HZ SCT040 SCT100 32/08 Q1004 NOSIG,M
VIDP,2022-04-12 17:00,89.60,46.40,22.53,130.00,4.00,0.00,29.65,M,2.17,M,SCT,SCT,M,M,4000.00,10000.00,M,M,HZ,M,M,M,M,M,M,86.24,VIDP 121700Z 13004KT 3500 HZ SCT040 SCT100 32/08 Q1004 NOSIG,M
VIDP,2022-04-12 17:30,87.80,48.20,25.52,130.00,4.00,0.00,29.65,M,2.17,M,SCT,SCT,M,M,4000.00,10000.00,M,M,HZ,M,M,M,M,M,M,84.87,VIDP 121730Z 13004KT 3500 HZ SCT040 SCT100 31/09 Q1004 NOSIG,M
VIDP,2022-04-12 18:00,87.80,48.20,25.52,140.00,4.00,0.00,29.65,M,2.17,M,SCT,SCT,M,M,4000.00,10000.00,M,M,HZ,M,M,M,M,M,M,84.87,VIDP 121800Z 14004KT 3500 HZ SCT040 SCT100 31/09 Q1004 NOSIG,M
VIDP,2022-04-12 18:30,87.80,48.20,25.52,0.00,0.00,0.00,29.65,M,2.17,M,SCT,SCT,M,M,4000.00,10000.00,M,M,HZ,M,M,M,M,M,M,84.87,VIDP 121830Z 00000KT 3500 HZ SCT040 SCT100 31/09 Q1004 NOSIG,M
VIDP,2022-04-12 19:00,87.80,48.20,25.52,0.00,0.00,0.00,29.65,M,2.17,M,SCT,SCT,M,M,4000.00,10000.00,M,M,HZ,M,M,M,M,M,M,84.87,VIDP 121900Z 00000KT 3500 HZ SCT040 SCT100 31/09 Q1004 NOSIG,M
VIDP,2022-04-12 19:30,86.00,50.00,28.90,0.00,0.00,0.00,29.65,M,2.17,M,SCT,SCT,M,M,4000.00,10000.00,M,M,HZ,M,M,M,M,M,M,83.62,VIDP 121930Z 00000KT 3500 HZ SCT040 SCT100 30/10 Q1004 NOSIG,M
VIDP,2022-04-12 20:00,86.00,50.00,28.90,0.00,0.00,0.00,29.65,M,2.17,M,SCT,SCT,M,M,4000.00,10000.00,M,M,HZ,M,M,M,M,M,M,83.62,VIDP 122000Z 00000KT 3500 HZ SCT040 SCT100 30/10 Q1004 NOSIG,M
VIDP,2022-04-12 20:30,86.00,50.00,28.90,0.00,0.00,0.00,29.65,M,2.17,M,SCT,SCT,M,M,4000.00,10000.00,M,M,HZ,M,M,M,M,M,M,83.62,VIDP 122030Z 00000KT 3500 HZ SCT040 SCT100 30/10 Q1004 NOSIG,M
VIDP,2022-04-12 21:00,84.20,50.00,30.62,0.00,0.00,0.00,29.65,M,2.17,M,SCT,SCT,M,M,4000.00,10000.00,M,M,HZ,M,M,M,M,M,M,82.24,VIDP 122100Z 00000KT 3500 HZ SCT040 SCT100 29/10 Q1004 NOSIG,M
VIDP,2022-04-12 21:30,82.40,50.00,32.46,0.00,0.00,0.00,29.65,M,2.17,M,SCT,SCT,M,M,4000.00,10000.00,M,M,HZ,M,M,M,M,M,M,80.99,VIDP 122130Z 00000KT 3500 HZ SCT040 SCT100 28/10 Q1004 NOSIG,M
VIDP,2022-04-12 22:00,82.40,50.00,32.46,0.00,0.00,0.00,29.65,M,2.17,M,FEW,SCT,M,M,4000.00,10000.00,M,M,HZ,M,M,M,M,M,M,80.99,VIDP 122200Z 00000KT 3500 HZ FEW040 SCT100 28/10 Q1004 NOSIG,M
VIDP,2022-04-12 22:30,80.60,50.00,34.41,0.00,0.00,0.00,29.65,M,1.99,M,FEW,M,M,M,10000.00,M,M,M,HZ,M,M,M,M,M,M,79.88,VIDP 122230Z 00000KT 3200 HZ FEW100 27/10 Q1004 NOSIG,M
VIDP,2022-04-12 23:00,80.60,50.00,34.41,0.00,0.00,0.00,29.65,M,1.86,M,FEW,M,M,M,10000.00,M,M,M,HZ,M,M,M,M,M,M,79.88,VIDP 122300Z 00000KT 3000 HZ FEW100 27/10 Q1004 NOSIG,M
VIDP,2022-04-12 23:30,78.80,50.00,36.51,0.00,0.00,0.00,29.65,M,1.86,M,FEW,M,M,M,10000.00,M,M,M,HZ,M,M,M,M,M,M,78.80,VIDP 122330Z 00000KT 3000 HZ FEW100 26/10 Q1004 NOSIG,M
VIDP,2022-04-13 00:00,78.80,50.00,36.51,0.00,0.00,0.00,29.65,M,1.86,M,FEW,M,M,M,10000.00,M,M,M,HZ,M,M,M,M,M,M,78.80,VIDP 130000Z 00000KT 3000 HZ FEW100 26/10 Q1004 NOSIG,M
VIDP,2022-04-13 00:30,78.80,50.00,36.51,0.00,0.00,0.00,29.68,M,1.55,M,FEW,M,M,M,10000.00,M,M,M,HZ,M,M,M,M,M,M,78.80,VIDP 130030Z 00000KT 2500 HZ FEW100 26/10 Q1005 NOSIG,M
VIDP,2022-04-13 01:00,78.80,50.00,36.51,0.00,0.00,0.00,29.68,M,1.55,M,FEW,M,M,M,10000.00,M,M,M,HZ,M,M,M,M,M,M,78.80,VIDP 130100Z 00000KT 2500 HZ FEW100 26/10 Q1005 NOSIG,M
VIDP,2022-04-13 01:30,78.80,50.00,36.51,0.00,0.00,0.00,29.68,M,1.55,M,FEW,M,M,M,10000.00,M,M,M,HZ,M,M,M,M,M,M,78.80,VIDP 130130Z 00000KT 2500 HZ FEW100 26/10 Q1005 NOSIG,M
VIDP,2022-04-13 02:00,82.40,50.00,32.46,0.00,0.00,0.00,29.71,M,1.55,M,FEW,M,M,M,10000.00,M,M,M,HZ,M,M,M,M,M,M,80.99,VIDP 130200Z 00000KT 2500 HZ FEW100 28/10 Q1006 NOSIG,M
VIDP,2022-04-13 02:30,86.00,50.00,28.90,100.00,3.00,0.00,29.71,M,1.37,M,NSC,M,M,M,M,M,M,M,HZ,M,M,M,M,M,M,83.62,VIDP 130230Z 10003KT 2200 HZ NSC 30/10 Q1006 NOSIG,M
VIDP,2022-04-13 03:00,89.60,50.00,25.79,0.00,0.00,0.00,29.71,M,1.37,M,NSC,M,M,M,M,M,M,M,HZ,M,M,M,M,M,M,86.70,VIDP 130300Z 00000KT 2200 HZ NSC 32/10 Q1006 NOSIG,M
VIDP,2022-04-13 03:30,91.40,48.20,22.78,0.00,0.00,0.00,29.74,M,1.55,M,NSC,M,M,M,M,M,M,M,HZ,M,M,M,M,M,M,88.09,VIDP 130330Z 00000KT 2500 HZ NSC 33/09 Q1007 NOSIG,M
VIDP,2022-04-13 04:00,93.20,46.40,20.13,240.00,4.00,0.00,29.74,M,1.74,M,NSC,M,M,M,M,M,M,M,HZ,M,M,M,M,M,M,89.55,VIDP 130400Z 24004KT 2800 HZ NSC 34/08 Q1007 BECMG 3000 HZ,M
VIDP,2022-04-13 04:30,95.00,42.80,16.60,240.00,6.00,0.00,29.74,M,2.17,M,NSC,M,M,M,M,M,M,M,HZ,M,M,M,M,M,M,90.86,VIDP 130430Z 24006KT 3500 HZ NSC 35/06 Q1007 NOSIG,M
VIDP,2022-04-13 05:00,96.80,41.00,14.66,250.00,8.00,0.00,29.71,M,2.49,M,NSC,M,M,M,M,M,M,M,HZ,M,M,M,M,M,M,92.39,VIDP 130500Z 25008KT 4000 HZ NSC 36/05 Q1006 NOSIG,M
VIDP,2022-04-13 05:30,98.60,41.00,13.87,260.00,8.00,0.00,29.71,M,2.49,M,NSC,M,M,M,M,M,M,M,HZ,M,M,M,M,M,M,94.09,VIDP 130530Z 26008KT 4000 HZ NSC 37/05 Q1006 NOSIG,M
VIDP,2022-04-13 06:00,100.40,41.00,13.14,260.00,7.00,0.00,29.71,M,2.49,M,NSC,M,M,M,M,M,M,M,HZ,M,M,M,M,M,M,95.79,VIDP 130600Z 26007KT 4000 HZ NSC 38/05 Q1006 NOSIG,M
VIDP,2022-04-13 06:30,100.40,42.80,14.08,270.00,6.00,0.00,29.68,M,2.49,M,NSC,M,M,M,M,M,M,M,HZ,M,M,M,M,M,M,96.04,VIDP 130630Z 27006KT 4000 HZ NSC 38/06 Q1005 NOSIG,M
VIDP,2022-04-13 07:00,102.20,42.80,13.34,230.00,6.00,0.00,29.68,M,2.80,M,NSC,M,M,M,M,M,M,M,HZ,M,M,M,M,M,M,97.76,VIDP 130700Z 23006KT 4500 HZ NSC 39/06 Q1005 BECMG 5000 HZ,M
VIDP,2022-04-13 07:30,102.20,41.00,12.44,220.00,6.00,0.00,29.68,M,3.11,M,NSC,M,M,M,M,M,M,M,HZ,M,M,M,M,M,M,97.39,VIDP 130730Z 22006KT 5000 HZ NSC 39/05 Q1005 NOSIG,M
VIDP,2022-04-13 08:00,102.20,39.20,11.60,240.00,6.00,0.00,29.65,M,3.11,M,NSC,M,M,M,M,M,M,M,HZ,M,M,M,M,M,M,96.99,VIDP 130800Z 24006KT 5000 HZ NSC 39/04 Q1004 NOSIG,M
VIDP,2022-04-13 09:00,102.20,33.80,9.37,200.00,6.00,0.00,29.62,M,3.11,M,NSC,M,M,M,M,M,M,M,HZ,M,M,M,M,M,M,96.01,VIDP 130900Z 20006KT 5000 HZ NSC 39/01 Q1003 NOSIG,M
VIDP,2022-04-13 09:30,100.40,30.20,8.56,240.00,8.00,0.00,29.59,M,3.73,M,NSC,M,M,M,M,M,M,M,HZ,M,M,M,M,M,M,93.98,VIDP 130930Z 24008KT 6000 HZ NSC 38/M01 Q1002 NOSIG,M
VIDP,2022-04-13 10:00,102.20,30.20,8.11,250.00,4.00,0.00,29.59,M,3.73,M,NSC,M,M,M,M,M,M,M,M,M,M,M,M,M,M,95.50,VIDP 131000Z 25004KT 6000 NSC 39/M01 Q1002 NOSIG,M
VIDP,2022-04-13 10:30,100.40,28.40,7.95,240.00,7.00,0.00,29.59,M,3.73,M,NSC,M,M,M,M,M,M,M,M,M,M,M,M,M,M,93.77,VIDP 131030Z 24007KT 6000 NSC 38/M02 Q1002 NOSIG,M
VIDP,2022-04-13 11:00,100.40,32.00,9.21,250.00,5.00,0.00,29.56,M,3.73,M,NSC,M,M,M,M,M,M,M,M,M,M,M,M,M,M,94.21,VIDP 131100Z 25005KT 6000 NSC 38/00 Q1001 NOSIG,M
VIDP,2022-04-13 11:30,100.40,32.00,9.21,230.00,5.00,0.00,29.56,M,3.73,M,NSC,M,M,M,M,M,M,M,M,M,M,M,M,M,M,94.21,VIDP 131130Z 23005KT 6000 NSC 38/00 Q1001 BECMG 5000 HZ,M
VIDP,2022-04-13 12:00,100.40,32.00,9.21,260.00,6.00,0.00,29.56,M,3.11,M,FEW,M,M,M,10000.00,M,M,M,HZ,M,M,M,M,M,M,94.21,VIDP 131200Z 26006KT 5000 HZ FEW100 38/00 Q1001 NOSIG,M
VIDP,2022-04-13 12:30,98.60,35.60,11.23,240.00,6.00,0.00,29.56,M,3.11,M,FEW,M,M,M,10000.00,M,M,M,HZ,M,M,M,M,M,M,93.23,VIDP 131230Z 24006KT 5000 HZ FEW100 37/02 Q1001 NOSIG,M
VIDP,2022-04-13 13:00,96.80,37.40,12.73,230.00,5.00,0.00,29.56,M,2.80,M,FEW,M,M,M,10000.00,M,M,M,HZ,M,M,M,M,M,M,92.04,VIDP 131300Z 23005KT 4500 HZ FEW100 36/03 Q1001 NOSIG,M
VIDP,2022-04-13 13:30,96.80,37.40,12.73,240.00,5.00,0.00,29.56,M,2.49,M,FEW,M,M,M,10000.00,M,M,M,HZ,M,M,M,M,M,M,92.04,VIDP 131330Z 24005KT 4000 HZ FEW100 36/03 Q1001 NOSIG,M
VIDP,2022-04-13 14:00,96.80,37.40,12.73,230.00,5.00,0.00,29.59,M,2.49,M,FEW,M,M,M,10000.00,M,M,M,HZ,M,M,M,M,M,M,92.04,VIDP 131400Z 23005KT 4000 HZ FEW100 36/03 Q1002 NOSIG,M
VIDP,2022-04-13 14:30,96.80,37.40,12.73,230.00,5.00,0.00,29.59,M,2.49,M,FEW,M,M,M,10000.00,M,M,M,HZ,M,M,M,M,M,M,92.04,VIDP 131430Z 23005KT 4000 HZ FEW100 36/03 Q1002 NOSIG,M
VIDP,2022-04-13 15:00,93.20,37.40,14.23,230.00,3.00,0.00,29.59,M,2.49,M,FEW,M,M,M,10000.00,M,M,M,HZ,M,M,M,M,M,M,88.83,VIDP 131500Z 23003KT 4000 HZ FEW100 34/03 Q1002 NOSIG,M
VIDP,2022-04-13 15:30,93.20,37.40,14.23,260.00,4.00,0.00,29.62,M,2.49,M,FEW,M,M,M,10000.00,M,M,M,HZ,M,M,M,M,M,M,88.83,VIDP 131530Z 26004KT 4000 HZ FEW100 34/03 Q1003 NOSIG,M
VIDP,2022-04-13 16:00,91.40,39.20,16.15,240.00,5.00,0.00,29.62,M,2.49,M,FEW,M,M,M,10000.00,M,M,M,HZ,M,M,M,M,M,M,87.30,VIDP 131600Z 24005KT 4000 HZ FEW100 33/04 Q1003 NOSIG,M
VIDP,2022-04-13 16:30,89.60,39.20,17.09,M,2.00,0.00,29.62,M,2.49,M,FEW,M,M,M,10000.00,M,M,M,HZ,M,M,M,M,M,M,85.73,VIDP 131630Z VRB02KT 4000 HZ FEW100 32/04 Q1003 NOSIG,M
VIDP,2022-04-13 17:00,89.60,41.00,18.33,240.00,8.00,0.00,29.65,M,2.49,M,FEW,M,M,M,10000.00,M,M,M,HZ,M,M,M,M,M,M,85.82,VIDP 131700Z 24008KT 4000 HZ FEW100 32/05 Q1004 NOSIG,M
VIDP,2022-04-13 17:30,89.60,41.00,18.33,250.00,8.00,0.00,29.65,M,2.49,M,FEW,M,M,M,10000.00,M,M,M,HZ,M,M,M,M,M,M,85.82,VIDP 131730Z 25008KT 4000 HZ FEW100 32/05 Q1004 NOSIG,M
VIDP,2022-04-13 18:00,89.60,41.00,18.33,240.00,7.00,0.00,29.65,M,2.49,M,FEW,M,M,M,10000.00,M,M,M,HZ,M,M,M,M,M,M,85.82,VIDP 131800Z 24007KT 4000 HZ FEW100 32/05 Q1004 NOSIG,M
VIDP,2022-04-13 18:30,87.80,42.80,20.79,230.00,3.00,0.00,29.62,M,2.49,M,FEW,M,M,M,10000.00,M,M,M,HZ,M,M,M,M,M,M,84.40,VIDP 131830Z 23003KT 4000 HZ FEW100 31/06 Q1003 NOSIG,M
VIDP,2022-04-13 19:00,87.80,42.80,20.79,270.00,3.00,0.00,29.62,M,2.49,M,FEW,M,M,M,10000.00,M,M,M,HZ,M,M,M,M,M,M,84.40,VIDP 131900Z 27003KT 4000 HZ FEW100 31/06 Q1003 NOSIG,M
VIDP,2022-04-13 19:30,86.00,42.80,22.02,250.00,3.00,0.00,29.62,M,2.49,M,FEW,M,M,M,10000.00,M,M,M,HZ,M,M,M,M,M,M,82.95,VIDP 131930Z 25003KT 4000 HZ FEW100 30/06 Q1003 NOSIG,M
VIDP,2022-04-13 20:00,86.00,41.00,20.54,240.00,4.00,0.00,29.62,M,2.49,M,FEW,M,M,M,10000.00,M,M,M,HZ,M,M,M,M,M,M,82.86,VIDP 132000Z 24004KT 4000 HZ FEW100 30/05 Q1003 NOSIG,M
VIDP,2022-04-13 20:30,86.00,42.80,22.02,260.00,6.00,0.00,29.62,M,2.49,M,FEW,M,M,M,10000.00,M,M,M,HZ,M,M,M,M,M,M,82.95,VIDP 132030Z 26006KT 4000 HZ FEW100 30/06 Q1003 NOSIG,M
VIDP,2022-04-13 21:00,84.20,41.00,21.76,250.00,6.00,0.00,29.62,M,2.49,M,NSC,M,M,M,M,M,M,M,HZ,M,M,M,M,M,M,81.52,VIDP 132100Z 25006KT 4000 HZ NSC 29/05 Q1003 NOSIG,M
VIDP,2022-04-13 21:30,84.20,42.80,23.33,280.00,6.00,0.00,29.62,M,2.49,M,FEW,M,M,M,10000.00,M,M,M,HZ,M,M,M,M,M,M,81.61,VIDP 132130Z 28006KT 4000 HZ FEW100 29/06 Q1003 NOSIG,M
VIDP,2022-04-13 22:00,84.20,42.80,23.33,260.00,4.00,0.00,29.62,M,2.49,M,FEW,M,M,M,10000.00,M,M,M,HZ,M,M,M,M,M,M,81.61,VIDP 132200Z 26004KT 4000 HZ FEW100 29/06 Q1003 NOSIG,M
VIDP,2022-04-13 22:30,82.40,42.80,24.72,270.00,5.00,0.00,29.62,M,2.49,M,FEW,M,M,M,10000.00,M,M,M,HZ,M,M,M,M,M,M,80.39,VIDP 132230Z 27005KT 4000 HZ FEW100 28/06 Q1003 NOSIG,M
VIDP,2022-04-13 23:00,82.40,42.80,24.72,260.00,6.00,0.00,29.62,M,2.17,M,FEW,M,M,M,10000.00,M,M,M,HZ,M,M,M,M,M,M,80.39,VIDP 132300Z 26006KT 3500 HZ FEW100 28/06 Q1003 NOSIG,M
VIDP,2022-04-13 23:30,82.40,44.60,26.49,240.00,4.00,0.00,29.62,M,2.17,M,FEW,M,M,M,10000.00,M,M,M,HZ,M,M,M,M,M,M,80.50,VIDP 132330Z 24004KT 3500 HZ FEW100 28/07 Q1003 NOSIG,M
VIDP,2022-04-14 00:00,80.60,44.60,28.08,250.00,4.00,0.00,29.62,M,2.17,M,FEW,M,M,M,10000.00,M,M,M,HZ,M,M,M,M,M,M,79.42,VIDP 140000Z 25004KT 3500 HZ FEW100 27/07 Q1003 BECMG 3000 HZ,M
VIDP,2022-04-14 00:30,80.60,44.60,28.08,280.00,3.00,0.00,29.62,M,1.86,M,FEW,M,M,M,10000.00,M,M,M,HZ,M,M,M,M,M,M,79.42,VIDP 140030Z 28003KT 3000 HZ FEW100 27/07 Q1003 NOSIG,M
VIDP,2022-04-14 01:00,80.60,46.40,30.07,250.00,4.00,0.00,29.65,M,1.86,M,FEW,M,M,M,10000.00,M,M,M,HZ,M,M,M,M,M,M,79.56,VIDP 140100Z 25004KT 3000 HZ FEW100 27/08 Q1004 NOSIG,M
VIDP,2022-04-14 01:30,80.60,46.40,30.07,250.00,4.00,0.00,29.65,M,1.86,M,FEW,M,M,M,10000.00,M,M,M,HZ,M,M,M,M,M,M,79.56,VIDP 140130Z 25004KT 3000 HZ FEW100 27/08 Q1004 NOSIG,M
VIDP,2022-04-14 02:00,80.60,46.40,30.07,230.00,4.00,0.00,29.68,M,1.55,M,FEW,M,M,M,10000.00,M,M,M,HZ,M,M,M,M,M,M,79.56,VIDP 140200Z 23004KT 2500 HZ FEW100 27/08 Q1005 NOSIG,M
VIDP,2022-04-14 02:30,80.60,46.40,30.07,240.00,5.00,0.00,29.68,M,1.55,M,FEW,M,M,M,10000.00,M,M,M,HZ,M,M,M,M,M,M,79.56,VIDP 140230Z 24005KT 2500 HZ FEW100 27/08 Q1005 NOSIG,M
VIDP,2022-04-14 03:00,82.40,46.40,28.36,250.00,6.00,0.00,29.68,M,1.55,M,FEW,M,M,M,10000.00,M,M,M,HZ,M,M,M,M,M,M,80.64,VIDP 140300Z 25006KT 2500 HZ FEW100 28/08 Q1005 NOSIG,M
VIDP,2022-04-14 03:30,84.20,46.40,26.76,280.00,5.00,0.00,29.68,M,1.55,M,FEW,M,M,M,10000.00,M,M,M,HZ,M,M,M,M,M,M,81.87,VIDP 140330Z 28005KT 2500 HZ FEW100 29/08 Q1005 BECMG 3000 HZ,M
VIDP,2022-04-14 04:00,86.00,46.40,25.26,260.00,6.00,0.00,29.71,M,1.86,M,FEW,M,M,M,10000.00,M,M,M,HZ,M,M,M,M,M,M,83.22,VIDP 140400Z 26006KT 3000 HZ FEW100 30/08 Q1006 NOSIG,M
VIDP,2022-04-14 04:30,87.80,46.40,23.85,270.00,6.00,0.00,29.71,M,1.86,M,FEW,M,M,M,10000.00,M,M,M,HZ,M,M,M,M,M,M,84.68,VIDP 140430Z 27006KT 3000 HZ FEW100 31/08 Q1006 NOSIG,M
VIDP,2022-04-14 05:00,89.60,46.40,22.53,280.00,6.00,0.00,29.71,M,1.86,M,FEW,M,M,M,10000.00,M,M,M,HZ,M,M,M,M,M,M,86.24,VIDP 140500Z 28006KT 3000 HZ FEW100 32/08 Q1006 NOSIG,M
VIDP,2022-04-14 05:30,91.40,46.40,21.29,280.00,8.00,0.00,29.71,M,1.86,M,FEW,M,M,M,10000.00,M,M,M,HZ,M,M,M,M,M,M,87.86,VIDP 140530Z 28008KT 3000 HZ FEW100 33/08 Q1006 NOSIG,M
VIDP,2022-04-14 06:00,93.20,48.20,21.54,290.00,6.00,0.00,29.68,M,2.17,M,FEW,M,M,M,10000.00,M,M,M,HZ,M,M,M,M,M,M,89.80,VIDP 140600Z 29006KT 3500 HZ FEW100 34/09 Q1005 NOSIG,M
VIDP,2022-04-14 06:30,95.00,44.60,17.78,290.00,7.00,0.00,29.68,M,2.17,M,FEW,M,M,M,10000.00,M,M,M,HZ,M,M,M,M,M,M,91.06,VIDP 140630Z 29007KT 3500 HZ FEW100 35/07 Q1005 NOSIG,M
VIDP,2022-04-14 07:00,96.80,46.40,18.02,290.00,7.00,0.00,29.68,M,2.49,M,FEW,M,M,M,10000.00,M,M,M,HZ,M,M,M,M,M,M,93.05,VIDP 140700Z 29007KT 4000 HZ FEW100 36/08 Q1005 NOSIG,M
VIDP,2022-04-14 07:30,100.40,37.40,11.41,300.00,8.00,0.00,29.65,M,2.49,M,FEW,M,M,M,10000.00,M,M,M,HZ,M,M,M,M,M,M,95.08,VIDP 140730Z 30008KT 4000 HZ FEW100 38/03 Q1004 NOSIG,M
VIDP,2022-04-14 08:00,98.60,35.60,11.23,300.00,8.00,0.00,29.65,M,2.80,M,FEW,M,M,M,10000.00,M,M,M,HZ,M,M,M,M,M,M,93.23,VIDP 140800Z 30008KT 4500 HZ FEW100 37/02 Q1004 BECMG 5000 HZ,M
VIDP,2022-04-14 08:30,98.60,35.60,11.23,290.00,9.00,0.00,29.62,M,3.11,M,FEW,M,M,M,10000.00,M,M,M,HZ,M,M,M,M,M,M,93.23,VIDP 140830Z 29009KT 5000 HZ FEW100 37/02 Q1003 NOSIG,M
VIDP,2022-04-14 09:00,100.40,35.60,10.63,300.00,9.00,0.00,29.62,M,3.11,M,FEW,M,M,M,10000.00,M,M,M,HZ,M,M,M,M,M,M,94.76,VIDP 140900Z 30009KT 5000 HZ FEW100 38/02 Q1003 NOSIG,M
VIDP,2022-04-14 09:30,100.40,39.20,12.25,290.00,8.00,0.00,29.59,M,3.11,M,FEW,M,M,M,10000.00,M,M,M,HZ,M,M,M,M,M,M,95.43,VIDP 140930Z 29008KT 5000 HZ FEW100 38/04 Q1002 NOSIG,M
VIDP,2022-04-14 10:00,100.40,33.80,9.90,290.00,8.00,0.00,29.59,M,3.11,M,FEW,SCT,M,M,4000.00,10000.00,M,M,HZ,M,M,M,M,M,M,94.47,VIDP 141000Z 29008KT 5000 HZ FEW040 SCT100 38/01 Q1002 NOSIG,M
VIDP,2022-04-14 10:30,100.40,37.40,11.41,290.00,6.00,0.00,29.56,M,3.11,M,FEW,M,M,M,10000.00,M,M,M,HZ,M,M,M,M,M,M,95.08,VIDP 141030Z 29006KT 5000 HZ FEW100 38/03 Q1001 NOSIG,M
VIDP,2022-04-14 11:00,100.40,33.80,9.90,290.00,7.00,0.00,29.56,M,3.11,M,FEW,SCT,M,M,4000.00,10000.00,M,M,HZ,M,M,M,M,M,M,94.47,VIDP 141100Z 29007KT 5000 HZ FEW040 SCT100 38/01 Q1001 NOSIG,M
VIDP,2022-04-14 11:30,102.20,33.80,9.37,270.00,8.00,0.00,29.56,M,2.49,M,FEW,SCT,M,M,4000.00,10000.00,M,M,HZ,M,M,M,M,M,M,96.01,VIDP 141130Z 27008KT 4000 HZ FEW040 SCT100 39/01 Q1001 NOSIG,M
VIDP,2022-04-14 12:00,102.20,33.80,9.37,260.00,8.00,0.00,29.56,M,2.49,M,FEW,SCT,M,M,4000.00,10000.00,M,M,HZ,M,M,M,M,M,M,96.01,VIDP 141200Z 26008KT 4000 HZ FEW040 SCT100 39/01 Q1001 NOSIG,M
VIDP,2022-04-14 12:30,100.40,35.60,10.63,270.00,5.00,0.00,29.56,M,2.17,M,SCT,M,M,M,10000.00,M,M,M,HZ,M,M,M,M,M,M,94.76,VIDP 141230Z 27005KT 3500 HZ SCT100 38/02 Q1001 NOSIG,M
VIDP,2022-04-14 13:00,96.80,39.20,13.66,260.00,3.00,0.00,29.56,M,2.17,M,SCT,M,M,M,10000.00,M,M,M,HZ,M,M,M,M,M,M,92.23,VIDP 141300Z 26003KT 3500 HZ SCT100 36/04 Q1001 NOSIG,M
VIDP,2022-04-14 13:30,95.00,39.20,14.44,240.00,4.00,0.00,29.59,M,2.17,M,FEW,FEW,SCT,M,3500.00,4000.00,10000.00,M,HZ,M,M,M,M,M,M,90.57,VIDP 141330Z 24004KT 3500 HZ FEW035 FEW040CB SCT100 35/04 Q1002 NOSIG,M
VIDP,2022-04-14 14:00,95.00,39.20,14.44,240.00,15.00,0.00,29.59,M,1.55,25.00,FEW,FEW,SCT,M,3500.00,4000.00,10000.00,M,TS,M,M,M,M,M,M,90.57,VIDP 141400Z 24015G25KT 2500 TS FEW035 FEW040CB SCT100 35/04 Q1002 NOSIG,M
VIDP,2022-04-14 14:30,93.20,41.00,16.37,100.00,8.00,0.00,29.62,M,1.74,M,SCT,FEW,SCT,M,3500.00,4000.00,10000.00,M,-RA,M,M,M,M,M,M,89.03,VIDP 141430Z 10008KT 2800 -RA SCT035 FEW040CB SCT100 34/05 Q1003 NOSIG,M
VIDP,2022-04-14 15:00,95.00,42.80,16.60,230.00,5.00,0.00,29.62,M,1.74,M,SCT,FEW,SCT,M,3500.00,4000.00,10000.00,M,HZ,M,M,M,M,M,M,90.86,VIDP 141500Z 23005KT 2800 HZ SCT035 FEW040CB SCT100 35/06 Q1003 BECMG 3000 HZ,M
VIDP,2022-04-14 15:30,93.20,44.60,18.80,30.00,6.00,0.00,29.65,M,1.99,M,FEW,SCT,M,M,3500.00,10000.00,M,M,HZ,M,M,M,M,M,M,89.34,VIDP 141530Z 03006KT 3200 HZ FEW035 SCT100 34/07 Q1004 NOSIG,M
VIDP,2022-04-14 16:00,93.20,42.80,17.55,20.00,7.00,0.00,29.65,M,1.99,M,FEW,SCT,M,M,3500.00,10000.00,M,M,DU,M,M,M,M,M,M,89.17,VIDP 141600Z 02007KT 3200 DU FEW035 SCT100 34/06 Q1004 BECMG 3000 DU,M
VIDP,2022-04-14 16:30,91.40,42.80,18.56,40.00,6.00,0.00,29.65,M,1.55,16.00,FEW,SCT,M,M,3500.00,10000.00,M,M,HZ,M,M,M,M,M,M,87.52,VIDP 141630Z 04006G16KT 2500 HZ FEW035 SCT100 33/06 Q1004 NOSIG,M
VIDP,2022-04-14 17:00,89.60,44.60,21.04,40.00,10.00,0.00,29.65,M,1.55,M,FEW,SCT,M,M,3500.00,10000.00,M,M,HZ,M,M,M,M,M,M,86.07,VIDP 141700Z 04010KT 2500 HZ FEW035 SCT100 32/07 Q1004 NOSIG,M
VIDP,2022-04-14 17:30,89.60,44.60,21.04,30.00,9.00,0.00,29.65,M,1.55,M,FEW,SCT,M,M,3500.00,10000.00,M,M,HZ,M,M,M,M,M,M,86.07,VIDP 141730Z 03009KT 2500 HZ FEW035 SCT100 32/07 Q1004 NOSIG,M
VIDP,2022-04-14 18:00,87.80,46.40,23.85,40.00,8.00,0.00,29.68,M,1.55,M,FEW,SCT,M,M,3500.00,10000.00,M,M,HZ,M,M,M,M,M,M,84.68,VIDP 141800Z 04008KT 2500 HZ FEW035 SCT100 31/08 Q1005 NOSIG,M
VIDP,2022-04-14 18:30,86.00,46.40,25.26,40.00,6.00,0.00,29.68,M,1.55,M,FEW,SCT,M,M,3500.00,10000.00,M,M,HZ,M,M,M,M,M,M,83.22,VIDP 141830Z 04006KT 2500 HZ FEW035 SCT100 30/08 Q1005 NOSIG,M
VIDP,2022-04-14 19:00,84.20,48.20,28.63,60.00,5.00,0.00,29.68,M,1.55,M,FEW,SCT,M,M,3500.00,10000.00,M,M,HZ,M,M,M,M,M,M,82.04,VIDP 141900Z 06005KT 2500 HZ FEW035 SCT100 29/09 Q1005 NOSIG,M
VIDP,2022-04-14 19:30,84.20,48.20,28.63,120.00,5.00,0.00,29.68,M,1.55,M,FEW,SCT,M,M,3500.00,10000.00,M,M,HZ,M,M,M,M,M,M,82.04,VIDP 141930Z 12005KT 2500 HZ FEW035 SCT100 29/09 Q1005 NOSIG,M
VIDP,2022-04-14 20:00,84.20,48.20,28.63,100.00,5.00,0.00,29.65,M,1.55,M,FEW,SCT,M,M,3500.00,10000.00,M,M,HZ,M,M,M,M,M,M,82.04,VIDP 142000Z 10005KT 2500 HZ FEW035 SCT100 29/09 Q1004 NOSIG,M
VIDP,2022-04-14 20:30,84.20,48.20,28.63,130.00,5.00,0.00,29.65,M,1.55,M,FEW,SCT,M,M,3500.00,10000.00,M,M,HZ,M,M,M,M,M,M,82.04,VIDP 142030Z 13005KT 2500 HZ FEW035 SCT100 29/09 Q1004 NOSIG,M
VIDP,2022-04-14 21:00,84.20,50.00,30.62,130.00,4.00,0.00,29.65,M,1.55,M,FEW,SCT,M,M,3500.00,10000.00,M,M,HZ,M,M,M,M,M,M,82.24,VIDP 142100Z 13004KT 2500 HZ FEW035 SCT100 29/10 Q1004 NOSIG,M
VIDP,2022-04-14 21:30,82.40,50.00,32.46,120.00,4.00,0.00,29.65,M,1.55,M,FEW,SCT,M,M,3500.00,10000.00,M,M,HZ,M,M,M,M,M,M,80.99,VIDP 142130Z 12004KT 2500 HZ FEW035 SCT100 28/10 Q1004 NOSIG,M
VIDP,2022-04-14 22:00,82.40,50.00,32.46,120.00,5.00,0.00,29.62,M,1.55,M,FEW,SCT,M,M,3500.00,10000.00,M,M,HZ,M,M,M,M,M,M,80.99,VIDP 142200Z 12005KT 2500 HZ FEW035 SCT100 28/10 Q1003 NOSIG,M
VIDP,2022-04-14 22:30,82.40,50.00,32.46,120.00,5.00,0.00,29.62,M,1.74,M,FEW,SCT,M,M,3500.00,10000.00,M,M,HZ,M,M,M,M,M,M,80.99,VIDP 142230Z 12005KT 2800 HZ FEW035 SCT100 28/10 Q1003 NOSIG,M
VIDP,2022-04-14 23:00,82.40,50.00,32.46,130.00,5.00,0.00,29.62,M,1.74,M,FEW,SCT,M,M,3500.00,10000.00,M,M,HZ,M,M,M,M,M,M,80.99,VIDP 142300Z 13005KT 2800 HZ FEW035 SCT100 28/10 Q1003 NOSIG,M
VIDP,2022-04-14 23:30,80.60,50.00,34.41,140.00,4.00,0.00,29.62,M,1.74,M,FEW,SCT,M,M,3500.00,10000.00,M,M,HZ,M,M,M,M,M,M,79.88,VIDP 142330Z 14004KT 2800 HZ FEW035 SCT100 27/10 Q1003 NOSIG,M
VIDP,2022-04-15 00:00,80.60,50.00,34.41,140.00,5.00,0.00,29.62,M,1.74,M,SCT,M,M,M,10000.00,M,M,M,HZ,M,M,M,M,M,M,79.88,VIDP 150000Z 14005KT 2800 HZ SCT100 27/10 Q1003 NOSIG,M
VIDP,2022-04-15 00:30,80.60,51.80,36.79,120.00,4.00,0.00,29.62,M,1.74,M,FEW,M,M,M,10000.00,M,M,M,HZ,M,M,M,M,M,M,80.08,VIDP 150030Z 12004KT 2800 HZ FEW100 27/11 Q1003 NOSIG,M
VIDP,2022-04-15 01:00,80.60,51.80,36.79,130.00,4.00,0.00,29.62,M,1.74,M,FEW,M,M,M,10000.00,M,M,M,HZ,M,M,M,M,M,M,80.08,VIDP 150100Z 13004KT 2800 HZ FEW100 27/11 Q1003 NOSIG,M
VIDP,2022-04-15 01:30,80.60,51.80,36.79,80.00,4.00,0.00,29.65,M,1.74,M,NSC,M,M,M,M,M,M,M,HZ,M,M,M,M,M,M,80.08,VIDP 150130Z 08004KT 2800 HZ NSC 27/11 Q1004 NOSIG,M
VIDP,2022-04-15 02:00,82.40,51.80,34.69,90.00,3.00,0.00,29.65,M,1.74,M,NSC,M,M,M,M,M,M,M,HZ,M,M,M,M,M,M,81.20,VIDP 150200Z 09003KT 2800 HZ NSC 28/11 Q1004 BECMG 3000 HZ,M
VIDP,2022-04-15 02:30,86.00,51.80,30.90,100.00,3.00,0.00,29.68,M,1.99,M,NSC,M,M,M,M,M,M,M,HZ,M,M,M,M,M,M,83.87,VIDP 150230Z 10003KT 3200 HZ NSC 30/11 Q1005 NOSIG,M
VIDP,2022-04-15 03:00,87.80,51.80,29.18,140.00,3.00,0.00,29.68,M,1.99,M,NSC,M,M,M,M,M,M,M,HZ,M,M,M,M,M,M,85.39,VIDP 150300Z 14003KT 3200 HZ NSC 31/11 Q1005 NOSIG,M
VIDP,2022-04-15 03:30,89.60,50.00,25.79,120.00,4.00,0.00,29.68,M,2.49,M,NSC,M,M,M,M,M,M,M,HZ,M,M,M,M,M,M,86.70,VIDP 150330Z 12004KT 4000 HZ NSC 32/10 Q1005 NOSIG,M
VIDP,2022-04-15 04:00,91.40,48.20,22.78,90.00,4.00,0.00,29.68,M,2.49,M,NSC,M,M,M,M,M,M,M,HZ,M,M,M,M,M,M,88.09,VIDP 150400Z 09004KT 4000 HZ NSC 33/09 Q1005 NOSIG,M
VIDP,2022-04-15 04:30,93.20,48.20,21.54,130.00,4.00,0.00,29.68,M,2.49,M,NSC,M,M,M,M,M,M,M,HZ,M,M,M,M,M,M,89.80,VIDP 150430Z 13004KT 4000 HZ NSC 34/09 Q1005 NOSIG,M
VIDP,2022-04-15 05:00,95.00,48.20,20.38,260.00,4.00,0.00,29.68,M,2.80,M,NSC,M,M,M,M,M,M,M,HZ,M,M,M,M,M,M,91.56,VIDP 150500Z 26004KT 4500 HZ NSC 35/09 Q1005 BECMG 5000 HZ,M
VIDP,2022-04-15 05:30,96.80,44.60,16.83,290.00,4.00,0.00,29.68,M,3.11,M,NSC,M,M,M,M,M,M,M,HZ,M,M,M,M,M,M,92.79,VIDP 150530Z 29004KT 5000 HZ NSC 36/07 Q1005 NOSIG,M
VIDP,2022-04-15 06:00,98.60,42.80,14.87,310.00,5.00,0.00,29.68,M,3.11,M,NSC,M,M,M,M,M,M,M,HZ,M,M,M,M,M,M,94.30,VIDP 150600Z 31005KT 5000 HZ NSC 37/06 Q1005 NOSIG,M
VIDP,2022-04-15 06:30,100.40,41.00,13.14,310.00,6.00,0.00,29.68,M,3.11,M,NSC,M,M,M,M,M,M,M,HZ,M,M,M,M,M,M,95.79,VIDP 150630Z 31006KT 5000 HZ NSC 38/05 Q1005 NOSIG,M
VIDP,2022-04-15 07:00,100.40,41.00,13.14,330.00,6.00,0.00,29.65,M,3.11,M,NSC,M,M,M,M,M,M,M,HZ,M,M,M,M,M,M,95.79,VIDP 150700Z 33006KT 5000 HZ NSC 38/05 Q1004 NOSIG,M
VIDP,2022-04-15 07:30,102.20,41.00,12.44,310.00,8.00,0.00,29.65,M,3.11,M,NSC,M,M,M,M,M,M,M,HZ,M,M,M,M,M,M,97.39,VIDP 150730Z 31008KT 5000 HZ NSC 39/05 Q1004 NOSIG,M
VIDP,2022-04-15 08:00,102.20,41.00,12.44,320.00,8.00,0.00,29.65,M,3.11,M,NSC,M,M,M,M,M,M,M,HZ,M,M,M,M,M,M,97.39,VIDP 150800Z 32008KT 5000 HZ NSC 39/05 Q1004 NOSIG,M
VIDP,2022-04-15 08:30,102.20,41.00,12.44,320.00,7.00,0.00,29.62,M,3.11,M,NSC,M,M,M,M,M,M,M,HZ,M,M,M,M,M,M,97.39,VIDP 150830Z 32007KT 5000 HZ NSC 39/05 Q1003 NOSIG,M
VIDP,2022-04-15 09:00,102.20,41.00,12.44,300.00,7.00,0.00,29.62,M,3.11,M,NSC,M,M,M,M,M,M,M,HZ,M,M,M,M,M,M,97.39,VIDP 150900Z 30007KT 5000 HZ NSC 39/05 Q1003 NOSIG,M
VIDP,2022-04-15 09:30,104.00,37.40,10.25,300.00,10.00,0.00,29.59,M,3.11,M,NSC,M,M,M,M,M,M,M,HZ,M,M,M,M,M,M,98.19,VIDP 150930Z 30010KT 5000 HZ NSC 40/03 Q1002 NOSIG,M
VIDP,2022-04-15 10:00,104.00,35.60,9.54,320.00,8.00,0.00,29.59,M,3.11,M,FEW,M,M,M,10000.00,M,M,M,HZ,M,M,M,M,M,M,97.85,VIDP 151000Z 32008KT 5000 HZ FEW100 40/02 Q1002 NOSIG,M
VIDP,2022-04-15 10:30,102.20,35.60,10.07,320.00,8.00,0.00,29.56,M,3.11,M,NSC,M,M,M,M,M,M,M,HZ,M,M,M,M,M,M,96.30,VIDP 151030Z 32008KT 5000 HZ NSC 39/02 Q1001 NOSIG,M
VIDP,2022-04-15 10:31,102.20,35.60,10.07,320.00,8.00,0.00,29.56,M,3.11,M,FEW,M,M,M,10000.00,M,M,M,HZ,M,M,M,M,M,M,96.30,VIDP 151031Z 32008KT 5000 HZ FEW100 39/02 Q1001 NOSIG,M
VIDP,2022-04-15 11:00,102.20,35.60,10.07,310.00,7.00,0.00,29.56,M,3.11,17.00,FEW,M,M,M,10000.00,M,M,M,HZ,M,M,M,M,M,M,96.30,VIDP 151100Z 31007G17KT 5000 HZ FEW100 39/02 Q1001 NOSIG,M
VIDP,2022-04-15 11:30,100.40,33.80,9.90,320.00,6.00,0.00,29.56,M,3.11,16.00,FEW,M,M,M,10000.00,M,M,M,HZ,M,M,M,M,M,M,94.47,VIDP 151130Z 32006G16KT 5000 HZ FEW100 38/01 Q1001 NOSIG,M
VIDP,2022-04-15 12:00,100.40,28.40,7.95,320.00,10.00,0.00,29.56,M,3.11,M,FEW,M,M,M,10000.00,M,M,M,HZ,M,M,M,M,M,M,93.77,VIDP 151200Z 32010KT 5000 HZ FEW100 38/M02 Q1001 NOSIG,M
VIDP,2022-04-15 12:30,98.60,32.00,9.72,300.00,6.00,0.00,29.56,M,3.11,M,FEW,M,M,M,10000.00,M,M,M,HZ,M,M,M,M,M,M,92.69,VIDP 151230Z 30006KT 5000 HZ FEW100 37/00 Q1001 NOSIG,M
VIDP,2022-04-15 13:00,98.60,35.60,11.23,360.00,4.00,0.00,29.59,M,3.11,M,FEW,M,M,M,10000.00,M,M,M,HZ,M,M,M,M,M,M,93.23,VIDP 151300Z 36004KT 5000 HZ FEW100 37/02 Q1002 NOSIG,M
VIDP,2022-04-15 13:30,96.80,42.80,15.71,50.00,4.00,0.00,29.59,M,2.49,M,FEW,M,M,M,10000.00,M,M,M,HZ,M,M,M,M,M,M,92.57,VIDP 151330Z 05004KT 4000 HZ FEW100 36/06 Q1002 NOSIG,M
VIDP,2022-04-15 14:00,95.00,44.60,17.78,60.00,5.00,0.00,29.59,M,2.49,M,FEW,M,M,M,10000.00,M,M,M,HZ,M,M,M,M,M,M,91.06,VIDP 151400Z 06005KT 4000 HZ FEW100 35/07 Q1002 NOSIG,M
VIDP,2022-04-15 14:30,89.60,46.40,22.53,70.00,5.00,0.00,29.62,M,2.49,M,FEW,M,M,M,10000.00,M,M,M,HZ,M,M,M,M,M,M,86.24,VIDP 151430Z 07005KT 4000 HZ FEW100 32/08 Q1003 NOSIG,M
VIDP,2022-04-15 15:00,89.60,46.40,22.53,50.00,5.00,0.00,29.62,M,2.49,M,FEW,M,M,M,10000.00,M,M,M,HZ,M,M,M,M,M,M,86.24,VIDP 151500Z 05005KT 4000 HZ FEW100 32/08 Q1003 NOSIG,M
VIDP,2022-04-15 15:30,89.60,46.40,22.53,40.00,5.00,0.00,29.62,M,2.49,M,FEW,M,M,M,10000.00,M,M,M,HZ,M,M,M,M,M,M,86.24,VIDP 151530Z 04005KT 4000 HZ FEW100 32/08 Q1003 NOSIG,M
VIDP,2022-04-15 16:00,87.80,48.20,25.52,60.00,5.00,0.00,29.65,M,2.49,M,FEW,M,M,M,10000.00,M,M,M,HZ,M,M,M,M,M,M,84.87,VIDP 151600Z 06005KT 4000 HZ FEW100 31/09 Q1004 NOSIG,M
VIDP,2022-04-15 16:30,86.00,50.00,28.90,60.00,5.00,0.00,29.65,M,2.49,M,FEW,M,M,M,10000.00,M,M,M,HZ,M,M,M,M,M,M,83.62,VIDP 151630Z 06005KT 4000 HZ FEW100 30/10 Q1004 NOSIG,M
VIDP,2022-04-15 17:00,86.00,50.00,28.90,100.00,5.00,0.00,29.65,M,2.49,M,FEW,M,M,M,10000.00,M,M,M,HZ,M,M,M,M,M,M,83.62,VIDP 151700Z 10005KT 4000 HZ FEW100 30/10 Q1004 NOSIG,M
VIDP,2022-04-15 17:30,84.20,50.00,30.62,90.00,4.00,0.00,29.65,M,2.49,M,FEW,M,M,M,10000.00,M,M,M,HZ,M,M,M,M,M,M,82.24,VIDP 151730Z 09004KT 4000 HZ FEW100 29/10 Q1004 NOSIG,M
VIDP,2022-04-15 18:00,84.20,50.00,30.62,100.00,4.00,0.00,29.65,M,2.17,M,FEW,M,M,M,10000.00,M,M,M,HZ,M,M,M,M,M,M,82.24,VIDP 151800Z 10004KT 3500 HZ FEW100 29/10 Q1004 NOSIG,M
VIDP,2022-04-15 18:30,84.20,50.00,30.62,80.00,4.00,0.00,29.65,M,2.17,M,FEW,M,M,M,10000.00,M,M,M,HZ,M,M,M,M,M,M,82.24,VIDP 151830Z 08004KT 3500 HZ FEW100 29/10 Q1004 NOSIG,M
VIDP,2022-04-15 19:00,84.20,51.80,32.73,70.00,3.00,0.00,29.62,M,2.17,M,FEW,M,M,M,10000.00,M,M,M,HZ,M,M,M,M,M,M,82.48,VIDP 151900Z 07003KT 3500 HZ FEW100 29/11 Q1003 NOSIG,M
VIDP,2022-04-15 19:30,82.40,51.80,34.69,0.00,0.00,0.00,29.62,M,2.17,M,FEW,M,M,M,10000.00,M,M,M,HZ,M,M,M,M,M,M,81.20,VIDP 151930Z 00000KT 3500 HZ FEW100 28/11 Q1003 NOSIG,M
VIDP,2022-04-15 20:00,82.40,51.80,34.69,0.00,0.00,0.00,29.62,M,1.99,M,FEW,M,M,M,10000.00,M,M,M,HZ,M,M,M,M,M,M,81.20,VIDP 152000Z 00000KT 3200 HZ FEW100 28/11 Q1003 NOSIG,M
VIDP,2022-04-15 20:30,80.60,53.60,39.30,0.00,0.00,0.00,29.59,M,1.99,M,FEW,M,M,M,10000.00,M,M,M,HZ,M,M,M,M,M,M,80.29,VIDP 152030Z 00000KT 3200 HZ FEW100 27/12 Q1002 BECMG 3000 HZ,M
VIDP,2022-04-15 21:00,80.60,53.60,39.30,0.00,0.00,0.00,29.59,M,1.86,M,FEW,M,M,M,10000.00,M,M,M,HZ,M,M,M,M,M,M,80.29,VIDP 152100Z 00000KT 3000 HZ FEW100 27/12 Q1002 NOSIG,M
VIDP,2022-04-15 21:30,78.80,53.60,41.69,0.00,0.00,0.00,29.59,M,1.86,M,FEW,M,M,M,10000.00,M,M,M,HZ,M,M,M,M,M,M,78.80,VIDP 152130Z 00000KT 3000 HZ FEW100 26/12 Q1002 NOSIG,M
VIDP,2022-04-15 22:00,78.80,55.40,44.52,0.00,0.00,0.00,29.59,M,1.86,M,FEW,M,M,M,10000.00,M,M,M,HZ,M,M,M,M,M,M,78.80,VIDP 152200Z 00000KT 3000 HZ FEW100 26/13 Q1002 NOSIG,M
VIDP,2022-04-15 22:30,78.80,55.40,44.52,0.00,0.00,0.00,29.59,M,1.86,M,FEW,M,M,M,10000.00,M,M,M,HZ,M,M,M,M,M,M,78.80,VIDP 152230Z 00000KT 3000 HZ FEW100 26/13 Q1002 NOSIG,M
VIDP,2022-04-15 23:00,77.00,55.40,47.25,0.00,0.00,0.00,29.59,M,1.86,M,FEW,M,M,M,10000.00,M,M,M,HZ,M,M,M,M,M,M,77.00,VIDP 152300Z 00000KT 3000 HZ FEW100 25/13 Q1002 NOSIG,M
VIDP,2022-04-15 23:30,77.00,55.40,47.25,0.00,0.00,0.00,29.59,M,1.86,M,FEW,M,M,M,10000.00,M,M,M,HZ,M,M,M,M,M,M,77.00,VIDP 152330Z 00000KT 3000 HZ FEW100 25/13 Q1002 NOSIG,M
VIDP,2022-04-16 00:00,77.00,53.60,44.25,0.00,0.00,0.00,29.59,M,1.86,M,FEW,M,M,M,10000.00,M,M,M,HZ,M,M,M,M,M,M,77.00,VIDP 160000Z 00000KT 3000 HZ FEW100 25/12 Q1002 NOSIG,M
VIDP,2022-04-16 00:30,77.00,51.80,41.42,0.00,0.00,0.00,29.62,M,1.55,M,FEW,M,M,M,10000.00,M,M,M,HZ,M,M,M,M,M,M,77.00,VIDP 160030Z 00000KT 2500 HZ FEW100 25/11 Q1003 NOSIG,M
VIDP,2022-04-16 01:00,77.00,51.80,41.42,0.00,0.00,0.00,29.65,M,1.37,M,FEW,M,M,M,10000.00,M,M,M,HZ,M,M,M,M,M,M,77.00,VIDP 160100Z 00000KT 2200 HZ FEW100 25/11 Q1004 NOSIG,M
VIDP,2022-04-16 01:30,78.80,55.40,44.52,0.00,0.00,0.00,29.65,M,1.37,M,FEW,M,M,M,10000.00,M,M,M,HZ,M,M,M,M,M,M,78.80,VIDP 160130Z 00000KT 2200 HZ FEW100 26/13 Q1004 NOSIG,M
VIDP,2022-04-16 02:00,78.80,55.40,44.52,100.00,3.00,0.00,29.65,M,1.37,M,FEW,M,M,M,10000.00,M,M,M,HZ,M,M,M,M,M,M,78.80,VIDP 160200Z 10003KT 2200 HZ FEW100 26/13 Q1004 NOSIG,M
VIDP,2022-04-16 02:30,82.40,50.00,32.46,0.00,0.00,0.00,29.68,M,1.37,M,FEW,M,M,M,10000.00,M,M,M,DU,M,M,M,M,M,M,80.99,VIDP 160230Z 00000KT 2200 DU FEW100 28/10 Q1005 NOSIG,M
VIDP,2022-04-16 03:00,86.00,50.00,28.90,110.00,4.00,0.00,29.68,M,1.37,M,FEW,M,M,M,10000.00,M,M,M,DU,M,M,M,M,M,M,83.62,VIDP 160300Z 11004KT 2200 DU FEW100 30/10 Q1005 NOSIG,M
VIDP,2022-04-16 03:30,89.60,46.40,22.53,110.00,7.00,0.00,29.68,M,1.37,M,FEW,M,M,M,10000.00,M,M,M,DU,M,M,M,M,M,M,86.24,VIDP 160330Z 11007KT 2200 DU FEW100 32/08 Q1005 NOSIG,M
VIDP,2022-04-16 04:00,89.60,46.40,22.53,130.00,7.00,0.00,29.68,M,1.55,M,FEW,M,M,M,10000.00,M,M,M,DU,M,M,M,M,M,M,86.24,VIDP 160400Z 13007KT 2500 DU FEW100 32/08 Q1005 NOSIG,M
VIDP,2022-04-16 04:30,91.40,46.40,21.29,130.00,7.00,0.00,29.68,M,1.55,M,FEW,M,M,M,10000.00,M,M,M,DU,M,M,M,M,M,M,87.86,VIDP 160430Z 13007KT 2500 DU FEW100 33/08 Q1005 NOSIG,M
VIDP,2022-04-16 05:00,93.20,46.40,20.13,130.00,6.00,0.00,29.68,M,1.55,M,FEW,M,M,M,10000.00,M,M,M,DU,M,M,M,M,M,M,89.55,VIDP 160500Z 13006KT 2500 DU FEW100 34/08 Q1005 NOSIG,M
VIDP,2022-04-16 05:30,95.00,44.60,17.78,180.00,5.00,0.00,29.68,M,1.55,M,FEW,M,M,M,10000.00,M,M,M,DU,M,M,M,M,M,M,91.06,VIDP 160530Z 18005KT 2500 DU FEW100 35/07 Q1005 BECMG 3000 HZ,M
VIDP,2022-04-16 06:00,98.60,44.60,15.93,140.00,5.00,0.00,29.68,M,1.86,M,FEW,M,M,M,10000.00,M,M,M,HZ,M,M,M,M,M,M,94.55,VIDP 160600Z 14005KT 3000 HZ FEW100 37/07 Q1005 NOSIG,M
VIDP,2022-04-16 06:30,100.40,46.40,16.15,90.00,6.00,0.00,29.65,M,2.17,M,FEW,M,M,M,10000.00,M,M,M,HZ,M,M,M,M,M,M,96.63,VIDP 160630Z 09006KT 3500 HZ FEW100 38/08 Q1004 NOSIG,M
VIDP,2022-04-16 07:00,102.20,44.60,14.29,100.00,5.00,0.00,29.65,M,2.49,M,FEW,M,M,M,10000.00,M,M,M,HZ,M,M,M,M,M,M,98.07,VIDP 160700Z 10005KT 4000 HZ FEW100 39/07 Q1004 NOSIG,M
VIDP,2022-04-16 07:30,102.20,41.00,12.44,280.00,4.00,0.00,29.65,M,2.80,M,FEW,M,M,M,10000.00,M,M,M,HZ,M,M,M,M,M,M,97.39,VIDP 160730Z 28004KT 4500 HZ FEW100 39/05 Q1004 BECMG 5000 HZ,M
VIDP,2022-04-16 08:00,102.20,37.40,10.81,240.00,5.00,0.00,29.62,M,3.11,M,FEW,M,M,M,10000.00,M,M,M,HZ,M,M,M,M,M,M,96.63,VIDP 160800Z 24005KT 5000 HZ FEW100 39/03 Q1003 NOSIG,M
VIDP,2022-04-16 08:30,102.20,35.60,10.07,340.00,6.00,0.00,29.62,M,3.11,M,FEW,M,M,M,10000.00,M,M,M,HZ,M,M,M,M,M,M,96.30,VIDP 160830Z 34006KT 5000 HZ FEW100 39/02 Q1003 NOSIG,M
VIDP,2022-04-16 09:00,102.20,33.80,9.37,340.00,5.00,0.00,29.59,M,3.11,M,FEW,M,M,M,10000.00,M,M,M,HZ,M,M,M,M,M,M,96.01,VIDP 160900Z 34005KT 5000 HZ FEW100 39/01 Q1002 NOSIG,M
VIDP,2022-04-16 09:30,102.20,33.80,9.37,270.00,9.00,0.00,29.59,M,3.11,M,FEW,M,M,M,10000.00,M,M,M,HZ,M,M,M,M,M,M,96.01,VIDP 160930Z 27009KT 5000 HZ FEW100 39/01 Q1002 NOSIG,M
VIDP,2022-04-16 10:00,104.00,32.00,8.27,320.00,10.00,0.00,29.56,M,3.11,M,FEW,M,M,M,10000.00,M,M,M,HZ,M,M,M,M,M,M,97.28,VIDP 161000Z 32010KT 5000 HZ FEW100 40/00 Q1001 NOSIG,M
VIDP,2022-04-16 10:30,104.00,28.40,7.14,290.00,11.00,0.00,29.56,M,3.11,M,FEW,M,M,M,10000.00,M,M,M,HZ,M,M,M,M,M,M,96.81,VIDP 161030Z 29011KT 5000 HZ FEW100 40/M02 Q1001 NOSIG,M
VIDP,2022-04-16 11:00,104.00,30.20,7.68,290.00,11.00,0.00,29.56,M,3.11,M,FEW,M,M,M,10000.00,M,M,M,HZ,M,M,M,M,M,M,97.03,VIDP 161100Z 29011KT 5000 HZ FEW100 40/M01 Q1001 NOSIG,M
VIDP,2022-04-16 11:30,104.00,32.00,8.27,300.00,10.00,0.00,29.56,M,3.11,M,FEW,M,M,M,10000.00,M,M,M,HZ,M,M,M,M,M,M,97.28,COR VIDP 161130Z 30010KT 5000 HZ FEW100 40/00 Q1001 NOSIG,M
VIDP,2022-04-16 12:00,102.20,32.00,8.72,290.00,8.00,0.00,29.56,M,3.11,M,NSC,M,M,M,M,M,M,M,HZ,M,M,M,M,M,M,95.74,VIDP 161200Z 29008KT 5000 HZ NSC 39/00 Q1001 NOSIG,M
VIDP,2022-04-16 12:30,102.20,32.00,8.72,300.00,6.00,0.00,29.56,M,3.11,M,NSC,M,M,M,M,M,M,M,HZ,M,M,M,M,M,M,95.74,VIDP 161230Z 30006KT 5000 HZ NSC 39/00 Q1001 NOSIG,M
VIDP,2022-04-16 13:00,100.40,33.80,9.90,310.00,5.00,0.00,29.56,M,3.11,M,NSC,M,M,M,M,M,M,M,HZ,M,M,M,M,M,M,94.47,VIDP 161300Z 31005KT 5000 HZ NSC 38/01 Q1001 NOSIG,M
VIDP,2022-04-16 13:30,98.60,35.60,11.23,310.00,4.00,0.00,29.59,M,3.11,M,NSC,M,M,M,M,M,M,M,HZ,M,M,M,M,M,M,93.23,VIDP 161330Z 31004KT 5000 HZ NSC 37/02 Q1002 NOSIG,M
VIDP,2022-04-16 14:00,96.80,37.40,12.73,330.00,4.00,0.00,29.59,M,3.11,M,NSC,M,M,M,M,M,M,M,HZ,M,M,M,M,M,M,92.04,VIDP 161400Z 33004KT 5000 HZ NSC 36/03 Q1002 NOSIG,M
VIDP,2022-04-16 14:30,95.00,44.60,17.78,40.00,5.00,0.00,29.59,M,2.49,M,NSC,M,M,M,M,M,M,M,HZ,M,M,M,M,M,M,91.06,VIDP 161430Z 04005KT 4000 HZ NSC 35/07 Q1002 NOSIG,M
VIDP,2022-04-16 15:00,93.20,46.40,20.13,50.00,5.00,0.00,29.62,M,2.49,M,NSC,M,M,M,M,M,M,M,HZ,M,M,M,M,M,M,89.55,VIDP 161500Z 05005KT 4000 HZ NSC 34/08 Q1003 NOSIG,M
VIDP,2022-04-16 15:30,91.40,46.40,21.29,70.00,4.00,0.00,29.62,M,2.49,M,NSC,M,M,M,M,M,M,M,HZ,M,M,M,M,M,M,87.86,VIDP 161530Z 07004KT 4000 HZ NSC 33/08 Q1003 NOSIG,M
VIDP,2022-04-16 16:00,89.60,48.20,24.11,70.00,4.00,0.00,29.62,M,2.49,M,NSC,M,M,M,M,M,M,M,HZ,M,M,M,M,M,M,86.44,VIDP 161600Z 07004KT 4000 HZ NSC 32/09 Q1003 NOSIG,M
VIDP,2022-04-16 16:30,89.60,48.20,24.11,60.00,4.00,0.00,29.62,M,2.49,M,NSC,M,M,M,M,M,M,M,HZ,M,M,M,M,M,M,86.44,VIDP 161630Z 06004KT 4000 HZ NSC 32/09 Q1003 NOSIG,M
VIDP,2022-04-16 17:00,87.80,50.00,27.29,60.00,4.00,0.00,29.65,M,2.49,M,NSC,M,M,M,M,M,M,M,HZ,M,M,M,M,M,M,85.11,VIDP 161700Z 06004KT 4000 HZ NSC 31/10 Q1004 NOSIG,M
VIDP,2022-04-16 17:30,86.00,50.00,28.90,40.00,4.00,0.00,29.65,M,2.17,M,NSC,M,M,M,M,M,M,M,HZ,M,M,M,M,M,M,83.62,VIDP 161730Z 04004KT 3500 HZ NSC 30/10 Q1004 NOSIG,M
VIDP,2022-04-16 18:00,86.00,50.00,28.90,60.00,5.00,0.00,29.62,M,2.17,M,NSC,M,M,M,M,M,M,M,HZ,M,M,M,M,M,M,83.62,VIDP 161800Z 06005KT 3500 HZ NSC 30/10 Q1003 NOSIG,M
VIDP,2022-04-16 18:30,84.20,51.80,32.73,100.00,4.00,0.00,29.65,M,2.17,M,NSC,M,M,M,M,M,M,M,HZ,M,M,M,M,M,M,82.48,VIDP 161830Z 10004KT 3500 HZ NSC 29/11 Q1004 NOSIG,M
VIDP,2022-04-16 19:00,82.40,51.80,34.69,100.00,4.00,0.00,29.65,M,2.17,M,NSC,M,M,M,M,M,M,M,HZ,M,M,M,M,M,M,81.20,VIDP 161900Z 10004KT 3500 HZ NSC 28/11 Q1004 NOSIG,M
VIDP,2022-04-16 19:30,82.40,51.80,34.69,0.00,0.00,0.00,29.62,M,2.17,M,NSC,M,M,M,M,M,M,M,HZ,M,M,M,M,M,M,81.20,VIDP 161930Z 00000KT 3500 HZ NSC 28/11 Q1003 NOSIG,M
VIDP,2022-04-16 20:00,82.40,51.80,34.69,0.00,0.00,0.00,29.65,M,2.17,M,NSC,M,M,M,M,M,M,M,HZ,M,M,M,M,M,M,81.20,VIDP 162000Z 00000KT 3500 HZ NSC 28/11 Q1004 NOSIG,M
VIDP,2022-04-16 20:30,82.40,51.80,34.69,0.00,0.00,0.00,29.65,M,2.17,M,NSC,M,M,M,M,M,M,M,HZ,M,M,M,M,M,M,81.20,VIDP 162030Z 00000KT 3500 HZ NSC 28/11 Q1004 NOSIG,M
VIDP,2022-04-16 21:00,82.40,51.80,34.69,0.00,0.00,0.00,29.62,M,2.17,M,NSC,M,M,M,M,M,M,M,HZ,M,M,M,M,M,M,81.20,VIDP 162100Z 00000KT 3500 HZ NSC 28/11 Q1003 NOSIG,M
VIDP,2022-04-16 21:30,80.60,51.80,36.79,0.00,0.00,0.00,29.62,M,2.17,M,NSC,M,M,M,M,M,M,M,HZ,M,M,M,M,M,M,80.08,VIDP 162130Z 00000KT 3500 HZ NSC 27/11 Q1003 NOSIG,M
VIDP,2022-04-16 22:00,80.60,51.80,36.79,0.00,0.00,0.00,29.62,M,2.17,M,NSC,M,M,M,M,M,M,M,HZ,M,M,M,M,M,M,80.08,VIDP 162200Z 00000KT 3500 HZ NSC 27/11 Q1003 NOSIG,M
VIDP,2022-04-16 22:30,78.80,51.80,39.02,0.00,0.00,0.00,29.62,M,1.99,M,NSC,M,M,M,M,M,M,M,HZ,M,M,M,M,M,M,78.80,VIDP 162230Z 00000KT 3200 HZ NSC 26/11 Q1003 BECMG 3000 HZ,M
VIDP,2022-04-16 23:00,78.80,51.80,39.02,0.00,0.00,0.00,29.62,M,1.86,M,NSC,M,M,M,M,M,M,M,HZ,M,M,M,M,M,M,78.80,VIDP 162300Z 00000KT 3000 HZ NSC 26/11 Q1003 NOSIG,M
VIDP,2022-04-16 23:30,78.80,53.60,41.69,0.00,0.00,0.00,29.62,M,1.86,M,NSC,M,M,M,M,M,M,M,HZ,M,M,M,M,M,M,78.80,VIDP 162330Z 00000KT 3000 HZ NSC 26/12 Q1003 NOSIG,M
VIDP,2022-04-17 00:00,78.80,53.60,41.69,0.00,0.00,0.00,29.65,M,1.86,M,NSC,M,M,M,M,M,M,M,HZ,M,M,M,M,M,M,78.80,VIDP 170000Z 00000KT 3000 HZ NSC 26/12 Q1004 NOSIG,M
VIDP,2022-04-17 00:30,78.80,53.60,41.69,0.00,0.00,0.00,29.65,M,1.86,M,NSC,M,M,M,M,M,M,M,HZ,M,M,M,M,M,M,78.80,VIDP 170030Z 00000KT 3000 HZ NSC 26/12 Q1004 NOSIG,M
VIDP,2022-04-17 01:00,78.80,53.60,41.69,0.00,0.00,0.00,29.65,M,1.86,M,NSC,M,M,M,M,M,M,M,HZ,M,M,M,M,M,M,78.80,VIDP 170100Z 00000KT 3000 HZ NSC 26/12 Q1004 NOSIG,M
VIDP,2022-04-17 01:30,80.60,53.60,39.30,0.00,0.00,0.00,29.65,M,1.55,M,NSC,M,M,M,M,M,M,M,DU,M,M,M,M,M,M,80.29,VIDP 170130Z 00000KT 2500 DU NSC 27/12 Q1004 NOSIG,M
VIDP,2022-04-17 02:00,82.40,55.40,39.58,0.00,0.00,0.00,29.68,M,1.37,M,NSC,M,M,M,M,M,M,M,DU,M,M,M,M,M,M,81.75,VIDP 170200Z 00000KT 2200 DU NSC 28/13 Q1005 NOSIG,M
VIDP,2022-04-17 02:30,86.00,51.80,30.90,270.00,3.00,0.00,29.68,M,1.37,M,NSC,M,M,M,M,M,M,M,DU,M,M,M,M,M,M,83.87,VIDP 170230Z 27003KT 2200 DU NSC 30/11 Q1005 NOSIG,M
VIDP,2022-04-17 03:00,86.00,51.80,30.90,0.00,0.00,0.00,29.71,M,1.37,M,NSC,M,M,M,M,M,M,M,DU,M,M,M,M,M,M,83.87,VIDP 170300Z 00000KT 2200 DU NSC 30/11 Q1006 NOSIG,M
VIDP,2022-04-17 03:30,89.60,51.80,27.56,0.00,0.00,0.00,29.71,M,1.37,M,NSC,M,M,M,M,M,M,M,DU,M,M,M,M,M,M,87.00,VIDP 170330Z 00000KT 2200 DU NSC 32/11 Q1006 NOSIG,M
VIDP,2022-04-17 04:00,93.20,51.80,24.63,0.00,0.00,0.00,29.71,M,1.37,M,NSC,M,M,M,M,M,M,M,DU,M,M,M,M,M,M,90.45,VIDP 170400Z 00000KT 2200 DU NSC 34/11 Q1006 NOSIG,M
VIDP,2022-04-17 04:30,93.20,51.80,24.63,230.00,4.00,0.00,29.74,M,1.55,M,NSC,M,M,M,M,M,M,M,DU,M,M,M,M,M,M,90.45,VIDP 170430Z 23004KT 2500 DU NSC 34/11 Q1007 NOSIG,M
VIDP,2022-04-17 05:00,95.00,48.20,20.38,220.00,4.00,0.00,29.71,M,1.74,M,NSC,M,M,M,M,M,M,M,DU,M,M,M,M,M,M,91.56,VIDP 170500Z 22004KT 2800 DU NSC 35/09 Q1006 BECMG 3000 HZ,M
VIDP,2022-04-17 05:30,98.60,44.60,15.93,140.00,5.00,0.00,29.71,M,1.86,M,NSC,M,M,M,M,M,M,M,HZ,M,M,M,M,M,M,94.55,VIDP 170530Z 14005KT 3000 HZ NSC 37/07 Q1006 NOSIG,M
VIDP,2022-04-17 06:00,98.60,42.80,14.87,150.00,4.00,0.00,29.71,M,2.17,M,NSC,M,M,M,M,M,M,M,HZ,M,M,M,M,M,M,94.30,VIDP 170600Z 15004KT 3500 HZ NSC 37/06 Q1006 NOSIG,M
VIDP,2022-04-17 06:30,100.40,41.00,13.14,150.00,6.00,0.00,29.71,M,2.49,M,NSC,M,M,M,M,M,M,M,HZ,M,M,M,M,M,M,95.79,VIDP 170630Z 15006KT 4000 HZ NSC 38/05 Q1006 NOSIG,M
VIDP,2022-04-17 07:00,102.20,41.00,12.44,100.00,3.00,0.00,29.68,M,2.80,M,NSC,M,M,M,M,M,M,M,HZ,M,M,M,M,M,M,97.39,VIDP 170700Z 10003KT 4500 HZ NSC 39/05 Q1005 BECMG 5000 HZ,M
VIDP,2022-04-17 07:30,102.20,39.20,11.60,150.00,4.00,0.00,29.68,M,3.11,M,NSC,M,M,M,M,M,M,M,HZ,M,M,M,M,M,M,96.99,VIDP 170730Z 15004KT 5000 HZ NSC 39/04 Q1005 NOSIG,M
VIDP,2022-04-17 08:00,102.20,37.40,10.81,190.00,5.00,0.00,29.68,M,3.11,M,NSC,M,M,M,M,M,M,M,HZ,M,M,M,M,M,M,96.63,VIDP 170800Z 19005KT 5000 HZ NSC 39/03 Q1005 NOSIG,M
VIDP,2022-04-17 08:30,102.20,33.80,9.37,200.00,6.00,0.00,29.65,M,3.11,M,NSC,M,M,M,M,M,M,M,HZ,M,M,M,M,M,M,96.01,VIDP 170830Z 20006KT 5000 HZ NSC 39/01 Q1004 NOSIG,M
VIDP,2022-04-17 09:00,102.20,37.40,10.81,250.00,5.00,0.00,29.62,M,3.11,M,NSC,M,M,M,M,M,M,M,HZ,M,M,M,M,M,M,96.63,VIDP 170900Z 25005KT 5000 HZ NSC 39/03 Q1003 NOSIG,M
VIDP,2022-04-17 09:30,102.20,33.80,9.37,200.00,3.00,0.00,29.62,M,3.11,M,NSC,M,M,M,M,M,M,M,HZ,M,M,M,M,M,M,96.01,VIDP 170930Z 20003KT 5000 HZ NSC 39/01 Q1003 NOSIG,M
VIDP,2022-04-17 10:00,102.20,30.20,8.11,180.00,3.00,0.00,29.59,M,3.11,M,NSC,M,M,M,M,M,M,M,HZ,M,M,M,M,M,M,95.50,VIDP 171000Z 18003KT 5000 HZ NSC 39/M01 Q1002 NOSIG,M
VIDP,2022-04-17 10:30,104.00,30.20,7.68,360.00,4.00,0.00,29.59,M,3.11,M,NSC,M,M,M,M,M,M,M,HZ,M,M,M,M,M,M,97.03,VIDP 171030Z 36004KT 5000 HZ NSC 40/M01 Q1002 NOSIG,M
VIDP,2022-04-17 11:00,102.20,30.20,8.11,360.00,5.00,0.00,29.59,M,3.11,M,NSC,M,M,M,M,M,M,M,HZ,M,M,M,M,M,M,95.50,VIDP 171100Z 36005KT 5000 HZ NSC 39/M01 Q1002 NOSIG,M
VIDP,2022-04-17 11:30,102.20,30.20,8.11,360.00,4.00,0.00,29.59,M,3.11,M,NSC,M,M,M,M,M,M,M,HZ,M,M,M,M,M,M,95.50,VIDP 171130Z 36004KT 5000 HZ NSC 39/M01 Q1002 NOSIG,M
VIDP,2022-04-17 12:00,102.20,32.00,8.72,30.00,4.00,0.00,29.59,M,2.80,M,NSC,M,M,M,M,M,M,M,HZ,M,M,M,M,M,M,95.74,VIDP 171200Z 03004KT 4500 HZ NSC 39/00 Q1002 NOSIG,M
VIDP,2022-04-17 12:30,98.60,35.60,11.23,50.00,5.00,0.00,29.59,M,2.80,M,SCT,M,M,M,10000.00,M,M,M,HZ,M,M,M,M,M,M,93.23,VIDP 171230Z 05005KT 4500 HZ SCT100 37/02 Q1002 NOSIG,M
VIDP,2022-04-17 13:00,96.80,39.20,13.66,50.00,4.00,0.00,29.59,M,2.80,M,SCT,M,M,M,10000.00,M,M,M,HZ,M,M,M,M,M,M,92.23,VIDP 171300Z 05004KT 4500 HZ SCT100 36/04 Q1002 NOSIG,M
VIDP,2022-04-17 13:30,96.80,41.00,14.66,50.00,5.00,0.00,29.62,M,2.80,M,SCT,M,M,M,10000.00,M,M,M,HZ,M,M,M,M,M,M,92.39,VIDP 171330Z 05005KT 4500 HZ SCT100 36/05 Q1003 NOSIG,M
VIDP,2022-04-17 14:00,95.00,42.80,16.60,40.00,4.00,0.00,29.62,M,2.80,M,SCT,M,M,M,10000.00,M,M,M,HZ,M,M,M,M,M,M,90.86,VIDP 171400Z 04004KT 4500 HZ SCT100 35/06 Q1003 NOSIG,M
VIDP,2022-04-17 14:30,93.20,42.80,17.55,70.00,3.00,0.00,29.62,M,2.49,M,SCT,M,M,M,10000.00,M,M,M,HZ,M,M,M,M,M,M,89.17,VIDP 171430Z 07003KT 4000 HZ SCT100 34/06 Q1003 NOSIG,M
VIDP,2022-04-17 15:00,93.20,42.80,17.55,60.00,4.00,0.00,29.65,M,2.49,M,SCT,M,M,M,10000.00,M,M,M,HZ,M,M,M,M,M,M,89.17,VIDP 171500Z 06004KT 4000 HZ SCT100 34/06 Q1004 NOSIG,M
VIDP,2022-04-17 15:30,93.20,42.80,17.55,50.00,4.00,0.00,29.65,M,2.49,M,SCT,M,M,M,10000.00,M,M,M,HZ,M,M,M,M,M,M,89.17,VIDP 171530Z 05004KT 4000 HZ SCT100 34/06 Q1004 NOSIG,M
VIDP,2022-04-17 16:00,91.40,44.60,19.89,280.00,3.00,0.00,29.68,M,2.49,M,SCT,M,M,M,10000.00,M,M,M,HZ,M,M,M,M,M,M,87.68,VIDP 171600Z 28003KT 4000 HZ SCT100 33/07 Q1005 NOSIG,M
VIDP,2022-04-17 16:30,89.60,46.40,22.53,0.00,0.00,0.00,29.68,M,2.49,M,SCT,M,M,M,10000.00,M,M,M,HZ,M,M,M,M,M,M,86.24,VIDP 171630Z 00000KT 4000 HZ SCT100 32/08 Q1005 NOSIG,M
VIDP,2022-04-17 17:00,89.60,46.40,22.53,0.00,0.00,0.00,29.68,M,2.49,M,SCT,M,M,M,10000.00,M,M,M,HZ,M,M,M,M,M,M,86.24,VIDP 171700Z 00000KT 4000 HZ SCT100 32/08 Q1005 NOSIG,M
VIDP,2022-04-17 17:30,89.60,50.00,25.79,0.00,0.00,0.00,29.68,M,2.49,M,FEW,M,M,M,10000.00,M,M,M,HZ,M,M,M,M,M,M,86.70,VIDP 171730Z 00000KT 4000 HZ FEW100 32/10 Q1005 NOSIG,M
VIDP,2022-04-17 18:00,89.60,50.00,25.79,0.00,0.00,0.00,29.68,M,2.49,M,FEW,M,M,M,10000.00,M,M,M,HZ,M,M,M,M,M,M,86.70,VIDP 171800Z 00000KT 4000 HZ FEW100 32/10 Q1005 NOSIG,M
VIDP,2022-04-17 18:30,87.80,51.80,29.18,0.00,0.00,0.00,29.68,M,2.49,M,FEW,M,M,M,10000.00,M,M,M,HZ,M,M,M,M,M,M,85.39,VIDP 171830Z 00000KT 4000 HZ FEW100 31/11 Q1005 NOSIG,M
VIDP,2022-04-17 19:00,87.80,53.60,31.17,0.00,0.00,0.00,29.68,M,2.49,M,FEW,M,M,M,10000.00,M,M,M,HZ,M,M,M,M,M,M,85.72,VIDP 171900Z 00000KT 4000 HZ FEW100 31/12 Q1005 NOSIG,M
VIDP,2022-04-17 19:30,86.00,50.00,28.90,0.00,0.00,0.00,29.68,M,2.49,M,FEW,M,M,M,10000.00,M,M,M,HZ,M,M,M,M,M,M,83.62,VIDP 171930Z 00000KT 4000 HZ FEW100 30/10 Q1005 NOSIG,M
VIDP,2022-04-17 20:00,84.20,48.20,28.63,0.00,0.00,0.00,29.68,M,2.49,M,FEW,M,M,M,10000.00,M,M,M,HZ,M,M,M,M,M,M,82.04,VIDP 172000Z 00000KT 4000 HZ FEW100 29/09 Q1005 NOSIG,M
VIDP,2022-04-17 20:30,84.20,50.00,30.62,0.00,0.00,0.00,29.65,M,2.17,M,FEW,M,M,M,10000.00,M,M,M,HZ,M,M,M,M,M,M,82.24,VIDP 172030Z 00000KT 3500 HZ FEW100 29/10 Q1004 NOSIG,M
VIDP,2022-04-17 21:00,84.20,48.20,28.63,0.00,0.00,0.00,29.65,M,2.17,M,FEW,M,M,M,10000.00,M,M,M,HZ,M,M,M,M,M,M,82.04,VIDP 172100Z 00000KT 3500 HZ FEW100 29/09 Q1004 NOSIG,M
VIDP,2022-04-17 21:30,84.20,48.20,28.63,0.00,0.00,0.00,29.65,M,2.17,M,FEW,M,M,M,10000.00,M,M,M,HZ,M,M,M,M,M,M,82.04,VIDP 172130Z 00000KT 3500 HZ FEW100 29/09 Q1004 NOSIG,M
VIDP,2022-04-17 22:00,82.40,48.20,30.35,0.00,0.00,0.00,29.65,M,2.17,M,FEW,M,M,M,10000.00,M,M,M,HZ,M,M,M,M,M,M,80.80,VIDP 172200Z 00000KT 3500 HZ FEW100 28/09 Q1004 NOSIG,M
VIDP,2022-04-17 22:30,82.40,48.20,30.35,0.00,0.00,0.00,29.65,M,2.17,M,FEW,M,M,M,10000.00,M,M,M,HZ,M,M,M,M,M,M,80.80,VIDP 172230Z 00000KT 3500 HZ FEW100 28/09 Q1004 NOSIG,M
VIDP,2022-04-17 23:00,80.60,48.20,32.18,0.00,0.00,0.00,29.68,M,1.99,M,FEW,M,M,M,10000.00,M,M,M,HZ,M,M,M,M,M,M,79.71,VIDP 172300Z 00000KT 3200 HZ FEW100 27/09 Q1005 NOSIG,M
VIDP,2022-04-17 23:30,80.60,48.20,32.18,0.00,0.00,0.00,29.68,M,1.99,M,FEW,M,M,M,10000.00,M,M,M,HZ,M,M,M,M,M,M,79.71,VIDP 172330Z 00000KT 3200 HZ FEW100 27/09 Q1005 BECMG 3000 HZ,M
VIDP,2022-04-18 00:00,82.40,48.20,30.35,0.00,0.00,0.00,29.68,M,1.86,M,FEW,M,M,M,10000.00,M,M,M,HZ,M,M,M,M,M,M,80.80,VIDP 180000Z 00000KT 3000 HZ FEW100 28/09 Q1005 NOSIG,M
VIDP,2022-04-18 00:30,82.40,48.20,30.35,0.00,0.00,0.00,29.68,M,1.86,M,FEW,M,M,M,10000.00,M,M,M,HZ,M,M,M,M,M,M,80.80,VIDP 180030Z 00000KT 3000 HZ FEW100 28/09 Q1005 NOSIG,M
VIDP,2022-04-18 01:00,78.80,48.20,34.13,0.00,0.00,0.00,29.71,M,1.55,M,FEW,M,M,M,10000.00,M,M,M,HZ,M,M,M,M,M,M,78.80,VIDP 180100Z 00000KT 2500 HZ FEW100 26/09 Q1006 NOSIG,M
VIDP,2022-04-18 01:30,80.60,48.20,32.18,0.00,0.00,0.00,29.71,M,1.37,M,FEW,M,M,M,10000.00,M,M,M,HZ,M,M,M,M,M,M,79.71,VIDP 180130Z 00000KT 2200 HZ FEW100 27/09 Q1006 NOSIG,M
VIDP,2022-04-18 02:00,82.40,48.20,30.35,0.00,0.00,0.00,29.71,M,1.86,M,FEW,M,M,M,10000.00,M,M,M,HZ,M,M,M,M,M,M,80.80,VIDP 180200Z 00000KT 3000 HZ FEW100 28/09 Q1006 NOSIG,M
VIDP,2022-04-18 02:30,86.00,51.80,30.90,310.00,3.00,0.00,29.74,M,1.37,M,FEW,M,M,M,10000.00,M,M,M,HZ,M,M,M,M,M,M,83.87,VIDP 180230Z 31003KT 2200 HZ FEW100 30/11 Q1007 NOSIG,M
VIDP,2022-04-18 03:00,87.80,51.80,29.18,0.00,0.00,0.00,29.74,M,1.37,M,FEW,M,M,M,10000.00,M,M,M,HZ,M,M,M,M,M,M,85.39,VIDP 180300Z 00000KT 2200 HZ FEW100 31/11 Q1007 NOSIG,M
VIDP,2022-04-18 03:30,93.20,48.20,21.54,0.00,0.00,0.00,29.77,M,1.55,M,FEW,M,M,M,10000.00,M,M,M,HZ,M,M,M,M,M,M,89.80,VIDP 180330Z 00000KT 2500 HZ FEW100 34/09 Q1008 NOSIG,M
VIDP,2022-04-18 04:00,93.20,48.20,21.54,0.00,0.00,0.00,29.77,M,1.55,M,FEW,M,M,M,10000.00,M,M,M,HZ,M,M,M,M,M,M,89.80,VIDP 180400Z 00000KT 2500 HZ FEW100 34/09 Q1008 NOSIG,M
VIDP,2022-04-18 04:30,95.00,46.40,19.04,330.00,5.00,0.00,29.77,M,1.74,M,FEW,M,M,M,10000.00,M,M,M,HZ,M,M,M,M,M,M,91.29,VIDP 180430Z 33005KT 2800 HZ FEW100 35/08 Q1008 NOSIG,M
VIDP,2022-04-18 05:00,96.80,44.60,16.83,330.00,4.00,0.00,29.77,M,1.74,M,FEW,M,M,M,10000.00,M,M,M,HZ,M,M,M,M,M,M,92.79,VIDP 180500Z 33004KT 2800 HZ FEW100 36/07 Q1008 BECMG 3000 HZ,M
VIDP,2022-04-18 05:30,98.60,41.00,13.87,360.00,5.00,0.00,29.77,M,1.86,M,FEW,M,M,M,10000.00,M,M,M,HZ,M,M,M,M,M,M,94.09,VIDP 180530Z 36005KT 3000 HZ FEW100 37/05 Q1008 NOSIG,M
VIDP,2022-04-18 06:00,100.40,39.20,12.25,10.00,5.00,0.00,29.77,M,2.17,M,FEW,M,M,M,10000.00,M,M,M,HZ,M,M,M,M,M,M,95.43,VIDP 180600Z 01005KT 3500 HZ FEW100 38/04 Q1008 NOSIG,M
VIDP,2022-04-18 06:30,100.40,42.80,14.08,300.00,4.00,0.00,29.77,M,2.17,M,NSC,M,M,M,M,M,M,M,HZ,M,M,M,M,M,M,96.04,VIDP 180630Z 30004KT 3500 HZ NSC 38/06 Q1008 NOSIG,M
VIDP,2022-04-18 07:00,100.40,41.00,13.14,360.00,4.00,0.00,29.74,M,2.17,M,NSC,M,M,M,M,M,M,M,HZ,M,M,M,M,M,M,95.79,VIDP 180700Z 36004KT 3500 HZ NSC 38/05 Q1007 NOSIG,M
VIDP,2022-04-18 07:30,100.40,41.00,13.14,350.00,5.00,0.00,29.74,M,2.49,M,NSC,M,M,M,M,M,M,M,HZ,M,M,M,M,M,M,95.79,VIDP 180730Z 35005KT 4000 HZ NSC 38/05 Q1007 NOSIG,M
VIDP,2022-04-18 08:00,102.20,39.20,11.60,350.00,5.00,0.00,29.71,M,2.49,M,NSC,M,M,M,M,M,M,M,HZ,M,M,M,M,M,M,96.99,VIDP 180800Z 35005KT 4000 HZ NSC 39/04 Q1006 NOSIG,M
VIDP,2022-04-18 08:30,104.00,41.00,11.79,20.00,5.00,0.00,29.71,M,2.80,M,NSC,M,M,M,M,M,M,M,HZ,M,M,M,M,M,M,98.97,VIDP 180830Z 02005KT 4500 HZ NSC 40/05 Q1006 NOSIG,M
VIDP,2022-04-18 09:00,105.80,39.20,10.43,340.00,5.00,0.00,29.71,M,2.80,M,NSC,M,M,M,M,M,M,M,HZ,M,M,M,M,M,M,100.14,VIDP 180900Z 34005KT 4500 HZ NSC 41/04 Q1006 NOSIG,M
VIDP,2022-04-18 09:30,107.60,37.40,9.21,300.00,4.00,0.00,29.68,M,2.80,M,NSC,M,M,M,M,M,M,M,HZ,M,M,M,M,M,M,101.34,VIDP 180930Z 30004KT 4500 HZ NSC 42/03 Q1005 BECMG 5000 HZ,M
VIDP,2022-04-18 10:00,107.60,39.20,9.89,260.00,4.00,0.00,29.68,M,3.11,M,NSC,M,M,M,M,M,M,M,HZ,M,M,M,M,M,M,101.73,VIDP 181000Z 26004KT 5000 HZ NSC 42/04 Q1005 NOSIG,M
VIDP,2022-04-18 10:30,107.60,39.20,9.89,270.00,5.00,0.00,29.68,M,3.11,M,NSC,M,M,M,M,M,M,M,HZ,M,M,M,M,M,M,101.73,VIDP 181030Z 27005KT 5000 HZ NSC 42/04 Q1005 NOSIG,M
VIDP,2022-04-18 11:00,105.80,39.20,10.43,300.00,5.00,0.00,29.65,M,3.11,M,NSC,M,M,M,M,M,M,M,HZ,M,M,M,M,M,M,100.14,VIDP 181100Z 30005KT 5000 HZ NSC 41/04 Q1004 NOSIG,M
VIDP,2022-04-18 11:30,105.80,42.80,11.98,340.00,4.00,0.00,29.65,M,3.11,M,NSC,M,M,M,M,M,M,M,HZ,M,M,M,M,M,M,101.02,VIDP 181130Z 34004KT 5000 HZ NSC 41/06 Q1004 NOSIG,M
VIDP,2022-04-18 12:00,104.00,42.80,12.64,320.00,4.00,0.00,29.65,M,3.11,M,NSC,M,M,M,M,M,M,M,HZ,M,M,M,M,M,M,99.42,VIDP 181200Z 32004KT 5000 HZ NSC 40/06 Q1004 NOSIG,M
VIDP,2022-04-18 12:30,102.20,44.60,14.29,300.00,4.00,0.00,29.68,M,2.49,M,NSC,M,M,M,M,M,M,M,HZ,M,M,M,M,M,M,98.07,VIDP 181230Z 30004KT 4000 HZ NSC 39/07 Q1005 NOSIG,M
VIDP,2022-04-18 13:00,100.40,44.60,15.08,320.00,3.00,0.00,29.68,M,2.49,M,NSC,M,M,M,M,M,M,M,HZ,M,M,M,M,M,M,96.31,VIDP 181300Z 32003KT 4000 HZ NSC 38/07 Q1005 NOSIG,M
VIDP,2022-04-18 13:30,98.60,44.60,15.93,0.00,0.00,0.00,29.68,M,2.49,M,NSC,M,M,M,M,M,M,M,HZ,M,M,M,M,M,M,94.55,VIDP 181330Z 00000KT 4000 HZ NSC 37/07 Q1005 NOSIG,M
VIDP,2022-04-18 14:00,96.80,44.60,16.83,0.00,0.00,0.00,29.68,M,2.49,M,NSC,M,M,M,M,M,M,M,HZ,M,M,M,M,M,M,92.79,VIDP 181400Z 00000KT 4000 HZ NSC 36/07 Q1005 NOSIG,M
VIDP,2022-04-18 14:30,95.00,46.40,19.04,0.00,0.00,0.00,29.71,M,2.17,M,NSC,M,M,M,M,M,M,M,HZ,M,M,M,M,M,M,91.29,VIDP 181430Z 00000KT 3500 HZ NSC 35/08 Q1006 NOSIG,M
VIDP,2022-04-18 15:00,93.20,48.20,21.54,0.00,0.00,0.00,29.71,M,2.17,M,NSC,M,M,M,M,M,M,M,HZ,M,M,M,M,M,M,89.80,VIDP 181500Z 00000KT 3500 HZ NSC 34/09 Q1006 NOSIG,M
VIDP,2022-04-18 15:30,93.20,50.00,23.04,0.00,0.00,0.00,29.71,M,2.17,M,NSC,M,M,M,M,M,M,M,HZ,M,M,M,M,M,M,90.10,VIDP 181530Z 00000KT 3500 HZ NSC 34/10 Q1006 NOSIG,M
VIDP,2022-04-18 16:00,93.20,50.00,23.04,0.00,0.00,0.00,29.74,M,2.17,M,NSC,M,M,M,M,M,M,M,HZ,M,M,M,M,M,M,90.10,VIDP 181600Z 00000KT 3500 HZ NSC 34/10 Q1007 NOSIG,M
VIDP,2022-04-18 16:30,91.40,50.00,24.37,0.00,0.00,0.00,29.74,M,2.17,M,NSC,M,M,M,M,M,M,M,HZ,M,M,M,M,M,M,88.36,VIDP 181630Z 00000KT 3500 HZ NSC 33/10 Q1007 NOSIG,M
VIDP,2022-04-18 17:00,89.60,51.80,27.56,0.00,0.00,0.00,29.74,M,2.17,M,NSC,M,M,M,M,M,M,M,HZ,M,M,M,M,M,M,87.00,VIDP 181700Z 00000KT 3500 HZ NSC 32/11 Q1007 NOSIG,M
VIDP,2022-04-18 17:30,89.60,51.80,27.56,0.00,0.00,0.00,29.74,M,2.17,M,NSC,M,M,M,M,M,M,M,HZ,M,M,M,M,M,M,87.00,VIDP 181730Z 00000KT 3500 HZ NSC 32/11 Q1007 NOSIG,M
VIDP,2022-04-18 18:00,87.80,51.80,29.18,0.00,0.00,0.00,29.74,M,2.17,M,NSC,M,M,M,M,M,M,M,HZ,M,M,M,M,M,M,85.39,VIDP 181800Z 00000KT 3500 HZ NSC 31/11 Q1007 NOSIG,M
VIDP,2022-04-18 18:30,87.80,51.80,29.18,0.00,0.00,0.00,29.74,M,2.17,M,NSC,M,M,M,M,M,M,M,HZ,M,M,M,M,M,M,85.39,VIDP 181830Z 00000KT 3500 HZ NSC 31/11 Q1007 NOSIG,M
VIDP,2022-04-18 19:00,86.00,53.60,33.01,0.00,0.00,0.00,29.71,M,1.99,M,NSC,M,M,M,M,M,M,M,HZ,M,M,M,M,M,M,84.18,VIDP 181900Z 00000KT 3200 HZ NSC 30/12 Q1006 NOSIG,M
VIDP,2022-04-18 19:30,86.00,53.60,33.01,0.00,0.00,0.00,29.71,M,1.99,M,NSC,M,M,M,M,M,M,M,HZ,M,M,M,M,M,M,84.18,VIDP 181930Z 00000KT 3200 HZ NSC 30/12 Q1006 NOSIG,M
VIDP,2022-04-18 20:00,86.00,55.40,35.25,0.00,0.00,0.00,29.71,M,1.99,M,NSC,M,M,M,M,M,M,M,HZ,M,M,M,M,M,M,84.54,VIDP 182000Z 00000KT 3200 HZ NSC 30/13 Q1006 NOSIG,M
VIDP,2022-04-18 20:30,86.00,55.40,35.25,0.00,0.00,0.00,29.71,M,1.99,M,NSC,M,M,M,M,M,M,M,HZ,M,M,M,M,M,M,84.54,VIDP 182030Z 00000KT 3200 HZ NSC 30/13 Q1006 NOSIG,M
VIDP,2022-04-18 21:00,84.20,55.40,37.35,0.00,0.00,0.00,29.71,M,1.99,M,NSC,M,M,M,M,M,M,M,HZ,M,M,M,M,M,M,83.09,VIDP 182100Z 00000KT 3200 HZ NSC 29/13 Q1006 NOSIG,M
VIDP,2022-04-18 21:30,84.20,55.40,37.35,0.00,0.00,0.00,29.71,M,1.99,M,NSC,M,M,M,M,M,M,M,HZ,M,M,M,M,M,M,83.09,VIDP 182130Z 00000KT 3200 HZ NSC 29/13 Q1006 NOSIG,M
VIDP,2022-04-18 22:00,84.20,55.40,37.35,0.00,0.00,0.00,29.71,M,1.99,M,NSC,M,M,M,M,M,M,M,HZ,M,M,M,M,M,M,83.09,VIDP 182200Z 00000KT 3200 HZ NSC 29/13 Q1006 NOSIG,M
VIDP,2022-04-18 22:30,84.20,53.60,34.97,0.00,0.00,0.00,29.74,M,1.99,M,NSC,M,M,M,M,M,M,M,HZ,M,M,M,M,M,M,82.76,VIDP 182230Z 00000KT 3200 HZ NSC 29/12 Q1007 BECMG 3000 HZ,M
VIDP,2022-04-18 23:00,82.40,53.60,37.07,0.00,0.00,0.00,29.74,M,1.86,M,NSC,M,M,M,M,M,M,M,HZ,M,M,M,M,M,M,81.46,VIDP 182300Z 00000KT 3000 HZ NSC 28/12 Q1007 NOSIG,M
VIDP,2022-04-18 23:30,82.40,53.60,37.07,0.00,0.00,0.00,29.74,M,1.86,M,NSC,M,M,M,M,M,M,M,HZ,M,M,M,M,M,M,81.46,VIDP 182330Z 00000KT 3000 HZ NSC 28/12 Q1007 NOSIG,M
VIDP,2022-04-19 00:00,82.40,53.60,37.07,0.00,0.00,0.00,29.74,M,1.86,M,NSC,M,M,M,M,M,M,M,HZ,M,M,M,M,M,M,81.46,VIDP 190000Z 00000KT 3000 HZ NSC 28/12 Q1007 NOSIG,M
VIDP,2022-04-19 00:30,82.40,53.60,37.07,0.00,0.00,0.00,29.77,M,1.55,M,NSC,M,M,M,M,M,M,M,HZ,M,M,M,M,M,M,81.46,VIDP 190030Z 00000KT 2500 HZ NSC 28/12 Q1008 NOSIG,M
VIDP,2022-04-19 01:00,82.40,53.60,37.07,240.00,3.00,0.00,29.77,M,1.55,M,NSC,M,M,M,M,M,M,M,HZ,M,M,M,M,M,M,81.46,VIDP 190100Z 24003KT 2500 HZ NSC 28/12 Q1008 NOSIG,M
VIDP,2022-04-19 01:30,84.20,53.60,34.97,220.00,4.00,0.00,29.80,M,1.55,M,NSC,M,M,M,M,M,M,M,HZ,M,M,M,M,M,M,82.76,VIDP 190130Z 22004KT 2500 HZ NSC 29/12 Q1009 NOSIG,M
VIDP,2022-04-19 02:00,86.00,51.80,30.90,240.00,5.00,0.00,29.80,M,1.55,M,NSC,M,M,M,M,M,M,M,HZ,M,M,M,M,M,M,83.87,VIDP 190200Z 24005KT 2500 HZ NSC 30/11 Q1009 NOSIG,M
VIDP,2022-04-19 02:30,87.80,48.20,25.52,240.00,5.00,0.00,29.80,M,1.55,M,NSC,M,M,M,M,M,M,M,HZ,M,M,M,M,M,M,84.87,VIDP 190230Z 24005KT 2500 HZ NSC 31/09 Q1009 NOSIG,M
VIDP,2022-04-19 03:00,89.60,46.40,22.53,250.00,7.00,0.00,29.83,M,1.74,M,NSC,M,M,M,M,M,M,M,HZ,M,M,M,M,M,M,86.24,VIDP 190300Z 25007KT 2800 HZ NSC 32/08 Q1010 BECMG 3000 HZ,M
VIDP,2022-04-19 03:30,91.40,46.40,21.29,260.00,8.00,0.00,29.83,M,1.86,M,NSC,M,M,M,M,M,M,M,HZ,M,M,M,M,M,M,87.86,VIDP 190330Z 26008KT 3000 HZ NSC 33/08 Q1010 NOSIG,M
VIDP,2022-04-19 04:00,93.20,44.60,18.80,260.00,7.00,0.00,29.85,M,1.86,M,NSC,M,M,M,M,M,M,M,HZ,M,M,M,M,M,M,89.34,VIDP 190400Z 26007KT 3000 HZ NSC 34/07 Q1011 NOSIG,M
VIDP,2022-04-19 04:30,96.80,44.60,16.83,270.00,7.00,0.00,29.85,M,2.17,M,NSC,M,M,M,M,M,M,M,HZ,M,M,M,M,M,M,92.79,VIDP 190430Z 27007KT 3500 HZ NSC 36/07 Q1011 NOSIG,M
VIDP,2022-04-19 05:00,98.60,44.60,15.93,250.00,6.00,0.00,29.85,M,2.17,M,NSC,M,M,M,M,M,M,M,HZ,M,M,M,M,M,M,94.55,VIDP 190500Z 25006KT 3500 HZ NSC 37/07 Q1011 NOSIG,M
VIDP,2022-04-19 05:30,100.40,42.80,14.08,260.00,7.00,0.00,29.85,M,2.17,M,NSC,M,M,M,M,M,M,M,HZ,M,M,M,M,M,M,96.04,VIDP 190530Z 26007KT 3500 HZ NSC 38/06 Q1011 NOSIG,M
VIDP,2022-04-19 06:00,102.20,42.80,13.34,270.00,6.00,0.00,29.83,M,2.17,M,NSC,M,M,M,M,M,M,M,HZ,M,M,M,M,M,M,97.76,VIDP 190600Z 27006KT 3500 HZ NSC 39/06 Q1010 NOSIG,M
VIDP,2022-04-19 06:30,104.00,44.60,13.54,280.00,7.00,0.00,29.83,M,2.49,M,NSC,M,M,M,M,M,M,M,HZ,M,M,M,M,M,M,99.82,VIDP 190630Z 28007KT 4000 HZ NSC 40/07 Q1010 NOSIG,M
VIDP,2022-04-19 07:00,105.80,44.60,12.84,290.00,7.00,0.00,29.80,M,2.49,M,NSC,M,M,M,M,M,M,M,HZ,M,M,M,M,M,M,101.53,VIDP 190700Z 29007KT 4000 HZ NSC 41/07 Q1009 NOSIG,M
VIDP,2022-04-19 07:30,105.80,42.80,11.98,300.00,6.00,0.00,29.80,M,2.49,M,NSC,M,M,M,M,M,M,M,HZ,M,M,M,M,M,M,101.02,VIDP 190730Z 30006KT 4000 HZ NSC 41/06 Q1009 NOSIG,M
VIDP,2022-04-19 08:00,107.60,42.80,11.37,290.00,10.00,0.00,29.77,M,2.49,20.00,FEW,M,M,M,10000.00,M,M,M,HZ,M,M,M,M,M,M,102.63,VIDP 190800Z 29010G20KT 4000 HZ FEW100 42/06 Q1008 NOSIG,M
VIDP,2022-04-19 08:30,107.60,42.80,11.37,280.00,12.00,0.00,29.77,M,2.49,22.00,FEW,M,M,M,10000.00,M,M,M,HZ,M,M,M,M,M,M,102.63,VIDP 190830Z 28012G22KT 4000 HZ FEW100 42/06 Q1008 NOSIG,M
VIDP,2022-04-19 09:00,107.60,42.80,11.37,270.00,10.00,0.00,29.77,M,2.49,20.00,FEW,M,M,M,10000.00,M,M,M,HZ,M,M,M,M,M,M,102.63,VIDP 190900Z 27010G20KT 4000 HZ FEW100 42/06 Q1008 NOSIG,M
VIDP,2022-04-19 09:30,109.40,41.00,10.06,250.00,10.00,0.00,29.74,M,2.49,20.00,FEW,M,M,M,10000.00,M,M,M,HZ,M,M,M,M,M,M,103.77,VIDP 190930Z 25010G20KT 4000 HZ FEW100 43/05 Q1007 NOSIG,M
VIDP,2022-04-19 10:00,109.40,41.00,10.06,240.00,10.00,0.00,29.71,M,2.49,20.00,FEW,M,M,M,10000.00,M,M,M,DU,M,M,M,M,M,M,103.77,VIDP 191000Z 24010G20KT 4000 DU FEW100 43/05 Q1006 NOSIG,M
VIDP,2022-04-19 10:30,107.60,39.20,9.89,270.00,10.00,0.00,29.71,M,2.49,20.00,FEW,M,M,M,10000.00,M,M,M,DU,M,M,M,M,M,M,101.73,VIDP 191030Z 27010G20KT 4000 DU FEW100 42/04 Q1006 NOSIG,M
VIDP,2022-04-19 11:00,107.60,39.20,9.89,260.00,10.00,0.00,29.71,M,2.49,20.00,FEW,M,M,M,10000.00,M,M,M,DU,M,M,M,M,M,M,101.73,VIDP 191100Z 26010G20KT 4000 DU FEW100 42/04 Q1006 NOSIG,M
VIDP,2022-04-19 11:30,105.80,39.20,10.43,270.00,8.00,0.00,29.71,M,2.49,18.00,FEW,M,M,M,10000.00,M,M,M,DU,M,M,M,M,M,M,100.14,VIDP 191130Z 27008G18KT 4000 DU FEW100 41/04 Q1006 NOSIG,M
VIDP,2022-04-19 12:00,104.00,39.20,11.00,290.00,10.00,0.00,29.71,M,2.49,M,FEW,M,M,M,10000.00,M,M,M,DU,M,M,M,M,M,M,98.56,VIDP 191200Z 29010KT 4000 DU FEW100 40/04 Q1006 NOSIG,M
VIDP,2022-04-19 12:30,104.00,37.40,10.25,300.00,10.00,0.00,29.71,M,2.49,M,FEW,M,M,M,10000.00,M,M,M,HZ,M,M,M,M,M,M,98.19,VIDP 191230Z 30010KT 4000 HZ FEW100 40/03 Q1006 NOSIG,M
VIDP,2022-04-19 13:00,102.20,39.20,11.60,300.00,8.00,0.00,29.71,M,2.49,M,FEW,M,M,M,10000.00,M,M,M,HZ,M,M,M,M,M,M,96.99,VIDP 191300Z 30008KT 4000 HZ FEW100 39/04 Q1006 NOSIG,M
VIDP,2022-04-19 13:30,100.40,41.00,13.14,290.00,6.00,0.00,29.71,M,2.49,M,FEW,M,M,M,10000.00,M,M,M,HZ,M,M,M,M,M,M,95.79,VIDP 191330Z 29006KT 4000 HZ FEW100 38/05 Q1006 NOSIG,M
VIDP,2022-04-19 14:00,98.60,41.00,13.87,270.00,5.00,0.00,29.71,M,2.49,M,FEW,M,M,M,10000.00,M,M,M,HZ,M,M,M,M,M,M,94.09,VIDP 191400Z 27005KT 4000 HZ FEW100 37/05 Q1006 NOSIG,M
VIDP,2022-04-19 14:30,96.80,41.00,14.66,250.00,4.00,0.00,29.71,M,2.49,M,FEW,M,M,M,10000.00,M,M,M,HZ,M,M,M,M,M,M,92.39,VIDP 191430Z 25004KT 4000 HZ FEW100 36/05 Q1006 NOSIG,M
VIDP,2022-04-19 15:00,95.00,44.60,17.78,260.00,5.00,0.00,29.74,M,2.49,M,FEW,M,M,M,10000.00,M,M,M,HZ,M,M,M,M,M,M,91.06,VIDP 191500Z 26005KT 4000 HZ FEW100 35/07 Q1007 NOSIG,M
VIDP,2022-04-19 15:30,95.00,44.60,17.78,0.00,0.00,0.00,29.74,M,2.49,M,FEW,M,M,M,10000.00,M,M,M,HZ,M,M,M,M,M,M,91.06,VIDP 191530Z 00000KT 4000 HZ FEW100 35/07 Q1007 NOSIG,M
VIDP,2022-04-19 16:00,93.20,44.60,18.80,0.00,0.00,0.00,29.74,M,2.49,M,FEW,M,M,M,10000.00,M,M,M,HZ,M,M,M,M,M,M,89.34,VIDP 191600Z 00000KT 4000 HZ FEW100 34/07 Q1007 NOSIG,M
VIDP,2022-04-19 16:30,91.40,44.60,19.89,0.00,0.00,0.00,29.74,M,2.17,M,FEW,M,M,M,10000.00,M,M,M,HZ,M,M,M,M,M,M,87.68,VIDP 191630Z 00000KT 3500 HZ FEW100 33/07 Q1007 NOSIG,M
VIDP,2022-04-19 17:00,91.40,41.00,17.32,0.00,0.00,0.00,29.74,M,2.17,M,FEW,M,M,M,10000.00,M,M,M,HZ,M,M,M,M,M,M,87.40,VIDP 191700Z 00000KT 3500 HZ FEW100 33/05 Q1007 NOSIG,M
VIDP,2022-04-19 17:30,89.60,42.80,19.64,250.00,3.00,0.00,29.74,M,2.17,M,FEW,M,M,M,10000.00,M,M,M,HZ,M,M,M,M,M,M,85.93,VIDP 191730Z 25003KT 3500 HZ FEW100 32/06 Q1007 BECMG 3000 HZ,M
VIDP,2022-04-19 18:00,89.60,39.20,17.09,0.00,0.00,0.00,29.74,M,1.86,M,FEW,M,M,M,10000.00,M,M,M,HZ,M,M,M,M,M,M,85.73,VIDP 191800Z 00000KT 3000 HZ FEW100 32/04 Q1007 NOSIG,M
VIDP,2022-04-19 18:30,89.60,39.20,17.09,250.00,3.00,0.00,29.71,M,1.86,M,FEW,M,M,M,10000.00,M,M,M,HZ,M,M,M,M,M,M,85.73,VIDP 191830Z 25003KT 3000 HZ FEW100 32/04 Q1006 NOSIG,M
VIDP,2022-04-19 19:00,89.60,35.60,14.83,250.00,4.00,0.00,29.71,M,1.86,M,FEW,M,M,M,10000.00,M,M,M,HZ,M,M,M,M,M,M,85.62,VIDP 191900Z 25004KT 3000 HZ FEW100 32/02 Q1006 NOSIG,M
VIDP,2022-04-19 19:30,86.00,39.20,19.15,250.00,4.00,0.00,29.71,M,1.86,M,FEW,M,M,M,10000.00,M,M,M,HZ,M,M,M,M,M,M,82.79,VIDP 191930Z 25004KT 3000 HZ FEW100 30/04 Q1006 NOSIG,M
VIDP,2022-04-19 20:00,86.00,39.20,19.15,260.00,3.00,0.00,29.71,M,1.86,M,FEW,M,M,M,10000.00,M,M,M,HZ,M,M,M,M,M,M,82.79,VIDP 192000Z 26003KT 3000 HZ FEW100 30/04 Q1006 NOSIG,M
VIDP,2022-04-19 20:30,86.00,37.40,17.85,200.00,3.00,0.00,29.71,M,1.86,M,FEW,M,M,M,10000.00,M,M,M,HZ,M,M,M,M,M,M,82.73,VIDP 192030Z 20003KT 3000 HZ FEW100 30/03 Q1006 NOSIG,M
VIDP,2022-04-19 21:00,84.20,39.20,20.29,230.00,3.00,0.00,29.71,M,1.86,M,FEW,M,M,M,10000.00,M,M,M,HZ,M,M,M,M,M,M,81.44,VIDP 192100Z 23003KT 3000 HZ FEW100 29/04 Q1006 NOSIG,M
VIDP,2022-04-19 21:30,84.20,39.20,20.29,230.00,3.00,0.00,29.71,M,1.86,M,FEW,M,M,M,10000.00,M,M,M,HZ,M,M,M,M,M,M,81.44,VIDP 192130Z 23003KT 3000 HZ FEW100 29/04 Q1006 NOSIG,M
VIDP,2022-04-19 22:00,84.20,39.20,20.29,230.00,3.00,0.00,29.71,M,1.74,M,FEW,M,M,M,10000.00,M,M,M,HZ,M,M,M,M,M,M,81.44,VIDP 192200Z 23003KT 2800 HZ FEW100 29/04 Q1006 NOSIG,M
VIDP,2022-04-19 22:30,84.20,39.20,20.29,270.00,4.00,0.00,29.71,M,1.74,M,FEW,M,M,M,10000.00,M,M,M,HZ,M,M,M,M,M,M,81.44,VIDP 192230Z 27004KT 2800 HZ FEW100 29/04 Q1006 NOSIG,M
VIDP,2022-04-19 23:00,84.20,42.80,23.33,240.00,5.00,0.00,29.71,M,1.55,M,FEW,M,M,M,10000.00,M,M,M,HZ,M,M,M,M,M,M,81.61,VIDP 192300Z 24005KT 2500 HZ FEW100 29/06 Q1006 NOSIG,M
VIDP,2022-04-19 23:30,82.40,42.80,24.72,220.00,4.00,0.00,29.71,M,1.55,M,FEW,M,M,M,10000.00,M,M,M,HZ,M,M,M,M,M,M,80.39,VIDP 192330Z 22004KT 2500 HZ FEW100 28/06 Q1006 NOSIG,M
VIDP,2022-04-20 00:00,82.40,44.60,26.49,230.00,3.00,0.00,29.71,M,1.55,M,FEW,M,M,M,10000.00,M,M,M,HZ,M,M,M,M,M,M,80.50,VIDP 200000Z 23003KT 2500 HZ FEW100 28/07 Q1006 NOSIG,M
VIDP,2022-04-20 00:30,80.60,44.60,28.08,0.00,0.00,0.00,29.74,M,1.12,M,FEW,M,M,M,10000.00,M,M,M,HZ,M,M,M,M,M,M,79.42,VIDP 200030Z 00000KT 1800 R28/2000 R29/1800 HZ FEW100 27/07 Q1007 BECMG 1500 HZ,M
VIDP,2022-04-20 01:00,80.60,46.40,30.07,230.00,4.00,0.00,29.74,M,0.81,M,SCT,M,M,M,10000.00,M,M,M,HZ,M,M,M,M,M,M,79.56,VIDP 200100Z 23004KT 1300 R28/2000 R29/1300 HZ SCT100 27/08 Q1007 NOSIG,M
VIDP,2022-04-20 01:30,82.40,48.20,30.35,260.00,4.00,0.00,29.74,M,0.81,M,SCT,M,M,M,10000.00,M,M,M,HZ,M,M,M,M,M,M,80.80,VIDP 200130Z 26004KT 1300 R28/2000 R29/1300 HZ SCT100 28/09 Q1007 NOSIG,M
VIDP,2022-04-20 02:00,82.40,48.20,30.35,260.00,5.00,0.00,29.77,M,0.81,M,SCT,M,M,M,10000.00,M,M,M,HZ,M,M,M,M,M,M,80.80,VIDP 200200Z 26005KT 1300 R28/2000 R29/1300 HZ SCT100 28/09 Q1008 BECMG 1500 HZ,M
VIDP,2022-04-20 02:30,86.00,51.80,30.90,240.00,7.00,0.00,29.77,M,0.81,M,SCT,M,M,M,10000.00,M,M,M,DU,M,M,M,M,M,M,83.87,VIDP 200230Z 24007KT 1300 R28/2000 R29/1300 DU SCT100 30/11 Q1008 BECMG 1500 DU,M
VIDP,2022-04-20 03:00,87.80,51.80,29.18,250.00,6.00,0.00,29.77,M,0.81,M,FEW,SCT,M,M,4000.00,10000.00,M,M,DU,M,M,M,M,M,M,85.39,VIDP 200300Z 25006KT 1300 R28/2000 R29/1300 DU FEW040 SCT100 31/11 Q1008 BECMG 1500 DU,M
VIDP,2022-04-20 03:30,89.60,51.80,27.56,240.00,6.00,0.00,29.80,M,0.93,M,FEW,SCT,M,M,4000.00,10000.00,M,M,DU,M,M,M,M,M,M,87.00,VIDP 200330Z 24006KT 1500 R28/2000 R29/1500 DU FEW040 SCT100 32/11 Q1009 NOSIG,M
VIDP,2022-04-20 04:00,89.60,50.00,25.79,240.00,6.00,0.00,29.80,M,0.93,M,FEW,SCT,M,M,4000.00,10000.00,M,M,DU,M,M,M,M,M,M,86.70,VIDP 200400Z 24006KT 1500 R28/2000 R29/1500 DU FEW040 SCT100 32/10 Q1009 NOSIG,M
VIDP,2022-04-20 04:30,93.20,51.80,24.63,260.00,6.00,0.00,29.80,M,0.93,M,FEW,M,M,M,10000.00,M,M,M,DU,M,M,M,M,M,M,90.45,VIDP 200430Z 26006KT 1500 R28/2000 R29/1500 DU FEW100 34/11 Q1009 NOSIG,M
VIDP,2022-04-20 05:30,96.80,50.00,20.62,300.00,7.00,0.00,29.77,M,1.06,M,FEW,M,M,M,10000.00,M,M,M,DU,M,M,M,M,M,M,93.71,VIDP 200530Z 30007KT 1700 R28/2000 R29/1700 DU FEW100 36/10 Q1008 NOSIG,M
VIDP,2022-04-20 06:00,98.60,46.40,17.05,300.00,8.00,0.00,29.77,M,1.37,M,FEW,M,M,M,10000.00,M,M,M,DU,M,M,M,M,M,M,94.84,VIDP 200600Z 30008KT 2200 DU FEW100 37/08 Q1008 NOSIG,M
VIDP,2022-04-20 06:30,100.40,44.60,15.08,290.00,10.00,0.00,29.77,M,1.55,M,FEW,M,M,M,10000.00,M,M,M,DU,M,M,M,M,M,M,96.31,VIDP 200630Z 29010KT 2500 DU FEW100 38/07 Q1008 NOSIG,M
VIDP,2022-04-20 07:00,104.00,35.60,9.54,290.00,8.00,0.00,29.74,M,1.74,18.00,FEW,M,M,M,10000.00,M,M,M,BLDU,M,M,M,M,M,M,97.85,VIDP 200700Z 29008G18KT 2800 BLDU FEW100 40/02 Q1007 BECMG 3000 BLDU,M
VIDP,2022-04-20 07:30,105.80,35.60,9.05,300.00,15.00,0.00,29.74,M,1.86,25.00,FEW,M,M,M,10000.00,M,M,M,BLDU,M,M,M,M,M,M,99.42,VIDP 200730Z 30015G25KT 3000 BLDU FEW100 41/02 Q1007 NOSIG,M
VIDP,2022-04-20 08:00,105.80,32.00,7.84,290.00,10.00,0.00,29.71,M,1.86,20.00,FEW,M,M,M,10000.00,M,M,M,BLDU,M,M,M,M,M,M,98.82,VIDP 200800Z 29010G20KT 3000 BLDU FEW100 41/00 Q1006 NOSIG,M
VIDP,2022-04-20 08:30,105.80,35.60,9.05,290.00,8.00,0.00,29.71,M,2.17,18.00,FEW,M,M,M,10000.00,M,M,M,BLDU,M,M,M,M,M,M,99.42,VIDP 200830Z 29008G18KT 3500 BLDU FEW100 41/02 Q1006 NOSIG,M
VIDP,2022-04-20 09:00,105.80,35.60,9.05,290.00,10.00,0.00,29.71,M,2.17,20.00,SCT,M,M,M,10000.00,M,M,M,BLDU,M,M,M,M,M,M,99.42,VIDP 200900Z 29010G20KT 3500 BLDU SCT100 41/02 Q1006 NOSIG,M
VIDP,2022-04-20 09:30,105.80,35.60,9.05,270.00,8.00,0.00,29.68,M,2.17,18.00,SCT,M,M,M,10000.00,M,M,M,BLDU,M,M,M,M,M,M,99.42,VIDP 200930Z 27008G18KT 3500 BLDU SCT100 41/02 Q1005 NOSIG,M
VIDP,2022-04-20 10:00,105.80,37.40,9.72,280.00,8.00,0.00,29.68,M,2.17,18.00,SCT,M,M,M,10000.00,M,M,M,BLDU,M,M,M,M,M,M,99.76,VIDP 201000Z 28008G18KT 3500 BLDU SCT100 41/03 Q1005 NOSIG,M
VIDP,2022-04-20 10:30,105.80,37.40,9.72,290.00,8.00,0.00,29.65,M,2.49,18.00,SCT,M,M,M,10000.00,M,M,M,HZ,M,M,M,M,M,M,99.76,VIDP 201030Z 29008G18KT 4000 HZ SCT100 41/03 Q1004 NOSIG,M
VIDP,2022-04-20 11:00,105.80,37.40,9.72,270.00,8.00,0.00,29.65,M,2.49,18.00,SCT,M,M,M,10000.00,M,M,M,HZ,M,M,M,M,M,M,99.76,VIDP 201100Z 27008G18KT 4000 HZ SCT100 41/03 Q1004 NOSIG,M
VIDP,2022-04-20 11:30,105.80,37.40,9.72,290.00,8.00,0.00,29.65,M,2.49,18.00,SCT,M,M,M,10000.00,M,M,M,HZ,M,M,M,M,M,M,99.76,VIDP 201130Z 29008G18KT 4000 HZ SCT100 41/03 Q1004 NOSIG,M
VIDP,2022-04-20 12:00,104.00,37.40,10.25,290.00,6.00,0.00,29.65,M,2.49,16.00,SCT,M,M,M,10000.00,M,M,M,HZ,M,M,M,M,M,M,98.19,VIDP 201200Z 29006G16KT 4000 HZ SCT100 40/03 Q1004 NOSIG,M
VIDP,2022-04-20 12:30,102.20,39.20,11.60,270.00,8.00,0.00,29.65,M,2.49,M,SCT,M,M,M,10000.00,M,M,M,HZ,M,M,M,M,M,M,96.99,VIDP 201230Z 27008KT 4000 HZ SCT100 39/04 Q1004 NOSIG,M
VIDP,2022-04-20 13:00,102.20,39.20,11.60,280.00,8.00,0.00,29.65,M,2.17,M,SCT,M,M,M,10000.00,M,M,M,HZ,M,M,M,M,M,M,96.99,VIDP 201300Z 28008KT 3500 HZ SCT100 39/04 Q1004 NOSIG,M
VIDP,2022-04-20 13:30,100.40,39.20,12.25,270.00,6.00,0.00,29.65,M,2.17,M,SCT,M,M,M,10000.00,M,M,M,HZ,M,M,M,M,M,M,95.43,VIDP 201330Z 27006KT 3500 HZ SCT100 38/04 Q1004 NOSIG,M
VIDP,2022-04-20 14:00,100.40,41.00,13.14,270.00,6.00,0.00,29.68,M,2.17,M,SCT,M,M,M,10000.00,M,M,M,HZ,M,M,M,M,M,M,95.79,VIDP 201400Z 27006KT 3500 HZ SCT100 38/05 Q1005 NOSIG,M
VIDP,2022-04-20 14:30,98.60,42.80,14.87,260.00,5.00,0.00,29.68,M,2.17,M,SCT,M,M,M,10000.00,M,M,M,HZ,M,M,M,M,M,M,94.30,VIDP 201430Z 26005KT 3500 HZ SCT100 37/06 Q1005 NOSIG,M
VIDP,2022-04-20 15:00,95.00,46.40,19.04,270.00,3.00,0.00,29.68,M,2.17,M,SCT,M,M,M,10000.00,M,M,M,HZ,M,M,M,M,M,M,91.29,VIDP 201500Z 27003KT 3500 HZ SCT100 35/08 Q1005 NOSIG,M
VIDP,2022-04-20 15:30,95.00,46.40,19.04,260.00,3.00,0.00,29.71,M,2.17,M,SCT,M,M,M,10000.00,M,M,M,HZ,M,M,M,M,M,M,91.29,VIDP 201530Z 26003KT 3500 HZ SCT100 35/08 Q1006 NOSIG,M
VIDP,2022-04-20 16:00,93.20,46.40,20.13,270.00,3.00,0.00,29.71,M,2.17,M,SCT,M,M,M,10000.00,M,M,M,HZ,M,M,M,M,M,M,89.55,VIDP 201600Z 27003KT 3500 HZ SCT100 34/08 Q1006 NOSIG,M
VIDP,2022-04-20 16:30,93.20,46.40,20.13,240.00,4.00,0.00,29.71,M,2.17,M,SCT,M,M,M,10000.00,M,M,M,HZ,M,M,M,M,M,M,89.55,VIDP 201630Z 24004KT 3500 HZ SCT100 34/08 Q1006 NOSIG,M
VIDP,2022-04-20 17:00,91.40,44.60,19.89,230.00,4.00,0.00,29.71,M,2.17,M,SCT,M,M,M,10000.00,M,M,M,HZ,M,M,M,M,M,M,87.68,VIDP 201700Z 23004KT 3500 HZ SCT100 33/07 Q1006 NOSIG,M
VIDP,2022-04-20 17:30,89.60,44.60,21.04,0.00,0.00,0.00,29.71,M,2.17,M,SCT,M,M,M,10000.00,M,M,M,HZ,M,M,M,M,M,M,86.07,VIDP 201730Z 00000KT 3500 HZ SCT100 32/07 Q1006 NOSIG,M
VIDP,2022-04-20 18:00,89.60,46.40,22.53,0.00,0.00,0.00,29.71,M,2.17,M,SCT,M,M,M,10000.00,M,M,M,HZ,M,M,M,M,M,M,86.24,VIDP 201800Z 00000KT 3500 HZ SCT100 32/08 Q1006 NOSIG,M
VIDP,2022-04-20 18:30,87.80,46.40,23.85,0.00,0.00,0.00,29.71,M,2.17,M,SCT,M,M,M,10000.00,M,M,M,HZ,M,M,M,M,M,M,84.68,VIDP 201830Z 00000KT 3500 HZ SCT100 31/08 Q1006 NOSIG,M
VIDP,2022-04-20 19:00,87.80,46.40,23.85,0.00,0.00,0.00,29.71,M,2.17,M,SCT,M,M,M,10000.00,M,M,M,HZ,M,M,M,M,M,M,84.68,VIDP 201900Z 00000KT 3500 HZ SCT100 31/08 Q1006 NOSIG,M
VIDP,2022-04-20 19:30,87.80,46.40,23.85,0.00,0.00,0.00,29.71,M,2.17,M,SCT,M,M,M,10000.00,M,M,M,HZ,M,M,M,M,M,M,84.68,VIDP 201930Z 00000KT 3500 HZ SCT100 31/08 Q1006 NOSIG,M
VIDP,2022-04-20 20:00,87.80,46.40,23.85,0.00,0.00,0.00,29.71,M,2.17,M,SCT,M,M,M,10000.00,M,M,M,HZ,M,M,M,M,M,M,84.68,VIDP 202000Z 00000KT 3500 HZ SCT100 31/08 Q1006 NOSIG,M
VIDP,2022-04-20 20:30,86.00,46.40,25.26,0.00,0.00,0.00,29.68,M,2.17,M,SCT,M,M,M,10000.00,M,M,M,HZ,M,M,M,M,M,M,83.22,VIDP 202030Z 00000KT 3500 HZ SCT100 30/08 Q1005 NOSIG,M
VIDP,2022-04-20 21:00,86.00,48.20,27.03,0.00,0.00,0.00,29.68,M,2.17,M,SCT,M,M,M,10000.00,M,M,M,HZ,M,M,M,M,M,M,83.40,VIDP 202100Z 00000KT 3500 HZ SCT100 30/09 Q1005 NOSIG,M
VIDP,2022-04-20 21:30,86.00,48.20,27.03,0.00,0.00,0.00,29.68,M,2.17,M,SCT,M,M,M,10000.00,M,M,M,HZ,M,M,M,M,M,M,83.40,VIDP 202130Z 00000KT 3500 HZ SCT100 30/09 Q1005 NOSIG,M
VIDP,2022-04-20 22:00,86.00,48.20,27.03,0.00,0.00,0.00,29.68,M,2.17,M,SCT,M,M,M,10000.00,M,M,M,HZ,M,M,M,M,M,M,83.40,VIDP 202200Z 00000KT 3500 HZ SCT100 30/09 Q1005 NOSIG,M
VIDP,2022-04-20 22:30,84.20,48.20,28.63,0.00,0.00,0.00,29.68,M,2.17,M,SCT,M,M,M,10000.00,M,M,M,HZ,M,M,M,M,M,M,82.04,VIDP 202230Z 00000KT 3500 HZ SCT100 29/09 Q1005 NOSIG,M
VIDP,2022-04-20 23:00,84.20,48.20,28.63,0.00,0.00,0.00,29.68,M,1.99,M,SCT,M,M,M,10000.00,M,M,M,HZ,M,M,M,M,M,M,82.04,VIDP 202300Z 00000KT 3200 HZ SCT100 29/09 Q1005 BECMG 3000 HZ,M
VIDP,2022-04-20 23:30,84.20,50.00,30.62,0.00,0.00,0.00,29.68,M,1.86,M,SCT,M,M,M,10000.00,M,M,M,HZ,M,M,M,M,M,M,82.24,VIDP 202330Z 00000KT 3000 HZ SCT100 29/10 Q1005 NOSIG,M
VIDP,2022-04-21 00:00,84.20,50.00,30.62,250.00,3.00,0.00,29.71,M,1.55,M,SCT,M,M,M,10000.00,M,M,M,HZ,M,M,M,M,M,M,82.24,VIDP 210000Z 25003KT 2500 HZ SCT100 29/10 Q1006 NOSIG,M
VIDP,2022-04-21 00:30,84.20,51.80,32.73,260.00,3.00,0.00,29.71,M,1.37,M,SCT,M,M,M,10000.00,M,M,M,HZ,M,M,M,M,M,M,82.48,VIDP 210030Z 26003KT 2200 HZ SCT100 29/11 Q1006 NOSIG,M
VIDP,2022-04-21 01:00,84.20,51.80,32.73,250.00,3.00,0.00,29.74,M,1.37,M,SCT,M,M,M,10000.00,M,M,M,HZ,M,M,M,M,M,M,82.48,VIDP 210100Z 25003KT 2200 HZ SCT100 29/11 Q1007 NOSIG,M
VIDP,2022-04-21 01:30,87.80,50.00,27.29,220.00,3.00,0.00,29.77,M,1.37,M,FEW,SCT,M,M,4000.00,10000.00,M,M,HZ,M,M,M,M,M,M,85.11,VIDP 210130Z 22003KT 2200 HZ FEW040 SCT100 31/10 Q1008 NOSIG,M
VIDP,2022-04-21 02:00,89.60,48.20,24.11,230.00,5.00,0.00,29.77,M,1.55,M,FEW,SCT,M,M,4000.00,10000.00,M,M,HZ,M,M,M,M,M,M,86.44,VIDP 210200Z 23005KT 2500 HZ FEW040 SCT100 32/09 Q1008 NOSIG,M
VIDP,2022-04-21 02:30,91.40,48.20,22.78,240.00,6.00,0.00,29.77,M,1.55,16.00,FEW,SCT,M,M,4000.00,10000.00,M,M,HZ,M,M,M,M,M,M,88.09,VIDP 210230Z 24006G16KT 2500 HZ FEW040 SCT100 33/09 Q1008 NOSIG,M
VIDP,2022-04-21 03:00,91.40,48.20,22.78,230.00,10.00,0.00,29.77,M,1.55,20.00,FEW,SCT,M,M,4000.00,10000.00,M,M,HZ,M,M,M,M,M,M,88.09,VIDP 210300Z 23010G20KT 2500 HZ FEW040 SCT100 33/09 Q1008 NOSIG,M
VIDP,2022-04-21 03:30,93.20,46.40,20.13,240.00,10.00,0.00,29.77,M,1.55,20.00,FEW,SCT,M,M,4000.00,10000.00,M,M,HZ,M,M,M,M,M,M,89.55,VIDP 210330Z 24010G20KT 2500 HZ FEW040 SCT100 34/08 Q1008 NOSIG,M
VIDP,2022-04-21 04:00,93.20,46.40,20.13,260.00,10.00,0.00,29.80,M,1.55,22.00,FEW,SCT,M,M,4000.00,10000.00,M,M,HZ,M,M,M,M,M,M,89.55,VIDP 210400Z 26010G22KT 2500 HZ FEW040 SCT100 34/08 Q1009 NOSIG,M
VIDP,2022-04-21 04:30,95.00,46.40,19.04,250.00,10.00,0.00,29.80,M,1.55,25.00,FEW,SCT,M,M,4000.00,10000.00,M,M,DU,M,M,M,M,M,M,91.29,VIDP 210430Z 25010G25KT 2500 DU FEW040 SCT100 35/08 Q1009 NOSIG,M
VIDP,2022-04-21 05:00,95.00,46.40,19.04,250.00,10.00,0.00,29.80,M,1.55,20.00,FEW,SCT,M,M,4000.00,10000.00,M,M,DU,M,M,M,M,M,M,91.29,VIDP 210500Z 25010G20KT 2500 DU FEW040 SCT100 35/08 Q1009 NOSIG,M
VIDP,2022-04-21 05:30,95.00,44.60,17.78,260.00,10.00,0.00,29.80,M,1.37,20.00,FEW,SCT,M,M,4000.00,10000.00,M,M,BLDU,M,M,M,M,M,M,91.06,VIDP 210530Z 26010G20KT 2200 BLDU FEW040 SCT100 35/07 Q1009 NOSIG,M
VIDP,2022-04-21 06:00,95.00,44.60,17.78,260.00,10.00,0.00,29.80,M,1.37,20.00,FEW,SCT,M,M,4000.00,10000.00,M,M,BLDU,M,M,M,M,M,M,91.06,VIDP 210600Z 26010G20KT 2200 BLDU FEW040 SCT100 35/07 Q1009 NOSIG,M
VIDP,2022-04-21 06:30,96.80,44.60,16.83,250.00,10.00,0.00,29.80,M,1.37,22.00,FEW,SCT,M,M,4000.00,10000.00,M,M,BLDU,M,M,M,M,M,M,92.79,VIDP 210630Z 25010G22KT 2200 BLDU FEW040 SCT100 36/07 Q1009 NOSIG,M
VIDP,2022-04-21 07:00,96.80,44.60,16.83,260.00,10.00,0.00,29.80,M,1.37,22.00,FEW,SCT,M,M,4000.00,10000.00,M,M,BLDU,M,M,M,M,M,M,92.79,VIDP 210700Z 26010G22KT 2200 BLDU FEW040 SCT100 36/07 Q1009 NOSIG,M
VIDP,2022-04-21 07:30,96.80,44.60,16.83,300.00,10.00,0.00,29.80,M,1.55,20.00,SCT,BKN,M,M,4000.00,10000.00,M,M,HZ,M,M,M,M,M,M,92.79,VIDP 210730Z 30010G20KT 2500 HZ SCT040 BKN100 36/07 Q1009 NOSIG,M
VIDP,2022-04-21 08:00,96.80,44.60,16.83,310.00,10.00,0.00,29.83,M,1.74,20.00,SCT,BKN,M,M,4000.00,10000.00,M,M,HZ,M,M,M,M,M,M,92.79,VIDP 210800Z 31010G20KT 2800 HZ SCT040 BKN100 36/07 Q1010 NOSIG,M
VIDP,2022-04-21 08:30,93.20,48.20,21.54,300.00,10.00,0.00,29.80,M,1.12,M,FEW,SCT,M,M,4000.00,10000.00,M,M,BLDU,M,M,M,M,M,M,89.80,VIDP 210830Z 30010KT 1800 R28/2000 R29/1800 BLDU FEW040 SCT100 34/09 Q1009 BECMG 1500 BLDU,M
VIDP,2022-04-21 09:00,93.20,50.00,23.04,320.00,11.00,0.00,29.77,M,0.62,M,SCT,BKN,M,M,4000.00,10000.00,M,M,BLDU,M,M,M,M,M,M,90.10,VIDP 210900Z 32011KT 1000 R28/2000 R29/1000 BLDU SCT040 BKN100 34/10 Q1008 NOSIG,M
VIDP,2022-04-21 09:30,93.20,48.20,21.54,310.00,7.00,0.00,29.77,M,0.62,M,SCT,BKN,M,M,4000.00,10000.00,M,M,BLDU,M,M,M,M,M,M,89.80,VIDP 210930Z 31007KT 1000 R28/2000 R29/1000 BLDU SCT040 BKN100 34/09 Q1008 NOSIG,M
VIDP,2022-04-21 10:00,93.20,44.60,18.80,270.00,4.00,0.00,29.74,M,0.87,M,SCT,BKN,M,M,4000.00,10000.00,M,M,HZ,M,M,M,M,M,M,89.34,VIDP 211000Z 27004KT 1400 R28/2000 R29/1400 HZ SCT040 BKN100 34/07 Q1007 BECMG 1500 HZ,M
VIDP,2022-04-21 10:30,93.20,44.60,18.80,M,2.00,0.00,29.74,M,1.37,M,SCT,BKN,M,M,3500.00,10000.00,M,M,HZ,M,M,M,M,M,M,89.34,VIDP 211030Z VRB02KT 2200 HZ SCT035 BKN100 34/07 Q1007 NOSIG,M
VIDP,2022-04-21 11:00,91.40,46.40,21.29,90.00,4.00,0.00,29.74,M,1.55,M,SCT,BKN,M,M,3500.00,10000.00,M,M,HZ,M,M,M,M,M,M,87.86,VIDP 211100Z 09004KT 2500 HZ SCT035 BKN100 33/08 Q1007 NOSIG,M
VIDP,2022-04-21 11:30,91.40,44.60,19.89,90.00,4.00,0.00,29.74,M,1.86,M,SCT,BKN,M,M,4000.00,10000.00,M,M,HZ,M,M,M,M,M,M,87.68,VIDP 211130Z 09004KT 3000 HZ SCT040 BKN100 33/07 Q1007 NOSIG,M
VIDP,2022-04-21 12:00,91.40,48.20,22.78,60.00,7.00,0.00,29.74,M,1.86,M,SCT,BKN,M,M,4000.00,10000.00,M,M,HZ,M,M,M,M,M,M,88.09,VIDP 211200Z 06007KT 3000 HZ SCT040 BKN100 33/09 Q1007 NOSIG,M
VIDP,2022-04-21 12:30,89.60,46.40,22.53,30.00,7.00,0.00,29.71,M,1.86,M,SCT,BKN,M,M,4000.00,10000.00,M,M,HZ,M,M,M,M,M,M,86.24,VIDP 211230Z 03007KT 3000 HZ SCT040 BKN100 32/08 Q1006 NOSIG,M
VIDP,2022-04-21 13:00,89.60,46.40,22.53,40.00,6.00,0.00,29.71,M,1.86,M,SCT,BKN,M,M,4000.00,10000.00,M,M,HZ,M,M,M,M,M,M,86.24,VIDP 211300Z 04006KT 3000 HZ SCT040 BKN100 32/08 Q1006 NOSIG,M
VIDP,2022-04-21 13:30,87.80,46.40,23.85,40.00,5.00,0.00,29.74,M,1.86,M,SCT,BKN,M,M,4000.00,10000.00,M,M,HZ,M,M,M,M,M,M,84.68,VIDP 211330Z 04005KT 3000 HZ SCT040 BKN100 31/08 Q1007 NOSIG,M
VIDP,2022-04-21 14:00,86.00,46.40,25.26,40.00,5.00,0.00,29.74,M,1.86,M,SCT,BKN,M,M,4000.00,10000.00,M,M,HZ,M,M,M,M,M,M,83.22,VIDP 211400Z 04005KT 3000 HZ SCT040 BKN100 30/08 Q1007 NOSIG,M
VIDP,2022-04-21 14:30,86.00,48.20,27.03,60.00,6.00,0.00,29.74,M,1.86,M,SCT,BKN,M,M,4000.00,10000.00,M,M,HZ,M,M,M,M,M,M,83.40,VIDP 211430Z 06006KT 3000 HZ SCT040 BKN100 30/09 Q1007 NOSIG,M
VIDP,2022-04-21 15:00,86.00,48.20,27.03,40.00,3.00,0.00,29.74,M,1.86,M,SCT,BKN,M,M,4000.00,10000.00,M,M,HZ,M,M,M,M,M,M,83.40,VIDP 211500Z 04003KT 3000 HZ SCT040 BKN100 30/09 Q1007 NOSIG,M
VIDP,2022-04-21 15:30,84.20,50.00,30.62,60.00,5.00,0.00,29.74,M,1.86,M,SCT,BKN,M,M,4000.00,10000.00,M,M,HZ,M,M,M,M,M,M,82.24,VIDP 211530Z 06005KT 3000 HZ SCT040 BKN100 29/10 Q1007 NOSIG,M
VIDP,2022-04-21 16:00,84.20,50.00,30.62,40.00,4.00,0.00,29.74,M,1.86,M,SCT,BKN,M,M,4000.00,10000.00,M,M,HZ,M,M,M,M,M,M,82.24,VIDP 211600Z 04004KT 3000 HZ SCT040 BKN100 29/10 Q1007 NOSIG,M
VIDP,2022-04-21 16:30,82.40,50.00,32.46,50.00,5.00,0.00,29.77,M,1.86,M,FEW,SCT,M,M,4000.00,10000.00,M,M,HZ,M,M,M,M,M,M,80.99,VIDP 211630Z 05005KT 3000 HZ FEW040 SCT100 28/10 Q1008 NOSIG,M
VIDP,2022-04-21 17:00,82.40,51.80,34.69,60.00,5.00,0.00,29.77,M,1.86,M,FEW,SCT,M,M,4000.00,10000.00,M,M,HZ,M,M,M,M,M,M,81.20,VIDP 211700Z 06005KT 3000 HZ FEW040 SCT100 28/11 Q1008 NOSIG,M
VIDP,2022-04-21 17:30,80.60,51.80,36.79,70.00,4.00,0.00,29.77,M,1.86,M,FEW,SCT,M,M,4000.00,10000.00,M,M,HZ,M,M,M,M,M,M,80.08,VIDP 211730Z 07004KT 3000 HZ FEW040 SCT100 27/11 Q1008 NOSIG,M
VIDP,2022-04-21 18:00,80.60,51.80,36.79,320.00,8.00,0.00,29.83,M,1.86,18.00,SCT,FEW,BKN,M,3500.00,4000.00,10000.00,M,HZ,M,M,M,M,M,M,80.08,VIDP 211800Z 32008G18KT 3000 HZ SCT035 FEW040CB BKN100 27/11 Q1010 TEMPO 27015G25KT 0800 DS TS,M
VIDP,2022-04-21 18:30,82.40,51.80,34.69,300.00,15.00,0.00,29.88,M,1.24,25.00,SCT,FEW,BKN,M,3500.00,4000.00,10000.00,M,TS BLDU,M,M,M,M,M,M,81.20,VIDP 211830Z 30015G25KT 2000 TS BLDU SCT035 FEW040CB BKN100 28/11 Q1012 TEMPO 27015G25KT 0800 DS TS,M
VIDP,2022-04-21 19:00,82.40,53.60,37.07,280.00,15.00,0.00,29.85,M,1.24,25.00,SCT,FEW,BKN,M,3500.00,4000.00,10000.00,M,TS BLDU,M,M,M,M,M,M,81.46,COR VIDP 211900Z 28015G25KT 2000 TS BLDU SCT035 FEW040CB BKN100 28/12 Q1011 TEMPO 27015G25KT 0800 DU TS,M
VIDP,2022-04-21 19:30,80.60,53.60,39.30,290.00,9.00,0.00,29.85,M,1.55,M,SCT,FEW,BKN,M,3500.00,4000.00,10000.00,M,TS,M,M,M,M,M,M,80.29,VIDP 211930Z 29009KT 2500 TS SCT035 FEW040CB BKN100 27/12 Q1011 TEMPO 27015G25KT 0800 DS TS,M
VIDP,2022-04-21 20:00,77.00,57.20,50.43,290.00,10.00,0.00,29.83,M,1.55,20.00,SCT,FEW,BKN,M,3500.00,4000.00,10000.00,M,-TSRA,M,M,M,M,M,M,77.00,VIDP 212000Z 29010G20KT 2500 -TSRA SCT035 FEW040CB BKN100 25/14 Q1010 TEMPO 27015G25KT 0800 DS TS,M
VIDP,2022-04-21 20:30,80.60,53.60,39.30,150.00,12.00,0.00,29.77,M,1.86,22.00,SCT,FEW,BKN,M,3500.00,4000.00,8000.00,M,-TSRA,M,M,M,M,M,M,80.29,VIDP 212030Z 15012G22KT 3000 -TSRA SCT035 FEW040CB BKN080 27/12 Q1008 TEMPO 27015G25KT 1500 TSRA,M
VIDP,2022-04-21 21:00,80.60,50.00,34.41,270.00,8.00,0.00,29.77,M,1.86,18.00,SCT,FEW,BKN,M,3500.00,4000.00,8000.00,M,TS,M,M,M,M,M,M,79.88,VIDP 212100Z 27008G18KT 3000 TS SCT035 FEW040CB BKN080 27/10 Q1008 TEMPO 27015G25KT 1500 TSRA,M
VIDP,2022-04-21 21:30,82.40,48.20,30.35,270.00,5.00,0.00,29.80,M,1.86,M,SCT,FEW,BKN,M,3500.00,4000.00,8000.00,M,TS,M,M,M,M,M,M,80.80,VIDP 212130Z 27005KT 3000 TS SCT035 FEW040CB BKN080 28/09 Q1009 TEMPO 27015G25KT 1500 TSRA,M
VIDP,2022-04-21 22:00,82.40,46.40,28.36,270.00,6.00,0.00,29.77,M,1.86,M,SCT,FEW,BKN,M,3500.00,4000.00,8000.00,M,TS,M,M,M,M,M,M,80.64,VIDP 212200Z 27006KT 3000 TS SCT035 FEW040CB BKN080 28/08 Q1008 TEMPO 27015G25KT 1500 TSRA,M
VIDP,2022-04-21 22:30,82.40,46.40,28.36,280.00,3.00,0.00,29.80,M,1.86,M,SCT,FEW,BKN,M,3500.00,4000.00,8000.00,M,TS,M,M,M,M,M,M,80.64,VIDP 212230Z 28003KT 3000 TS SCT035 FEW040CB BKN080 28/08 Q1009 TEMPO 27015G25KT 1500 TSRA,M
VIDP,2022-04-21 23:00,80.60,50.00,34.41,290.00,5.00,0.00,29.77,M,1.86,M,SCT,FEW,BKN,M,3500.00,4000.00,8000.00,M,HZ,M,M,M,M,M,M,79.88,VIDP 212300Z 29005KT 3000 HZ SCT035 FEW040CB BKN080 27/10 Q1008 TEMPO 27015G25KT 1500 TSRA,M
VIDP,2022-04-21 23:30,78.80,50.00,36.51,320.00,3.00,0.00,29.77,M,1.86,M,SCT,FEW,BKN,M,3500.00,4000.00,8000.00,M,HZ,M,M,M,M,M,M,78.80,VIDP 212330Z 32003KT 3000 HZ SCT035 FEW040CB BKN080 26/10 Q1008 TEMPO 27015G25KT 1500 TSRA,M
VIDP,2022-04-22 00:00,78.80,50.00,36.51,30.00,2.00,0.00,29.77,M,1.86,M,SCT,FEW,BKN,M,3500.00,4000.00,8000.00,M,HZ,M,M,M,M,M,M,78.80,VIDP 220000Z 03002KT 3000 HZ SCT035 FEW040CB BKN080 26/10 Q1008 TEMPO 27015G25KT 1500 TSRA,M
VIDP,2022-04-22 00:30,77.00,51.80,41.42,60.00,2.00,0.00,29.77,M,1.86,M,SCT,BKN,M,M,3500.00,10000.00,M,M,HZ,M,M,M,M,M,M,77.00,VIDP 220030Z 06002KT 3000 HZ SCT035 BKN100 25/11 Q1008 NOSIG,M
VIDP,2022-04-22 01:00,77.00,51.80,41.42,120.00,2.00,0.00,29.77,M,1.37,M,SCT,BKN,M,M,3500.00,10000.00,M,M,HZ,M,M,M,M,M,M,77.00,VIDP 220100Z 12002KT 2200 HZ SCT035 BKN100 25/11 Q1008 NOSIG,M
VIDP,2022-04-22 01:30,78.80,51.80,39.02,0.00,0.00,0.00,29.80,M,1.30,M,SCT,BKN,M,M,3500.00,10000.00,M,M,HZ,M,M,M,M,M,M,78.80,VIDP 220130Z 00000KT 2100 HZ SCT035 BKN100 26/11 Q1009 BECMG 1500 HZ,M
VIDP,2022-04-22 02:00,80.60,51.80,36.79,0.00,0.00,0.00,29.80,M,0.93,M,SCT,BKN,M,M,3500.00,10000.00,M,M,M,M,M,M,M,M,M,80.08,VIDP 220200Z 00000KT 1500 R28/2000 R29/1500 SCT035 BKN100 27/11 Q1009 NOSIG,M
VIDP,2022-04-22 02:30,84.20,51.80,32.73,60.00,4.00,0.00,29.80,M,1.12,M,SCT,BKN,M,M,3500.00,10000.00,M,M,HZ,M,M,M,M,M,M,82.48,VIDP 220230Z 06004KT 1800 HZ SCT035 BKN100 29/11 Q1009 BECMG 1500 HZ,M
VIDP,2022-04-22 03:00,86.00,51.80,30.90,50.00,3.00,0.00,29.83,M,1.24,M,SCT,BKN,M,M,3500.00,10000.00,M,M,HZ,M,M,M,M,M,M,83.87,VIDP 220300Z 05003KT 2000 HZ SCT035 BKN100 30/11 Q1010 NOSIG,M
VIDP,2022-04-22 03:30,87.80,50.00,27.29,50.00,4.00,0.00,29.83,M,1.24,M,FEW,SCT,M,M,3500.00,10000.00,M,M,HZ,M,M,M,M,M,M,85.11,VIDP 220330Z 05004KT 2000 HZ FEW035 SCT100 31/10 Q1010 NOSIG,M
VIDP,2022-04-22 04:00,89.60,50.00,25.79,100.00,3.00,0.00,29.83,M,1.55,M,FEW,SCT,M,M,3500.00,10000.00,M,M,HZ,M,M,M,M,M,M,86.70,VIDP 220400Z 10003KT 2500 HZ FEW035 SCT100 32/10 Q1010 BECMG 3000 HZ,M
VIDP,2022-04-22 04:30,89.60,46.40,22.53,250.00,3.00,0.00,29.85,M,2.17,M,FEW,SCT,M,M,3500.00,10000.00,M,M,HZ,M,M,M,M,M,M,86.24,VIDP 220430Z 25003KT 3500 HZ FEW035 SCT100 32/08 Q1011 NOSIG,M
VIDP,2022-04-22 05:00,91.40,48.20,22.78,200.00,3.00,0.00,29.83,M,2.17,M,FEW,SCT,M,M,3500.00,10000.00,M,M,HZ,M,M,M,M,M,M,88.09,VIDP 220500Z 20003KT 3500 HZ FEW035 SCT100 33/09 Q1010 NOSIG,M
VIDP,2022-04-22 05:30,93.20,44.60,18.80,280.00,3.00,0.00,29.83,M,2.49,M,FEW,SCT,M,M,3500.00,10000.00,M,M,HZ,M,M,M,M,M,M,89.34,VIDP 220530Z 28003KT 4000 HZ FEW035 SCT100 34/07 Q1010 NOSIG,M
VIDP,2022-04-22 06:00,93.20,42.80,17.55,260.00,5.00,0.00,29.83,M,2.80,M,SCT,M,M,M,10000.00,M,M,M,HZ,M,M,M,M,M,M,89.17,VIDP 220600Z 26005KT 4500 HZ SCT100 34/06 Q1010 BECMG 5000 HZ,M
VIDP,2022-04-22 06:30,93.20,44.60,18.80,230.00,7.00,0.00,29.83,M,3.11,M,SCT,M,M,M,10000.00,M,M,M,HZ,M,M,M,M,M,M,89.34,VIDP 220630Z 23007KT 5000 HZ SCT100 34/07 Q1010 NOSIG,M
VIDP,2022-04-22 07:00,95.00,44.60,17.78,240.00,6.00,0.00,29.83,M,3.11,M,FEW,M,M,M,10000.00,M,M,M,HZ,M,M,M,M,M,M,91.06,VIDP 220700Z 24006KT 5000 HZ FEW100 35/07 Q1010 NOSIG,M
VIDP,2022-04-22 07:30,95.00,42.80,16.60,220.00,5.00,0.00,29.80,M,3.11,M,FEW,M,M,M,10000.00,M,M,M,HZ,M,M,M,M,M,M,90.86,VIDP 220730Z 22005KT 5000 HZ FEW100 35/06 Q1009 NOSIG,M
VIDP,2022-04-22 08:00,95.00,42.80,16.60,240.00,5.00,0.00,29.80,M,3.11,M,FEW,M,M,M,10000.00,M,M,M,HZ,M,M,M,M,M,M,90.86,VIDP 220800Z 24005KT 5000 HZ FEW100 35/06 Q1009 NOSIG,M
VIDP,2022-04-22 08:30,96.80,42.80,15.71,260.00,6.00,0.00,29.77,M,3.11,M,FEW,M,M,M,10000.00,M,M,M,HZ,M,M,M,M,M,M,92.57,VIDP 220830Z 26006KT 5000 HZ FEW100 36/06 Q1008 NOSIG,M
VIDP,2022-04-22 09:00,98.60,41.00,13.87,240.00,5.00,0.00,29.77,M,3.11,M,FEW,M,M,M,10000.00,M,M,M,HZ,M,M,M,M,M,M,94.09,VIDP 220900Z 24005KT 5000 HZ FEW100 37/05 Q1008 NOSIG,M
VIDP,2022-04-22 09:30,100.40,41.00,13.14,260.00,5.00,0.00,29.77,M,3.11,M,FEW,M,M,M,10000.00,M,M,M,HZ,M,M,M,M,M,M,95.79,VIDP 220930Z 26005KT 5000 HZ FEW100 38/05 Q1008 NOSIG,M
VIDP,2022-04-22 10:00,100.40,41.00,13.14,270.00,7.00,0.00,29.74,M,3.11,M,SCT,M,M,M,10000.00,M,M,M,HZ,M,M,M,M,M,M,95.79,VIDP 221000Z 27007KT 5000 HZ SCT100 38/05 Q1007 NOSIG,M
VIDP,2022-04-22 10:30,98.60,42.80,14.87,330.00,6.00,0.00,29.74,M,3.11,M,SCT,M,M,M,10000.00,M,M,M,HZ,M,M,M,M,M,M,94.30,VIDP 221030Z 33006KT 5000 HZ SCT100 37/06 Q1007 NOSIG,M
VIDP,2022-04-22 11:00,98.60,42.80,14.87,330.00,4.00,0.00,29.71,M,3.11,M,SCT,M,M,M,10000.00,M,M,M,HZ,M,M,M,M,M,M,94.30,VIDP 221100Z 33004KT 5000 HZ SCT100 37/06 Q1006 NOSIG,M
VIDP,2022-04-22 11:30,98.60,42.80,14.87,330.00,7.00,0.00,29.71,M,3.11,M,SCT,M,M,M,10000.00,M,M,M,HZ,M,M,M,M,M,M,94.30,VIDP 221130Z 33007KT 5000 HZ SCT100 37/06 Q1006 NOSIG,M
VIDP,2022-04-22 12:00,98.60,41.00,13.87,320.00,8.00,0.00,29.71,M,3.11,M,SCT,M,M,M,10000.00,M,M,M,HZ,M,M,M,M,M,M,94.09,VIDP 221200Z 32008KT 5000 HZ SCT100 37/05 Q1006 NOSIG,M
VIDP,2022-04-22 12:30,98.60,41.00,13.87,320.00,8.00,0.00,29.71,M,2.49,M,SCT,M,M,M,10000.00,M,M,M,HZ,M,M,M,M,M,M,94.09,VIDP 221230Z 32008KT 4000 HZ SCT100 37/05 Q1006 NOSIG,M
VIDP,2022-04-22 13:00,98.60,39.20,12.94,310.00,6.00,0.00,29.71,M,2.17,M,FEW,M,M,M,10000.00,M,M,M,HZ,M,M,M,M,M,M,93.89,VIDP 221300Z 31006KT 3500 HZ FEW100 37/04 Q1006 NOSIG,M
VIDP,2022-04-22 13:30,96.80,39.20,13.66,320.00,5.00,0.00,29.74,M,2.17,M,FEW,M,M,M,10000.00,M,M,M,HZ,M,M,M,M,M,M,92.23,VIDP 221330Z 32005KT 3500 HZ FEW100 36/04 Q1007 NOSIG,M
VIDP,2022-04-22 14:00,95.00,39.20,14.44,310.00,5.00,0.00,29.74,M,2.17,M,FEW,M,M,M,10000.00,M,M,M,HZ,M,M,M,M,M,M,90.57,VIDP 221400Z 31005KT 3500 HZ FEW100 35/04 Q1007 NOSIG,M
VIDP,2022-04-22 14:30,93.20,39.20,15.27,300.00,5.00,0.00,29.74,M,2.17,M,FEW,M,M,M,10000.00,M,M,M,HZ,M,M,M,M,M,M,88.92,VIDP 221430Z 30005KT 3500 HZ FEW100 34/04 Q1007 NOSIG,M
VIDP,2022-04-22 15:00,93.20,41.00,16.37,330.00,5.00,0.00,29.74,M,2.17,M,FEW,M,M,M,10000.00,M,M,M,HZ,M,M,M,M,M,M,89.03,VIDP 221500Z 33005KT 3500 HZ FEW100 34/05 Q1007 NOSIG,M
VIDP,2022-04-22 15:30,93.20,42.80,17.55,10.00,4.00,0.00,29.77,M,2.17,M,FEW,M,M,M,10000.00,M,M,M,HZ,M,M,M,M,M,M,89.17,VIDP 221530Z 01004KT 3500 HZ FEW100 34/06 Q1008 NOSIG,M
VIDP,2022-04-22 16:00,91.40,44.60,19.89,340.00,4.00,0.00,29.77,M,2.17,M,FEW,M,M,M,10000.00,M,M,M,HZ,M,M,M,M,M,M,87.68,VIDP 221600Z 34004KT 3500 HZ FEW100 33/07 Q1008 NOSIG,M
VIDP,2022-04-22 16:30,91.40,44.60,19.89,340.00,4.00,0.00,29.77,M,2.17,M,FEW,M,M,M,10000.00,M,M,M,HZ,M,M,M,M,M,M,87.68,VIDP 221630Z 34004KT 3500 HZ FEW100 33/07 Q1008 NOSIG,M
VIDP,2022-04-22 17:00,89.60,46.40,22.53,350.00,3.00,0.00,29.77,M,2.17,M,FEW,M,M,M,10000.00,M,M,M,HZ,M,M,M,M,M,M,86.24,VIDP 221700Z 35003KT 3500 HZ FEW100 32/08 Q1008 NOSIG,M
VIDP,2022-04-22 17:30,89.60,46.40,22.53,20.00,3.00,0.00,29.77,M,2.17,M,FEW,M,M,M,10000.00,M,M,M,HZ,M,M,M,M,M,M,86.24,VIDP 221730Z 02003KT 3500 HZ FEW100 32/08 Q1008 NOSIG,M
VIDP,2022-04-22 18:00,87.80,46.40,23.85,0.00,0.00,0.00,29.77,M,2.17,M,FEW,M,M,M,10000.00,M,M,M,HZ,M,M,M,M,M,M,84.68,VIDP 221800Z 00000KT 3500 HZ FEW100 31/08 Q1008 NOSIG,M
VIDP,2022-04-22 18:30,86.00,46.40,25.26,0.00,0.00,0.00,29.77,M,2.17,M,NSC,M,M,M,M,M,M,M,HZ,M,M,M,M,M,M,83.22,VIDP 221830Z 00000KT 3500 HZ NSC 30/08 Q1008 NOSIG,M
VIDP,2022-04-22 19:00,84.20,48.20,28.63,0.00,0.00,0.00,29.77,M,1.99,M,NSC,M,M,M,M,M,M,M,HZ,M,M,M,M,M,M,82.04,VIDP 221900Z 00000KT 3200 HZ NSC 29/09 Q1008 NOSIG,M
VIDP,2022-04-22 19:30,84.20,48.20,28.63,0.00,0.00,0.00,29.77,M,1.99,M,NSC,M,M,M,M,M,M,M,HZ,M,M,M,M,M,M,82.04,VIDP 221930Z 00000KT 3200 HZ NSC 29/09 Q1008 NOSIG,M
VIDP,2022-04-22 20:00,82.40,48.20,30.35,0.00,0.00,0.00,29.77,M,1.99,M,NSC,M,M,M,M,M,M,M,HZ,M,M,M,M,M,M,80.80,VIDP 222000Z 00000KT 3200 HZ NSC 28/09 Q1008 NOSIG,M
VIDP,2022-04-22 20:30,82.40,48.20,30.35,0.00,0.00,0.00,29.77,M,1.99,M,NSC,M,M,M,M,M,M,M,HZ,M,M,M,M,M,M,80.80,VIDP 222030Z 00000KT 3200 HZ NSC 28/09 Q1008 NOSIG,M
VIDP,2022-04-22 21:00,82.40,48.20,30.35,0.00,0.00,0.00,29.77,M,1.99,M,NSC,M,M,M,M,M,M,M,HZ,M,M,M,M,M,M,80.80,VIDP 222100Z 00000KT 3200 HZ NSC 28/09 Q1008 NOSIG,M
VIDP,2022-04-22 21:30,82.40,50.00,32.46,0.00,0.00,0.00,29.77,M,1.99,M,NSC,M,M,M,M,M,M,M,HZ,M,M,M,M,M,M,80.99,VIDP 222130Z 00000KT 3200 HZ NSC 28/10 Q1008 NOSIG,M
VIDP,2022-04-22 22:00,80.60,50.00,34.41,0.00,0.00,0.00,29.77,M,1.99,M,NSC,M,M,M,M,M,M,M,HZ,M,M,M,M,M,M,79.88,VIDP 222200Z 00000KT 3200 HZ NSC 27/10 Q1008 BECMG 3000 HZ,M
VIDP,2022-04-22 22:30,80.60,50.00,34.41,0.00,0.00,0.00,29.77,M,1.86,M,NSC,M,M,M,M,M,M,M,HZ,M,M,M,M,M,M,79.88,VIDP 222230Z 00000KT 3000 HZ NSC 27/10 Q1008 NOSIG,M
VIDP,2022-04-22 23:00,78.80,50.00,36.51,0.00,0.00,0.00,29.77,M,1.86,M,NSC,M,M,M,M,M,M,M,HZ,M,M,M,M,M,M,78.80,VIDP 222300Z 00000KT 3000 HZ NSC 26/10 Q1008 NOSIG,M
VIDP,2022-04-22 23:30,78.80,50.00,36.51,0.00,0.00,0.00,29.77,M,1.86,M,NSC,M,M,M,M,M,M,M,HZ,M,M,M,M,M,M,78.80,VIDP 222330Z 00000KT 3000 HZ NSC 26/10 Q1008 NOSIG,M
VIDP,2022-04-23 00:00,78.80,50.00,36.51,0.00,0.00,0.00,29.77,M,1.86,M,NSC,M,M,M,M,M,M,M,HZ,M,M,M,M,M,M,78.80,VIDP 230000Z 00000KT 3000 HZ NSC 26/10 Q1008 NOSIG,M
VIDP,2022-04-23 00:30,78.80,50.00,36.51,0.00,0.00,0.00,29.77,M,1.55,M,NSC,M,M,M,M,M,M,M,HZ,M,M,M,M,M,M,78.80,VIDP 230030Z 00000KT 2500 HZ NSC 26/10 Q1008 NOSIG,M
VIDP,2022-04-23 01:00,77.00,51.80,41.42,0.00,0.00,0.00,29.80,M,0.75,M,NSC,M,M,M,M,M,M,M,HZ,M,M,M,M,M,M,77.00,VIDP 230100Z 00000KT 1200 R28/P2000 R29/P2000 HZ NSC 25/11 Q1009 NOSIG,M
VIDP,2022-04-23 01:30,78.80,51.80,39.02,260.00,4.00,0.00,29.80,M,0.62,M,NSC,M,M,M,M,M,M,M,HZ,M,M,M,M,M,M,78.80,VIDP 230130Z 26004KT 1000 R28/P2000 R29/1000 HZ NSC 26/11 Q1009 NOSIG,M
VIDP,2022-04-23 02:00,80.60,50.00,34.41,250.00,5.00,0.00,29.83,M,0.62,M,NSC,M,M,M,M,M,M,M,HZ,M,M,M,M,M,M,79.88,VIDP 230200Z 25005KT 1000 R28/P2000 R29/1000 HZ NSC 27/10 Q1010 BECMG 1500 HZ,M
VIDP,2022-04-23 02:30,82.40,48.20,30.35,250.00,5.00,0.00,29.83,M,0.62,M,NSC,M,M,M,M,M,M,M,HZ,M,M,M,M,M,M,80.80,VIDP 230230Z 25005KT 1000 R28/2000 R29/1000 HZ NSC 28/09 Q1010 BECMG 1500 HZ,M
VIDP,2022-04-23 03:00,84.20,46.40,26.76,250.00,5.00,0.00,29.83,M,0.62,M,NSC,M,M,M,M,M,M,M,HZ,M,M,M,M,M,M,81.87,VIDP 230300Z 25005KT 1000 R28/2000 R29/1000 HZ NSC 29/08 Q1010 BECMG 1500 HZ,M
VIDP,2022-04-23 03:30,86.00,48.20,27.03,240.00,4.00,0.00,29.85,M,0.68,M,NSC,M,M,M,M,M,M,M,HZ,M,M,M,M,M,M,83.40,VIDP 230330Z 24004KT 1100 R28/2000 R29/1100 HZ NSC 30/09 Q1011 NOSIG,M
VIDP,2022-04-23 04:00,87.80,48.20,25.52,250.00,4.00,0.00,29.85,M,0.81,M,NSC,M,M,M,M,M,M,M,HZ,M,M,M,M,M,M,84.87,VIDP 230400Z 25004KT 1300 R28/2000 R29/1300 HZ NSC 31/09 Q1011 BECMG 1500 HZ,M
VIDP,2022-04-23 04:30,89.60,46.40,22.53,270.00,5.00,0.00,29.85,M,0.81,M,NSC,M,M,M,M,M,M,M,HZ,M,M,M,M,M,M,86.24,VIDP 230430Z 27005KT 1300 R28/2000 R29/1300 HZ NSC 32/08 Q1011 BECMG 1500 HZ,M
VIDP,2022-04-23 05:00,93.20,42.80,17.55,280.00,5.00,0.00,29.85,M,0.93,M,NSC,M,M,M,M,M,M,M,HZ,M,M,M,M,M,M,89.17,VIDP 230500Z 28005KT 1500 R28/2000 R29/1500 HZ NSC 34/06 Q1011,M
VIDP,2022-04-23 05:30,95.00,42.80,16.60,270.00,6.00,0.00,29.85,M,0.93,M,NSC,M,M,M,M,M,M,M,HZ,M,M,M,M,M,M,90.86,VIDP 230530Z 27006KT 1500 R28/2000 R29/1500 HZ NSC 35/06 Q1011,M
VIDP,2022-04-23 06:00,96.80,39.20,13.66,320.00,6.00,0.00,29.83,M,1.24,M,NSC,M,M,M,M,M,M,M,HZ,M,M,M,M,M,M,92.23,VIDP 230600Z 32006KT 2000 R28/2000 R29/2000 HZ NSC 36/04 Q1010 NOSIG,M
VIDP,2022-04-23 06:30,98.60,35.60,11.23,300.00,8.00,0.00,29.83,M,1.55,M,NSC,M,M,M,M,M,M,M,HZ,M,M,M,M,M,M,93.23,VIDP 230630Z 30008KT 2500 HZ NSC 37/02 Q1010,M
VIDP,2022-04-23 07:00,98.60,32.00,9.72,290.00,8.00,0.00,29.83,M,1.74,M,NSC,M,M,M,M,M,M,M,HZ,M,M,M,M,M,M,92.69,VIDP 230700Z 29008KT 2800 HZ NSC 37/00 Q1010 BECMG 3000 HZ,M
VIDP,2022-04-23 07:30,100.40,30.20,8.56,320.00,8.00,0.00,29.83,M,1.86,M,NSC,M,M,M,M,M,M,M,HZ,M,M,M,M,M,M,93.98,VIDP 230730Z 32008KT 3000 HZ NSC 38/M01 Q1010 NOSIG,M
VIDP,2022-04-23 08:00,100.40,30.20,8.56,300.00,9.00,0.00,29.80,M,2.17,M,NSC,M,M,M,M,M,M,M,HZ,M,M,M,M,M,M,93.98,VIDP 230800Z 30009KT 3500 HZ NSC 38/M01 Q1009 NOSIG,M
VIDP,2022-04-23 08:30,102.20,30.20,8.11,300.00,8.00,0.00,29.80,M,2.17,M,NSC,M,M,M,M,M,M,M,HZ,M,M,M,M,M,M,95.50,VIDP 230830Z 30008KT 3500 HZ NSC 39/M01 Q1009 NOSIG,M
VIDP,2022-04-23 09:00,102.20,30.20,8.11,310.00,8.00,0.00,29.77,M,2.17,18.00,NSC,M,M,M,M,M,M,M,BLDU,M,M,M,M,M,M,95.50,VIDP 230900Z 31008G18KT 3500 BLDU NSC 39/M01 Q1008 NOSIG,M
VIDP,2022-04-23 09:30,104.00,30.20,7.68,300.00,9.00,0.00,29.77,M,2.17,M,NSC,M,M,M,M,M,M,M,HZ,M,M,M,M,M,M,97.03,VIDP 230930Z 30009KT 3500 HZ NSC 40/M01 Q1008 NOSIG,M
VIDP,2022-04-23 10:00,104.00,30.20,7.68,290.00,10.00,0.00,29.74,M,2.49,M,NSC,M,M,M,M,M,M,M,HZ,M,M,M,M,M,M,97.03,VIDP 231000Z 29010KT 4000 HZ NSC 40/M01 Q1007 NOSIG,M
VIDP,2022-04-23 10:30,102.20,30.20,8.11,290.00,10.00,0.00,29.74,M,2.80,M,NSC,M,M,M,M,M,M,M,HZ,M,M,M,M,M,M,95.50,VIDP 231030Z 29010KT 4500 HZ NSC 39/M01 Q1007 BECMG 5000 HZ,M
VIDP,2022-04-23 11:00,100.40,30.20,8.56,300.00,8.00,0.00,29.74,M,3.11,M,NSC,M,M,M,M,M,M,M,HZ,M,M,M,M,M,M,93.98,VIDP 231100Z 30008KT 5000 HZ NSC 38/M01 Q1007 NOSIG,M
VIDP,2022-04-23 11:30,100.40,30.20,8.56,290.00,7.00,0.00,29.74,M,3.11,M,NSC,M,M,M,M,M,M,M,HZ,M,M,M,M,M,M,93.98,VIDP 231130Z 29007KT 5000 HZ NSC 38/M01 Q1007 NOSIG,M
VIDP,2022-04-23 12:00,100.40,30.20,8.56,290.00,7.00,0.00,29.74,M,3.11,M,NSC,M,M,M,M,M,M,M,HZ,M,M,M,M,M,M,93.98,VIDP 231200Z 29007KT 5000 HZ NSC 38/M01 Q1007 NOSIG,M
VIDP,2022-04-23 12:30,100.40,28.40,7.95,280.00,8.00,0.00,29.74,M,3.11,M,NSC,M,M,M,M,M,M,M,HZ,M,M,M,M,M,M,93.77,VIDP 231230Z 28008KT 5000 HZ NSC 38/M02 Q1007 NOSIG,M
VIDP,2022-04-23 13:00,98.60,26.60,7.80,290.00,6.00,0.00,29.74,M,3.11,M,NSC,M,M,M,M,M,M,M,HZ,M,M,M,M,M,M,92.07,VIDP 231300Z 29006KT 5000 HZ NSC 37/M03 Q1007 NOSIG,M
VIDP,2022-04-23 13:30,96.80,33.80,11.04,270.00,5.00,0.00,29.74,M,3.11,M,NSC,M,M,M,M,M,M,M,HZ,M,M,M,M,M,M,91.44,VIDP 231330Z 27005KT 5000 HZ NSC 36/01 Q1007 NOSIG,M
VIDP,2022-04-23 14:00,95.00,33.80,11.67,290.00,3.00,0.00,29.74,M,3.11,M,NSC,M,M,M,M,M,M,M,HZ,M,M,M,M,M,M,89.97,VIDP 231400Z 29003KT 5000 HZ NSC 35/01 Q1007 NOSIG,M
VIDP,2022-04-23 14:30,95.00,33.80,11.67,0.00,0.00,0.00,29.74,M,3.11,M,NSC,M,M,M,M,M,M,M,HZ,M,M,M,M,M,M,89.97,VIDP 231430Z 00000KT 5000 HZ NSC 35/01 Q1007 NOSIG,M
VIDP,2022-04-23 15:00,96.80,33.80,11.04,0.00,0.00,0.00,29.77,M,2.80,M,NSC,M,M,M,M,M,M,M,HZ,M,M,M,M,M,M,91.44,VIDP 231500Z 00000KT 4500 HZ NSC 36/01 Q1008 NOSIG,M
VIDP,2022-04-23 15:30,91.40,35.60,14.02,0.00,0.00,0.00,29.77,M,2.80,M,NSC,M,M,M,M,M,M,M,HZ,M,M,M,M,M,M,87.17,VIDP 231530Z 00000KT 4500 HZ NSC 33/02 Q1008 NOSIG,M
VIDP,2022-04-23 16:00,87.80,39.20,18.09,0.00,0.00,0.00,29.77,M,2.49,M,NSC,M,M,M,M,M,M,M,HZ,M,M,M,M,M,M,84.22,VIDP 231600Z 00000KT 4000 HZ NSC 31/04 Q1008 NOSIG,M
VIDP,2022-04-23 16:30,87.80,41.00,19.40,0.00,0.00,0.00,29.77,M,2.49,M,NSC,M,M,M,M,M,M,M,HZ,M,M,M,M,M,M,84.30,VIDP 231630Z 00000KT 4000 HZ NSC 31/05 Q1008 NOSIG,M
VIDP,2022-04-23 17:00,87.80,41.00,19.40,0.00,0.00,0.00,29.77,M,2.17,M,NSC,M,M,M,M,M,M,M,HZ,M,M,M,M,M,M,84.30,VIDP 231700Z 00000KT 3500 HZ NSC 31/05 Q1008 NOSIG,M
VIDP,2022-04-23 17:30,87.80,41.00,19.40,0.00,0.00,0.00,29.77,M,2.17,M,NSC,M,M,M,M,M,M,M,HZ,M,M,M,M,M,M,84.30,VIDP 231730Z 00000KT 3500 HZ NSC 31/05 Q1008 NOSIG,M
VIDP,2022-04-23 18:00,87.80,42.80,20.79,0.00,0.00,0.00,29.77,M,2.17,M,NSC,M,M,M,M,M,M,M,HZ,M,M,M,M,M,M,84.40,VIDP 231800Z 00000KT 3500 HZ NSC 31/06 Q1008 BECMG 3000 HZ,M
VIDP,2022-04-23 18:30,86.00,42.80,22.02,0.00,0.00,0.00,29.77,M,1.86,M,NSC,M,M,M,M,M,M,M,HZ,M,M,M,M,M,M,82.95,VIDP 231830Z 00000KT 3000 HZ NSC 30/06 Q1008 NOSIG,M
VIDP,2022-04-23 19:00,86.00,42.80,22.02,0.00,0.00,0.00,29.74,M,1.86,M,NSC,M,M,M,M,M,M,M,HZ,M,M,M,M,M,M,82.95,VIDP 231900Z 00000KT 3000 HZ NSC 30/06 Q1007 NOSIG,M
VIDP,2022-04-23 19:30,84.20,44.60,24.99,0.00,0.00,0.00,29.74,M,1.74,M,NSC,M,M,M,M,M,M,M,HZ,M,M,M,M,M,M,81.73,VIDP 231930Z 00000KT 2800 HZ NSC 29/07 Q1007 NOSIG,M
VIDP,2022-04-23 20:00,84.20,46.40,26.76,0.00,0.00,0.00,29.74,M,1.74,M,NSC,M,M,M,M,M,M,M,HZ,M,M,M,M,M,M,81.87,VIDP 232000Z 00000KT 2800 HZ NSC 29/08 Q1007 NOSIG,M
VIDP,2022-04-23 20:30,84.20,46.40,26.76,0.00,0.00,0.00,29.74,M,1.74,M,NSC,M,M,M,M,M,M,M,HZ,M,M,M,M,M,M,81.87,VIDP 232030Z 00000KT 2800 HZ NSC 29/08 Q1007 NOSIG,M
VIDP,2022-04-23 21:00,82.40,46.40,28.36,210.00,4.00,0.00,29.74,M,1.55,M,NSC,M,M,M,M,M,M,M,HZ,M,M,M,M,M,M,80.64,VIDP 232100Z 21004KT 2500 HZ NSC 28/08 Q1007 NOSIG,M
VIDP,2022-04-23 21:30,80.60,46.40,30.07,0.00,0.00,0.00,29.74,M,1.55,M,NSC,M,M,M,M,M,M,M,HZ,M,M,M,M,M,M,79.56,VIDP 232130Z 00000KT 2500 HZ NSC 27/08 Q1007 NOSIG,M
VIDP,2022-04-23 22:00,80.60,46.40,30.07,0.00,0.00,0.00,29.74,M,1.55,M,NSC,M,M,M,M,M,M,M,HZ,M,M,M,M,M,M,79.56,VIDP 232200Z 00000KT 2500 HZ NSC 27/08 Q1007 NOSIG,M
VIDP,2022-04-23 22:30,82.40,44.60,26.49,250.00,4.00,0.00,29.71,M,1.37,M,NSC,M,M,M,M,M,M,M,HZ,M,M,M,M,M,M,80.50,VIDP 232230Z 25004KT 2200 HZ NSC 28/07 Q1006 NOSIG,M
VIDP,2022-04-23 23:00,78.80,44.60,29.79,240.00,4.00,0.00,29.71,M,1.24,M,NSC,M,M,M,M,M,M,M,HZ,M,M,M,M,M,M,78.80,VIDP 232300Z 24004KT 2000 HZ NSC 26/07 Q1006 NOSIG,M
VIDP,2022-04-23 23:30,78.80,44.60,29.79,250.00,3.00,0.00,29.74,M,1.24,M,NSC,M,M,M,M,M,M,M,HZ,M,M,M,M,M,M,78.80,VIDP 232330Z 25003KT 2000 HZ NSC 26/07 Q1007 NOSIG,M
VIDP,2022-04-24 00:00,78.80,44.60,29.79,250.00,3.00,0.00,29.74,M,1.24,M,NSC,M,M,M,M,M,M,M,HZ,M,M,M,M,M,M,78.80,VIDP 240000Z 25003KT 2000 HZ NSC 26/07 Q1007 NOSIG,M
VIDP,2022-04-24 00:30,77.00,44.60,31.62,250.00,4.00,0.00,29.74,M,0.99,M,NSC,M,M,M,M,M,M,M,HZ,M,M,M,M,M,M,77.00,VIDP 240030Z 25004KT 1600 R28/2000 R29/2000 HZ NSC 25/07 Q1007 BECMG 1500 DU,M
VIDP,2022-04-24 01:00,78.80,44.60,29.79,250.00,4.00,0.00,29.77,M,0.93,M,NSC,M,M,M,M,M,M,M,DU,M,M,M,M,M,M,78.80,VIDP 240100Z 25004KT 1500 R28/2000 R29/2000 DU NSC 26/07 Q1008 NOSIG,M
VIDP,2022-04-24 01:30,78.80,46.40,31.90,250.00,4.00,0.00,29.77,M,0.93,M,NSC,M,M,M,M,M,M,M,DU,M,M,M,M,M,M,78.80,VIDP 240130Z 25004KT 1500 R28/2000 R29/2000 DU NSC 26/08 Q1008 NOSIG,M
VIDP,2022-04-24 02:00,80.60,44.60,28.08,250.00,4.00,0.00,29.80,M,0.93,M,FEW,M,M,M,10000.00,M,M,M,DU,M,M,M,M,M,M,79.42,VIDP 240200Z 25004KT 1500 R28/2000 R29/2000 DU FEW100 27/07 Q1009 NOSIG,M
VIDP,2022-04-24 02:30,82.40,48.20,30.35,250.00,5.00,0.00,29.80,M,0.93,M,FEW,M,M,M,10000.00,M,M,M,DU,M,M,M,M,M,M,80.80,VIDP 240230Z 25005KT 1500 R28/2000 R29/2000 DU FEW100 28/09 Q1009 NOSIG,M
VIDP,2022-04-24 03:00,84.20,48.20,28.63,250.00,5.00,0.00,29.80,M,1.12,M,FEW,M,M,M,10000.00,M,M,M,DU,M,M,M,M,M,M,82.04,VIDP 240300Z 25005KT 1800 R28/2000 R29/2000 DU FEW100 29/09 Q1009 NOSIG,M
VIDP,2022-04-24 03:30,86.00,48.20,27.03,250.00,5.00,0.00,29.80,M,1.30,M,FEW,M,M,M,10000.00,M,M,M,DU,M,M,M,M,M,M,83.40,VIDP 240330Z 25005KT 2100 DU FEW100 30/09 Q1009 NOSIG,M
VIDP,2022-04-24 04:00,89.60,46.40,22.53,250.00,7.00,0.00,29.80,M,1.37,M,FEW,M,M,M,10000.00,M,M,M,DU,M,M,M,M,M,M,86.24,VIDP 240400Z 25007KT 2200 DU FEW100 32/08 Q1009 NOSIG,M
VIDP,2022-04-24 04:30,91.40,46.40,21.29,250.00,6.00,0.00,29.80,M,1.37,M,FEW,M,M,M,10000.00,M,M,M,DU,M,M,M,M,M,M,87.86,VIDP 240430Z 25006KT 2200 DU FEW100 33/08 Q1009 NOSIG,M
VIDP,2022-04-24 05:00,91.40,46.40,21.29,260.00,7.00,0.00,29.80,M,1.37,M,FEW,M,M,M,10000.00,M,M,M,DU,M,M,M,M,M,M,87.86,VIDP 240500Z 26007KT 2200 DU FEW100 33/08 Q1009 NOSIG,M
VIDP,2022-04-24 05:30,93.20,44.60,18.80,260.00,7.00,0.00,29.80,M,1.55,M,FEW,M,M,M,10000.00,M,M,M,DU,M,M,M,M,M,M,89.34,VIDP 240530Z 26007KT 2500 DU FEW100 34/07 Q1009 NOSIG,M
VIDP,2022-04-24 06:00,95.00,44.60,17.78,270.00,8.00,0.00,29.77,M,1.74,M,FEW,M,M,M,10000.00,M,M,M,DU,M,M,M,M,M,M,91.06,VIDP 240600Z 27008KT 2800 DU FEW100 35/07 Q1008 BECMG 3000 DU,M
VIDP,2022-04-24 06:30,96.80,44.60,16.83,270.00,8.00,0.00,29.77,M,1.99,M,FEW,M,M,M,10000.00,M,M,M,DU,M,M,M,M,M,M,92.79,VIDP 240630Z 27008KT 3200 DU FEW100 36/07 Q1008 NOSIG,M
VIDP,2022-04-24 07:00,96.80,42.80,15.71,270.00,8.00,0.00,29.74,M,2.17,18.00,FEW,M,M,M,10000.00,M,M,M,DU,M,M,M,M,M,M,92.57,VIDP 240700Z 27008G18KT 3500 DU FEW100 36/06 Q1007 NOSIG,M
VIDP,2022-04-24 07:30,98.60,41.00,13.87,280.00,8.00,0.00,29.74,M,2.49,18.00,FEW,M,M,M,10000.00,M,M,M,DU,M,M,M,M,M,M,94.09,VIDP 240730Z 28008G18KT 4000 DU FEW100 37/05 Q1007 NOSIG,M
VIDP,2022-04-24 08:00,100.40,39.20,12.25,280.00,8.00,0.00,29.71,M,2.49,18.00,NSC,M,M,M,M,M,M,M,DU,M,M,M,M,M,M,95.43,VIDP 240800Z 28008G18KT 4000 DU NSC 38/04 Q1006 NOSIG,M
VIDP,2022-04-24 08:30,102.20,37.40,10.81,290.00,10.00,0.00,29.71,M,2.49,20.00,NSC,M,M,M,M,M,M,M,BLDU,M,M,M,M,M,M,96.63,VIDP 240830Z 29010G20KT 4000 BLDU NSC 39/03 Q1006 NOSIG,M
VIDP,2022-04-24 09:00,102.20,35.60,10.07,290.00,8.00,0.00,29.68,M,2.49,18.00,NSC,M,M,M,M,M,M,M,BLDU,M,M,M,M,M,M,96.30,VIDP 240900Z 29008G18KT 4000 BLDU NSC 39/02 Q1005 NOSIG,M
VIDP,2022-04-24 09:30,102.20,35.60,10.07,280.00,8.00,0.00,29.68,M,2.49,18.00,NSC,M,M,M,M,M,M,M,BLDU,M,M,M,M,M,M,96.30,VIDP 240930Z 28008G18KT 4000 BLDU NSC 39/02 Q1005 NOSIG,M
VIDP,2022-04-24 10:00,102.20,35.60,10.07,290.00,8.00,0.00,29.68,M,2.49,18.00,NSC,M,M,M,M,M,M,M,BLDU,M,M,M,M,M,M,96.30,VIDP 241000Z 29008G18KT 4000 BLDU NSC 39/02 Q1005 NOSIG,M
VIDP,2022-04-24 10:30,102.20,35.60,10.07,300.00,10.00,0.00,29.68,M,2.49,20.00,NSC,M,M,M,M,M,M,M,BLDU,M,M,M,M,M,M,96.30,VIDP 241030Z 30010G20KT 4000 BLDU NSC 39/02 Q1005 NOSIG,M
VIDP,2022-04-24 11:00,102.20,37.40,10.81,280.00,10.00,0.00,29.65,M,2.49,25.00,FEW,M,M,M,10000.00,M,M,M,BLDU,M,M,M,M,M,M,96.63,VIDP 241100Z 28010G25KT 4000 BLDU FEW100 39/03 Q1004 NOSIG,M
VIDP,2022-04-24 11:30,102.20,37.40,10.81,290.00,10.00,0.00,29.65,M,2.49,20.00,FEW,M,M,M,10000.00,M,M,M,BLDU,M,M,M,M,M,M,96.63,VIDP 241130Z 29010G20KT 4000 BLDU FEW100 39/03 Q1004 NOSIG,M
VIDP,2022-04-24 12:00,100.40,37.40,11.41,300.00,7.00,0.00,29.65,M,2.49,17.00,NSC,M,M,M,M,M,M,M,BLDU,M,M,M,M,M,M,95.08,VIDP 241200Z 30007G17KT 4000 BLDU NSC 38/03 Q1004 NOSIG,M
VIDP,2022-04-24 12:30,100.40,37.40,11.41,300.00,9.00,0.00,29.65,M,2.49,M,NSC,M,M,M,M,M,M,M,HZ,M,M,M,M,M,M,95.08,VIDP 241230Z 30009KT 4000 HZ NSC 38/03 Q1004 NOSIG,M
VIDP,2022-04-24 13:00,98.60,39.20,12.94,300.00,9.00,0.00,29.65,M,2.49,M,NSC,M,M,M,M,M,M,M,HZ,M,M,M,M,M,M,93.89,VIDP 241300Z 30009KT 4000 HZ NSC 37/04 Q1004 NOSIG,M
VIDP,2022-04-24 13:30,98.60,39.20,12.94,290.00,7.00,0.00,29.65,M,2.49,M,NSC,M,M,M,M,M,M,M,HZ,M,M,M,M,M,M,93.89,VIDP 241330Z 29007KT 4000 HZ NSC 37/04 Q1004 NOSIG,M
VIDP,2022-04-24 14:00,96.80,41.00,14.66,300.00,7.00,0.00,29.65,M,2.49,M,NSC,M,M,M,M,M,M,M,HZ,M,M,M,M,M,M,92.39,VIDP 241400Z 30007KT 4000 HZ NSC 36/05 Q1004 NOSIG,M
VIDP,2022-04-24 14:30,96.80,37.40,12.73,300.00,8.00,0.00,29.68,M,2.49,M,NSC,M,M,M,M,M,M,M,HZ,M,M,M,M,M,M,92.04,VIDP 241430Z 30008KT 4000 HZ NSC 36/03 Q1005 NOSIG,M
VIDP,2022-04-24 15:00,95.00,39.20,14.44,290.00,8.00,0.00,29.68,M,2.49,M,NSC,M,M,M,M,M,M,M,HZ,M,M,M,M,M,M,90.57,VIDP 241500Z 29008KT 4000 HZ NSC 35/04 Q1005 NOSIG,M
VIDP,2022-04-24 15:30,95.00,39.20,14.44,290.00,5.00,0.00,29.68,M,2.49,M,NSC,M,M,M,M,M,M,M,HZ,M,M,M,M,M,M,90.57,VIDP 241530Z 29005KT 4000 HZ NSC 35/04 Q1005 NOSIG,M
VIDP,2022-04-24 16:00,95.00,39.20,14.44,300.00,6.00,0.00,29.71,M,2.49,M,NSC,M,M,M,M,M,M,M,HZ,M,M,M,M,M,M,90.57,VIDP 241600Z 30006KT 4000 HZ NSC 35/04 Q1006 NOSIG,M
VIDP,2022-04-24 16:30,93.20,39.20,15.27,310.00,7.00,0.00,29.71,M,2.49,M,NSC,M,M,M,M,M,M,M,HZ,M,M,M,M,M,M,88.92,VIDP 241630Z 31007KT 4000 HZ NSC 34/04 Q1006 NOSIG,M
VIDP,2022-04-24 17:00,91.40,41.00,17.32,290.00,6.00,0.00,29.71,M,2.49,M,NSC,M,M,M,M,M,M,M,HZ,M,M,M,M,M,M,87.40,VIDP 241700Z 29006KT 4000 HZ NSC 33/05 Q1006 NOSIG,M
VIDP,2022-04-24 17:30,91.40,41.00,17.32,300.00,6.00,0.00,29.71,M,2.49,M,NSC,M,M,M,M,M,M,M,HZ,M,M,M,M,M,M,87.40,VIDP 241730Z 30006KT 4000 HZ NSC 33/05 Q1006 NOSIG,M
VIDP,2022-04-24 18:00,91.40,41.00,17.32,320.00,6.00,0.00,29.71,M,2.49,M,NSC,M,M,M,M,M,M,M,HZ,M,M,M,M,M,M,87.40,VIDP 241800Z 32006KT 4000 HZ NSC 33/05 Q1006 NOSIG,M
VIDP,2022-04-24 18:30,91.40,41.00,17.32,310.00,6.00,0.00,29.68,M,2.49,M,NSC,M,M,M,M,M,M,M,HZ,M,M,M,M,M,M,87.40,VIDP 241830Z 31006KT 4000 HZ NSC 33/05 Q1005 NOSIG,M
VIDP,2022-04-24 19:00,91.40,41.00,17.32,320.00,6.00,0.00,29.68,M,2.17,M,NSC,M,M,M,M,M,M,M,HZ,M,M,M,M,M,M,87.40,VIDP 241900Z 32006KT 3500 HZ NSC 33/05 Q1005 NOSIG,M
VIDP,2022-04-24 19:30,89.60,42.80,19.64,310.00,5.00,0.00,29.68,M,2.17,M,NSC,M,M,M,M,M,M,M,HZ,M,M,M,M,M,M,85.93,VIDP 241930Z 31005KT 3500 HZ NSC 32/06 Q1005 NOSIG,M
VIDP,2022-04-24 20:00,89.60,42.80,19.64,320.00,5.00,0.00,29.68,M,2.17,M,NSC,M,M,M,M,M,M,M,HZ,M,M,M,M,M,M,85.93,VIDP 242000Z 32005KT 3500 HZ NSC 32/06 Q1005 NOSIG,M
VIDP,2022-04-24 20:30,89.60,42.80,19.64,330.00,5.00,0.00,29.68,M,2.17,M,NSC,M,M,M,M,M,M,M,HZ,M,M,M,M,M,M,85.93,VIDP 242030Z 33005KT 3500 HZ NSC 32/06 Q1005 NOSIG,M
VIDP,2022-04-24 21:00,89.60,42.80,19.64,310.00,5.00,0.00,29.65,M,2.17,M,NSC,M,M,M,M,M,M,M,HZ,M,M,M,M,M,M,85.93,VIDP 242100Z 31005KT 3500 HZ NSC 32/06 Q1004 NOSIG,M
VIDP,2022-04-24 21:30,87.80,42.80,20.79,300.00,5.00,0.00,29.65,M,2.17,M,NSC,M,M,M,M,M,M,M,HZ,M,M,M,M,M,M,84.40,VIDP 242130Z 30005KT 3500 HZ NSC 31/06 Q1004 NOSIG,M
VIDP,2022-04-24 22:00,87.80,44.60,22.27,300.00,4.00,0.00,29.65,M,2.17,M,NSC,M,M,M,M,M,M,M,HZ,M,M,M,M,M,M,84.53,VIDP 242200Z 30004KT 3500 HZ NSC 31/07 Q1004 NOSIG,M
VIDP,2022-04-24 22:30,86.00,44.60,23.59,280.00,4.00,0.00,29.65,M,2.17,M,NSC,M,M,M,M,M,M,M,HZ,M,M,M,M,M,M,83.07,VIDP 242230Z 28004KT 3500 HZ NSC 30/07 Q1004 NOSIG,M
VIDP,2022-04-24 23:00,84.20,44.60,24.99,260.00,5.00,0.00,29.68,M,1.99,M,NSC,M,M,M,M,M,M,M,HZ,M,M,M,M,M,M,81.73,VIDP 242300Z 26005KT 3200 HZ NSC 29/07 Q1005 BECMG 3000 HZ,M
VIDP,2022-04-24 23:30,82.40,46.40,28.36,230.00,3.00,0.00,29.68,M,1.86,M,NSC,M,M,M,M,M,M,M,HZ,M,M,M,M,M,M,80.64,VIDP 242330Z 23003KT 3000 HZ NSC 28/08 Q1005 NOSIG,M
VIDP,2022-04-25 00:00,82.40,46.40,28.36,0.00,0.00,0.00,29.68,M,1.86,M,NSC,M,M,M,M,M,M,M,HZ,M,M,M,M,M,M,80.64,VIDP 250000Z 00000KT 3000 HZ NSC 28/08 Q1005 NOSIG,M
VIDP,2022-04-25 00:30,82.40,46.40,28.36,300.00,4.00,0.00,29.68,M,1.86,M,NSC,M,M,M,M,M,M,M,HZ,M,M,M,M,M,M,80.64,VIDP 250030Z 30004KT 3000 HZ NSC 28/08 Q1005 NOSIG,M
VIDP,2022-04-25 01:00,84.20,48.20,28.63,290.00,5.00,0.00,29.71,M,1.37,M,NSC,M,M,M,M,M,M,M,DU,M,M,M,M,M,M,82.04,VIDP 250100Z 29005KT 2200 DU NSC 29/09 Q1006 BECMG 1500 DU,M
VIDP,2022-04-25 01:30,84.20,50.00,30.62,250.00,5.00,0.00,29.71,M,0.93,M,NSC,M,M,M,M,M,M,M,DU,M,M,M,M,M,M,82.24,VIDP 250130Z 25005KT 1500 R28/2000 R29/2000 DU NSC 29/10 Q1006 NOSIG,M
VIDP,2022-04-25 02:00,84.20,50.00,30.62,240.00,5.00,0.00,29.74,M,0.93,M,NSC,M,M,M,M,M,M,M,DU,M,M,M,M,M,M,82.24,VIDP 250200Z 24005KT 1500 R28/2000 R29/2000 DU NSC 29/10 Q1007 NOSIG,M
VIDP,2022-04-25 02:30,84.20,51.80,32.73,240.00,5.00,0.00,29.74,M,0.93,M,NSC,M,M,M,M,M,M,M,DU,M,M,M,M,M,M,82.48,VIDP 250230Z 24005KT 1500 R28/P2000 R29/P2000 DU NSC 29/11 Q1007 NOSIG,M
VIDP,2022-04-25 03:00,86.00,51.80,30.90,250.00,5.00,0.00,29.74,M,0.99,M,NSC,M,M,M,M,M,M,M,DU,M,M,M,M,M,M,83.87,VIDP 250300Z 25005KT 1600 R28/P2000 R29/P2000 DU NSC 30/11 Q1007 NOSIG,M
VIDP,2022-04-25 03:30,87.80,51.80,29.18,250.00,6.00,0.00,29.74,M,1.12,M,NSC,M,M,M,M,M,M,M,DU,M,M,M,M,M,M,85.39,VIDP 250330Z 25006KT 1800 R28/P2000 R29/P2000 DU NSC 31/11 Q1007 NOSIG,M
VIDP,2022-04-25 04:00,89.60,51.80,27.56,240.00,5.00,0.00,29.74,M,1.37,M,NSC,M,M,M,M,M,M,M,DU,M,M,M,M,M,M,87.00,VIDP 250400Z 24005KT 2200 DU NSC 32/11 Q1007 NOSIG,M
VIDP,2022-04-25 04:30,91.40,51.80,26.05,240.00,5.00,0.00,29.74,M,1.55,M,NSC,M,M,M,M,M,M,M,DU,M,M,M,M,M,M,88.69,VIDP 250430Z 24005KT 2500 DU NSC 33/11 Q1007 NOSIG,M
VIDP,2022-04-25 05:00,95.00,51.80,23.30,240.00,5.00,0.00,29.74,M,1.74,M,NSC,M,M,M,M,M,M,M,DU,M,M,M,M,M,M,92.26,VIDP 250500Z 24005KT 2800 DU NSC 35/11 Q1007 BECMG 3000 DU,M
VIDP,2022-04-25 05:30,96.80,50.00,20.62,280.00,5.00,0.00,29.74,M,1.99,M,NSC,M,M,M,M,M,M,M,DU,M,M,M,M,M,M,93.71,VIDP 250530Z 28005KT 3200 DU NSC 36/10 Q1007 NOSIG,M
VIDP,2022-04-25 06:00,98.60,48.20,18.25,280.00,7.00,0.00,29.74,M,2.17,M,NSC,M,M,M,M,M,M,M,DU,M,M,M,M,M,M,95.17,VIDP 250600Z 28007KT 3500 DU NSC 37/09 Q1007 NOSIG,M
VIDP,2022-04-25 06:30,100.40,46.40,16.15,270.00,7.00,0.00,29.74,M,2.49,M,NSC,M,M,M,M,M,M,M,DU,M,M,M,M,M,M,96.63,VIDP 250630Z 27007KT 4000 DU NSC 38/08 Q1007 NOSIG,M
VIDP,2022-04-25 07:00,100.40,46.40,16.15,270.00,7.00,0.00,29.71,M,2.49,M,NSC,M,M,M,M,M,M,M,DU,M,M,M,M,M,M,96.63,VIDP 250700Z 27007KT 4000 DU NSC 38/08 Q1006 NOSIG,M
VIDP,2022-04-25 07:30,102.20,46.40,15.30,240.00,8.00,0.00,29.71,M,2.49,M,NSC,M,M,M,M,M,M,M,DU,M,M,M,M,M,M,98.43,VIDP 250730Z 24008KT 4000 DU NSC 39/08 Q1006 NOSIG,M
VIDP,2022-04-25 08:00,102.20,46.40,15.30,240.00,8.00,0.00,29.68,M,2.49,M,NSC,M,M,M,M,M,M,M,DU,M,M,M,M,M,M,98.43,VIDP 250800Z 24008KT 4000 DU NSC 39/08 Q1005 NOSIG,M
VIDP,2022-04-25 08:30,102.20,42.80,13.34,260.00,10.00,0.00,29.68,M,2.49,20.00,NSC,M,M,M,M,M,M,M,DU,M,M,M,M,M,M,97.76,VIDP 250830Z 26010G20KT 4000 DU NSC 39/06 Q1005 NOSIG,M
VIDP,2022-04-25 09:00,104.00,41.00,11.79,290.00,8.00,0.00,29.65,M,2.49,18.00,NSC,M,M,M,M,M,M,M,DU,M,M,M,M,M,M,98.97,VIDP 250900Z 29008G18KT 4000 DU NSC 40/05 Q1004 NOSIG,M
VIDP,2022-04-25 09:30,104.00,41.00,11.79,280.00,10.00,0.00,29.65,M,2.49,20.00,NSC,M,M,M,M,M,M,M,DU,M,M,M,M,M,M,98.97,VIDP 250930Z 28010G20KT 4000 DU NSC 40/05 Q1004 NOSIG,M
VIDP,2022-04-25 10:00,104.00,39.20,11.00,280.00,10.00,0.00,29.62,M,2.49,20.00,NSC,M,M,M,M,M,M,M,DU,M,M,M,M,M,M,98.56,VIDP 251000Z 28010G20KT 4000 DU NSC 40/04 Q1003 NOSIG,M
VIDP,2022-04-25 10:30,104.00,39.20,11.00,280.00,10.00,0.00,29.62,M,2.49,20.00,NSC,M,M,M,M,M,M,M,DU,M,M,M,M,M,M,98.56,VIDP 251030Z 28010G20KT 4000 DU NSC 40/04 Q1003 NOSIG,M
VIDP,2022-04-25 11:00,104.00,39.20,11.00,290.00,10.00,0.00,29.62,M,2.49,20.00,NSC,M,M,M,M,M,M,M,DU,M,M,M,M,M,M,98.56,VIDP 251100Z 29010G20KT 4000 DU NSC 40/04 Q1003 NOSIG,M
VIDP,2022-04-25 11:30,102.20,37.40,10.81,280.00,10.00,0.00,29.62,M,2.49,20.00,NSC,M,M,M,M,M,M,M,DU,M,M,M,M,M,M,96.63,VIDP 251130Z 28010G20KT 4000 DU NSC 39/03 Q1003 NOSIG,M
VIDP,2022-04-25 12:00,100.40,33.80,9.90,300.00,9.00,0.00,29.62,M,2.49,M,FEW,M,M,M,10000.00,M,M,M,DU,M,M,M,M,M,M,94.47,VIDP 251200Z 30009KT 4000 DU FEW100 38/01 Q1003 NOSIG,M
VIDP,2022-04-25 12:30,100.40,35.60,10.63,300.00,7.00,0.00,29.62,M,2.49,M,SCT,M,M,M,10000.00,M,M,M,DU,M,M,M,M,M,M,94.76,VIDP 251230Z 30007KT 4000 DU SCT100 38/02 Q1003 NOSIG,M
VIDP,2022-04-25 13:00,98.60,37.40,12.05,280.00,7.00,0.00,29.65,M,2.49,M,SCT,M,M,M,10000.00,M,M,M,DU,M,M,M,M,M,M,93.54,VIDP 251300Z 28007KT 4000 DU SCT100 37/03 Q1004 NOSIG,M
VIDP,2022-04-25 13:30,98.60,39.20,12.94,290.00,8.00,0.00,29.65,M,2.49,M,SCT,M,M,M,10000.00,M,M,M,HZ,M,M,M,M,M,M,93.89,VIDP 251330Z 29008KT 4000 HZ SCT100 37/04 Q1004 NOSIG,M
VIDP,2022-04-25 15:00,98.60,28.40,8.40,280.00,15.00,0.00,29.68,M,2.17,25.00,SCT,FEW,BKN,M,3500.00,4000.00,10000.00,M,HZ,M,M,M,M,M,M,92.25,VIDP 251500Z 28015G25KT 3500 HZ SCT035 FEW040CB BKN100 37/M02 Q1005 TEMPO 31015G30KT 1500 DS TS,M
VIDP,2022-04-25 15:30,96.80,28.40,8.87,230.00,7.00,0.00,29.74,M,2.17,17.00,SCT,FEW,BKN,M,3500.00,4000.00,10000.00,M,HZ,M,M,M,M,M,M,90.75,VIDP 251530Z 23007G17KT 3500 HZ SCT035 FEW040CB BKN100 36/M02 Q1007 TEMPO 23020G35KT 1500 DS TSRA,M
VIDP,2022-04-25 16:05,98.60,28.40,8.40,250.00,25.00,0.00,29.68,M,0.93,35.00,SCT,FEW,BKN,M,3500.00,4000.00,10000.00,M,TS,M,M,M,M,M,M,92.25,VIDP 251605Z 25025G35KT 1500 R28/2000 R29/1800 TS SCT035 FEW040CB BKN100 37/M02 Q1005 TEMPO 31015G30KT 1500 DS TS,M
VIDP,2022-04-25 16:30,91.40,21.20,7.77,270.00,20.00,0.00,29.80,M,0.50,40.00,SCT,FEW,BKN,M,3500.00,4000.00,10000.00,M,TS,M,M,M,M,M,M,85.96,COR VIDP 251630Z 27020G40KT 0800 R28/2000 R29/1000 TS SCT035 FEW040CB BKN100 33/M06 Q1009 TEMPO 0600 TS DS,M
VIDP,2022-04-25 17:00,89.60,44.60,21.04,300.00,25.00,0.00,29.80,M,0.50,35.00,SCT,FEW,BKN,M,3500.00,4000.00,8000.00,M,HZ,M,M,M,M,M,M,86.07,VIDP 251700Z 30025G35KT 0800 R28/2000 R29/1200 HZ SCT035 FEW040CB BKN080 32/07 Q1009 TEMPO 0600 TS DS,M
VIDP,2022-04-25 17:30,87.80,42.80,20.79,10.00,5.00,0.00,29.77,M,0.93,M,SCT,FEW,BKN,M,3500.00,4000.00,8000.00,M,DU,M,M,M,M,M,M,84.40,VIDP 251730Z 01005KT 1500 R28/2000 R29/1500 DU SCT035 FEW040CB BKN080 31/06 Q1008 TEMPO DS TS,M
VIDP,2022-04-25 18:00,87.80,42.80,20.79,330.00,4.00,0.00,29.77,M,1.37,M,SCT,BKN,M,M,4000.00,10000.00,M,M,DU,M,M,M,M,M,M,84.40,VIDP 251800Z 33004KT 2200 DU SCT040 BKN100 31/06 Q1008 NOSIG,M
VIDP,2022-04-25 18:30,87.80,42.80,20.79,330.00,4.00,0.00,29.77,M,1.55,M,FEW,SCT,M,M,4000.00,10000.00,M,M,DU,M,M,M,M,M,M,84.40,VIDP 251830Z 33004KT 2500 DU FEW040 SCT100 31/06 Q1008 NOSIG,M
VIDP,2022-04-25 19:00,86.00,44.60,23.59,0.00,0.00,0.00,29.74,M,1.55,M,FEW,SCT,M,M,4000.00,10000.00,M,M,DU,M,M,M,M,M,M,83.07,VIDP 251900Z 00000KT 2500 DU FEW040 SCT100 30/07 Q1007 NOSIG,M
VIDP,2022-04-25 19:30,86.00,46.40,25.26,0.00,0.00,0.00,29.71,M,1.55,M,FEW,SCT,M,M,4000.00,10000.00,M,M,DU,M,M,M,M,M,M,83.22,VIDP 251930Z 00000KT 2500 DU FEW040 SCT100 30/08 Q1006 NOSIG,M
VIDP,2022-04-25 20:00,84.20,48.20,28.63,0.00,0.00,0.00,29.71,M,1.55,M,FEW,SCT,M,M,4000.00,10000.00,M,M,DU,M,M,M,M,M,M,82.04,VIDP 252000Z 00000KT 2500 DU FEW040 SCT100 29/09 Q1006 NOSIG,M
VIDP,2022-04-25 20:30,84.20,50.00,30.62,0.00,0.00,0.00,29.68,M,1.55,M,FEW,SCT,M,M,4000.00,10000.00,M,M,DU,M,M,M,M,M,M,82.24,VIDP 252030Z 00000KT 2500 DU FEW040 SCT100 29/10 Q1005 NOSIG,M
VIDP,2022-04-25 21:00,84.20,50.00,30.62,0.00,0.00,0.00,29.68,M,1.55,M,FEW,SCT,M,M,4000.00,10000.00,M,M,DU,M,M,M,M,M,M,82.24,VIDP 252100Z 00000KT 2500 DU FEW040 SCT100 29/10 Q1005 NOSIG,M
VIDP,2022-04-25 21:30,86.00,42.80,22.02,240.00,4.00,0.00,29.68,M,1.55,M,FEW,SCT,M,M,4000.00,10000.00,M,M,DU,M,M,M,M,M,M,82.95,VIDP 252130Z 24004KT 2500 DU FEW040 SCT100 30/06 Q1005 NOSIG,M
VIDP,2022-04-25 22:00,84.20,44.60,24.99,0.00,0.00,0.00,29.65,M,1.55,M,FEW,SCT,M,M,4000.00,10000.00,M,M,DU,M,M,M,M,M,M,81.73,VIDP 252200Z 00000KT 2500 DU FEW040 SCT100 29/07 Q1004 NOSIG,M
VIDP,2022-04-25 22:30,84.20,44.60,24.99,270.00,4.00,0.00,29.68,M,1.55,M,FEW,SCT,M,M,4000.00,10000.00,M,M,DU,M,M,M,M,M,M,81.73,VIDP 252230Z 27004KT 2500 DU FEW040 SCT100 29/07 Q1005 NOSIG,M
VIDP,2022-04-25 23:00,84.20,44.60,24.99,230.00,7.00,0.00,29.68,M,1.55,M,FEW,SCT,M,M,4000.00,10000.00,M,M,DU,M,M,M,M,M,M,81.73,VIDP 252300Z 23007KT 2500 DU FEW040 SCT100 29/07 Q1005 NOSIG,M
VIDP,2022-04-25 23:30,82.40,44.60,26.49,250.00,4.00,0.00,29.68,M,1.55,M,FEW,SCT,M,M,4000.00,10000.00,M,M,DU,M,M,M,M,M,M,80.50,VIDP 252330Z 25004KT 2500 DU FEW040 SCT100 28/07 Q1005 TEMPO 27015G30KT DS TS,M
VIDP,2022-04-26 00:00,82.40,44.60,26.49,240.00,3.00,0.00,29.71,M,1.55,M,FEW,SCT,M,M,4000.00,10000.00,M,M,DU,M,M,M,M,M,M,80.50,VIDP 260000Z 24003KT 2500 DU FEW040 SCT100 28/07 Q1006 TEMPO 27015G30KT DS TS,M
VIDP,2022-04-26 00:30,82.40,44.60,26.49,0.00,0.00,0.00,29.71,M,1.24,M,FEW,SCT,M,M,4000.00,10000.00,M,M,DU,M,M,M,M,M,M,80.50,VIDP 260030Z 00000KT 2000 DU FEW040 SCT100 28/07 Q1006 BECMG 1500 DU,M
VIDP,2022-04-26 01:00,82.40,44.60,26.49,0.00,0.00,0.00,29.71,M,0.93,M,FEW,SCT,M,M,4000.00,10000.00,M,M,DU,M,M,M,M,M,M,80.50,VIDP 260100Z 00000KT 1500 R28/2000 R29/0800 DU FEW040 SCT100 28/07 Q1006 NOSIG,M
VIDP,2022-04-26 01:30,82.40,46.40,28.36,0.00,0.00,0.00,29.71,M,0.75,M,FEW,SCT,M,M,4000.00,10000.00,M,M,DU,M,M,M,M,M,M,80.64,VIDP 260130Z 00000KT 1200 R28/2000 R29/0800 DU FEW040 SCT100 28/08 Q1006 NOSIG,M
VIDP,2022-04-26 02:00,82.40,46.40,28.36,0.00,0.00,0.00,29.71,M,0.62,M,FEW,SCT,M,M,4000.00,10000.00,M,M,DU,M,M,M,M,M,M,80.64,VIDP 260200Z 00000KT 1000 R28/2000 R29/0800 DU FEW040 SCT100 28/08 Q1006 NOSIG,M
VIDP,2022-04-26 02:30,86.00,46.40,25.26,240.00,4.00,0.00,29.74,M,0.62,M,FEW,SCT,M,M,4000.00,10000.00,M,M,DU,M,M,M,M,M,M,83.22,VIDP 260230Z 24004KT 1000 R28///// R29/1000 DU FEW040 SCT100 30/08 Q1007 NOSIG,M
VIDP,2022-04-26 03:00,89.60,46.40,22.53,270.00,3.00,0.00,29.74,M,0.62,M,FEW,SCT,M,M,4000.00,10000.00,M,M,DU,M,M,M,M,M,M,86.24,VIDP 260300Z 27003KT 1000 R28///// R29/1000 DU FEW040 SCT100 32/08 Q1007 NOSIG,M
VIDP,2022-04-26 03:30,91.40,46.40,21.29,280.00,3.00,0.00,29.77,M,0.62,M,FEW,SCT,M,M,4000.00,10000.00,M,M,DU,M,M,M,M,M,M,87.86,VIDP 260330Z 28003KT 1000 R28/1100 R29/1000 DU FEW040 SCT100 33/08 Q1008 NOSIG,M
VIDP,2022-04-26 04:00,93.20,44.60,18.80,320.00,4.00,0.00,29.77,M,0.87,M,FEW,SCT,M,M,4000.00,10000.00,M,M,DU,M,M,M,M,M,M,89.34,VIDP 260400Z 32004KT 1400 R28/1400 R29/1400 DU FEW040 SCT100 34/07 Q1008 BECMG 1500 HZ,M
VIDP,2022-04-26 04:30,95.00,42.80,16.60,340.00,5.00,0.00,29.77,M,1.37,M,SCT,M,M,M,10000.00,M,M,M,HZ,M,M,M,M,M,M,90.86,VIDP 260430Z 34005KT 2200 HZ SCT100 35/06 Q1008 NOSIG,M
VIDP,2022-04-26 05:00,96.80,42.80,15.71,320.00,5.00,0.00,29.77,M,1.55,M,SCT,M,M,M,10000.00,M,M,M,HZ,M,M,M,M,M,M,92.57,VIDP 260500Z 32005KT 2500 HZ SCT100 36/06 Q1008 NOSIG,M
VIDP,2022-04-26 05:30,98.60,42.80,14.87,330.00,6.00,0.00,29.77,M,1.55,M,SCT,M,M,M,10000.00,M,M,M,HZ,M,M,M,M,M,M,94.30,VIDP 260530Z 33006KT 2500 HZ SCT100 37/06 Q1008 BECMG 3000 HZ,M
VIDP,2022-04-26 06:00,98.60,42.80,14.87,320.00,7.00,0.00,29.74,M,1.55,M,SCT,M,M,M,10000.00,M,M,M,HZ,M,M,M,M,M,M,94.30,VIDP 260600Z 32007KT 2500 HZ SCT100 37/06 Q1007 NOSIG,M
VIDP,2022-04-26 06:30,98.60,42.80,14.87,350.00,7.00,0.00,29.74,M,1.55,M,SCT,M,M,M,10000.00,M,M,M,HZ,M,M,M,M,M,M,94.30,VIDP 260630Z 35007KT 2500 HZ SCT100 37/06 Q1007 NOSIG,M
VIDP,2022-04-26 07:00,100.40,42.80,14.08,350.00,7.00,0.00,29.74,M,1.55,M,SCT,M,M,M,10000.00,M,M,M,HZ,M,M,M,M,M,M,96.04,VIDP 260700Z 35007KT 2500 HZ SCT100 38/06 Q1007 BECMG 3000 HZ,M
VIDP,2022-04-26 07:30,100.40,39.20,12.25,350.00,7.00,0.00,29.74,M,1.86,M,SCT,M,M,M,10000.00,M,M,M,HZ,M,M,M,M,M,M,95.43,VIDP 260730Z 35007KT 3000 HZ SCT100 38/04 Q1007 NOSIG,M
VIDP,2022-04-26 08:00,102.20,37.40,10.81,330.00,7.00,0.00,29.71,M,1.86,M,SCT,M,M,M,10000.00,M,M,M,HZ,M,M,M,M,M,M,96.63,VIDP 260800Z 33007KT 3000 HZ SCT100 39/03 Q1006 NOSIG,M
VIDP,2022-04-26 08:30,104.00,37.40,10.25,330.00,5.00,0.00,29.71,M,1.86,M,SCT,M,M,M,10000.00,M,M,M,HZ,M,M,M,M,M,M,98.19,VIDP 260830Z 33005KT 3000 HZ SCT100 40/03 Q1006 NOSIG,M
VIDP,2022-04-26 09:00,104.00,37.40,10.25,290.00,12.00,0.00,29.68,M,2.17,22.00,SCT,M,M,M,10000.00,M,M,M,HZ,M,M,M,M,M,M,98.19,VIDP 260900Z 29012G22KT 3500 HZ SCT100 40/03 Q1005 NOSIG,M
VIDP,2022-04-26 09:30,104.00,37.40,10.25,300.00,9.00,0.00,29.68,M,2.17,M,SCT,M,M,M,10000.00,M,M,M,HZ,M,M,M,M,M,M,98.19,VIDP 260930Z 30009KT 3500 HZ SCT100 40/03 Q1005 NOSIG,M
VIDP,2022-04-26 10:00,102.20,37.40,10.81,310.00,9.00,0.00,29.65,M,2.49,M,SCT,M,M,M,10000.00,M,M,M,HZ,M,M,M,M,M,M,96.63,VIDP 261000Z 31009KT 4000 HZ SCT100 39/03 Q1004 NOSIG,M
VIDP,2022-04-26 10:30,102.20,37.40,10.81,300.00,8.00,0.00,29.65,M,2.49,M,SCT,M,M,M,10000.00,M,M,M,HZ,M,M,M,M,M,M,96.63,VIDP 261030Z 30008KT 4000 HZ SCT100 39/03 Q1004 NOSIG,M
VIDP,2022-04-26 11:00,102.20,37.40,10.81,300.00,8.00,0.00,29.65,M,2.49,18.00,SCT,M,M,M,10000.00,M,M,M,HZ,M,M,M,M,M,M,96.63,VIDP 261100Z 30008G18KT 4000 HZ SCT100 39/03 Q1004 NOSIG,M
VIDP,2022-04-26 11:30,102.20,37.40,10.81,300.00,10.00,0.00,29.65,M,2.49,20.00,SCT,M,M,M,10000.00,M,M,M,DU,M,M,M,M,M,M,96.63,VIDP 261130Z 30010G20KT 4000 DU SCT100 39/03 Q1004 NOSIG,M
VIDP,2022-04-26 12:00,102.20,37.40,10.81,310.00,9.00,0.00,29.65,M,2.49,M,FEW,M,M,M,10000.00,M,M,M,DU,M,M,M,M,M,M,96.63,VIDP 261200Z 31009KT 4000 DU FEW100 39/03 Q1004 NOSIG,M
VIDP,2022-04-26 12:30,102.20,37.40,10.81,300.00,8.00,0.00,29.65,M,2.49,M,SCT,M,M,M,10000.00,M,M,M,HZ,M,M,M,M,M,M,96.63,VIDP 261230Z 30008KT 4000 HZ SCT100 39/03 Q1004 NOSIG,M
VIDP,2022-04-26 13:00,100.40,39.20,12.25,310.00,6.00,0.00,29.65,M,2.17,M,FEW,M,M,M,10000.00,M,M,M,DU,M,M,M,M,M,M,95.43,VIDP 261300Z 31006KT 3500 DU FEW100 38/04 Q1004 NOSIG,M
VIDP,2022-04-26 13:30,100.40,39.20,12.25,320.00,4.00,0.00,29.65,M,2.17,M,FEW,M,M,M,10000.00,M,M,M,DU,M,M,M,M,M,M,95.43,VIDP 261330Z 32004KT 3500 DU FEW100 38/04 Q1004 NOSIG,M
VIDP,2022-04-26 14:00,98.60,39.20,12.94,320.00,5.00,0.00,29.68,M,2.17,M,FEW,M,M,M,10000.00,M,M,M,DU,M,M,M,M,M,M,93.89,VIDP 261400Z 32005KT 3500 DU FEW100 37/04 Q1005 NOSIG,M
VIDP,2022-04-26 14:30,96.80,39.20,13.66,340.00,3.00,0.00,29.68,M,2.17,M,FEW,M,M,M,10000.00,M,M,M,HZ,M,M,M,M,M,M,92.23,VIDP 261430Z 34003KT 3500 HZ FEW100 36/04 Q1005 NOSIG,M
VIDP,2022-04-26 15:00,95.00,41.00,15.49,340.00,3.00,0.00,29.71,M,2.17,M,NSC,M,M,M,M,M,M,M,HZ,M,M,M,M,M,M,90.70,VIDP 261500Z 34003KT 3500 HZ NSC 35/05 Q1006 NOSIG,M
VIDP,2022-04-26 15:30,93.20,42.80,17.55,0.00,0.00,0.00,29.71,M,2.17,M,NSC,M,M,M,M,M,M,M,HZ,M,M,M,M,M,M,89.17,VIDP 261530Z 00000KT 3500 HZ NSC 34/06 Q1006 NOSIG,M
VIDP,2022-04-26 16:00,93.20,44.60,18.80,0.00,0.00,0.00,29.71,M,2.17,M,NSC,M,M,M,M,M,M,M,HZ,M,M,M,M,M,M,89.34,VIDP 261600Z 00000KT 3500 HZ NSC 34/07 Q1006 NOSIG,M
VIDP,2022-04-26 16:30,93.20,46.40,20.13,0.00,0.00,0.00,29.71,M,2.17,M,NSC,M,M,M,M,M,M,M,HZ,M,M,M,M,M,M,89.55,VIDP 261630Z 00000KT 3500 HZ NSC 34/08 Q1006 NOSIG,M
VIDP,2022-04-26 17:00,93.20,46.40,20.13,0.00,0.00,0.00,29.71,M,2.17,M,NSC,M,M,M,M,M,M,M,HZ,M,M,M,M,M,M,89.55,VIDP 261700Z 00000KT 3500 HZ NSC 34/08 Q1006 NOSIG,M
VIDP,2022-04-26 17:30,91.40,46.40,21.29,0.00,0.00,0.00,29.71,M,2.17,M,NSC,M,M,M,M,M,M,M,HZ,M,M,M,M,M,M,87.86,VIDP 261730Z 00000KT 3500 HZ NSC 33/08 Q1006 NOSIG,M
VIDP,2022-04-26 18:00,89.60,48.20,24.11,0.00,0.00,0.00,29.71,M,2.17,M,NSC,M,M,M,M,M,M,M,HZ,M,M,M,M,M,M,86.44,VIDP 261800Z 00000KT 3500 HZ NSC 32/09 Q1006 NOSIG,M
VIDP,2022-04-26 18:30,87.80,48.20,25.52,0.00,0.00,0.00,29.71,M,2.17,M,NSC,M,M,M,M,M,M,M,HZ,M,M,M,M,M,M,84.87,VIDP 261830Z 00000KT 3500 HZ NSC 31/09 Q1006 NOSIG,M
VIDP,2022-04-26 19:00,86.00,50.00,28.90,0.00,0.00,0.00,29.71,M,2.17,M,NSC,M,M,M,M,M,M,M,HZ,M,M,M,M,M,M,83.62,VIDP 261900Z 00000KT 3500 HZ NSC 30/10 Q1006 NOSIG,M
VIDP,2022-04-26 19:30,84.20,50.00,30.62,0.00,0.00,0.00,29.71,M,2.17,M,NSC,M,M,M,M,M,M,M,HZ,M,M,M,M,M,M,82.24,VIDP 261930Z 00000KT 3500 HZ NSC 29/10 Q1006 NOSIG,M
VIDP,2022-04-26 20:00,84.20,51.80,32.73,0.00,0.00,0.00,29.68,M,1.99,M,NSC,M,M,M,M,M,M,M,HZ,M,M,M,M,M,M,82.48,VIDP 262000Z 00000KT 3200 HZ NSC 29/11 Q1005 NOSIG,M
VIDP,2022-04-26 20:30,84.20,51.80,32.73,0.00,0.00,0.00,29.68,M,1.99,M,NSC,M,M,M,M,M,M,M,HZ,M,M,M,M,M,M,82.48,VIDP 262030Z 00000KT 3200 HZ NSC 29/11 Q1005 NOSIG,M
VIDP,2022-04-26 21:00,84.20,51.80,32.73,0.00,0.00,0.00,29.68,M,1.99,M,NSC,M,M,M,M,M,M,M,HZ,M,M,M,M,M,M,82.48,VIDP 262100Z 00000KT 3200 HZ NSC 29/11 Q1005 NOSIG,M
VIDP,2022-04-26 21:30,84.20,51.80,32.73,0.00,0.00,0.00,29.68,M,1.99,M,NSC,M,M,M,M,M,M,M,HZ,M,M,M,M,M,M,82.48,VIDP 262130Z 00000KT 3200 HZ NSC 29/11 Q1005 NOSIG,M
VIDP,2022-04-26 22:00,84.20,51.80,32.73,0.00,0.00,0.00,29.68,M,1.99,M,NSC,M,M,M,M,M,M,M,HZ,M,M,M,M,M,M,82.48,VIDP 262200Z 00000KT 3200 HZ NSC 29/11 Q1005 BECMG 3000 HZ,M
VIDP,2022-04-26 22:30,82.40,51.80,34.69,0.00,0.00,0.00,29.68,M,1.86,M,NSC,M,M,M,M,M,M,M,HZ,M,M,M,M,M,M,81.20,VIDP 262230Z 00000KT 3000 HZ NSC 28/11 Q1005 NOSIG,M
VIDP,2022-04-26 23:00,82.40,51.80,34.69,0.00,0.00,0.00,29.68,M,1.86,M,NSC,M,M,M,M,M,M,M,HZ,M,M,M,M,M,M,81.20,VIDP 262300Z 00000KT 3000 HZ NSC 28/11 Q1005 NOSIG,M
VIDP,2022-04-26 23:30,82.40,51.80,34.69,260.00,3.00,0.00,29.68,M,1.86,M,NSC,M,M,M,M,M,M,M,HZ,M,M,M,M,M,M,81.20,VIDP 262330Z 26003KT 3000 HZ NSC 28/11 Q1005 NOSIG,M
VIDP,2022-04-27 00:00,80.60,51.80,36.79,250.00,3.00,0.00,29.71,M,1.55,M,NSC,M,M,M,M,M,M,M,HZ,M,M,M,M,M,M,80.08,VIDP 270000Z 25003KT 2500 HZ NSC 27/11 Q1006 NOSIG,M
VIDP,2022-04-27 00:30,80.60,50.00,34.41,0.00,0.00,0.00,29.71,M,1.30,M,NSC,M,M,M,M,M,M,M,DU,M,M,M,M,M,M,79.88,VIDP 270030Z 00000KT 2100 DU NSC 27/10 Q1006 TEMPO 1500 DU,M
VIDP,2022-04-27 01:00,80.60,50.00,34.41,0.00,0.00,0.00,29.71,M,0.93,M,NSC,M,M,M,M,M,M,M,DU,M,M,M,M,M,M,79.88,VIDP 270100Z 00000KT 1500 R28/2000 R29/2000 DU NSC 27/10 Q1006 NOSIG,M
VIDP,2022-04-27 01:30,82.40,50.00,32.46,0.00,0.00,0.00,29.71,M,0.93,M,NSC,M,M,M,M,M,M,M,DU,M,M,M,M,M,M,80.99,VIDP 270130Z 00000KT 1500 R28/2000 R29/2000 DU NSC 28/10 Q1006 NOSIG,M
VIDP,2022-04-27 02:00,84.20,50.00,30.62,0.00,0.00,0.00,29.74,M,0.93,M,NSC,M,M,M,M,M,M,M,DU,M,M,M,M,M,M,82.24,VIDP 270200Z 00000KT 1500 R28/2000 R29/2000 DU NSC 29/10 Q1007 NOSIG,M
VIDP,2022-04-27 02:30,87.80,48.20,25.52,0.00,0.00,0.00,29.74,M,1.30,M,NSC,M,M,M,M,M,M,M,DU,M,M,M,M,M,M,84.87,VIDP 270230Z 00000KT 2100 DU NSC 31/09 Q1007 NOSIG,M
VIDP,2022-04-27 03:00,91.40,46.40,21.29,250.00,4.00,0.00,29.74,M,1.37,M,NSC,M,M,M,M,M,M,M,DU,M,M,M,M,M,M,87.86,VIDP 270300Z 25004KT 2200 DU NSC 33/08 Q1007 NOSIG,M
VIDP,2022-04-27 03:30,93.20,44.60,18.80,260.00,5.00,0.00,29.77,M,1.37,M,NSC,M,M,M,M,M,M,M,DU,M,M,M,M,M,M,89.34,VIDP 270330Z 26005KT 2200 DU NSC 34/07 Q1008 NOSIG,M
VIDP,2022-04-27 04:00,95.00,42.80,16.60,250.00,6.00,0.00,29.77,M,1.37,M,NSC,M,M,M,M,M,M,M,DU,M,M,M,M,M,M,90.86,VIDP 270400Z 25006KT 2200 DU NSC 35/06 Q1008 NOSIG,M
VIDP,2022-04-27 04:30,98.60,42.80,14.87,250.00,6.00,0.00,29.77,M,1.37,M,NSC,M,M,M,M,M,M,M,DU,M,M,M,M,M,M,94.30,VIDP 270430Z 25006KT 2200 DU NSC 37/06 Q1008 NOSIG,M
VIDP,2022-04-27 05:00,100.40,41.00,13.14,260.00,5.00,0.00,29.77,M,1.55,M,NSC,M,M,M,M,M,M,M,HZ,M,M,M,M,M,M,95.79,VIDP 270500Z 26005KT 2500 HZ NSC 38/05 Q1008 NOSIG,M
VIDP,2022-04-27 05:30,100.40,39.20,12.25,270.00,5.00,0.00,29.77,M,1.74,M,NSC,M,M,M,M,M,M,M,HZ,M,M,M,M,M,M,95.43,VIDP 270530Z 27005KT 2800 HZ NSC 38/04 Q1008 BECMG 3000 HZ,M
VIDP,2022-04-27 06:00,104.00,37.40,10.25,250.00,5.00,0.00,29.74,M,1.86,M,NSC,M,M,M,M,M,M,M,HZ,M,M,M,M,M,M,98.19,VIDP 270600Z 25005KT 3000 HZ NSC 40/03 Q1007 NOSIG,M
VIDP,2022-04-27 06:30,104.00,33.80,8.88,280.00,7.00,0.00,29.74,M,2.17,M,NSC,M,M,M,M,M,M,M,HZ,M,M,M,M,M,M,97.55,VIDP 270630Z 28007KT 3500 HZ NSC 40/01 Q1007 NOSIG,M
VIDP,2022-04-27 07:00,105.80,33.80,8.42,290.00,11.00,0.00,29.74,M,2.49,M,NSC,M,M,M,M,M,M,M,HZ,M,M,M,M,M,M,99.10,VIDP 270700Z 29011KT 4000 HZ NSC 41/01 Q1007 NOSIG,M
VIDP,2022-04-27 07:30,105.80,33.80,8.42,300.00,8.00,0.00,29.71,M,2.49,M,NSC,M,M,M,M,M,M,M,HZ,M,M,M,M,M,M,99.10,VIDP 270730Z 30008KT 4000 HZ NSC 41/01 Q1006 NOSIG,M
VIDP,2022-04-27 08:00,105.80,33.80,8.42,320.00,8.00,0.00,29.71,M,2.17,M,NSC,M,M,M,M,M,M,M,DU,M,M,M,M,M,M,99.10,VIDP 270800Z 32008KT 3500 DU NSC 41/01 Q1006 NOSIG,M
VIDP,2022-04-27 08:30,105.80,26.60,6.29,280.00,10.00,0.00,29.68,M,2.17,M,NSC,M,M,M,M,M,M,M,DU,M,M,M,M,M,M,98.12,VIDP 270830Z 28010KT 3500 DU NSC 41/M03 Q1005 NOSIG,M
VIDP,2022-04-27 09:00,107.60,26.60,5.96,300.00,8.00,0.00,29.68,M,2.17,18.00,NSC,M,M,M,M,M,M,M,BLDU,M,M,M,M,M,M,99.63,VIDP 270900Z 30008G18KT 3500 BLDU NSC 42/M03 Q1005 NOSIG,M
VIDP,2022-04-27 09:30,107.60,26.60,5.96,280.00,8.00,0.00,29.65,M,2.17,18.00,NSC,M,M,M,M,M,M,M,BLDU,M,M,M,M,M,M,99.63,VIDP 270930Z 28008G18KT 3500 BLDU NSC 42/M03 Q1004 NOSIG,M
VIDP,2022-04-27 10:00,107.60,26.60,5.96,290.00,8.00,0.00,29.65,M,2.17,18.00,NSC,M,M,M,M,M,M,M,BLDU,M,M,M,M,M,M,99.63,VIDP 271000Z 29008G18KT 3500 BLDU NSC 42/M03 Q1004 NOSIG,M
VIDP,2022-04-27 10:30,107.60,26.60,5.96,290.00,8.00,0.00,29.65,M,2.17,18.00,NSC,M,M,M,M,M,M,M,BLDU,M,M,M,M,M,M,99.63,VIDP 271030Z 29008G18KT 3500 BLDU NSC 42/M03 Q1004 NOSIG,M
VIDP,2022-04-27 11:00,105.80,26.60,6.29,270.00,8.00,0.00,29.62,M,2.17,18.00,NSC,M,M,M,M,M,M,M,BLDU,M,M,M,M,M,M,98.12,VIDP 271100Z 27008G18KT 3500 BLDU NSC 41/M03 Q1003 NOSIG,M
VIDP,2022-04-27 11:30,105.80,26.60,6.29,310.00,8.00,0.00,29.62,M,2.17,M,NSC,M,M,M,M,M,M,M,DU,M,M,M,M,M,M,98.12,VIDP 271130Z 31008KT 3500 DU NSC 41/M03 Q1003 NOSIG,M
VIDP,2022-04-27 12:00,104.00,26.60,6.63,310.00,10.00,0.00,29.62,M,2.17,M,NSC,M,M,M,M,M,M,M,DU,M,M,M,M,M,M,96.60,VIDP 271200Z 31010KT 3500 DU NSC 40/M03 Q1003 NOSIG,M
VIDP,2022-04-27 12:30,104.00,28.40,7.14,310.00,8.00,0.00,29.62,M,2.17,M,NSC,M,M,M,M,M,M,M,DU,M,M,M,M,M,M,96.81,VIDP 271230Z 31008KT 3500 DU NSC 40/M02 Q1003 NOSIG,M
VIDP,2022-04-27 13:00,102.20,33.80,9.37,300.00,6.00,0.00,29.62,M,2.17,M,NSC,M,M,M,M,M,M,M,DU,M,M,M,M,M,M,96.01,VIDP 271300Z 30006KT 3500 DU NSC 39/01 Q1003 NOSIG,M
VIDP,2022-04-27 13:30,100.40,33.80,9.90,280.00,4.00,0.00,29.62,M,2.17,M,NSC,M,M,M,M,M,M,M,DU,M,M,M,M,M,M,94.47,VIDP 271330Z 28004KT 3500 DU NSC 38/01 Q1003 NOSIG,M
VIDP,2022-04-27 14:00,100.40,33.80,9.90,270.00,4.00,0.00,29.65,M,2.17,M,NSC,M,M,M,M,M,M,M,DU,M,M,M,M,M,M,94.47,VIDP 271400Z 27004KT 3500 DU NSC 38/01 Q1004 NOSIG,M
VIDP,2022-04-27 14:30,96.80,37.40,12.73,270.00,4.00,0.00,29.65,M,1.99,M,NSC,M,M,M,M,M,M,M,DU,M,M,M,M,M,M,92.04,VIDP 271430Z 27004KT 3200 DU NSC 36/03 Q1004 BECMG 3000 DU,M
VIDP,2022-04-27 15:00,93.20,41.00,16.37,0.00,0.00,0.00,29.65,M,1.86,M,NSC,M,M,M,M,M,M,M,DU,M,M,M,M,M,M,89.03,VIDP 271500Z 00000KT 3000 DU NSC 34/05 Q1004 NOSIG,M
VIDP,2022-04-27 15:30,93.20,41.00,16.37,0.00,0.00,0.00,29.68,M,1.86,M,NSC,M,M,M,M,M,M,M,DU,M,M,M,M,M,M,89.03,VIDP 271530Z 00000KT 3000 DU NSC 34/05 Q1005 NOSIG,M
VIDP,2022-04-27 16:00,93.20,41.00,16.37,0.00,0.00,0.00,29.68,M,1.86,M,NSC,M,M,M,M,M,M,M,DU,M,M,M,M,M,M,89.03,VIDP 271600Z 00000KT 3000 DU NSC 34/05 Q1005 NOSIG,M
VIDP,2022-04-27 16:30,93.20,41.00,16.37,0.00,0.00,0.00,29.68,M,1.86,M,NSC,M,M,M,M,M,M,M,DU,M,M,M,M,M,M,89.03,VIDP 271630Z 00000KT 3000 DU NSC 34/05 Q1005 NOSIG,M
VIDP,2022-04-27 17:00,89.60,41.00,18.33,0.00,0.00,0.00,29.68,M,1.86,M,NSC,M,M,M,M,M,M,M,HZ,M,M,M,M,M,M,85.82,VIDP 271700Z 00000KT 3000 HZ NSC 32/05 Q1005 NOSIG,M
VIDP,2022-04-27 17:30,91.40,39.20,16.15,0.00,0.00,0.00,29.68,M,1.86,M,NSC,M,M,M,M,M,M,M,HZ,M,M,M,M,M,M,87.30,VIDP 271730Z 00000KT 3000 HZ NSC 33/04 Q1005 NOSIG,M
VIDP,2022-04-27 18:00,89.60,41.00,18.33,0.00,0.00,0.00,29.68,M,1.86,M,NSC,M,M,M,M,M,M,M,HZ,M,M,M,M,M,M,85.82,VIDP 271800Z 00000KT 3000 HZ NSC 32/05 Q1005 NOSIG,M
VIDP,2022-04-27 18:30,89.60,42.80,19.64,0.00,0.00,0.00,29.68,M,1.86,M,NSC,M,M,M,M,M,M,M,HZ,M,M,M,M,M,M,85.93,VIDP 271830Z 00000KT 3000 HZ NSC 32/06 Q1005 NOSIG,M
VIDP,2022-04-27 19:00,87.80,42.80,20.79,0.00,0.00,0.00,29.65,M,1.86,M,NSC,M,M,M,M,M,M,M,HZ,M,M,M,M,M,M,84.40,VIDP 271900Z 00000KT 3000 HZ NSC 31/06 Q1004 NOSIG,M
VIDP,2022-04-27 19:30,87.80,42.80,20.79,0.00,0.00,0.00,29.65,M,1.55,M,NSC,M,M,M,M,M,M,M,HZ,M,M,M,M,M,M,84.40,VIDP 271930Z 00000KT 2500 HZ NSC 31/06 Q1004 NOSIG,M
VIDP,2022-04-27 20:00,86.00,46.40,25.26,0.00,0.00,0.00,29.65,M,1.55,M,NSC,M,M,M,M,M,M,M,HZ,M,M,M,M,M,M,83.22,VIDP 272000Z 00000KT 2500 HZ NSC 30/08 Q1004 NOSIG,M
VIDP,2022-04-27 20:30,84.20,46.40,26.76,0.00,0.00,0.00,29.65,M,1.55,M,NSC,M,M,M,M,M,M,M,HZ,M,M,M,M,M,M,81.87,VIDP 272030Z 00000KT 2500 HZ NSC 29/08 Q1004 NOSIG,M
VIDP,2022-04-27 21:00,82.40,46.40,28.36,0.00,0.00,0.00,29.65,M,1.55,M,NSC,M,M,M,M,M,M,M,HZ,M,M,M,M,M,M,80.64,VIDP 272100Z 00000KT 2500 HZ NSC 28/08 Q1004 NOSIG,M
VIDP,2022-04-27 21:30,82.40,48.20,30.35,0.00,0.00,0.00,29.65,M,1.55,M,NSC,M,M,M,M,M,M,M,HZ,M,M,M,M,M,M,80.80,VIDP 272130Z 00000KT 2500 HZ NSC 28/09 Q1004 NOSIG,M
VIDP,2022-04-27 22:00,82.40,48.20,30.35,0.00,0.00,0.00,29.65,M,1.55,M,NSC,M,M,M,M,M,M,M,HZ,M,M,M,M,M,M,80.80,VIDP 272200Z 00000KT 2500 HZ NSC 28/09 Q1004 NOSIG,M
VIDP,2022-04-27 22:30,82.40,48.20,30.35,0.00,0.00,0.00,29.65,M,1.37,M,NSC,M,M,M,M,M,M,M,HZ,M,M,M,M,M,M,80.80,VIDP 272230Z 00000KT 2200 HZ NSC 28/09 Q1004 NOSIG,M
VIDP,2022-04-27 23:00,82.40,46.40,28.36,0.00,0.00,0.00,29.65,M,1.37,M,NSC,M,M,M,M,M,M,M,HZ,M,M,M,M,M,M,80.64,VIDP 272300Z 00000KT 2200 HZ NSC 28/08 Q1004 NOSIG,M
VIDP,2022-04-27 23:30,82.40,46.40,28.36,0.00,0.00,0.00,29.68,M,1.37,M,NSC,M,M,M,M,M,M,M,HZ,M,M,M,M,M,M,80.64,VIDP 272330Z 00000KT 2200 HZ NSC 28/08 Q1005 NOSIG,M
VIDP,2022-04-28 00:00,80.60,46.40,30.07,0.00,0.00,0.00,29.68,M,1.37,M,NSC,M,M,M,M,M,M,M,HZ,M,M,M,M,M,M,79.56,VIDP 280000Z 00000KT 2200 HZ NSC 27/08 Q1005 NOSIG,M
VIDP,2022-04-28 00:30,80.60,44.60,28.08,0.00,0.00,0.00,29.68,M,1.12,M,NSC,M,M,M,M,M,M,M,HZ,M,M,M,M,M,M,79.42,VIDP 280030Z 00000KT 1800 R28/2000 R29/2000 HZ NSC 27/07 Q1005 NOSIG,M
VIDP,2022-04-28 01:00,80.60,44.60,28.08,0.00,0.00,0.00,29.71,M,0.99,M,NSC,M,M,M,M,M,M,M,HZ,M,M,M,M,M,M,79.42,VIDP 280100Z 00000KT 1600 R28/2000 R29/2000 HZ NSC 27/07 Q1006 BECMG 1500 HZ,M
VIDP,2022-04-28 01:30,82.40,44.60,26.49,0.00,0.00,0.00,29.71,M,1.12,M,NSC,M,M,M,M,M,M,M,HZ,M,M,M,M,M,M,80.50,VIDP 280130Z 00000KT 1800 R28/2000 R29/2000 HZ NSC 28/07 Q1006 NOSIG,M
VIDP,2022-04-28 02:00,84.20,42.80,23.33,240.00,3.00,0.00,29.74,M,1.12,M,NSC,M,M,M,M,M,M,M,HZ,M,M,M,M,M,M,81.61,VIDP 280200Z 24003KT 1800 R28/2000 R29/2000 HZ NSC 29/06 Q1007 NOSIG,M
VIDP,2022-04-28 02:30,87.80,41.00,19.40,240.00,4.00,0.00,29.74,M,1.37,M,NSC,M,M,M,M,M,M,M,DU,M,M,M,M,M,M,84.30,VIDP 280230Z 24004KT 2200 DU NSC 31/05 Q1007 NOSIG,M
VIDP,2022-04-28 03:00,89.60,41.00,18.33,250.00,5.00,0.00,29.74,M,1.37,M,NSC,M,M,M,M,M,M,M,DU,M,M,M,M,M,M,85.82,VIDP 280300Z 25005KT 2200 DU NSC 32/05 Q1007 NOSIG,M
VIDP,2022-04-28 03:30,93.20,44.60,18.80,250.00,4.00,0.00,29.77,M,1.37,M,NSC,M,M,M,M,M,M,M,DU,M,M,M,M,M,M,89.34,VIDP 280330Z 25004KT 2200 DU NSC 34/07 Q1008 NOSIG,M
VIDP,2022-04-28 04:00,95.00,46.40,19.04,250.00,4.00,0.00,29.77,M,1.55,M,NSC,M,M,M,M,M,M,M,DU,M,M,M,M,M,M,91.29,VIDP 280400Z 25004KT 2500 DU NSC 35/08 Q1008 NOSIG,M
VIDP,2022-04-28 04:30,96.80,44.60,16.83,220.00,3.00,0.00,29.77,M,1.55,M,NSC,M,M,M,M,M,M,M,DU,M,M,M,M,M,M,92.79,VIDP 280430Z 22003KT 2500 DU NSC 36/07 Q1008 NOSIG,M
VIDP,2022-04-28 05:00,98.60,42.80,14.87,230.00,3.00,0.00,29.77,M,1.55,M,NSC,M,M,M,M,M,M,M,DU,M,M,M,M,M,M,94.30,VIDP 280500Z 23003KT 2500 DU NSC 37/06 Q1008 NOSIG,M
VIDP,2022-04-28 05:30,100.40,42.80,14.08,270.00,4.00,0.00,29.74,M,1.55,M,NSC,M,M,M,M,M,M,M,DU,M,M,M,M,M,M,96.04,VIDP 280530Z 27004KT 2500 DU NSC 38/06 Q1007 NOSIG,M
VIDP,2022-04-28 06:00,102.20,42.80,13.34,240.00,5.00,0.00,29.74,M,1.55,M,NSC,M,M,M,M,M,M,M,DU,M,M,M,M,M,M,97.76,VIDP 280600Z 24005KT 2500 DU NSC 39/06 Q1007 NOSIG,M
VIDP,2022-04-28 06:30,104.00,42.80,12.64,240.00,4.00,0.00,29.74,M,1.55,M,NSC,M,M,M,M,M,M,M,DU,M,M,M,M,M,M,99.42,VIDP 280630Z 24004KT 2500 DU NSC 40/06 Q1007 NOSIG,M
VIDP,2022-04-28 07:00,107.60,33.80,7.99,240.00,9.00,0.00,29.71,M,1.74,M,NSC,M,M,M,M,M,M,M,DU,M,M,M,M,M,M,100.66,VIDP 280700Z 24009KT 2800 DU NSC 42/01 Q1006 BECMG 3000 DU,M
VIDP,2022-04-28 07:30,107.60,37.40,9.21,300.00,12.00,0.00,29.71,M,1.86,M,NSC,M,M,M,M,M,M,M,DU,M,M,M,M,M,M,101.34,VIDP 280730Z 30012KT 3000 DU NSC 42/03 Q1006 NOSIG,M
VIDP,2022-04-28 08:00,107.60,37.40,9.21,270.00,10.00,0.00,29.71,M,1.86,M,NSC,M,M,M,M,M,M,M,DU,M,M,M,M,M,M,101.34,VIDP 280800Z 27010KT 3000 DU NSC 42/03 Q1006 NOSIG,M
VIDP,2022-04-28 08:30,107.60,37.40,9.21,280.00,6.00,0.00,29.68,M,2.17,M,NSC,M,M,M,M,M,M,M,DU,M,M,M,M,M,M,101.34,VIDP 280830Z 28006KT 3500 DU NSC 42/03 Q1005 NOSIG,M
VIDP,2022-04-28 09:00,109.40,35.60,8.14,270.00,7.00,0.00,29.68,M,2.17,M,NSC,M,M,M,M,M,M,M,DU,M,M,M,M,M,M,102.57,VIDP 280900Z 27007KT 3500 DU NSC 43/02 Q1005 NOSIG,M
VIDP,2022-04-28 09:30,109.40,33.80,7.58,270.00,7.00,0.00,29.65,M,2.49,M,NSC,M,M,M,M,M,M,M,HZ,M,M,M,M,M,M,102.24,VIDP 280930Z 27007KT 4000 HZ NSC 43/01 Q1004 NOSIG,M
VIDP,2022-04-28 10:00,109.40,33.80,7.58,300.00,8.00,0.00,29.65,M,2.49,M,NSC,M,M,M,M,M,M,M,HZ,M,M,M,M,M,M,102.24,VIDP 281000Z 30008KT 4000 HZ NSC 43/01 Q1004 NOSIG,M
VIDP,2022-04-28 10:30,109.40,33.80,7.58,300.00,7.00,0.00,29.65,M,2.49,M,NSC,M,M,M,M,M,M,M,HZ,M,M,M,M,M,M,102.24,VIDP 281030Z 30007KT 4000 HZ NSC 43/01 Q1004 NOSIG,M
VIDP,2022-04-28 11:00,109.40,33.80,7.58,290.00,6.00,0.00,29.62,M,2.49,M,NSC,M,M,M,M,M,M,M,HZ,M,M,M,M,M,M,102.24,VIDP 281100Z 29006KT 4000 HZ NSC 43/01 Q1003 NOSIG,M
VIDP,2022-04-28 11:30,109.40,33.80,7.58,280.00,6.00,0.00,29.62,M,2.49,M,NSC,M,M,M,M,M,M,M,HZ,M,M,M,M,M,M,102.24,VIDP 281130Z 28006KT 4000 HZ NSC 43/01 Q1003 NOSIG,M
VIDP,2022-04-28 12:00,109.40,35.60,8.14,270.00,5.00,0.00,29.62,M,2.49,M,NSC,M,M,M,M,M,M,M,HZ,M,M,M,M,M,M,102.57,VIDP 281200Z 27005KT 4000 HZ NSC 43/02 Q1003 NOSIG,M
VIDP,2022-04-28 12:30,107.60,37.40,9.21,280.00,5.00,0.00,29.62,M,2.49,M,NSC,M,M,M,M,M,M,M,HZ,M,M,M,M,M,M,101.34,VIDP 281230Z 28005KT 4000 HZ NSC 42/03 Q1003 NOSIG,M
VIDP,2022-04-28 13:00,105.80,37.40,9.72,290.00,5.00,0.00,29.62,M,2.49,M,NSC,M,M,M,M,M,M,M,HZ,M,M,M,M,M,M,99.76,VIDP 281300Z 29005KT 4000 HZ NSC 41/03 Q1003 NOSIG,M
VIDP,2022-04-28 13:30,104.00,39.20,11.00,0.00,0.00,0.00,29.65,M,2.17,M,NSC,M,M,M,M,M,M,M,HZ,M,M,M,M,M,M,98.56,VIDP 281330Z 00000KT 3500 HZ NSC 40/04 Q1004 NOSIG,M
VIDP,2022-04-28 14:00,102.20,41.00,12.44,0.00,0.00,0.00,29.65,M,2.17,M,NSC,M,M,M,M,M,M,M,HZ,M,M,M,M,M,M,97.39,VIDP 281400Z 00000KT 3500 HZ NSC 39/05 Q1004 NOSIG,M
VIDP,2022-04-28 14:30,100.40,42.80,14.08,0.00,0.00,0.00,29.65,M,2.17,M,NSC,M,M,M,M,M,M,M,HZ,M,M,M,M,M,M,96.04,VIDP 281430Z 00000KT 3500 HZ NSC 38/06 Q1004 NOSIG,M
VIDP,2022-04-28 15:00,96.80,46.40,18.02,0.00,0.00,0.00,29.65,M,2.17,M,NSC,M,M,M,M,M,M,M,HZ,M,M,M,M,M,M,93.05,VIDP 281500Z 00000KT 3500 HZ NSC 36/08 Q1004 NOSIG,M
VIDP,2022-04-28 15:30,95.00,46.40,19.04,0.00,0.00,0.00,29.68,M,2.17,M,NSC,M,M,M,M,M,M,M,HZ,M,M,M,M,M,M,91.29,VIDP 281530Z 00000KT 3500 HZ NSC 35/08 Q1005 NOSIG,M
VIDP,2022-04-28 16:00,93.20,48.20,21.54,0.00,0.00,0.00,29.68,M,2.17,M,NSC,M,M,M,M,M,M,M,HZ,M,M,M,M,M,M,89.80,VIDP 281600Z 00000KT 3500 HZ NSC 34/09 Q1005 NOSIG,M
VIDP,2022-04-28 16:30,93.20,48.20,21.54,0.00,0.00,0.00,29.68,M,2.17,M,NSC,M,M,M,M,M,M,M,HZ,M,M,M,M,M,M,89.80,VIDP 281630Z 00000KT 3500 HZ NSC 34/09 Q1005 NOSIG,M
VIDP,2022-04-28 17:00,91.40,50.00,24.37,0.00,0.00,0.00,29.71,M,2.17,M,NSC,M,M,M,M,M,M,M,HZ,M,M,M,M,M,M,88.36,VIDP 281700Z 00000KT 3500 HZ NSC 33/10 Q1006 NOSIG,M
VIDP,2022-04-28 17:30,91.40,50.00,24.37,0.00,0.00,0.00,29.71,M,2.17,M,NSC,M,M,M,M,M,M,M,HZ,M,M,M,M,M,M,88.36,VIDP 281730Z 00000KT 3500 HZ NSC 33/10 Q1006 NOSIG,M
VIDP,2022-04-28 18:00,89.60,50.00,25.79,0.00,0.00,0.00,29.71,M,2.17,M,NSC,M,M,M,M,M,M,M,HZ,M,M,M,M,M,M,86.70,VIDP 281800Z 00000KT 3500 HZ NSC 32/10 Q1006 NOSIG,M
VIDP,2022-04-28 18:30,89.60,50.00,25.79,0.00,0.00,0.00,29.71,M,2.17,M,NSC,M,M,M,M,M,M,M,HZ,M,M,M,M,M,M,86.70,VIDP 281830Z 00000KT 3500 HZ NSC 32/10 Q1006 NOSIG,M
VIDP,2022-04-28 19:00,89.60,50.00,25.79,0.00,0.00,0.00,29.71,M,2.17,M,NSC,M,M,M,M,M,M,M,HZ,M,M,M,M,M,M,86.70,VIDP 281900Z 00000KT 3500 HZ NSC 32/10 Q1006 NOSIG,M
VIDP,2022-04-28 19:30,89.60,50.00,25.79,0.00,0.00,0.00,29.71,M,2.17,M,NSC,M,M,M,M,M,M,M,HZ,M,M,M,M,M,M,86.70,VIDP 281930Z 00000KT 3500 HZ NSC 32/10 Q1006 NOSIG,M
VIDP,2022-04-28 20:00,89.60,50.00,25.79,0.00,0.00,0.00,29.71,M,2.17,M,NSC,M,M,M,M,M,M,M,HZ,M,M,M,M,M,M,86.70,VIDP 282000Z 00000KT 3500 HZ NSC 32/10 Q1006 NOSIG,M
VIDP,2022-04-28 20:30,89.60,50.00,25.79,0.00,0.00,0.00,29.71,M,2.17,M,NSC,M,M,M,M,M,M,M,HZ,M,M,M,M,M,M,86.70,VIDP 282030Z 00000KT 3500 HZ NSC 32/10 Q1006 NOSIG,M
VIDP,2022-04-28 21:00,87.80,50.00,27.29,0.00,0.00,0.00,29.68,M,2.17,M,NSC,M,M,M,M,M,M,M,HZ,M,M,M,M,M,M,85.11,VIDP 282100Z 00000KT 3500 HZ NSC 31/10 Q1005 NOSIG,M
VIDP,2022-04-28 21:30,87.80,50.00,27.29,0.00,0.00,0.00,29.68,M,2.17,M,NSC,M,M,M,M,M,M,M,HZ,M,M,M,M,M,M,85.11,VIDP 282130Z 00000KT 3500 HZ NSC 31/10 Q1005 NOSIG,M
VIDP,2022-04-28 22:00,87.80,50.00,27.29,0.00,0.00,0.00,29.68,M,1.99,M,NSC,M,M,M,M,M,M,M,HZ,M,M,M,M,M,M,85.11,VIDP 282200Z 00000KT 3200 HZ NSC 31/10 Q1005 BECMG 3000 HZ,M
VIDP,2022-04-28 22:30,87.80,50.00,27.29,0.00,0.00,0.00,29.68,M,1.86,M,NSC,M,M,M,M,M,M,M,HZ,M,M,M,M,M,M,85.11,VIDP 282230Z 00000KT 3000 HZ NSC 31/10 Q1005 NOSIG,M
VIDP,2022-04-28 23:00,86.00,50.00,28.90,0.00,0.00,0.00,29.68,M,1.55,M,NSC,M,M,M,M,M,M,M,HZ,M,M,M,M,M,M,83.62,VIDP 282300Z 00000KT 2500 HZ NSC 30/10 Q1005 NOSIG,M
VIDP,2022-04-28 23:30,86.00,50.00,28.90,0.00,0.00,0.00,29.71,M,1.37,M,NSC,M,M,M,M,M,M,M,HZ,M,M,M,M,M,M,83.62,VIDP 282330Z 00000KT 2200 HZ NSC 30/10 Q1006 NOSIG,M
VIDP,2022-04-29 00:00,86.00,50.00,28.90,0.00,0.00,0.00,29.71,M,1.37,M,NSC,M,M,M,M,M,M,M,HZ,M,M,M,M,M,M,83.62,VIDP 290000Z 00000KT 2200 HZ NSC 30/10 Q1006 NOSIG,M
VIDP,2022-04-29 00:30,86.00,50.00,28.90,0.00,0.00,0.00,29.71,M,1.37,M,NSC,M,M,M,M,M,M,M,HZ,M,M,M,M,M,M,83.62,VIDP 290030Z 00000KT 2200 HZ NSC 30/10 Q1006 NOSIG,M
VIDP,2022-04-29 01:00,86.00,48.20,27.03,0.00,0.00,0.00,29.71,M,1.37,M,NSC,M,M,M,M,M,M,M,HZ,M,M,M,M,M,M,83.40,VIDP 290100Z 00000KT 2200 HZ NSC 30/09 Q1006 NOSIG,M
VIDP,2022-04-29 01:30,86.00,46.40,25.26,230.00,5.00,0.00,29.71,M,1.37,M,NSC,M,M,M,M,M,M,M,HZ,M,M,M,M,M,M,83.22,VIDP 290130Z 23005KT 2200 HZ NSC 30/08 Q1006 NOSIG,M
VIDP,2022-04-29 02:00,87.80,46.40,23.85,220.00,6.00,0.00,29.74,M,1.37,M,NSC,M,M,M,M,M,M,M,HZ,M,M,M,M,M,M,84.68,VIDP 290200Z 22006KT 2200 HZ NSC 31/08 Q1007 NOSIG,M
VIDP,2022-04-29 02:30,89.60,48.20,24.11,250.00,6.00,0.00,29.74,M,1.74,M,NSC,M,M,M,M,M,M,M,HZ,M,M,M,M,M,M,86.44,VIDP 290230Z 25006KT 2800 HZ NSC 32/09 Q1007 BECMG 3000 HZ,M
VIDP,2022-04-29 03:00,89.60,48.20,24.11,250.00,6.00,0.00,29.77,M,1.86,M,NSC,M,M,M,M,M,M,M,HZ,M,M,M,M,M,M,86.44,VIDP 290300Z 25006KT 3000 HZ NSC 32/09 Q1008 NOSIG,M
VIDP,2022-04-29 03:30,93.20,46.40,20.13,260.00,7.00,0.00,29.77,M,2.17,M,NSC,M,M,M,M,M,M,M,HZ,M,M,M,M,M,M,89.55,VIDP 290330Z 26007KT 3500 HZ NSC 34/08 Q1008 NOSIG,M
VIDP,2022-04-29 04:00,96.80,46.40,18.02,260.00,8.00,0.00,29.77,M,2.49,M,NSC,M,M,M,M,M,M,M,HZ,M,M,M,M,M,M,93.05,VIDP 290400Z 26008KT 4000 HZ NSC 36/08 Q1008 NOSIG,M
VIDP,2022-04-29 04:30,98.60,44.60,15.93,250.00,7.00,0.00,29.74,M,2.49,M,NSC,M,M,M,M,M,M,M,HZ,M,M,M,M,M,M,94.55,VIDP 290430Z 25007KT 4000 HZ NSC 37/07 Q1007 NOSIG,M
VIDP,2022-04-29 05:00,102.20,44.60,14.29,260.00,6.00,0.00,29.74,M,2.49,M,NSC,M,M,M,M,M,M,M,HZ,M,M,M,M,M,M,98.07,VIDP 290500Z 26006KT 4000 HZ NSC 39/07 Q1007 NOSIG,M
VIDP,2022-04-29 05:30,104.00,42.80,12.64,260.00,7.00,0.00,29.74,M,2.49,M,NSC,M,M,M,M,M,M,M,HZ,M,M,M,M,M,M,99.42,VIDP 290530Z 26007KT 4000 HZ NSC 40/06 Q1007 NOSIG,M
VIDP,2022-04-29 06:00,105.80,41.00,11.18,280.00,7.00,0.00,29.74,M,2.49,M,NSC,M,M,M,M,M,M,M,HZ,M,M,M,M,M,M,100.56,VIDP 290600Z 28007KT 4000 HZ NSC 41/05 Q1007 NOSIG,M
VIDP,2022-04-29 06:30,107.60,39.20,9.89,290.00,8.00,0.00,29.71,M,2.49,M,NSC,M,M,M,M,M,M,M,HZ,M,M,M,M,M,M,101.73,VIDP 290630Z 29008KT 4000 HZ NSC 42/04 Q1006 NOSIG,M
VIDP,2022-04-29 07:00,107.60,39.20,9.89,300.00,6.00,0.00,29.71,M,2.49,16.00,NSC,M,M,M,M,M,M,M,HZ,M,M,M,M,M,M,101.73,VIDP 290700Z 30006G16KT 4000 HZ NSC 42/04 Q1006 NOSIG,M
VIDP,2022-04-29 07:30,109.40,39.20,9.38,290.00,6.00,0.00,29.68,M,2.49,16.00,NSC,M,M,M,M,M,M,M,HZ,M,M,M,M,M,M,103.33,VIDP 290730Z 29006G16KT 4000 HZ NSC 43/04 Q1005 NOSIG,M
VIDP,2022-04-29 08:00,109.40,39.20,9.38,300.00,8.00,0.00,29.68,M,2.80,20.00,NSC,M,M,M,M,M,M,M,HZ,M,M,M,M,M,M,103.33,VIDP 290800Z 30008G20KT 4500 HZ NSC 43/04 Q1005 NOSIG,M
VIDP,2022-04-29 08:30,107.60,26.60,5.96,300.00,8.00,0.00,29.65,M,2.80,18.00,NSC,M,M,M,M,M,M,M,HZ,M,M,M,M,M,M,99.63,VIDP 290830Z 30008G18KT 4500 HZ NSC 42/M03 Q1004 NOSIG,M
VIDP,2022-04-29 09:00,109.40,30.20,6.56,290.00,8.00,0.00,29.65,M,2.80,18.00,NSC,M,M,M,M,M,M,M,HZ,M,M,M,M,M,M,101.66,VIDP 290900Z 29008G18KT 4500 HZ NSC 43/M01 Q1004 NOSIG,M
VIDP,2022-04-29 09:30,109.40,28.40,6.09,290.00,8.00,0.00,29.62,M,2.80,18.00,NSC,M,M,M,M,M,M,M,HZ,M,M,M,M,M,M,101.40,VIDP 290930Z 29008G18KT 4500 HZ NSC 43/M02 Q1003 NOSIG,M
VIDP,2022-04-29 10:00,107.60,28.40,6.42,270.00,8.00,0.00,29.59,M,2.80,18.00,NSC,M,M,M,M,M,M,M,HZ,M,M,M,M,M,M,99.86,VIDP 291000Z 27008G18KT 4500 HZ NSC 42/M02 Q1002 NOSIG,M
VIDP,2022-04-29 10:30,107.60,28.40,6.42,280.00,8.00,0.00,29.59,M,2.80,18.00,NSC,M,M,M,M,M,M,M,HZ,M,M,M,M,M,M,99.86,VIDP 291030Z 28008G18KT 4500 HZ NSC 42/M02 Q1002 NOSIG,M
VIDP,2022-04-29 11:00,107.60,28.40,6.42,280.00,8.00,0.00,29.59,M,2.80,18.00,NSC,M,M,M,M,M,M,M,HZ,M,M,M,M,M,M,99.86,VIDP 291100Z 28008G18KT 4500 HZ NSC 42/M02 Q1002 NOSIG,M
VIDP,2022-04-29 11:30,107.60,28.40,6.42,280.00,7.00,0.00,29.56,M,2.80,17.00,NSC,M,M,M,M,M,M,M,HZ,M,M,M,M,M,M,99.86,VIDP 291130Z 28007G17KT 4500 HZ NSC 42/M02 Q1001 NOSIG,M
VIDP,2022-04-29 12:00,107.60,30.20,6.91,290.00,8.00,0.00,29.56,M,2.80,18.00,NSC,M,M,M,M,M,M,M,HZ,M,M,M,M,M,M,100.10,VIDP 291200Z 29008G18KT 4500 HZ NSC 42/M01 Q1001 NOSIG,M
VIDP,2022-04-29 12:30,107.60,30.20,6.91,280.00,7.00,0.00,29.56,M,2.80,M,NSC,M,M,M,M,M,M,M,HZ,M,M,M,M,M,M,100.10,VIDP 291230Z 28007KT 4500 HZ NSC 42/M01 Q1001 NOSIG,M
VIDP,2022-04-29 13:00,105.80,32.00,7.84,280.00,7.00,0.00,29.56,M,2.49,M,NSC,M,M,M,M,M,M,M,HZ,M,M,M,M,M,M,98.82,VIDP 291300Z 28007KT 4000 HZ NSC 41/00 Q1001 NOSIG,M
VIDP,2022-04-29 13:30,104.00,33.80,8.88,280.00,5.00,0.00,29.59,M,2.49,M,NSC,M,M,M,M,M,M,M,HZ,M,M,M,M,M,M,97.55,VIDP 291330Z 28005KT 4000 HZ NSC 40/01 Q1002 NOSIG,M
VIDP,2022-04-29 14:00,102.20,35.60,10.07,270.00,5.00,0.00,29.59,M,2.49,M,NSC,M,M,M,M,M,M,M,HZ,M,M,M,M,M,M,96.30,VIDP 291400Z 27005KT 4000 HZ NSC 39/02 Q1002 NOSIG,M
VIDP,2022-04-29 14:30,100.40,35.60,10.63,250.00,5.00,0.00,29.59,M,2.49,M,NSC,M,M,M,M,M,M,M,HZ,M,M,M,M,M,M,94.76,VIDP 291430Z 25005KT 4000 HZ NSC 38/02 Q1002 NOSIG,M
VIDP,2022-04-29 15:00,98.60,35.60,11.23,250.00,3.00,0.00,29.59,M,2.49,M,NSC,M,M,M,M,M,M,M,HZ,M,M,M,M,M,M,93.23,VIDP 291500Z 25003KT 4000 HZ NSC 37/02 Q1002 NOSIG,M
VIDP,2022-04-29 15:30,96.80,35.60,11.86,250.00,4.00,0.00,29.62,M,2.49,M,NSC,M,M,M,M,M,M,M,HZ,M,M,M,M,M,M,91.72,VIDP 291530Z 25004KT 4000 HZ NSC 36/02 Q1003 NOSIG,M
VIDP,2022-04-29 16:00,95.00,37.40,13.46,270.00,3.00,0.00,29.62,M,2.49,M,NSC,M,M,M,M,M,M,M,HZ,M,M,M,M,M,M,90.46,VIDP 291600Z 27003KT 4000 HZ NSC 35/03 Q1003 NOSIG,M
VIDP,2022-04-29 16:30,95.00,37.40,13.46,260.00,4.00,0.00,29.62,M,2.49,M,NSC,M,M,M,M,M,M,M,HZ,M,M,M,M,M,M,90.46,VIDP 291630Z 26004KT 4000 HZ NSC 35/03 Q1003 NOSIG,M
VIDP,2022-04-29 17:00,95.00,37.40,13.46,250.00,4.00,0.00,29.62,M,2.49,M,NSC,M,M,M,M,M,M,M,HZ,M,M,M,M,M,M,90.46,VIDP 291700Z 25004KT 4000 HZ NSC 35/03 Q1003 NOSIG,M
VIDP,2022-04-29 17:30,95.00,37.40,13.46,270.00,2.00,0.00,29.62,M,2.49,M,NSC,M,M,M,M,M,M,M,HZ,M,M,M,M,M,M,90.46,VIDP 291730Z 27002KT 4000 HZ NSC 35/03 Q1003 NOSIG,M
VIDP,2022-04-29 18:00,95.00,37.40,13.46,250.00,2.00,0.00,29.62,M,2.49,M,NSC,M,M,M,M,M,M,M,HZ,M,M,M,M,M,M,90.46,VIDP 291800Z 25002KT 4000 HZ NSC 35/03 Q1003 NOSIG,M
VIDP,2022-04-29 18:30,93.20,37.40,14.23,200.00,2.00,0.00,29.62,M,2.36,M,NSC,M,M,M,M,M,M,M,HZ,M,M,M,M,M,M,88.83,VIDP 291830Z 20002KT 3800 HZ NSC 34/03 Q1003 NOSIG,M
VIDP,2022-04-29 19:00,91.40,37.40,15.05,0.00,0.00,0.00,29.62,M,2.17,M,NSC,M,M,M,M,M,M,M,HZ,M,M,M,M,M,M,87.23,VIDP 291900Z 00000KT 3500 HZ NSC 33/03 Q1003 NOSIG,M
VIDP,2022-04-29 19:30,89.60,37.40,15.92,0.00,0.00,0.00,29.62,M,2.17,M,NSC,M,M,M,M,M,M,M,HZ,M,M,M,M,M,M,85.67,VIDP 291930Z 00000KT 3500 HZ NSC 32/03 Q1003 NOSIG,M
VIDP,2022-04-29 20:00,89.60,37.40,15.92,0.00,0.00,0.00,29.59,M,2.17,M,NSC,M,M,M,M,M,M,M,HZ,M,M,M,M,M,M,85.67,VIDP 292000Z 00000KT 3500 HZ NSC 32/03 Q1002 NOSIG,M
VIDP,2022-04-29 20:30,89.60,37.40,15.92,0.00,0.00,0.00,29.59,M,2.17,M,NSC,M,M,M,M,M,M,M,HZ,M,M,M,M,M,M,85.67,VIDP 292030Z 00000KT 3500 HZ NSC 32/03 Q1002 NOSIG,M
VIDP,2022-04-29 21:00,89.60,39.20,17.09,0.00,0.00,0.00,29.59,M,2.17,M,NSC,M,M,M,M,M,M,M,HZ,M,M,M,M,M,M,85.73,VIDP 292100Z 00000KT 3500 HZ NSC 32/04 Q1002 NOSIG,M
VIDP,2022-04-29 21:30,89.60,39.20,17.09,0.00,0.00,0.00,29.59,M,2.17,M,NSC,M,M,M,M,M,M,M,HZ,M,M,M,M,M,M,85.73,VIDP 292130Z 00000KT 3500 HZ NSC 32/04 Q1002 NOSIG,M
VIDP,2022-04-29 22:00,87.80,37.40,16.86,0.00,0.00,0.00,29.59,M,2.17,M,NSC,M,M,M,M,M,M,M,HZ,M,M,M,M,M,M,84.16,VIDP 292200Z 00000KT 3500 HZ NSC 31/03 Q1002 NOSIG,M
VIDP,2022-04-29 22:30,87.80,37.40,16.86,0.00,0.00,0.00,29.59,M,2.17,M,NSC,M,M,M,M,M,M,M,HZ,M,M,M,M,M,M,84.16,VIDP 292230Z 00000KT 3500 HZ NSC 31/03 Q1002 NOSIG,M
VIDP,2022-04-29 23:00,87.80,39.20,18.09,0.00,0.00,0.00,29.59,M,1.99,M,NSC,M,M,M,M,M,M,M,HZ,M,M,M,M,M,M,84.22,VIDP 292300Z 00000KT 3200 HZ NSC 31/04 Q1002 BECMG 3000 HZ,M
VIDP,2022-04-29 23:30,86.00,39.20,19.15,0.00,0.00,0.00,29.59,M,1.86,M,NSC,M,M,M,M,M,M,M,HZ,M,M,M,M,M,M,82.79,VIDP 292330Z 00000KT 3000 HZ NSC 30/04 Q1002 NOSIG,M
VIDP,2022-04-30 00:00,86.00,41.00,20.54,0.00,0.00,0.00,29.59,M,1.86,M,NSC,M,M,M,M,M,M,M,HZ,M,M,M,M,M,M,82.86,VIDP 300000Z 00000KT 3000 HZ NSC 30/05 Q1002 NOSIG,M
VIDP,2022-04-30 00:30,84.20,41.00,21.76,210.00,3.00,0.00,29.59,M,1.55,M,NSC,M,M,M,M,M,M,M,DU,M,M,M,M,M,M,81.52,VIDP 300030Z 21003KT 2500 DU NSC 29/05 Q1002 NOSIG,M
VIDP,2022-04-30 01:00,86.00,41.00,20.54,M,2.00,0.00,29.62,M,1.37,M,NSC,M,M,M,M,M,M,M,HZ,M,M,M,M,M,M,82.86,VIDP 300100Z VRB02KT 2200 HZ NSC 30/05 Q1003 NOSIG,M
VIDP,2022-04-30 01:30,86.00,41.00,20.54,220.00,3.00,0.00,29.62,M,1.37,M,NSC,M,M,M,M,M,M,M,HZ,M,M,M,M,M,M,82.86,VIDP 300130Z 22003KT 2200 HZ NSC 30/05 Q1003 NOSIG,M
VIDP,2022-04-30 02:00,87.80,41.00,19.40,230.00,3.00,0.00,29.62,M,1.37,M,NSC,M,M,M,M,M,M,M,HZ,M,M,M,M,M,M,84.30,VIDP 300200Z 23003KT 2200 HZ NSC 31/05 Q1003 NOSIG,M
VIDP,2022-04-30 02:30,91.40,41.00,17.32,210.00,4.00,0.00,29.62,M,1.37,M,NSC,M,M,M,M,M,M,M,HZ,M,M,M,M,M,M,87.40,VIDP 300230Z 21004KT 2200 HZ NSC 33/05 Q1003 NOSIG,M
VIDP,2022-04-30 03:00,89.60,42.80,19.64,220.00,5.00,0.00,29.65,M,1.37,M,NSC,M,M,M,M,M,M,M,HZ,M,M,M,M,M,M,85.93,VIDP 300300Z 22005KT 2200 HZ NSC 32/06 Q1004 NOSIG,M
VIDP,2022-04-30 03:30,93.20,39.20,15.27,260.00,6.00,0.00,29.65,M,1.55,M,NSC,M,M,M,M,M,M,M,HZ,M,M,M,M,M,M,88.92,VIDP 300330Z 26006KT 2500 HZ NSC 34/04 Q1004 NOSIG,M
VIDP,2022-04-30 04:00,95.00,41.00,15.49,250.00,7.00,0.00,29.65,M,1.74,M,NSC,M,M,M,M,M,M,M,HZ,M,M,M,M,M,M,90.70,VIDP 300400Z 25007KT 2800 HZ NSC 35/05 Q1004 BECMG 3000 HZ,M
VIDP,2022-04-30 04:30,96.80,39.20,13.66,250.00,6.00,0.00,29.65,M,1.86,M,NSC,M,M,M,M,M,M,M,HZ,M,M,M,M,M,M,92.23,VIDP 300430Z 25006KT 3000 HZ NSC 36/04 Q1004 NOSIG,M
VIDP,2022-04-30 05:00,100.40,39.20,12.25,240.00,6.00,0.00,29.65,M,1.86,M,NSC,M,M,M,M,M,M,M,HZ,M,M,M,M,M,M,95.43,VIDP 300500Z 24006KT 3000 HZ NSC 38/04 Q1004 NOSIG,M
VIDP,2022-04-30 05:30,100.40,39.20,12.25,240.00,5.00,0.00,29.65,M,1.86,M,NSC,M,M,M,M,M,M,M,HZ,M,M,M,M,M,M,95.43,VIDP 300530Z 24005KT 3000 HZ NSC 38/04 Q1004 NOSIG,M
VIDP,2022-04-30 06:00,104.00,37.40,10.25,250.00,8.00,0.00,29.65,M,2.17,M,NSC,M,M,M,M,M,M,M,HZ,M,M,M,M,M,M,98.19,VIDP 300600Z 25008KT 3500 HZ NSC 40/03 Q1004 NOSIG,M
VIDP,2022-04-30 06:30,105.80,37.40,9.72,270.00,7.00,0.00,29.62,M,2.49,M,NSC,M,M,M,M,M,M,M,HZ,M,M,M,M,M,M,99.76,VIDP 300630Z 27007KT 4000 HZ NSC 41/03 Q1003 NOSIG,M
VIDP,2022-04-30 07:00,107.60,35.60,8.58,260.00,8.00,0.00,29.62,M,2.80,M,NSC,M,M,M,M,M,M,M,HZ,M,M,M,M,M,M,100.98,VIDP 300700Z 26008KT 4500 HZ NSC 42/02 Q1003 BECMG 5000 HZ,M
VIDP,2022-04-30 07:30,107.60,33.80,7.99,260.00,6.00,0.00,29.62,M,3.11,M,NSC,M,M,M,M,M,M,M,HZ,M,M,M,M,M,M,100.66,VIDP 300730Z 26006KT 5000 HZ NSC 42/01 Q1003 NOSIG,M
VIDP,2022-04-30 08:00,109.40,30.20,6.56,240.00,8.00,0.00,29.59,M,3.11,M,NSC,M,M,M,M,M,M,M,HZ,M,M,M,M,M,M,101.66,VIDP 300800Z 24008KT 5000 HZ NSC 43/M01 Q1002 NOSIG,M
VIDP,2022-04-30 08:30,109.40,30.20,6.56,270.00,6.00,0.00,29.59,M,3.11,M,NSC,M,M,M,M,M,M,M,HZ,M,M,M,M,M,M,101.66,VIDP 300830Z 27006KT 5000 HZ NSC 43/M01 Q1002 NOSIG,M
VIDP,2022-04-30 09:00,109.40,30.20,6.56,250.00,5.00,0.00,29.56,M,3.11,M,NSC,M,M,M,M,M,M,M,HZ,M,M,M,M,M,M,101.66,VIDP 300900Z 25005KT 5000 HZ NSC 43/M01 Q1001 NOSIG,M
VIDP,2022-04-30 09:30,109.40,30.20,6.56,260.00,5.00,0.00,29.56,M,3.11,M,NSC,M,M,M,M,M,M,M,HZ,M,M,M,M,M,M,101.66,VIDP 300930Z 26005KT 5000 HZ NSC 43/M01 Q1001 NOSIG,M
VIDP,2022-04-30 10:00,109.40,30.20,6.56,240.00,4.00,0.00,29.53,M,3.11,M,NSC,M,M,M,M,M,M,M,HZ,M,M,M,M,M,M,101.66,VIDP 301000Z 24004KT 5000 HZ NSC 43/M01 Q1000 NOSIG,M
VIDP,2022-04-30 10:30,109.40,30.20,6.56,270.00,5.00,0.00,29.53,M,3.11,M,NSC,M,M,M,M,M,M,M,HZ,M,M,M,M,M,M,101.66,VIDP 301030Z 27005KT 5000 HZ NSC 43/M01 Q1000 NOSIG,M
VIDP,2022-04-30 11:00,107.60,30.20,6.91,280.00,5.00,0.00,29.53,M,3.11,M,NSC,M,M,M,M,M,M,M,HZ,M,M,M,M,M,M,100.10,VIDP 301100Z 28005KT 5000 HZ NSC 42/M01 Q1000 NOSIG,M
VIDP,2022-04-30 11:30,105.80,30.20,7.29,270.00,5.00,0.00,29.50,M,3.11,M,NSC,M,M,M,M,M,M,M,HZ,M,M,M,M,M,M,98.56,VIDP 301130Z 27005KT 5000 HZ NSC 41/M01 Q0999 NOSIG,M
VIDP,2022-04-30 12:00,105.80,30.20,7.29,270.00,6.00,0.00,29.50,M,3.11,M,NSC,M,M,M,M,M,M,M,HZ,M,M,M,M,M,M,98.56,VIDP 301200Z 27006KT 5000 HZ NSC 41/M01 Q0999 NOSIG,M
VIDP,2022-04-30 12:30,105.80,30.20,7.29,260.00,5.00,0.00,29.50,M,3.11,M,NSC,M,M,M,M,M,M,M,HZ,M,M,M,M,M,M,98.56,VIDP 301230Z 26005KT 5000 HZ NSC 41/M01 Q0999 NOSIG,M
VIDP,2022-04-30 13:00,104.00,33.80,8.88,260.00,4.00,0.00,29.50,M,3.11,M,NSC,M,M,M,M,M,M,M,HZ,M,M,M,M,M,M,97.55,VIDP 301300Z 26004KT 5000 HZ NSC 40/01 Q0999 NOSIG,M
VIDP,2022-04-30 13:30,102.20,35.60,10.07,250.00,3.00,0.00,29.53,M,3.11,M,NSC,M,M,M,M,M,M,M,HZ,M,M,M,M,M,M,96.30,VIDP 301330Z 25003KT 5000 HZ NSC 39/02 Q1000 NOSIG,M
VIDP,2022-04-30 14:00,102.20,37.40,10.81,250.00,3.00,0.00,29.53,M,3.11,M,NSC,M,M,M,M,M,M,M,HZ,M,M,M,M,M,M,96.63,VIDP 301400Z 25003KT 5000 HZ NSC 39/03 Q1000 NOSIG,M
VIDP,2022-04-30 14:30,98.60,39.20,12.94,0.00,0.00,0.00,29.53,M,2.80,M,NSC,M,M,M,M,M,M,M,HZ,M,M,M,M,M,M,93.89,VIDP 301430Z 00000KT 4500 HZ NSC 37/04 Q1000 NOSIG,M
VIDP,2022-04-30 15:00,96.80,39.20,13.66,0.00,0.00,0.00,29.56,M,2.80,M,NSC,M,M,M,M,M,M,M,HZ,M,M,M,M,M,M,92.23,VIDP 301500Z 00000KT 4500 HZ NSC 36/04 Q1001 NOSIG,M
VIDP,2022-04-30 15:30,96.80,41.00,14.66,0.00,0.00,0.00,29.56,M,2.49,M,NSC,M,M,M,M,M,M,M,HZ,M,M,M,M,M,M,92.39,VIDP 301530Z 00000KT 4000 HZ NSC 36/05 Q1001 NOSIG,M
VIDP,2022-04-30 16:00,95.00,41.00,15.49,0.00,0.00,0.00,29.56,M,2.49,M,NSC,M,M,M,M,M,M,M,HZ,M,M,M,M,M,M,90.70,VIDP 301600Z 00000KT 4000 HZ NSC 35/05 Q1001 NOSIG,M
VIDP,2022-04-30 16:30,93.20,41.00,16.37,0.00,0.00,0.00,29.56,M,2.49,M,NSC,M,M,M,M,M,M,M,HZ,M,M,M,M,M,M,89.03,VIDP 301630Z 00000KT 4000 HZ NSC 34/05 Q1001 NOSIG,M
VIDP,2022-04-30 17:00,93.20,41.00,16.37,0.00,0.00,0.00,29.56,M,2.49,M,NSC,M,M,M,M,M,M,M,HZ,M,M,M,M,M,M,89.03,VIDP 301700Z 00000KT 4000 HZ NSC 34/05 Q1001 NOSIG,M
VIDP,2022-04-30 17:30,91.40,42.80,18.56,0.00,0.00,0.00,29.56,M,2.49,M,NSC,M,M,M,M,M,M,M,HZ,M,M,M,M,M,M,87.52,VIDP 301730Z 00000KT 4000 HZ NSC 33/06 Q1001 NOSIG,M
VIDP,2022-04-30 18:00,89.60,42.80,19.64,0.00,0.00,0.00,29.56,M,2.49,M,NSC,M,M,M,M,M,M,M,HZ,M,M,M,M,M,M,85.93,VIDP 301800Z 00000KT 4000 HZ NSC 32/06 Q1001 NOSIG,M
VIDP,2022-04-30 18:30,89.60,44.60,21.04,0.00,0.00,0.00,29.56,M,2.49,M,NSC,M,M,M,M,M,M,M,HZ,M,M,M,M,M,M,86.07,VIDP 301830Z 00000KT 4000 HZ NSC 32/07 Q1001 NOSIG,M
VIDP,2022-04-30 19:00,89.60,46.40,22.53,0.00,0.00,0.00,29.53,M,2.49,M,NSC,M,M,M,M,M,M,M,HZ,M,M,M,M,M,M,86.24,VIDP 301900Z 00000KT 4000 HZ NSC 32/08 Q1000 NOSIG,M
VIDP,2022-04-30 19:30,89.60,46.40,22.53,0.00,0.00,0.00,29.53,M,2.49,M,FEW,M,M,M,10000.00,M,M,M,HZ,M,M,M,M,M,M,86.24,VIDP 301930Z 00000KT 4000 HZ FEW100 32/08 Q1000 NOSIG,M
VIDP,2022-04-30 20:00,89.60,46.40,22.53,100.00,3.00,0.00,29.53,M,2.49,M,FEW,M,M,M,10000.00,M,M,M,HZ,M,M,M,M,M,M,86.24,VIDP 302000Z 10003KT 4000 HZ FEW100 32/08 Q1000 NOSIG,M
VIDP,2022-04-30 20:30,89.60,46.40,22.53,0.00,0.00,0.00,29.53,M,2.17,M,FEW,M,M,M,10000.00,M,M,M,HZ,M,M,M,M,M,M,86.24,VIDP 302030Z 00000KT 3500 HZ FEW100 32/08 Q1000 NOSIG,M
VIDP,2022-04-30 21:00,89.60,46.40,22.53,0.00,0.00,0.00,29.53,M,2.17,M,FEW,M,M,M,10000.00,M,M,M,HZ,M,M,M,M,M,M,86.24,VIDP 302100Z 00000KT 3500 HZ FEW100 32/08 Q1000 NOSIG,M
VIDP,2022-04-30 21:30,89.60,46.40,22.53,0.00,0.00,0.00,29.53,M,2.17,M,FEW,M,M,M,10000.00,M,M,M,HZ,M,M,M,M,M,M,86.24,VIDP 302130Z 00000KT 3500 HZ FEW100 32/08 Q1000 NOSIG,M
VIDP,2022-04-30 22:00,87.80,46.40,23.85,60.00,6.00,0.00,29.53,M,1.99,M,FEW,M,M,M,10000.00,M,M,M,HZ,M,M,M,M,M,M,84.68,VIDP 302200Z 06006KT 3200 HZ FEW100 31/08 Q1000 NOSIG,M
VIDP,2022-04-30 22:30,87.80,48.20,25.52,50.00,5.00,0.00,29.53,M,1.99,M,FEW,M,M,M,10000.00,M,M,M,HZ,M,M,M,M,M,M,84.87,VIDP 302230Z 05005KT 3200 HZ FEW100 31/09 Q1000 NOSIG,M
VIDP,2022-04-30 23:00,87.80,48.20,25.52,80.00,8.00,0.00,29.53,M,1.99,M,FEW,M,M,M,10000.00,M,M,M,HZ,M,M,M,M,M,M,84.87,VIDP 302300Z 08008KT 3200 HZ FEW100 31/09 Q1000 NOSIG,M
VIDP,2022-04-30 23:30,86.00,50.00,28.90,80.00,9.00,0.00,29.56,M,1.99,M,FEW,M,M,M,10000.00,M,M,M,HZ,M,M,M,M,M,M,83.62,VIDP 302330Z 08009KT 3200 HZ FEW100 30/10 Q1001 NOSIG,M
VIDP,2022-05-01 00:00,86.00,53.60,33.01,90.00,6.00,0.00,29.56,M,1.86,16.00,FEW,M,M,M,10000.00,M,M,M,HZ,M,M,M,M,M,M,84.18,VIDP 010000Z 09006G16KT 3000 HZ FEW100 30/12 Q1001 NOSIG,M
VIDP,2022-05-01 00:30,84.20,55.40,37.35,100.00,6.00,0.00,29.56,M,1.74,16.00,SCT,M,M,M,10000.00,M,M,M,HZ,M,M,M,M,M,M,83.09,VIDP 010030Z 10006G16KT 2800 HZ SCT100 29/13 Q1001 NOSIG,M
VIDP,2022-05-01 01:00,84.20,57.20,39.86,100.00,6.00,0.00,29.56,M,1.55,16.00,FEW,SCT,M,M,4000.00,10000.00,M,M,HZ,M,M,M,M,M,M,83.47,VIDP 010100Z 10006G16KT 2500 HZ FEW040 SCT100 29/14 Q1001 NOSIG,M
VIDP,2022-05-01 01:30,86.00,59.00,40.14,90.00,6.00,0.00,29.62,M,1.55,16.00,SCT,SCT,M,M,4000.00,10000.00,M,M,HZ,M,M,M,M,M,M,85.47,VIDP 010130Z 09006G16KT 2500 HZ SCT040 SCT100 30/15 Q1003 NOSIG,M
VIDP,2022-05-01 02:00,86.00,60.80,42.80,80.00,10.00,0.00,29.62,M,1.55,20.00,SCT,BKN,M,M,4000.00,10000.00,M,M,DU,M,M,M,M,M,M,86.05,VIDP 010200Z 08010G20KT 2500 DU SCT040 BKN100 30/16 Q1003 NOSIG,M
VIDP,2022-05-01 02:30,87.80,60.80,40.41,80.00,10.00,0.00,29.65,M,1.55,20.00,SCT,BKN,M,M,4000.00,10000.00,M,M,DU,M,M,M,M,M,M,87.75,VIDP 010230Z 08010G20KT 2500 DU SCT040 BKN100 31/16 Q1004 NOSIG,M
VIDP,2022-05-01 03:00,87.80,60.80,40.41,90.00,8.00,0.00,29.65,M,1.55,18.00,FEW,SCT,M,M,4000.00,10000.00,M,M,DU,M,M,M,M,M,M,87.75,VIDP 010300Z 09008G18KT 2500 DU FEW040 SCT100 31/16 Q1004 NOSIG,M
VIDP,2022-05-01 03:30,87.80,60.80,40.41,100.00,12.00,0.00,29.65,M,1.74,M,FEW,SCT,M,M,4000.00,10000.00,M,M,DU,M,M,M,M,M,M,87.75,VIDP 010330Z 10012KT 2800 DU FEW040 SCT100 31/16 Q1004 BECMG 3000 DU,M
VIDP,2022-05-01 04:00,89.60,59.00,35.81,90.00,12.00,0.00,29.65,M,1.86,M,FEW,SCT,M,M,4000.00,10000.00,M,M,DU,M,M,M,M,M,M,88.86,VIDP 010400Z 09012KT 3000 DU FEW040 SCT100 32/15 Q1004 NOSIG,M
VIDP,2022-05-01 04:30,91.40,59.00,33.84,110.00,12.00,0.00,29.65,M,1.86,M,FEW,SCT,M,M,4000.00,10000.00,M,M,DU,M,M,M,M,M,M,90.68,VIDP 010430Z 11012KT 3000 DU FEW040 SCT100 33/15 Q1004 NOSIG,M
VIDP,2022-05-01 05:00,93.20,59.00,31.99,100.00,11.00,0.00,29.62,M,2.17,M,FEW,SCT,M,M,4000.00,10000.00,M,M,HZ,M,M,M,M,M,M,92.57,VIDP 010500Z 10011KT 3500 HZ FEW040 SCT100 34/15 Q1003 NOSIG,M
VIDP,2022-05-01 05:30,93.20,66.20,41.23,100.00,11.00,0.00,29.62,M,2.17,M,FEW,SCT,M,M,4000.00,10000.00,M,M,HZ,M,M,M,M,M,M,96.35,VIDP 010530Z 10011KT 3500 HZ FEW040 SCT100 34/19 Q1003 NOSIG,M
VIDP,2022-05-01 06:00,95.00,66.20,39.00,100.00,11.00,0.00,29.62,M,2.17,M,FEW,SCT,M,M,4000.00,10000.00,M,M,HZ,M,M,M,M,M,M,98.46,VIDP 010600Z 10011KT 3500 HZ FEW040 SCT100 35/19 Q1003 NOSIG,M
VIDP,2022-05-01 06:30,96.80,64.40,34.66,120.00,10.00,0.00,29.62,M,2.17,M,FEW,SCT,M,M,4000.00,10000.00,M,M,HZ,M,M,M,M,M,M,99.37,VIDP 010630Z 12010KT 3500 HZ FEW040 SCT100 36/18 Q1003 NOSIG,M
VIDP,2022-05-01 07:00,96.80,66.20,36.90,110.00,10.00,0.00,29.59,M,2.17,M,FEW,SCT,M,M,4000.00,10000.00,M,M,HZ,M,M,M,M,M,M,100.60,VIDP 010700Z 11010KT 3500 HZ FEW040 SCT100 36/19 Q1002 NOSIG,M
VIDP,2022-05-01 07:30,98.60,64.40,32.81,110.00,10.00,0.00,29.59,M,2.17,M,FEW,SCT,M,M,4000.00,10000.00,M,M,HZ,M,M,M,M,M,M,101.50,VIDP 010730Z 11010KT 3500 HZ FEW040 SCT100 37/18 Q1002 NOSIG,M
VIDP,2022-05-01 08:00,100.40,64.40,31.07,120.00,10.00,0.00,29.56,M,2.17,M,FEW,SCT,M,M,4000.00,10000.00,M,M,HZ,M,M,M,M,M,M,103.66,VIDP 010800Z 12010KT 3500 HZ FEW040 SCT100 38/18 Q1001 NOSIG,M
VIDP,2022-05-01 08:30,98.60,62.60,30.80,120.00,9.00,0.00,29.56,M,2.17,M,FEW,SCT,M,M,4000.00,10000.00,M,M,HZ,M,M,M,M,M,M,100.38,VIDP 010830Z 12009KT 3500 HZ FEW040 SCT100 37/17 Q1001 NOSIG,M
VIDP,2022-05-01 09:00,102.20,62.60,27.63,140.00,10.00,0.00,29.53,M,2.17,M,FEW,SCT,M,M,4000.00,10000.00,M,M,DU,M,M,M,M,M,M,104.63,VIDP 010900Z 14010KT 3500 DU FEW040 SCT100 39/17 Q1000 NOSIG,M
VIDP,2022-05-01 09:30,102.20,60.80,25.93,140.00,10.00,0.00,29.50,M,2.17,M,FEW,SCT,M,M,4000.00,10000.00,M,M,DU,M,M,M,M,M,M,103.57,VIDP 010930Z 14010KT 3500 DU FEW040 SCT100 39/16 Q0999 NOSIG,M
VIDP,2022-05-01 10:00,104.00,59.00,23.04,100.00,10.00,0.00,29.50,M,2.17,M,FEW,SCT,M,M,4000.00,10000.00,M,M,DU,M,M,M,M,M,M,104.68,VIDP 011000Z 10010KT 3500 DU FEW040 SCT100 40/15 Q0999 NOSIG,M
VIDP,2022-05-01 10:30,104.00,59.00,23.04,90.00,10.00,0.00,29.47,M,2.17,M,FEW,SCT,M,M,4000.00,10000.00,M,M,DU,M,M,M,M,M,M,104.68,VIDP 011030Z 09010KT 3500 DU FEW040 SCT100 40/15 Q0998 NOSIG,M
VIDP,2022-05-01 11:00,104.00,59.00,23.04,80.00,12.00,0.00,29.47,M,2.17,M,FEW,SCT,M,M,4000.00,10000.00,M,M,DU,M,M,M,M,M,M,104.68,VIDP 011100Z 08012KT 3500 DU FEW040 SCT100 40/15 Q0998 NOSIG,M
VIDP,2022-05-01 11:30,102.20,59.00,24.32,100.00,8.00,0.00,29.47,M,2.17,M,FEW,SCT,M,M,4000.00,10000.00,M,M,DU,M,M,M,M,M,M,102.62,VIDP 011130Z 10008KT 3500 DU FEW040 SCT100 39/15 Q0998 NOSIG,M
VIDP,2022-05-01 12:00,102.20,59.00,24.32,100.00,9.00,0.00,29.47,M,2.17,M,FEW,SCT,M,M,4000.00,10000.00,M,M,DU,M,M,M,M,M,M,102.62,VIDP 011200Z 10009KT 3500 DU FEW040 SCT100 39/15 Q0998 NOSIG,M
VIDP,2022-05-01 12:30,102.20,60.80,25.93,100.00,7.00,0.00,29.47,M,2.17,M,FEW,SCT,M,M,4000.00,10000.00,M,M,DU,M,M,M,M,M,M,103.57,VIDP 011230Z 10007KT 3500 DU FEW040 SCT100 39/16 Q0998 NOSIG,M
VIDP,2022-05-01 13:00,100.40,60.80,27.37,110.00,6.00,0.00,29.50,M,2.17,M,FEW,SCT,M,M,4000.00,10000.00,M,M,DU,M,M,M,M,M,M,101.47,VIDP 011300Z 11006KT 3500 DU FEW040 SCT100 38/16 Q0999 NOSIG,M
VIDP,2022-05-01 13:30,100.40,53.60,21.11,140.00,8.00,0.00,29.50,M,2.17,M,FEW,SCT,M,M,4000.00,10000.00,M,M,DU,M,M,M,M,M,M,98.44,VIDP 011330Z 14008KT 3500 DU FEW040 SCT100 38/12 Q0999 NOSIG,M
VIDP,2022-05-01 14:00,98.60,48.20,18.25,150.00,8.00,0.00,29.53,M,2.17,M,FEW,SCT,M,M,4000.00,10000.00,M,M,HZ,M,M,M,M,M,M,95.17,VIDP 011400Z 15008KT 3500 HZ FEW040 SCT100 37/09 Q1000 NOSIG,M
VIDP,2022-05-01 14:30,96.80,50.00,20.62,80.00,5.00,0.00,29.53,M,2.17,M,FEW,SCT,M,M,4000.00,10000.00,M,M,HZ,M,M,M,M,M,M,93.71,VIDP 011430Z 08005KT 3500 HZ FEW040 SCT100 36/10 Q1000 NOSIG,M
VIDP,2022-05-01 15:00,95.00,50.00,21.79,100.00,6.00,0.00,29.56,M,2.17,M,FEW,SCT,M,M,4000.00,10000.00,M,M,HZ,M,M,M,M,M,M,91.89,VIDP 011500Z 10006KT 3500 HZ FEW040 SCT100 35/10 Q1001 NOSIG,M
VIDP,2022-05-01 15:30,93.20,50.00,23.04,100.00,5.00,0.00,29.56,M,2.17,M,FEW,SCT,M,M,4000.00,10000.00,M,M,HZ,M,M,M,M,M,M,90.10,VIDP 011530Z 10005KT 3500 HZ FEW040 SCT100 34/10 Q1001 NOSIG,M
VIDP,2022-05-01 16:00,93.20,46.40,20.13,110.00,5.00,0.00,29.56,M,2.17,M,FEW,SCT,M,M,4000.00,10000.00,M,M,HZ,M,M,M,M,M,M,89.55,VIDP 011600Z 11005KT 3500 HZ FEW040 SCT100 34/08 Q1001 NOSIG,M
VIDP,2022-05-01 16:30,93.20,46.40,20.13,100.00,6.00,0.00,29.59,M,2.17,M,FEW,SCT,M,M,4000.00,10000.00,M,M,HZ,M,M,M,M,M,M,89.55,VIDP 011630Z 10006KT 3500 HZ FEW040 SCT100 34/08 Q1002 NOSIG,M
VIDP,2022-05-01 17:00,91.40,50.00,24.37,90.00,6.00,0.00,29.56,M,2.17,M,FEW,SCT,M,M,4000.00,10000.00,M,M,HZ,M,M,M,M,M,M,88.36,VIDP 011700Z 09006KT 3500 HZ FEW040 SCT100 33/10 Q1001 NOSIG,M
VIDP,2022-05-01 17:30,89.60,51.80,27.56,90.00,8.00,0.00,29.56,M,2.17,M,FEW,SCT,M,M,4000.00,10000.00,M,M,HZ,M,M,M,M,M,M,87.00,VIDP 011730Z 09008KT 3500 HZ FEW040 SCT100 32/11 Q1001 NOSIG,M
VIDP,2022-05-01 18:00,89.60,55.40,31.45,90.00,7.00,0.00,29.56,M,2.17,M,FEW,SCT,M,M,4000.00,10000.00,M,M,HZ,M,M,M,M,M,M,87.78,VIDP 011800Z 09007KT 3500 HZ FEW040 SCT100 32/13 Q1001 NOSIG,M
VIDP,2022-05-01 18:30,89.60,59.00,35.81,90.00,7.00,0.00,29.56,M,2.17,M,FEW,SCT,M,M,4000.00,10000.00,M,M,HZ,M,M,M,M,M,M,88.86,VIDP 011830Z 09007KT 3500 HZ FEW040 SCT100 32/15 Q1001 NOSIG,M
VIDP,2022-05-01 19:00,87.80,62.60,43.07,100.00,6.00,0.00,29.56,M,1.99,M,FEW,SCT,M,M,4000.00,10000.00,M,M,HZ,M,M,M,M,M,M,88.48,VIDP 011900Z 10006KT 3200 HZ FEW040 SCT100 31/17 Q1001 NOSIG,M
VIDP,2022-05-01 19:30,87.80,64.40,45.88,90.00,6.00,0.00,29.53,M,1.86,M,FEW,SCT,M,M,4000.00,10000.00,M,M,HZ,M,M,M,M,M,M,89.33,VIDP 011930Z 09006KT 3000 HZ FEW040 SCT100 31/18 Q1000 NOSIG,M
VIDP,2022-05-01 20:00,87.80,68.00,51.98,120.00,6.00,0.00,29.56,M,1.86,M,FEW,SCT,M,M,4000.00,10000.00,M,M,HZ,M,M,M,M,M,M,91.43,VIDP 012000Z 12006KT 3000 HZ FEW040 SCT100 31/20 Q1001 NOSIG,M
VIDP,2022-05-01 20:30,86.00,69.80,58.55,110.00,8.00,0.00,29.56,M,1.86,M,FEW,SCT,M,M,4000.00,10000.00,M,M,HZ,M,M,M,M,M,M,90.58,VIDP 012030Z 11008KT 3000 HZ FEW040 SCT100 30/21 Q1001 NOSIG,M
VIDP,2022-05-01 21:00,84.20,71.60,65.95,100.00,8.00,0.00,29.53,M,1.86,M,FEW,SCT,M,M,4000.00,10000.00,M,M,HZ,M,M,M,M,M,M,89.60,VIDP 012100Z 10008KT 3000 HZ FEW040 SCT100 29/22 Q1000 NOSIG,M
VIDP,2022-05-01 21:30,84.20,71.60,65.95,110.00,6.00,0.00,29.53,M,1.86,M,FEW,SCT,M,M,4000.00,10000.00,M,M,HZ,M,M,M,M,M,M,89.60,VIDP 012130Z 11006KT 3000 HZ FEW040 SCT100 29/22 Q1000 NOSIG,M
VIDP,2022-05-01 22:00,84.20,71.60,65.95,90.00,5.00,0.00,29.53,M,1.86,M,FEW,SCT,M,M,4000.00,10000.00,M,M,HZ,M,M,M,M,M,M,89.60,VIDP 012200Z 09005KT 3000 HZ FEW040 SCT100 29/22 Q1000 NOSIG,M
VIDP,2022-05-01 22:30,84.20,66.20,54.80,90.00,7.00,0.00,29.53,M,1.86,M,FEW,SCT,M,M,4000.00,10000.00,M,M,HZ,M,M,M,M,M,M,86.50,VIDP 012230Z 09007KT 3000 HZ FEW040 SCT100 29/19 Q1000 NOSIG,M
VIDP,2022-05-01 23:00,84.20,66.20,54.80,100.00,7.00,0.00,29.56,M,1.86,M,FEW,SCT,M,M,4000.00,10000.00,M,M,HZ,M,M,M,M,M,M,86.50,VIDP 012300Z 10007KT 3000 HZ FEW040 SCT100 29/19 Q1001 NOSIG,M
VIDP,2022-05-01 23:30,84.20,66.20,54.80,110.00,7.00,0.00,29.56,M,1.86,M,FEW,SCT,M,M,4000.00,10000.00,M,M,HZ,M,M,M,M,M,M,86.50,VIDP 012330Z 11007KT 3000 HZ FEW040 SCT100 29/19 Q1001 NOSIG,M
VIDP,2022-05-02 00:00,84.20,66.20,54.80,110.00,7.00,0.00,29.56,M,1.86,M,FEW,SCT,M,M,4000.00,10000.00,M,M,HZ,M,M,M,M,M,M,86.50,VIDP 020000Z 11007KT 3000 HZ FEW040 SCT100 29/19 Q1001 NOSIG,M
VIDP,2022-05-02 00:30,84.20,68.00,58.32,100.00,7.00,0.00,29.59,M,1.55,M,SCT,M,M,M,10000.00,M,M,M,DU,M,M,M,M,M,M,87.40,VIDP 020030Z 10007KT 2500 DU SCT100 29/20 Q1002 NOSIG,M
VIDP,2022-05-02 01:00,84.20,68.00,58.32,110.00,12.00,0.00,29.59,M,1.55,M,SCT,M,M,M,10000.00,M,M,M,DU,M,M,M,M,M,M,87.40,VIDP 020100Z 11012KT 2500 DU SCT100 29/20 Q1002 NOSIG,M
VIDP,2022-05-02 01:30,86.00,68.00,55.04,100.00,12.00,0.00,29.62,M,1.55,M,SCT,M,M,M,10000.00,M,M,M,DU,M,M,M,M,M,M,89.41,VIDP 020130Z 10012KT 2500 DU SCT100 30/20 Q1003 NOSIG,M
VIDP,2022-05-02 02:00,86.00,66.20,51.72,110.00,8.00,0.00,29.62,M,1.55,18.00,SCT,M,M,M,10000.00,M,M,M,BLDU,M,M,M,M,M,M,88.39,VIDP 020200Z 11008G18KT 2500 BLDU SCT100 30/19 Q1003 NOSIG,M
VIDP,2022-05-02 02:30,87.80,66.20,48.84,120.00,8.00,0.00,29.62,M,1.55,18.00,SCT,M,M,M,10000.00,M,M,M,BLDU,M,M,M,M,M,M,90.31,VIDP 020230Z 12008G18KT 2500 BLDU SCT100 31/19 Q1003 NOSIG,M
VIDP,2022-05-02 03:00,87.80,66.20,48.84,110.00,13.00,0.00,29.62,M,1.55,M,SCT,M,M,M,10000.00,M,M,M,BLDU,M,M,M,M,M,M,90.31,VIDP 020300Z 11013KT 2500 BLDU SCT100 31/19 Q1003 NOSIG,M
VIDP,2022-05-02 03:30,89.60,64.40,43.34,110.00,13.00,0.00,29.62,M,1.55,M,SCT,M,M,M,10000.00,M,M,M,BLDU,M,M,M,M,M,M,91.23,VIDP 020330Z 11013KT 2500 BLDU SCT100 32/18 Q1003 NOSIG,M
VIDP,2022-05-02 04:00,91.40,64.40,40.96,110.00,12.00,0.00,29.62,M,1.74,M,SCT,M,M,M,10000.00,M,M,M,BLDU,M,M,M,M,M,M,93.19,VIDP 020400Z 11012KT 2800 BLDU SCT100 33/18 Q1003 BECMG 3000 BLDU,M
VIDP,2022-05-02 04:30,93.20,64.40,38.73,110.00,12.00,0.00,29.65,M,1.86,M,FEW,M,M,M,10000.00,M,M,M,HZ,M,M,M,M,M,M,95.20,VIDP 020430Z 11012KT 3000 HZ FEW100 34/18 Q1004 NOSIG,M
VIDP,2022-05-02 05:00,95.00,62.60,34.39,110.00,8.00,0.00,29.62,M,1.86,18.00,FEW,M,M,M,10000.00,M,M,M,BLDU,M,M,M,M,M,M,96.22,VIDP 020500Z 11008G18KT 3000 BLDU FEW100 35/17 Q1003 NOSIG,M
VIDP,2022-05-02 05:30,96.80,62.60,32.54,120.00,13.00,0.00,29.62,M,1.86,M,FEW,M,M,M,10000.00,M,M,M,BLDU,M,M,M,M,M,M,98.28,VIDP 020530Z 12013KT 3000 BLDU FEW100 36/17 Q1003 NOSIG,M
VIDP,2022-05-02 06:00,98.60,60.80,28.90,110.00,12.00,0.00,29.62,M,1.86,M,FEW,M,M,M,10000.00,M,M,M,BLDU,M,M,M,M,M,M,99.39,VIDP 020600Z 11012KT 3000 BLDU FEW100 37/16 Q1003 NOSIG,M
VIDP,2022-05-02 06:30,98.60,57.20,25.41,120.00,4.00,0.00,29.59,M,1.86,M,FEW,M,M,M,10000.00,M,M,M,BLDU,M,M,M,M,M,M,97.76,VIDP 020630Z 12004KT 3000 BLDU FEW100 37/14 Q1002 NOSIG,M
VIDP,2022-05-02 07:00,100.40,57.20,24.06,130.00,3.00,0.00,29.59,M,1.86,M,FEW,M,M,M,10000.00,M,M,M,DU,M,M,M,M,M,M,99.77,VIDP 020700Z 13003KT 3000 DU FEW100 38/14 Q1002 NOSIG,M
VIDP,2022-05-02 07:30,102.20,55.40,21.36,130.00,5.00,0.00,29.59,M,1.86,M,FEW,M,M,M,10000.00,M,M,M,DU,M,M,M,M,M,M,101.04,VIDP 020730Z 13005KT 3000 DU FEW100 39/13 Q1002 NOSIG,M
VIDP,2022-05-02 08:00,102.20,51.80,18.72,180.00,3.00,0.00,29.56,M,1.86,M,FEW,M,M,M,10000.00,M,M,M,DU,M,M,M,M,M,M,99.80,VIDP 020800Z 18003KT 3000 DU FEW100 39/11 Q1001 NOSIG,M
VIDP,2022-05-02 08:30,102.20,53.60,20.00,100.00,4.00,0.00,29.56,M,2.17,M,FEW,M,M,M,10000.00,M,M,M,DU,M,M,M,M,M,M,100.38,VIDP 020830Z 10004KT 3500 DU FEW100 39/12 Q1001 NOSIG,M
VIDP,2022-05-02 09:00,104.00,53.60,18.95,110.00,4.00,0.00,29.53,M,2.49,M,FEW,M,M,M,10000.00,M,M,M,HZ,M,M,M,M,M,M,102.31,VIDP 020900Z 11004KT 4000 HZ FEW100 40/12 Q1000 NOSIG,M
VIDP,2022-05-02 09:30,104.00,53.60,18.95,60.00,7.00,0.00,29.53,M,2.49,M,NSC,M,M,M,M,M,M,M,HZ,M,M,M,M,M,M,102.31,VIDP 020930Z 06007KT 4000 HZ NSC 40/12 Q1000 NOSIG,M
VIDP,2022-05-02 10:00,104.00,53.60,18.95,70.00,7.00,0.00,29.50,M,2.49,M,NSC,M,M,M,M,M,M,M,HZ,M,M,M,M,M,M,102.31,VIDP 021000Z 07007KT 4000 HZ NSC 40/12 Q0999 NOSIG,M
VIDP,2022-05-02 10:30,104.00,55.40,20.24,80.00,8.00,0.00,29.50,M,2.49,M,NSC,M,M,M,M,M,M,M,HZ,M,M,M,M,M,M,103.01,VIDP 021030Z 08008KT 4000 HZ NSC 40/13 Q0999 NOSIG,M
VIDP,2022-05-02 11:00,104.00,55.40,20.24,70.00,9.00,0.00,29.50,M,2.49,M,FEW,M,M,M,3500.00,M,M,M,HZ,M,M,M,M,M,M,103.01,VIDP 021100Z 07009KT 4000 HZ FEW035 40/13 Q0999 NOSIG,M
VIDP,2022-05-02 11:30,102.20,55.40,21.36,70.00,9.00,0.00,29.47,M,2.49,M,FEW,M,M,M,3500.00,M,M,M,HZ,M,M,M,M,M,M,101.04,VIDP 021130Z 07009KT 4000 HZ FEW035 39/13 Q0998 NOSIG,M
VIDP,2022-05-02 12:00,102.20,55.40,21.36,70.00,8.00,0.00,29.47,M,2.49,M,FEW,M,M,M,10000.00,M,M,M,HZ,M,M,M,M,M,M,101.04,VIDP 021200Z 07008KT 4000 HZ FEW100 39/13 Q0998 NOSIG,M
VIDP,2022-05-02 12:30,102.20,57.20,22.79,80.00,7.00,0.00,29.50,M,2.49,M,FEW,M,M,M,10000.00,M,M,M,HZ,M,M,M,M,M,M,101.78,VIDP 021230Z 08007KT 4000 HZ FEW100 39/14 Q0999 NOSIG,M
VIDP,2022-05-02 13:00,100.40,59.00,25.67,60.00,7.00,0.00,29.50,M,2.49,M,FEW,M,M,M,10000.00,M,M,M,HZ,M,M,M,M,M,M,100.57,VIDP 021300Z 06007KT 4000 HZ FEW100 38/15 Q0999 NOSIG,M
VIDP,2022-05-02 13:30,100.40,59.00,25.67,70.00,7.00,0.00,29.50,M,2.17,M,NSC,M,M,M,M,M,M,M,HZ,M,M,M,M,M,M,100.57,VIDP 021330Z 07007KT 3500 HZ NSC 38/15 Q0999 NOSIG,M
VIDP,2022-05-02 14:00,100.40,59.00,25.67,70.00,7.00,0.00,29.50,M,2.17,M,NSC,M,M,M,M,M,M,M,HZ,M,M,M,M,M,M,100.57,VIDP 021400Z 07007KT 3500 HZ NSC 38/15 Q0999 NOSIG,M
VIDP,2022-05-02 14:30,98.60,60.80,28.90,90.00,9.00,0.00,29.53,M,2.17,M,NSC,M,M,M,M,M,M,M,HZ,M,M,M,M,M,M,99.39,VIDP 021430Z 09009KT 3500 HZ NSC 37/16 Q1000 NOSIG,M
VIDP,2022-05-02 15:00,96.80,62.60,32.54,90.00,8.00,0.00,29.53,M,2.17,M,NSC,M,M,M,M,M,M,M,HZ,M,M,M,M,M,M,98.28,VIDP 021500Z 09008KT 3500 HZ NSC 36/17 Q1000 NOSIG,M
VIDP,2022-05-02 15:30,95.00,62.60,34.39,80.00,7.00,0.00,29.56,M,2.17,M,NSC,M,M,M,M,M,M,M,HZ,M,M,M,M,M,M,96.22,VIDP 021530Z 08007KT 3500 HZ NSC 35/17 Q1001 NOSIG,M
VIDP,2022-05-02 16:00,93.20,64.40,38.73,70.00,6.00,0.00,29.56,M,2.17,M,NSC,M,M,M,M,M,M,M,HZ,M,M,M,M,M,M,95.20,VIDP 021600Z 07006KT 3500 HZ NSC 34/18 Q1001 NOSIG,M
VIDP,2022-05-02 16:30,93.20,66.20,41.23,100.00,10.00,0.00,29.56,M,2.17,M,NSC,M,M,M,M,M,M,M,HZ,M,M,M,M,M,M,96.35,VIDP 021630Z 10010KT 3500 HZ NSC 34/19 Q1001 NOSIG,M
VIDP,2022-05-02 17:00,91.40,66.20,43.61,100.00,9.00,0.00,29.56,M,2.17,M,NSC,M,M,M,M,M,M,M,HZ,M,M,M,M,M,M,94.29,VIDP 021700Z 10009KT 3500 HZ NSC 33/19 Q1001 NOSIG,M
VIDP,2022-05-02 17:30,91.40,66.20,43.61,90.00,9.00,0.00,29.59,M,2.17,M,NSC,M,M,M,M,M,M,M,HZ,M,M,M,M,M,M,94.29,VIDP 021730Z 09009KT 3500 HZ NSC 33/19 Q1002 NOSIG,M
VIDP,2022-05-02 18:00,91.40,66.20,43.61,90.00,8.00,0.00,29.59,M,2.17,M,NSC,M,M,M,M,M,M,M,HZ,M,M,M,M,M,M,94.29,VIDP 021800Z 09008KT 3500 HZ NSC 33/19 Q1002 NOSIG,M
VIDP,2022-05-02 18:30,89.60,68.00,49.10,100.00,7.00,0.00,29.59,M,2.17,M,NSC,M,M,M,M,M,M,M,HZ,M,M,M,M,M,M,93.47,VIDP 021830Z 10007KT 3500 HZ NSC 32/20 Q1002 NOSIG,M
VIDP,2022-05-02 19:00,89.60,68.00,49.10,100.00,11.00,0.00,29.59,M,2.17,M,NSC,M,M,M,M,M,M,M,HZ,M,M,M,M,M,M,93.47,VIDP 021900Z 10011KT 3500 HZ NSC 32/20 Q1002 NOSIG,M
VIDP,2022-05-02 19:30,89.60,68.00,49.10,100.00,10.00,0.00,29.59,M,2.17,M,NSC,M,M,M,M,M,M,M,HZ,M,M,M,M,M,M,93.47,VIDP 021930Z 10010KT 3500 HZ NSC 32/20 Q1002 NOSIG,M
VIDP,2022-05-02 20:00,87.80,68.00,51.98,110.00,10.00,0.00,29.59,M,2.17,M,NSC,M,M,M,M,M,M,M,HZ,M,M,M,M,M,M,91.43,VIDP 022000Z 11010KT 3500 HZ NSC 31/20 Q1002 NOSIG,M
VIDP,2022-05-02 20:30,87.80,68.00,51.98,110.00,9.00,0.00,29.59,M,2.17,M,NSC,M,M,M,M,M,M,M,HZ,M,M,M,M,M,M,91.43,VIDP 022030Z 11009KT 3500 HZ NSC 31/20 Q1002 NOSIG,M
VIDP,2022-05-02 21:00,87.80,68.00,51.98,100.00,9.00,0.00,29.59,M,2.17,M,NSC,M,M,M,M,M,M,M,HZ,M,M,M,M,M,M,91.43,VIDP 022100Z 10009KT 3500 HZ NSC 31/20 Q1002 NOSIG,M
VIDP,2022-05-02 21:30,87.80,68.00,51.98,110.00,8.00,0.00,29.59,M,2.17,M,NSC,M,M,M,M,M,M,M,HZ,M,M,M,M,M,M,91.43,VIDP 022130Z 11008KT 3500 HZ NSC 31/20 Q1002 NOSIG,M
VIDP,2022-05-02 22:00,87.80,68.00,51.98,110.00,7.00,0.00,29.59,M,2.17,M,NSC,M,M,M,M,M,M,M,HZ,M,M,M,M,M,M,91.43,VIDP 022200Z 11007KT 3500 HZ NSC 31/20 Q1002 NOSIG,M
VIDP,2022-05-02 22:30,87.80,68.00,51.98,120.00,7.00,0.00,29.59,M,2.17,M,NSC,M,M,M,M,M,M,M,HZ,M,M,M,M,M,M,91.43,VIDP 022230Z 12007KT 3500 HZ NSC 31/20 Q1002 NOSIG,M
VIDP,2022-05-02 23:00,86.00,68.00,55.04,100.00,4.00,0.00,29.62,M,2.17,M,NSC,M,M,M,M,M,M,M,HZ,M,M,M,M,M,M,89.41,VIDP 022300Z 10004KT 3500 HZ NSC 30/20 Q1003 NOSIG,M
VIDP,2022-05-02 23:30,86.00,68.00,55.04,110.00,4.00,0.00,29.62,M,1.99,M,NSC,M,M,M,M,M,M,M,HZ,M,M,M,M,M,M,89.41,VIDP 022330Z 11004KT 3200 HZ NSC 30/20 Q1003 BECMG 3000 HZ,M
VIDP,2022-05-03 00:00,86.00,69.80,58.55,110.00,4.00,0.00,29.62,M,1.86,M,NSC,M,M,M,M,M,M,M,HZ,M,M,M,M,M,M,90.58,VIDP 030000Z 11004KT 3000 HZ NSC 30/21 Q1003 NOSIG,M
VIDP,2022-05-03 00:30,86.00,69.80,58.55,100.00,4.00,0.00,29.65,M,1.86,M,NSC,M,M,M,M,M,M,M,HZ,M,M,M,M,M,M,90.58,VIDP 030030Z 10004KT 3000 HZ NSC 30/21 Q1004 NOSIG,M
VIDP,2022-05-03 01:00,86.00,69.80,58.55,110.00,4.00,0.00,29.65,M,1.55,M,NSC,M,M,M,M,M,M,M,HZ,M,M,M,M,M,M,90.58,VIDP 030100Z 11004KT 2500 HZ NSC 30/21 Q1004 NOSIG,M
VIDP,2022-05-03 01:30,84.20,69.80,62.03,100.00,6.00,0.00,29.68,M,1.55,M,NSC,M,M,M,M,M,M,M,DU,M,M,M,M,M,M,88.43,VIDP 030130Z 10006KT 2500 DU NSC 29/21 Q1005 NOSIG,M
VIDP,2022-05-03 02:00,84.20,69.80,62.03,110.00,7.00,0.00,29.68,M,1.55,M,NSC,M,M,M,M,M,M,M,DU,M,M,M,M,M,M,88.43,VIDP 030200Z 11007KT 2500 DU NSC 29/21 Q1005 NOSIG,M
VIDP,2022-05-03 02:30,86.00,71.60,62.25,100.00,7.00,0.00,29.68,M,1.74,M,SCT,M,M,M,10000.00,M,M,M,DU,M,M,M,M,M,M,91.92,VIDP 030230Z 10007KT 2800 DU SCT100 30/22 Q1005 NOSIG,M
VIDP,2022-05-03 03:00,87.80,71.60,58.78,110.00,8.00,0.00,29.71,M,1.74,M,SCT,M,M,M,10000.00,M,M,M,DU,M,M,M,M,M,M,94.18,VIDP 030300Z 11008KT 2800 DU SCT100 31/22 Q1006 NOSIG,M
VIDP,2022-05-03 03:30,87.80,71.60,58.78,120.00,6.00,0.00,29.71,M,1.74,M,SCT,M,M,M,10000.00,M,M,M,DU,M,M,M,M,M,M,94.18,VIDP 030330Z 12006KT 2800 DU SCT100 31/22 Q1006 BECMG 3000 DU,M
VIDP,2022-05-03 04:00,89.60,71.60,55.53,100.00,6.00,0.00,29.71,M,1.99,M,SCT,M,M,M,10000.00,M,M,M,DU,M,M,M,M,M,M,96.41,VIDP 030400Z 10006KT 3200 DU SCT100 32/22 Q1006 NOSIG,M
VIDP,2022-05-03 04:30,89.60,73.40,59.01,100.00,6.00,0.00,29.71,M,2.17,M,SCT,M,M,M,10000.00,M,M,M,DU,M,M,M,M,M,M,98.20,VIDP 030430Z 10006KT 3500 DU SCT100 32/23 Q1006 NOSIG,M
VIDP,2022-05-03 05:00,91.40,73.40,55.77,90.00,5.00,0.00,29.71,M,2.17,M,SCT,M,M,M,10000.00,M,M,M,DU,M,M,M,M,M,M,100.52,VIDP 030500Z 09005KT 3500 DU SCT100 33/23 Q1006 NOSIG,M
VIDP,2022-05-03 05:30,93.20,73.40,52.73,100.00,5.00,0.00,29.71,M,2.17,M,SCT,M,M,M,10000.00,M,M,M,DU,M,M,M,M,M,M,102.82,VIDP 030530Z 10005KT 3500 DU SCT100 34/23 Q1006 NOSIG,M
VIDP,2022-05-03 06:00,95.00,71.60,46.93,70.00,4.00,0.00,29.71,M,1.99,M,SCT,M,M,M,10000.00,M,M,M,DU,M,M,M,M,M,M,103.13,VIDP 030600Z 07004KT 3200 DU SCT100 35/22 Q1006 NOSIG,M
VIDP,2022-05-03 06:30,96.80,71.60,44.41,30.00,5.00,0.00,29.71,M,1.99,M,SCT,M,M,M,10000.00,M,M,M,DU,M,M,M,M,M,M,105.40,VIDP 030630Z 03005KT 3200 DU SCT100 36/22 Q1006 NOSIG,M
VIDP,2022-05-03 07:00,96.80,71.60,44.41,340.00,6.00,0.00,29.68,M,1.99,M,SCT,M,M,M,10000.00,M,M,M,DU,M,M,M,M,M,M,105.40,VIDP 030700Z 34006KT 3200 DU SCT100 36/22 Q1005 NOSIG,M
VIDP,2022-05-03 07:30,98.60,71.60,42.04,350.00,4.00,0.00,29.68,M,1.99,M,SCT,M,M,M,10000.00,M,M,M,DU,M,M,M,M,M,M,107.70,VIDP 030730Z 35004KT 3200 DU SCT100 37/22 Q1005 NOSIG,M
VIDP,2022-05-03 08:00,98.60,71.60,42.04,360.00,4.00,0.00,29.68,M,1.99,M,SCT,M,M,M,10000.00,M,M,M,DU,M,M,M,M,M,M,107.70,VIDP 030800Z 36004KT 3200 DU SCT100 37/22 Q1005 NOSIG,M
VIDP,2022-05-03 08:30,98.60,68.00,37.17,30.00,5.00,0.00,29.65,M,1.99,M,SCT,M,M,M,10000.00,M,M,M,DU,M,M,M,M,M,M,104.22,VIDP 030830Z 03005KT 3200 DU SCT100 37/20 Q1004 BECMG 3000 DU,M
VIDP,2022-05-03 09:00,98.60,66.20,34.93,30.00,5.00,0.00,29.65,M,1.74,M,SCT,M,M,M,10000.00,M,M,M,DU,M,M,M,M,M,M,102.78,VIDP 030900Z 03005KT 2800 DU SCT100 37/19 Q1004 NOSIG,M
VIDP,2022-05-03 09:30,98.60,64.40,32.81,30.00,5.00,0.00,29.62,M,1.37,M,SCT,M,M,M,10000.00,M,M,M,DU,M,M,M,M,M,M,101.50,VIDP 030930Z 03005KT 2200 DU SCT100 37/18 Q1003 NOSIG,M
VIDP,2022-05-03 10:00,98.60,62.60,30.80,50.00,4.00,0.00,29.62,M,1.24,M,SCT,M,M,M,10000.00,M,M,M,DU,M,M,M,M,M,M,100.38,VIDP 031000Z 05004KT 2000 DU SCT100 37/17 Q1003 NOSIG,M
VIDP,2022-05-03 10:30,98.60,60.80,28.90,80.00,6.00,0.00,29.59,M,1.12,M,SCT,M,M,M,10000.00,M,M,M,DU,M,M,M,M,M,M,99.39,VIDP 031030Z 08006KT 1800 R28/P2000 R29/P2000 DU SCT100 37/16 Q1002 NOSIG,M
VIDP,2022-05-03 11:00,98.60,60.80,28.90,70.00,6.00,0.00,29.59,M,1.12,M,SCT,M,M,M,10000.00,M,M,M,DU,M,M,M,M,M,M,99.39,VIDP 031100Z 07006KT 1800 R28/2000 R29/2000 DU SCT100 37/16 Q1002 NOSIG,M
VIDP,2022-05-03 11:30,98.60,60.80,28.90,80.00,4.00,0.00,29.59,M,1.12,M,SCT,M,M,M,10000.00,M,M,M,DU,M,M,M,M,M,M,99.39,VIDP 031130Z 08004KT 1800 R28/2000 R29/2000 DU SCT100 37/16 Q1002 NOSIG,M
VIDP,2022-05-03 12:00,98.60,62.60,30.80,50.00,4.00,0.00,29.59,M,1.12,M,FEW,SCT,M,M,3500.00,10000.00,M,M,DU,M,M,M,M,M,M,100.38,VIDP 031200Z 05004KT 1800 R28/2000 R29/2000 DU FEW035 SCT100 37/17 Q1002 NOSIG,M
VIDP,2022-05-03 12:30,96.80,60.80,30.53,50.00,5.00,0.00,29.59,M,1.12,M,FEW,SCT,M,M,3500.00,10000.00,M,M,DU,M,M,M,M,M,M,97.33,VIDP 031230Z 05005KT 1800 R28/2000 R29/2000 DU FEW035 SCT100 36/16 Q1002 NOSIG,M
VIDP,2022-05-03 13:00,96.80,62.60,32.54,50.00,6.00,0.00,29.59,M,1.12,M,FEW,SCT,M,M,3500.00,10000.00,M,M,DU,M,M,M,M,M,M,98.28,VIDP 031300Z 05006KT 1800 R28/2000 R29/2000 DU FEW035 SCT100 36/17 Q1002 NOSIG,M
VIDP,2022-05-03 13:30,95.00,62.60,34.39,50.00,6.00,0.00,29.62,M,1.24,M,FEW,SCT,M,M,3500.00,10000.00,M,M,DU,M,M,M,M,M,M,96.22,VIDP 031330Z 05006KT 2000 DU FEW035 SCT100 35/17 Q1003 NOSIG,M
VIDP,2022-05-03 14:00,93.20,62.60,36.35,50.00,6.00,0.00,29.62,M,1.55,M,FEW,SCT,M,M,3500.00,10000.00,M,M,DU,M,M,M,M,M,M,94.20,VIDP 031400Z 05006KT 2500 DU FEW035 SCT100 34/17 Q1003 NOSIG,M
VIDP,2022-05-03 14:30,93.20,62.60,36.35,50.00,5.00,0.00,29.62,M,1.55,M,FEW,SCT,M,M,3500.00,10000.00,M,M,DU,M,M,M,M,M,M,94.20,VIDP 031430Z 05005KT 2500 DU FEW035 SCT100 34/17 Q1003 NOSIG,M
VIDP,2022-05-03 15:00,93.20,62.60,36.35,50.00,4.00,0.00,29.65,M,1.55,M,FEW,SCT,M,M,3500.00,10000.00,M,M,DU,M,M,M,M,M,M,94.20,VIDP 031500Z 05004KT 2500 DU FEW035 SCT100 34/17 Q1004 NOSIG,M
VIDP,2022-05-03 16:00,91.40,66.20,43.61,80.00,4.00,0.00,29.68,M,1.55,M,FEW,SCT,M,M,3500.00,10000.00,M,M,DU,M,M,M,M,M,M,94.29,VIDP 031600Z 08004KT 2500 DU FEW035 SCT100 33/19 Q1005 NOSIG,M
VIDP,2022-05-03 16:30,91.40,68.00,46.41,120.00,5.00,0.00,29.68,M,1.55,M,FEW,SCT,M,M,3500.00,10000.00,M,M,DU,M,M,M,M,M,M,95.55,VIDP 031630Z 12005KT 2500 DU FEW035 SCT100 33/20 Q1005 NOSIG,M
VIDP,2022-05-03 17:00,89.60,69.80,52.23,120.00,3.00,0.00,29.68,M,1.55,M,FEW,SCT,M,M,3500.00,10000.00,M,M,DU,M,M,M,M,M,M,94.85,VIDP 031700Z 12003KT 2500 DU FEW035 SCT100 32/21 Q1005 NOSIG,M
VIDP,2022-05-03 17:30,89.60,69.80,52.23,110.00,3.00,0.00,29.68,M,1.55,M,FEW,SCT,M,M,3500.00,10000.00,M,M,HZ,M,M,M,M,M,M,94.85,VIDP 031730Z 11003KT 2500 HZ FEW035 SCT100 32/21 Q1005 NOSIG,M
VIDP,2022-05-03 18:00,87.80,71.60,58.78,110.00,4.00,0.00,29.68,M,1.74,M,FEW,SCT,M,M,3500.00,10000.00,M,M,HZ,M,M,M,M,M,M,94.18,VIDP 031800Z 11004KT 2800 HZ FEW035 SCT100 31/22 Q1005 NOSIG,M
VIDP,2022-05-03 18:30,87.80,71.60,58.78,100.00,3.00,0.00,29.68,M,1.74,M,FEW,SCT,M,M,3500.00,10000.00,M,M,HZ,M,M,M,M,M,M,94.18,VIDP 031830Z 10003KT 2800 HZ FEW035 SCT100 31/22 Q1005 NOSIG,M
VIDP,2022-05-03 19:00,87.80,69.80,55.29,110.00,3.00,0.00,29.68,M,1.74,M,FEW,SCT,M,M,3500.00,10000.00,M,M,HZ,M,M,M,M,M,M,92.71,VIDP 031900Z 11003KT 2800 HZ FEW035 SCT100 31/21 Q1005 NOSIG,M
VIDP,2022-05-03 19:30,87.80,69.80,55.29,100.00,4.00,0.00,29.68,M,1.74,M,FEW,SCT,M,M,3500.00,10000.00,M,M,HZ,M,M,M,M,M,M,92.71,VIDP 031930Z 10004KT 2800 HZ FEW035 SCT100 31/21 Q1005 NOSIG,M
VIDP,2022-05-03 20:00,87.80,71.60,58.78,110.00,4.00,0.00,29.68,M,1.74,M,FEW,SCT,M,M,3500.00,10000.00,M,M,HZ,M,M,M,M,M,M,94.18,VIDP 032000Z 11004KT 2800 HZ FEW035 SCT100 31/22 Q1005 NOSIG,M
VIDP,2022-05-03 20:30,87.80,71.60,58.78,100.00,5.00,0.00,29.68,M,1.74,M,FEW,SCT,M,M,3500.00,10000.00,M,M,HZ,M,M,M,M,M,M,94.18,VIDP 032030Z 10005KT 2800 HZ FEW035 SCT100 31/22 Q1005 NOSIG,M
VIDP,2022-05-03 21:00,87.80,71.60,58.78,120.00,5.00,0.00,29.68,M,1.74,M,FEW,SCT,M,M,3500.00,10000.00,M,M,HZ,M,M,M,M,M,M,94.18,VIDP 032100Z 12005KT 2800 HZ FEW035 SCT100 31/22 Q1005 NOSIG,M
VIDP,2022-05-03 21:30,86.00,71.60,62.25,120.00,5.00,0.00,29.68,M,1.74,M,FEW,SCT,M,M,3500.00,10000.00,M,M,HZ,M,M,M,M,M,M,91.92,VIDP 032130Z 12005KT 2800 HZ FEW035 SCT100 30/22 Q1005 NOSIG,M
VIDP,2022-05-03 22:00,86.00,71.60,62.25,130.00,3.00,0.00,29.65,M,1.74,M,FEW,SCT,M,M,3500.00,10000.00,M,M,HZ,M,M,M,M,M,M,91.92,VIDP 032200Z 13003KT 2800 HZ FEW035 SCT100 30/22 Q1004 NOSIG,M
VIDP,2022-05-03 22:30,86.00,71.60,62.25,130.00,5.00,0.00,29.65,M,1.74,M,FEW,SCT,M,M,3500.00,10000.00,M,M,HZ,M,M,M,M,M,M,91.92,VIDP 032230Z 13005KT 2800 HZ FEW035 SCT100 30/22 Q1004 NOSIG,M
VIDP,2022-05-03 23:00,86.00,71.60,62.25,130.00,5.00,0.00,29.68,M,1.74,M,FEW,SCT,M,M,3500.00,10000.00,M,M,HZ,M,M,M,M,M,M,91.92,VIDP 032300Z 13005KT 2800 HZ FEW035 SCT100 30/22 Q1005 NOSIG,M
VIDP,2022-05-03 23:30,87.80,71.60,58.78,130.00,5.00,0.00,29.68,M,1.74,M,FEW,SCT,M,M,3500.00,10000.00,M,M,HZ,M,M,M,M,M,M,94.18,VIDP 032330Z 13005KT 2800 HZ FEW035 SCT100 31/22 Q1005 NOSIG,M
VIDP,2022-05-04 00:00,87.80,71.60,58.78,130.00,4.00,0.00,29.68,M,1.74,M,FEW,SCT,M,M,3500.00,10000.00,M,M,HZ,M,M,M,M,M,M,94.18,VIDP 040000Z 13004KT 2800 HZ FEW035 SCT100 31/22 Q1005 NOSIG,M
VIDP,2022-05-04 00:30,86.00,71.60,62.25,110.00,4.00,0.00,29.71,M,1.49,M,FEW,SCT,M,M,3500.00,10000.00,M,M,HZ,M,M,M,M,M,M,91.92,VIDP 040030Z 11004KT 2400 HZ FEW035 SCT100 30/22 Q1006 NOSIG,M
VIDP,2022-05-04 01:00,86.00,71.60,62.25,90.00,4.00,0.00,29.71,M,1.30,M,FEW,SCT,M,M,3500.00,10000.00,M,M,HZ,M,M,M,M,M,M,91.92,VIDP 040100Z 09004KT 2100 HZ FEW035 SCT100 30/22 Q1006 NOSIG,M
VIDP,2022-05-04 01:30,87.80,73.40,62.47,100.00,4.00,0.00,29.74,M,1.30,M,FEW,SCT,M,M,3500.00,10000.00,M,M,HZ,M,M,M,M,M,M,95.86,VIDP 040130Z 10004KT 2100 HZ FEW035 SCT100 31/23 Q1007 NOSIG,M
VIDP,2022-05-04 02:00,87.80,73.40,62.47,100.00,5.00,0.00,29.74,M,1.30,M,FEW,SCT,M,M,3500.00,10000.00,M,M,HZ,M,M,M,M,M,M,95.86,VIDP 040200Z 10005KT 2100 HZ FEW035 SCT100 31/23 Q1007 NOSIG,M
VIDP,2022-05-04 02:30,87.80,71.60,58.78,120.00,4.00,0.00,29.77,M,1.30,M,FEW,SCT,M,M,3500.00,10000.00,M,M,HZ,M,M,M,M,M,M,94.18,VIDP 040230Z 12004KT 2100 HZ FEW035 SCT100 31/22 Q1008 NOSIG,M
VIDP,2022-05-04 03:00,89.60,73.40,59.01,110.00,5.00,0.00,29.77,M,1.30,M,FEW,SCT,M,M,3500.00,10000.00,M,M,DU,M,M,M,M,M,M,98.20,VIDP 040300Z 11005KT 2100 DU FEW035 SCT100 32/23 Q1008 NOSIG,M
VIDP,2022-05-04 03:30,89.60,71.60,55.53,120.00,5.00,0.00,29.77,M,1.30,M,FEW,SCT,M,M,3500.00,10000.00,M,M,DU,M,M,M,M,M,M,96.41,VIDP 040330Z 12005KT 2100 DU FEW035 SCT100 32/22 Q1008 NOSIG,M
VIDP,2022-05-04 04:00,91.40,71.60,52.48,110.00,5.00,0.00,29.77,M,1.30,M,FEW,SCT,M,M,3500.00,10000.00,M,M,DU,M,M,M,M,M,M,98.64,VIDP 040400Z 11005KT 2100 DU FEW035 SCT100 33/22 Q1008 NOSIG,M
VIDP,2022-05-04 04:30,93.20,71.60,49.62,110.00,5.00,0.00,29.77,M,1.30,M,FEW,SCT,M,M,3500.00,10000.00,M,M,DU,M,M,M,M,M,M,100.88,VIDP 040430Z 11005KT 2100 DU FEW035 SCT100 34/22 Q1008 NOSIG,M
VIDP,2022-05-04 05:30,95.00,71.60,46.93,60.00,6.00,0.00,29.77,M,1.55,M,SCT,BKN,M,M,3500.00,10000.00,M,M,DU,M,M,M,M,M,M,103.13,VIDP 040530Z 06006KT 2500 DU SCT035 BKN100 35/22 Q1008 NOSIG,M
VIDP,2022-05-04 06:00,95.00,71.60,46.93,90.00,6.00,0.00,29.74,M,1.55,M,SCT,BKN,M,M,3500.00,10000.00,M,M,DU,M,M,M,M,M,M,103.13,VIDP 040600Z 09006KT 2500 DU SCT035 BKN100 35/22 Q1007 NOSIG,M
VIDP,2022-05-04 06:30,95.00,69.80,44.14,60.00,4.00,0.00,29.74,M,1.37,M,SCT,BKN,M,M,3500.00,10000.00,M,M,DU,M,M,M,M,M,M,101.37,VIDP 040630Z 06004KT 2200 DU SCT035 BKN100 35/21 Q1007 NOSIG,M
VIDP,2022-05-04 07:00,96.80,69.80,41.77,80.00,6.00,0.00,29.74,M,1.37,M,SCT,FEW,BKN,M,3500.00,4000.00,10000.00,M,DU,M,M,M,M,M,M,103.60,VIDP 040700Z 08006KT 2200 DU SCT035 FEW040CB BKN100 36/21 Q1007 NOSIG,M
VIDP,2022-05-04 07:30,96.80,69.80,41.77,100.00,10.00,0.00,29.71,M,1.24,20.00,SCT,FEW,BKN,M,3500.00,4000.00,10000.00,M,DU,M,M,M,M,M,M,103.60,VIDP 040730Z 10010G20KT 2000 DU SCT035 FEW040CB BKN100 36/21 Q1006 NOSIG,M
VIDP,2022-05-04 08:00,98.60,69.80,39.54,100.00,8.00,0.00,29.71,M,1.24,18.00,SCT,FEW,BKN,M,3500.00,4000.00,10000.00,M,BLDU,M,M,M,M,M,M,105.85,VIDP 040800Z 10008G18KT 2000 BLDU SCT035 FEW040CB BKN100 37/21 Q1006 BECMG 0800 DS TS,M
VIDP,2022-05-04 08:30,98.60,59.00,27.10,100.00,9.00,0.00,29.68,M,1.55,M,SCT,FEW,BKN,M,3500.00,4000.00,10000.00,M,BLDU,M,M,M,M,M,M,98.52,VIDP 040830Z 10009KT 2500 BLDU SCT035 FEW040CB BKN100 37/15 Q1005 BECMG 0800 DS TS,M
VIDP,2022-05-04 09:00,98.60,59.00,27.10,60.00,6.00,0.00,29.68,M,1.55,M,SCT,FEW,BKN,M,3500.00,4000.00,10000.00,M,BLDU,M,M,M,M,M,M,98.52,VIDP 040900Z 06006KT 2500 BLDU SCT035 FEW040CB BKN100 37/15 Q1005 TEMPO 0800 DS TS,M
VIDP,2022-05-04 09:30,98.60,59.00,27.10,90.00,9.00,0.00,29.65,M,1.55,M,SCT,FEW,BKN,M,3500.00,4000.00,10000.00,M,BLDU,M,M,M,M,M,M,98.52,VIDP 040930Z 09009KT 2500 BLDU SCT035 FEW040CB BKN100 37/15 Q1004 TEMPO 0800 DS TS,M
VIDP,2022-05-04 10:00,98.60,59.00,27.10,90.00,11.00,0.00,29.62,M,1.55,M,SCT,FEW,BKN,M,3500.00,4000.00,10000.00,M,BLDU,M,M,M,M,M,M,98.52,VIDP 041000Z 09011KT 2500 BLDU SCT035 FEW040CB BKN100 37/15 Q1003 TEMPO 0800 DS TS,M
VIDP,2022-05-04 10:30,98.60,59.00,27.10,110.00,12.00,0.00,29.62,M,1.55,M,SCT,FEW,BKN,M,3500.00,4000.00,10000.00,M,BLDU,M,M,M,M,M,M,98.52,VIDP 041030Z 11012KT 2500 BLDU SCT035 FEW040CB BKN100 37/15 Q1003 TEMPO 0800 DS TS,M
VIDP,2022-05-04 11:00,96.80,59.00,28.63,120.00,10.00,0.00,29.62,M,1.55,M,SCT,FEW,BKN,M,3000.00,3500.00,10000.00,M,BLDU,M,M,M,M,M,M,96.50,VIDP 041100Z 12010KT 2500 BLDU SCT030 FEW035CB BKN100 36/15 Q1003 TEMPO 0800 DS TS,M
VIDP,2022-05-04 11:30,95.00,59.00,30.26,120.00,8.00,0.00,29.65,M,1.55,M,BKN,FEW,OVC,M,3000.00,3500.00,8000.00,M,TS,M,M,M,M,M,M,94.51,VIDP 041130Z 12008KT 2500 TS BKN030 FEW035CB OVC080 35/15 Q1004 TEMPO 11015G35KT 0800 DS TSRA,M
VIDP,2022-05-04 12:00,89.60,64.40,43.34,180.00,10.00,0.00,29.65,M,1.37,M,SCT,FEW,BKN,M,3000.00,3500.00,9000.00,M,-TSRA,M,M,M,M,M,M,91.23,VIDP 041200Z 18010KT 2200 -TSRA SCT030 FEW035CB BKN090 32/18 Q1004 TEMPO 11015G35KT 0800 DS TSRA,M
VIDP,2022-05-04 12:30,87.80,64.40,45.88,280.00,6.00,0.00,29.65,M,1.37,M,SCT,FEW,BKN,M,3000.00,3500.00,9000.00,M,-TS,M,M,M,M,M,M,89.33,VIDP 041230Z 28006KT 2200 -TS SCT030 FEW035CB BKN090 31/18 Q1004 TEMPO 11015G35KT 0800 DS TSRA,M
VIDP,2022-05-04 13:00,82.40,62.60,51.21,310.00,15.00,0.00,29.77,M,1.37,25.00,SCT,FEW,BKN,M,3000.00,3500.00,9000.00,M,-TS,M,M,M,M,M,M,83.41,VIDP 041300Z 31015G25KT 2200 -TS SCT030 FEW035CB BKN090 28/17 Q1008 TEMPO 11015G35KT 0800 DS TSRA,M
VIDP,2022-05-04 13:30,78.80,66.20,65.33,80.00,15.00,0.00,29.77,M,1.37,25.00,SCT,FEW,BKN,M,3000.00,3500.00,9000.00,M,-TSRA,M,M,M,M,M,M,78.80,VIDP 041330Z 08015G25KT 2200 -TSRA SCT030 FEW035CB BKN090 26/19 Q1008 TEMPO 31015G35KT 0800 DS TSRA,M
VIDP,2022-05-04 14:00,77.00,66.20,69.33,50.00,10.00,0.00,29.74,M,1.37,20.00,SCT,FEW,BKN,M,3000.00,3500.00,9000.00,M,-TSRA,M,M,M,M,M,M,77.00,VIDP 041400Z 05010G20KT 2200 -TSRA SCT030 FEW035CB BKN090 25/19 Q1007 TEMPO 31015G35KT 0800 DS TSRA,M
VIDP,2022-05-04 14:30,75.20,66.20,73.61,50.00,8.00,0.00,29.74,M,1.55,18.00,SCT,FEW,BKN,M,3000.00,3500.00,9000.00,M,-TS,M,M,M,M,M,M,75.20,VIDP 041430Z 05008G18KT 2500 -TS SCT030 FEW035CB BKN090 24/19 Q1007 TEMPO 31015G35KT TSRA,M
VIDP,2022-05-04 15:00,75.20,68.00,78.34,40.00,8.00,0.00,29.77,M,1.74,M,SCT,BKN,M,M,3500.00,10000.00,M,M,BR,M,M,M,M,M,M,75.20,VIDP 041500Z 04008KT 2800 BR SCT035 BKN100 24/20 Q1008 BECMG 3000 BR,M
VIDP,2022-05-04 15:30,75.20,68.00,78.34,40.00,8.00,0.00,29.77,M,1.74,M,SCT,BKN,M,M,3500.00,10000.00,M,M,BR,M,M,M,M,M,M,75.20,VIDP 041530Z 04008KT 2800 BR SCT035 BKN100 24/20 Q1008 BECMG 3000 BR,M
VIDP,2022-05-04 16:00,75.20,68.00,78.34,50.00,8.00,0.00,29.77,M,1.99,M,SCT,SCT,M,M,3500.00,10000.00,M,M,BR,M,M,M,M,M,M,75.20,VIDP 041600Z 05008KT 3200 BR SCT035 SCT100 24/20 Q1008 NOSIG,M
VIDP,2022-05-04 16:30,77.00,66.20,69.33,50.00,8.00,0.00,29.77,M,2.17,M,SCT,SCT,M,M,3500.00,10000.00,M,M,HZ,M,M,M,M,M,M,77.00,VIDP 041630Z 05008KT 3500 HZ SCT035 SCT100 25/19 Q1008 NOSIG,M
VIDP,2022-05-04 17:00,77.00,66.20,69.33,100.00,5.00,0.00,29.77,M,2.17,M,SCT,SCT,M,M,3500.00,10000.00,M,M,HZ,M,M,M,M,M,M,77.00,VIDP 041700Z 10005KT 3500 HZ SCT035 SCT100 25/19 Q1008 NOSIG,M
VIDP,2022-05-04 17:30,77.00,66.20,69.33,110.00,5.00,0.00,29.77,M,2.17,M,SCT,SCT,M,M,3500.00,10000.00,M,M,HZ,M,M,M,M,M,M,77.00,VIDP 041730Z 11005KT 3500 HZ SCT035 SCT100 25/19 Q1008 NOSIG,M
VIDP,2022-05-04 18:00,77.00,66.20,69.33,120.00,5.00,0.00,29.77,M,2.17,M,SCT,SCT,M,M,3500.00,10000.00,M,M,HZ,M,M,M,M,M,M,77.00,VIDP 041800Z 12005KT 3500 HZ SCT035 SCT100 25/19 Q1008 NOSIG,M
VIDP,2022-05-04 18:30,77.00,66.20,69.33,140.00,5.00,0.00,29.74,M,2.17,M,FEW,SCT,M,M,3500.00,10000.00,M,M,HZ,M,M,M,M,M,M,77.00,VIDP 041830Z 14005KT 3500 HZ FEW035 SCT100 25/19 Q1007 NOSIG,M
VIDP,2022-05-04 19:00,77.00,66.20,69.33,130.00,5.00,0.00,29.74,M,2.17,M,FEW,SCT,M,M,3500.00,10000.00,M,M,HZ,M,M,M,M,M,M,77.00,VIDP 041900Z 13005KT 3500 HZ FEW035 SCT100 25/19 Q1007 NOSIG,M
VIDP,2022-05-04 19:30,77.00,66.20,69.33,150.00,5.00,0.00,29.71,M,2.17,M,FEW,SCT,M,M,3500.00,10000.00,M,M,HZ,M,M,M,M,M,M,77.00,VIDP 041930Z 15005KT 3500 HZ FEW035 SCT100 25/19 Q1006 NOSIG,M
VIDP,2022-05-04 20:00,77.00,66.20,69.33,210.00,3.00,0.00,29.71,M,2.17,M,FEW,SCT,M,M,3500.00,10000.00,M,M,HZ,M,M,M,M,M,M,77.00,VIDP 042000Z 21003KT 3500 HZ FEW035 SCT100 25/19 Q1006 NOSIG,M
VIDP,2022-05-04 20:30,75.20,66.20,73.61,170.00,4.00,0.00,29.71,M,2.17,M,FEW,SCT,M,M,3500.00,10000.00,M,M,HZ,M,M,M,M,M,M,75.20,VIDP 042030Z 17004KT 3500 HZ FEW035 SCT100 24/19 Q1006 NOSIG,M
VIDP,2022-05-04 21:00,75.20,66.20,73.61,180.00,4.00,0.00,29.71,M,2.17,M,FEW,SCT,M,M,3500.00,10000.00,M,M,HZ,M,M,M,M,M,M,75.20,VIDP 042100Z 18004KT 3500 HZ FEW035 SCT100 24/19 Q1006 NOSIG,M
VIDP,2022-05-04 21:30,75.20,66.20,73.61,180.00,4.00,0.00,29.71,M,2.17,M,FEW,SCT,M,M,3500.00,10000.00,M,M,HZ,M,M,M,M,M,M,75.20,VIDP 042130Z 18004KT 3500 HZ FEW035 SCT100 24/19 Q1006 NOSIG,M
VIDP,2022-05-04 22:00,75.20,66.20,73.61,0.00,0.00,0.00,29.71,M,2.17,M,FEW,SCT,M,M,3500.00,10000.00,M,M,HZ,M,M,M,M,M,M,75.20,VIDP 042200Z 00000KT 3500 HZ FEW035 SCT100 24/19 Q1006 NOSIG,M
VIDP,2022-05-04 22:30,77.00,66.20,69.33,0.00,0.00,0.00,29.71,M,2.17,M,FEW,SCT,M,M,3500.00,10000.00,M,M,HZ,M,M,M,M,M,M,77.00,VIDP 042230Z 00000KT 3500 HZ FEW035 SCT100 25/19 Q1006 NOSIG,M
VIDP,2022-05-04 23:00,77.00,68.00,73.78,10.00,4.00,0.00,29.71,M,2.17,M,FEW,SCT,M,M,3500.00,10000.00,M,M,HZ,M,M,M,M,M,M,77.00,VIDP 042300Z 01004KT 3500 HZ FEW035 SCT100 25/20 Q1006 NOSIG,M
VIDP,2022-05-04 23:30,77.00,68.00,73.78,10.00,3.00,0.00,29.71,M,2.17,M,FEW,SCT,M,M,3500.00,10000.00,M,M,HZ,M,M,M,M,M,M,77.00,VIDP 042330Z 01003KT 3500 HZ FEW035 SCT100 25/20 Q1006 NOSIG,M
VIDP,2022-05-05 00:00,75.20,68.00,78.34,20.00,5.00,0.00,29.74,M,2.17,M,FEW,M,M,M,10000.00,M,M,M,BR,M,M,M,M,M,M,75.20,VIDP 050000Z 02005KT 3500 BR FEW100 24/20 Q1007 BECMG 3000 BR,M
VIDP,2022-05-05 00:30,75.20,68.00,78.34,10.00,5.00,0.00,29.74,M,2.17,M,FEW,M,M,M,10000.00,M,M,M,BR,M,M,M,M,M,M,75.20,VIDP 050030Z 01005KT 3500 BR FEW100 24/20 Q1007 BECMG 3000 BR,M
VIDP,2022-05-05 01:00,75.20,68.00,78.34,40.00,5.00,0.00,29.77,M,0.99,M,FEW,M,M,M,10000.00,M,M,M,BR,M,M,M,M,M,M,75.20,VIDP 050100Z 04005KT 1600 R28/2000 R29/2000 BR FEW100 24/20 Q1008 BECMG 1500 BR,M
VIDP,2022-05-05 01:30,75.20,69.80,83.32,40.00,5.00,0.00,29.77,M,0.75,M,NSC,M,M,M,M,M,M,M,BR,M,M,M,M,M,M,75.20,VIDP 050130Z 04005KT 1200 R28/2000 R29/2000 BR NSC 24/21 Q1008 NOSIG,M
VIDP,2022-05-05 02:00,77.00,69.80,78.48,30.00,5.00,0.00,29.77,M,0.75,M,NSC,M,M,M,M,M,M,M,BR,M,M,M,M,M,M,77.00,VIDP 050200Z 03005KT 1200 R28/2000 R29/2000 BR NSC 25/21 Q1008 NOSIG,M
VIDP,2022-05-05 02:30,77.00,69.80,78.48,50.00,5.00,0.00,29.80,M,0.87,M,NSC,M,M,M,M,M,M,M,BR,M,M,M,M,M,M,77.00,VIDP 050230Z 05005KT 1400 R28/2000 R29/2000 BR NSC 25/21 Q1009 NOSIG,M
VIDP,2022-05-05 03:00,78.80,69.80,73.95,50.00,6.00,0.00,29.80,M,0.87,M,NSC,M,M,M,M,M,M,M,HZ,M,M,M,M,M,M,78.80,VIDP 050300Z 05006KT 1400 R28/2000 R29/2000 HZ NSC 26/21 Q1009 BECMG 1500 HZ,M
VIDP,2022-05-05 03:30,80.60,69.80,69.71,30.00,4.00,0.00,29.80,M,0.93,M,NSC,M,M,M,M,M,M,M,HZ,M,M,M,M,M,M,83.90,VIDP 050330Z 03004KT 1500 R28/2000 R29/2000 HZ NSC 27/21 Q1009 NOSIG,M
VIDP,2022-05-05 04:00,84.20,68.00,58.32,50.00,4.00,0.00,29.83,M,1.37,M,NSC,M,M,M,M,M,M,M,HZ,M,M,M,M,M,M,87.40,VIDP 050400Z 05004KT 2200 HZ NSC 29/20 Q1010 NOSIG,M
VIDP,2022-05-05 04:30,86.00,66.20,51.72,70.00,4.00,0.00,29.83,M,1.55,M,NSC,M,M,M,M,M,M,M,HZ,M,M,M,M,M,M,88.39,VIDP 050430Z 07004KT 2500 HZ NSC 30/19 Q1010 BECMG 3000 HZ,M
VIDP,2022-05-05 05:00,87.80,64.40,45.88,80.00,4.00,0.00,29.83,M,1.86,M,NSC,M,M,M,M,M,M,M,HZ,M,M,M,M,M,M,89.33,VIDP 050500Z 08004KT 3000 HZ NSC 31/18 Q1010 NOSIG,M
VIDP,2022-05-05 05:30,89.60,64.40,43.34,100.00,4.00,0.00,29.80,M,1.86,M,NSC,M,M,M,M,M,M,M,HZ,M,M,M,M,M,M,91.23,VIDP 050530Z 10004KT 3000 HZ NSC 32/18 Q1009 NOSIG,M
VIDP,2022-05-05 06:00,89.60,62.60,40.69,130.00,4.00,0.00,29.80,M,2.17,M,NSC,M,M,M,M,M,M,M,HZ,M,M,M,M,M,M,90.32,VIDP 050600Z 13004KT 3500 HZ NSC 32/17 Q1009 NOSIG,M
VIDP,2022-05-05 06:30,91.40,60.80,36.08,110.00,4.00,0.00,29.80,M,2.17,M,NSC,M,M,M,M,M,M,M,HZ,M,M,M,M,M,M,91.40,VIDP 050630Z 11004KT 3500 HZ NSC 33/16 Q1009 NOSIG,M
VIDP,2022-05-05 07:00,93.20,60.80,34.11,310.00,4.00,0.00,29.77,M,2.49,M,NSC,M,M,M,M,M,M,M,HZ,M,M,M,M,M,M,93.32,VIDP 050700Z 31004KT 4000 HZ NSC 34/16 Q1008 NOSIG,M
VIDP,2022-05-05 07:30,95.00,60.80,32.27,320.00,5.00,0.00,29.77,M,2.49,M,NSC,M,M,M,M,M,M,M,HZ,M,M,M,M,M,M,95.30,VIDP 050730Z 32005KT 4000 HZ NSC 35/16 Q1008 NOSIG,M
VIDP,2022-05-05 08:00,95.00,59.00,30.26,300.00,4.00,0.00,29.74,M,2.49,M,NSC,M,M,M,M,M,M,M,HZ,M,M,M,M,M,M,94.51,VIDP 050800Z 30004KT 4000 HZ NSC 35/15 Q1007 NOSIG,M
VIDP,2022-05-05 08:30,95.00,59.00,30.26,320.00,3.00,0.00,29.74,M,2.49,M,NSC,M,M,M,M,M,M,M,HZ,M,M,M,M,M,M,94.51,VIDP 050830Z 32003KT 4000 HZ NSC 35/15 Q1007 NOSIG,M
VIDP,2022-05-05 09:00,96.80,57.20,26.84,260.00,5.00,0.00,29.71,M,2.49,M,NSC,M,M,M,M,M,M,M,HZ,M,M,M,M,M,M,95.77,VIDP 050900Z 26005KT 4000 HZ NSC 36/14 Q1006 NOSIG,M
VIDP,2022-05-05 09:30,98.60,55.40,23.81,240.00,4.00,0.00,29.71,M,2.49,M,NSC,M,M,M,M,M,M,M,HZ,M,M,M,M,M,M,97.09,VIDP 050930Z 24004KT 4000 HZ NSC 37/13 Q1006 NOSIG,M
VIDP,2022-05-05 10:00,98.60,55.40,23.81,280.00,4.00,0.00,29.68,M,2.49,M,FEW,M,M,M,10000.00,M,M,M,HZ,M,M,M,M,M,M,97.09,VIDP 051000Z 28004KT 4000 HZ FEW100 37/13 Q1005 NOSIG,M
VIDP,2022-05-05 10:30,98.60,53.60,22.29,280.00,5.00,0.00,29.68,M,2.49,M,FEW,M,M,M,10000.00,M,M,M,HZ,M,M,M,M,M,M,96.51,VIDP 051030Z 28005KT 4000 HZ FEW100 37/12 Q1005 NOSIG,M
VIDP,2022-05-05 11:00,96.80,53.60,23.55,310.00,4.00,0.00,29.68,M,2.49,M,FEW,M,M,M,10000.00,M,M,M,HZ,M,M,M,M,M,M,94.59,VIDP 051100Z 31004KT 4000 HZ FEW100 36/12 Q1005 NOSIG,M
VIDP,2022-05-05 11:30,96.80,55.40,25.15,310.00,3.00,0.00,29.65,M,2.49,M,FEW,M,M,M,10000.00,M,M,M,HZ,M,M,M,M,M,M,95.14,VIDP 051130Z 31003KT 4000 HZ FEW100 36/13 Q1004 NOSIG,M
VIDP,2022-05-05 12:00,96.80,55.40,25.15,270.00,3.00,0.00,29.65,M,2.49,M,FEW,M,M,M,10000.00,M,M,M,HZ,M,M,M,M,M,M,95.14,VIDP 051200Z 27003KT 4000 HZ FEW100 36/13 Q1004 NOSIG,M
VIDP,2022-05-05 12:30,96.80,55.40,25.15,350.00,3.00,0.00,29.65,M,2.49,M,FEW,M,M,M,10000.00,M,M,M,HZ,M,M,M,M,M,M,95.14,VIDP 051230Z 35003KT 4000 HZ FEW100 36/13 Q1004 NOSIG,M
VIDP,2022-05-05 13:00,95.00,55.40,26.58,0.00,0.00,0.00,29.65,M,2.49,M,FEW,M,M,M,10000.00,M,M,M,HZ,M,M,M,M,M,M,93.22,VIDP 051300Z 00000KT 4000 HZ FEW100 35/13 Q1004 NOSIG,M
VIDP,2022-05-05 13:30,95.00,57.20,28.37,0.00,0.00,0.00,29.68,M,2.49,M,FEW,M,M,M,10000.00,M,M,M,HZ,M,M,M,M,M,M,93.82,VIDP 051330Z 00000KT 4000 HZ FEW100 35/14 Q1005 NOSIG,M
VIDP,2022-05-05 14:00,95.00,59.00,30.26,0.00,0.00,0.00,29.68,M,2.49,M,FEW,M,M,M,10000.00,M,M,M,HZ,M,M,M,M,M,M,94.51,VIDP 051400Z 00000KT 4000 HZ FEW100 35/15 Q1005 NOSIG,M
VIDP,2022-05-05 14:30,93.20,60.80,34.11,40.00,4.00,0.00,29.68,M,2.49,M,FEW,M,M,M,10000.00,M,M,M,HZ,M,M,M,M,M,M,93.32,VIDP 051430Z 04004KT 4000 HZ FEW100 34/16 Q1005 NOSIG,M
VIDP,2022-05-05 15:00,91.40,62.60,38.45,30.00,4.00,0.00,29.68,M,2.17,M,FEW,M,M,M,10000.00,M,M,M,HZ,M,M,M,M,M,M,92.23,VIDP 051500Z 03004KT 3500 HZ FEW100 33/17 Q1005 NOSIG,M
VIDP,2022-05-05 15:30,89.60,62.60,40.69,0.00,0.00,0.00,29.71,M,2.17,M,FEW,M,M,M,10000.00,M,M,M,HZ,M,M,M,M,M,M,90.32,VIDP 051530Z 00000KT 3500 HZ FEW100 32/17 Q1006 NOSIG,M
VIDP,2022-05-05 16:00,89.60,64.40,43.34,0.00,0.00,0.00,29.71,M,2.17,M,FEW,M,M,M,10000.00,M,M,M,HZ,M,M,M,M,M,M,91.23,VIDP 051600Z 00000KT 3500 HZ FEW100 32/18 Q1006 NOSIG,M
VIDP,2022-05-05 16:30,87.80,64.40,45.88,0.00,0.00,0.00,29.71,M,2.17,M,FEW,M,M,M,10000.00,M,M,M,HZ,M,M,M,M,M,M,89.33,VIDP 051630Z 00000KT 3500 HZ FEW100 31/18 Q1006 NOSIG,M
VIDP,2022-05-05 17:00,86.00,68.00,55.04,90.00,3.00,0.00,29.71,M,2.17,M,FEW,M,M,M,10000.00,M,M,M,HZ,M,M,M,M,M,M,89.41,VIDP 051700Z 09003KT 3500 HZ FEW100 30/20 Q1006 NOSIG,M
VIDP,2022-05-05 17:30,84.20,69.80,62.03,70.00,3.00,0.00,29.71,M,2.17,M,FEW,M,M,M,10000.00,M,M,M,HZ,M,M,M,M,M,M,88.43,VIDP 051730Z 07003KT 3500 HZ FEW100 29/21 Q1006 NOSIG,M
VIDP,2022-05-05 18:00,84.20,69.80,62.03,0.00,0.00,0.00,29.71,M,2.17,M,FEW,M,M,M,10000.00,M,M,M,HZ,M,M,M,M,M,M,88.43,VIDP 051800Z 00000KT 3500 HZ FEW100 29/21 Q1006 NOSIG,M
VIDP,2022-05-05 18:30,86.00,69.80,58.55,0.00,0.00,0.00,29.68,M,2.17,M,FEW,M,M,M,10000.00,M,M,M,HZ,M,M,M,M,M,M,90.58,VIDP 051830Z 00000KT 3500 HZ FEW100 30/21 Q1005 NOSIG,M
VIDP,2022-05-05 19:00,84.20,69.80,62.03,140.00,3.00,0.00,29.71,M,2.17,M,FEW,M,M,M,10000.00,M,M,M,HZ,M,M,M,M,M,M,88.43,VIDP 051900Z 14003KT 3500 HZ FEW100 29/21 Q1006 NOSIG,M
VIDP,2022-05-05 19:30,84.20,66.20,54.80,140.00,4.00,0.00,29.68,M,2.17,M,FEW,M,M,M,10000.00,M,M,M,HZ,M,M,M,M,M,M,86.50,VIDP 051930Z 14004KT 3500 HZ FEW100 29/19 Q1005 NOSIG,M
VIDP,2022-05-05 20:00,84.20,68.00,58.32,120.00,4.00,0.00,29.68,M,2.17,M,FEW,M,M,M,10000.00,M,M,M,HZ,M,M,M,M,M,M,87.40,VIDP 052000Z 12004KT 3500 HZ FEW100 29/20 Q1005 NOSIG,M
VIDP,2022-05-05 20:30,84.20,68.00,58.32,140.00,4.00,0.00,29.68,M,2.17,M,FEW,M,M,M,10000.00,M,M,M,HZ,M,M,M,M,M,M,87.40,VIDP 052030Z 14004KT 3500 HZ FEW100 29/20 Q1005 NOSIG,M
VIDP,2022-05-05 21:00,82.40,68.00,61.81,130.00,4.00,0.00,29.68,M,1.99,M,FEW,M,M,M,10000.00,M,M,M,HZ,M,M,M,M,M,M,85.38,VIDP 052100Z 13004KT 3200 HZ FEW100 28/20 Q1005 NOSIG,M
VIDP,2022-05-05 21:30,82.40,68.00,61.81,110.00,3.00,0.00,29.68,M,1.99,M,FEW,M,M,M,10000.00,M,M,M,HZ,M,M,M,M,M,M,85.38,VIDP 052130Z 11003KT 3200 HZ FEW100 28/20 Q1005 BECMG 3000 HZ,M
VIDP,2022-05-05 22:00,82.40,68.00,61.81,100.00,3.00,0.00,29.68,M,1.86,M,FEW,M,M,M,10000.00,M,M,M,HZ,M,M,M,M,M,M,85.38,VIDP 052200Z 10003KT 3000 HZ FEW100 28/20 Q1005 NOSIG,M
VIDP,2022-05-05 22:30,82.40,69.80,65.74,70.00,3.00,0.00,29.68,M,1.86,M,FEW,M,M,M,10000.00,M,M,M,HZ,M,M,M,M,M,M,86.22,VIDP 052230Z 07003KT 3000 HZ FEW100 28/21 Q1005 NOSIG,M
VIDP,2022-05-05 23:00,82.40,69.80,65.74,70.00,3.00,0.00,29.68,M,1.86,M,FEW,M,M,M,10000.00,M,M,M,HZ,M,M,M,M,M,M,86.22,VIDP 052300Z 07003KT 3000 HZ FEW100 28/21 Q1005 NOSIG,M
VIDP,2022-05-05 23:30,80.60,69.80,69.71,0.00,0.00,0.00,29.71,M,1.74,M,FEW,M,M,M,10000.00,M,M,M,HZ,M,M,M,M,M,M,83.90,VIDP 052330Z 00000KT 2800 HZ FEW100 27/21 Q1006 NOSIG,M
VIDP,2022-05-06 00:00,80.60,69.80,69.71,0.00,0.00,0.00,29.71,M,1.55,M,FEW,M,M,M,10000.00,M,M,M,HZ,M,M,M,M,M,M,83.90,VIDP 060000Z 00000KT 2500 HZ FEW100 27/21 Q1006 NOSIG,M
VIDP,2022-05-06 00:30,80.60,68.00,65.54,180.00,4.00,0.00,29.74,M,1.12,M,FEW,M,M,M,10000.00,M,M,M,HZ,M,M,M,M,M,M,83.29,VIDP 060030Z 18004KT 1800 R28/2000 R29/2000 HZ FEW100 27/20 Q1007 BECMG 1500 HZ,M
VIDP,2022-05-06 01:00,82.40,68.00,61.81,190.00,4.00,0.00,29.74,M,0.87,M,FEW,M,M,M,10000.00,M,M,M,HZ,M,M,M,M,M,M,85.38,VIDP 060100Z 19004KT 1400 R28/2000 R29/2000 HZ FEW100 28/20 Q1007 NOSIG,M
VIDP,2022-05-06 01:30,84.20,66.20,54.80,170.00,4.00,0.00,29.74,M,0.87,M,FEW,SCT,M,M,3500.00,10000.00,M,M,HZ,M,M,M,M,M,M,86.50,VIDP 060130Z 17004KT 1400 R28/2000 R29/2000 HZ FEW035 SCT100 29/19 Q1007 BECMG 1500 HZ,M
VIDP,2022-05-06 02:00,86.00,66.20,51.72,160.00,4.00,0.00,29.77,M,1.12,M,FEW,SCT,M,M,3500.00,10000.00,M,M,HZ,M,M,M,M,M,M,88.39,VIDP 060200Z 16004KT 1800 R28/2000 R29/2000 HZ FEW035 SCT100 30/19 Q1008 NOSIG,M
VIDP,2022-05-06 02:30,89.60,62.60,40.69,160.00,4.00,0.00,29.77,M,1.30,M,FEW,SCT,M,M,4000.00,10000.00,M,M,DU,M,M,M,M,M,M,90.32,VIDP 060230Z 16004KT 2100 DU FEW040 SCT100 32/17 Q1008 NOSIG,M
VIDP,2022-05-06 03:00,89.60,62.60,40.69,210.00,3.00,0.00,29.80,M,1.30,M,FEW,SCT,M,M,4000.00,10000.00,M,M,DU,M,M,M,M,M,M,90.32,VIDP 060300Z 21003KT 2100 DU FEW040 SCT100 32/17 Q1009 NOSIG,M
VIDP,2022-05-06 03:30,91.40,64.40,40.96,0.00,0.00,0.00,29.80,M,1.30,M,FEW,SCT,M,M,4000.00,10000.00,M,M,DU,M,M,M,M,M,M,93.19,VIDP 060330Z 00000KT 2100 DU FEW040 SCT100 33/18 Q1009 NOSIG,M
VIDP,2022-05-06 04:00,93.20,62.60,36.35,0.00,0.00,0.00,29.80,M,1.37,M,FEW,SCT,M,M,4000.00,10000.00,M,M,DU,M,M,M,M,M,M,94.20,VIDP 060400Z 00000KT 2200 DU FEW040 SCT100 34/17 Q1009 NOSIG,M
VIDP,2022-05-06 04:30,95.00,62.60,34.39,0.00,0.00,0.00,29.80,M,1.37,M,FEW,SCT,M,M,4000.00,10000.00,M,M,DU,M,M,M,M,M,M,96.22,VIDP 060430Z 00000KT 2200 DU FEW040 SCT100 35/17 Q1009 NOSIG,M
VIDP,2022-05-06 05:00,96.80,59.00,28.63,180.00,4.00,0.00,29.80,M,1.37,M,FEW,SCT,M,M,4000.00,10000.00,M,M,DU,M,M,M,M,M,M,96.50,VIDP 060500Z 18004KT 2200 DU FEW040 SCT100 36/15 Q1009 NOSIG,M
VIDP,2022-05-06 05:30,98.60,57.20,25.41,300.00,4.00,0.00,29.80,M,1.37,M,FEW,SCT,M,M,4000.00,10000.00,M,M,DU,M,M,M,M,M,M,97.76,VIDP 060530Z 30004KT 2200 DU FEW040 SCT100 37/14 Q1009 NOSIG,M
VIDP,2022-05-06 06:00,98.60,55.40,23.81,310.00,6.00,0.00,29.77,M,1.55,M,FEW,SCT,M,M,4000.00,10000.00,M,M,DU,M,M,M,M,M,M,97.09,VIDP 060600Z 31006KT 2500 DU FEW040 SCT100 37/13 Q1008 NOSIG,M
VIDP,2022-05-06 06:30,98.60,55.40,23.81,300.00,5.00,0.00,29.77,M,1.55,M,FEW,FEW,SCT,M,4000.00,4000.00,10000.00,M,DU,M,M,M,M,M,M,97.09,VIDP 060630Z 30005KT 2500 DU FEW040 FEW040CB SCT100 37/13 Q1008 TEMPO 29020G35KT 1000 DS TS,M
VIDP,2022-05-06 07:00,95.00,57.20,28.37,10.00,8.00,0.00,29.74,M,0.87,18.00,FEW,FEW,SCT,M,4000.00,4000.00,10000.00,M,BLDU,M,M,M,M,M,M,93.82,VIDP 060700Z 01008G18KT 1400 R28/2000 R29/2000 BLDU FEW040 FEW040CB SCT100 35/14 Q1007 TEMPO 29020G35KT 1000 DS TS,M
VIDP,2022-05-06 07:30,95.00,57.20,28.37,10.00,8.00,0.00,29.74,M,0.87,18.00,FEW,FEW,SCT,M,4000.00,4000.00,10000.00,M,BLDU,M,M,M,M,M,M,93.82,VIDP 060730Z 01008G18KT 1400 R28/2000 R29/2000 BLDU FEW040 FEW040CB SCT100 35/14 Q1007 TEMPO 29020G35KT 1000 DS TS,M
VIDP,2022-05-06 08:00,95.00,53.60,24.89,20.00,7.00,0.00,29.71,M,0.87,M,FEW,FEW,SCT,M,4000.00,4000.00,10000.00,M,DU,M,M,M,M,M,M,92.71,VIDP 060800Z 02007KT 1400 R28/2000 R29/2000 DU FEW040 FEW040CB SCT100 35/12 Q1006 TEMPO 29020G35KT 1000 DS TS,M
VIDP,2022-05-06 08:30,98.60,55.40,23.81,40.00,5.00,0.00,29.71,M,1.30,M,FEW,SCT,M,M,4000.00,10000.00,M,M,DU,M,M,M,M,M,M,97.09,VIDP 060830Z 04005KT 2100 DU FEW040 SCT100 37/13 Q1006 NOSIG,M
VIDP,2022-05-06 09:00,98.60,57.20,25.41,70.00,5.00,0.00,29.68,M,1.37,M,SCT,M,M,M,10000.00,M,M,M,DU,M,M,M,M,M,M,97.76,VIDP 060900Z 07005KT 2200 DU SCT100 37/14 Q1005 NOSIG,M
VIDP,2022-05-06 09:30,98.60,57.20,25.41,60.00,5.00,0.00,29.68,M,1.37,M,SCT,M,M,M,10000.00,M,M,M,DU,M,M,M,M,M,M,97.76,VIDP 060930Z 06005KT 2200 DU SCT100 37/14 Q1005 NOSIG,M
VIDP,2022-05-06 10:00,98.60,59.00,27.10,60.00,5.00,0.00,29.68,M,1.55,M,FEW,SCT,M,M,4000.00,10000.00,M,M,DU,M,M,M,M,M,M,98.52,VIDP 061000Z 06005KT 2500 DU FEW040 SCT100 37/15 Q1005 NOSIG,M
VIDP,2022-05-06 10:30,98.60,59.00,27.10,100.00,3.00,0.00,29.65,M,1.55,M,FEW,SCT,M,M,4000.00,10000.00,M,M,DU,M,M,M,M,M,M,98.52,VIDP 061030Z 10003KT 2500 DU FEW040 SCT100 37/15 Q1004 NOSIG,M
VIDP,2022-05-06 11:00,100.40,59.00,25.67,60.00,3.00,0.00,29.65,M,1.55,M,SCT,FEW,SCT,M,3500.00,4000.00,10000.00,M,DU,M,M,M,M,M,M,100.57,VIDP 061100Z 06003KT 2500 DU SCT035 FEW040CB SCT100 38/15 Q1004 NOSIG,M
VIDP,2022-05-06 11:30,100.40,59.00,25.67,110.00,3.00,0.00,29.65,M,1.55,M,SCT,FEW,SCT,M,3500.00,4000.00,10000.00,M,DU,M,M,M,M,M,M,100.57,VIDP 061130Z 11003KT 2500 DU SCT035 FEW040CB SCT100 38/15 Q1004 NOSIG,M
VIDP,2022-05-06 12:00,96.80,59.00,28.63,160.00,9.00,0.00,29.65,M,1.55,M,FEW,SCT,M,M,4000.00,10000.00,M,M,DU,M,M,M,M,M,M,96.50,VIDP 061200Z 16009KT 2500 DU FEW040 SCT100 36/15 Q1004 NOSIG,M
VIDP,2022-05-06 12:30,95.00,59.00,30.26,180.00,6.00,0.00,29.65,M,1.74,M,FEW,SCT,M,M,4000.00,10000.00,M,M,DU,M,M,M,M,M,M,94.51,VIDP 061230Z 18006KT 2800 DU FEW040 SCT100 35/15 Q1004 NOSIG,M
VIDP,2022-05-06 13:00,95.00,59.00,30.26,170.00,5.00,0.00,29.65,M,1.74,M,SCT,M,M,M,10000.00,M,M,M,HZ,M,M,M,M,M,M,94.51,VIDP 061300Z 17005KT 2800 HZ SCT100 35/15 Q1004 BECMG 3000 HZ,M
VIDP,2022-05-06 13:30,93.20,57.20,29.99,150.00,6.00,0.00,29.65,M,1.99,M,SCT,M,M,M,10000.00,M,M,M,HZ,M,M,M,M,M,M,91.91,VIDP 061330Z 15006KT 3200 HZ SCT100 34/14 Q1004 NOSIG,M
VIDP,2022-05-06 14:00,93.20,57.20,29.99,150.00,5.00,0.00,29.65,M,2.17,M,SCT,M,M,M,10000.00,M,M,M,HZ,M,M,M,M,M,M,91.91,VIDP 061400Z 15005KT 3500 HZ SCT100 34/14 Q1004 NOSIG,M
VIDP,2022-05-06 14:30,91.40,57.20,31.72,160.00,4.00,0.00,29.68,M,2.17,M,SCT,M,M,M,10000.00,M,M,M,HZ,M,M,M,M,M,M,90.06,VIDP 061430Z 16004KT 3500 HZ SCT100 33/14 Q1005 NOSIG,M
VIDP,2022-05-06 15:00,91.40,57.20,31.72,180.00,4.00,0.00,29.68,M,2.17,M,SCT,M,M,M,10000.00,M,M,M,HZ,M,M,M,M,M,M,90.06,VIDP 061500Z 18004KT 3500 HZ SCT100 33/14 Q1005 NOSIG,M
VIDP,2022-05-06 15:30,89.60,57.20,33.56,160.00,4.00,0.00,29.71,M,1.99,M,FEW,M,M,M,10000.00,M,M,M,HZ,M,M,M,M,M,M,88.28,VIDP 061530Z 16004KT 3200 HZ FEW100 32/14 Q1006 BECMG 3000 HZ,M
VIDP,2022-05-06 16:00,89.60,57.20,33.56,170.00,4.00,0.00,29.71,M,1.86,M,FEW,M,M,M,10000.00,M,M,M,HZ,M,M,M,M,M,M,88.28,VIDP 061600Z 17004KT 3000 HZ FEW100 32/14 Q1006 NOSIG,M
VIDP,2022-05-06 16:30,89.60,57.20,33.56,0.00,0.00,0.00,29.71,M,1.86,M,FEW,M,M,M,10000.00,M,M,M,HZ,M,M,M,M,M,M,88.28,VIDP 061630Z 00000KT 3000 HZ FEW100 32/14 Q1006 NOSIG,M
VIDP,2022-05-06 17:00,89.60,59.00,35.81,0.00,0.00,0.00,29.71,M,1.86,M,FEW,M,M,M,10000.00,M,M,M,HZ,M,M,M,M,M,M,88.86,VIDP 061700Z 00000KT 3000 HZ FEW100 32/15 Q1006 NOSIG,M
VIDP,2022-05-06 17:30,89.60,59.00,35.81,0.00,0.00,0.00,29.71,M,1.86,M,FEW,M,M,M,10000.00,M,M,M,HZ,M,M,M,M,M,M,88.86,VIDP 061730Z 00000KT 3000 HZ FEW100 32/15 Q1006 NOSIG,M
VIDP,2022-05-06 18:00,87.80,59.00,37.90,0.00,0.00,0.00,29.71,M,1.86,M,FEW,M,M,M,10000.00,M,M,M,HZ,M,M,M,M,M,M,87.12,VIDP 061800Z 00000KT 3000 HZ FEW100 31/15 Q1006 NOSIG,M
VIDP,2022-05-06 18:30,87.80,59.00,37.90,0.00,0.00,0.00,29.71,M,1.86,M,FEW,M,M,M,10000.00,M,M,M,HZ,M,M,M,M,M,M,87.12,VIDP 061830Z 00000KT 3000 HZ FEW100 31/15 Q1006 NOSIG,M
VIDP,2022-05-06 19:00,87.80,59.00,37.90,0.00,0.00,0.00,29.71,M,1.86,M,FEW,M,M,M,10000.00,M,M,M,HZ,M,M,M,M,M,M,87.12,VIDP 061900Z 00000KT 3000 HZ FEW100 31/15 Q1006 NOSIG,M
VIDP,2022-05-06 19:30,86.00,59.00,40.14,0.00,0.00,0.00,29.71,M,1.86,M,FEW,M,M,M,10000.00,M,M,M,HZ,M,M,M,M,M,M,85.47,VIDP 061930Z 00000KT 3000 HZ FEW100 30/15 Q1006 NOSIG,M
VIDP,2022-05-06 20:00,86.00,59.00,40.14,0.00,0.00,0.00,29.68,M,1.86,M,FEW,M,M,M,10000.00,M,M,M,HZ,M,M,M,M,M,M,85.47,VIDP 062000Z 00000KT 3000 HZ FEW100 30/15 Q1005 NOSIG,M
VIDP,2022-05-06 20:30,86.00,59.00,40.14,0.00,0.00,0.00,29.68,M,1.86,M,FEW,M,M,M,10000.00,M,M,M,HZ,M,M,M,M,M,M,85.47,VIDP 062030Z 00000KT 3000 HZ FEW100 30/15 Q1005 NOSIG,M
VIDP,2022-05-06 21:00,84.20,59.00,42.52,0.00,0.00,0.00,29.68,M,1.86,M,FEW,M,M,M,10000.00,M,M,M,HZ,M,M,M,M,M,M,83.92,VIDP 062100Z 00000KT 3000 HZ FEW100 29/15 Q1005 NOSIG,M
VIDP,2022-05-06 21:30,84.20,59.00,42.52,0.00,0.00,0.00,29.68,M,1.86,M,FEW,M,M,M,10000.00,M,M,M,HZ,M,M,M,M,M,M,83.92,VIDP 062130Z 00000KT 3000 HZ FEW100 29/15 Q1005 NOSIG,M
VIDP,2022-05-06 22:00,84.20,59.00,42.52,0.00,0.00,0.00,29.68,M,1.86,M,FEW,M,M,M,10000.00,M,M,M,HZ,M,M,M,M,M,M,83.92,VIDP 062200Z 00000KT 3000 HZ FEW100 29/15 Q1005 NOSIG,M
VIDP,2022-05-06 22:30,84.20,59.00,42.52,0.00,0.00,0.00,29.68,M,1.86,M,FEW,M,M,M,10000.00,M,M,M,HZ,M,M,M,M,M,M,83.92,VIDP 062230Z 00000KT 3000 HZ FEW100 29/15 Q1005 NOSIG,M
VIDP,2022-05-06 23:00,84.20,60.80,45.34,0.00,0.00,0.00,29.68,M,1.86,M,FEW,M,M,M,10000.00,M,M,M,HZ,M,M,M,M,M,M,84.43,VIDP 062300Z 00000KT 3000 HZ FEW100 29/16 Q1005 NOSIG,M
VIDP,2022-05-06 23:30,80.60,60.80,50.95,0.00,0.00,0.00,29.71,M,1.86,M,FEW,M,M,M,10000.00,M,M,M,HZ,M,M,M,M,M,M,81.46,VIDP 062330Z 00000KT 3000 HZ FEW100 27/16 Q1006 NOSIG,M
VIDP,2022-05-07 00:00,80.60,60.80,50.95,0.00,0.00,0.00,29.71,M,1.86,M,FEW,M,M,M,10000.00,M,M,M,HZ,M,M,M,M,M,M,81.46,VIDP 070000Z 00000KT 3000 HZ FEW100 27/16 Q1006 NOSIG,M
VIDP,2022-05-07 00:30,80.60,60.80,50.95,0.00,0.00,0.00,29.71,M,1.86,M,FEW,M,M,M,10000.00,M,M,M,HZ,M,M,M,M,M,M,81.46,VIDP 070030Z 00000KT 3000 HZ FEW100 27/16 Q1006 NOSIG,M
VIDP,2022-05-07 01:00,82.40,60.80,48.05,0.00,0.00,0.00,29.74,M,1.86,M,NSC,M,M,M,M,M,M,M,HZ,M,M,M,M,M,M,82.90,VIDP 070100Z 00000KT 3000 HZ NSC 28/16 Q1007 NOSIG,M
VIDP,2022-05-07 01:30,82.40,60.80,48.05,0.00,0.00,0.00,29.74,M,1.86,M,NSC,M,M,M,M,M,M,M,HZ,M,M,M,M,M,M,82.90,VIDP 070130Z 00000KT 3000 HZ NSC 28/16 Q1007 NOSIG,M
VIDP,2022-05-07 02:00,84.20,60.80,45.34,0.00,0.00,0.00,29.77,M,1.86,M,NSC,M,M,M,M,M,M,M,HZ,M,M,M,M,M,M,84.43,VIDP 070200Z 00000KT 3000 HZ NSC 29/16 Q1008 NOSIG,M
VIDP,2022-05-07 02:30,87.80,62.60,43.07,0.00,0.00,0.00,29.77,M,2.17,M,NSC,M,M,M,M,M,M,M,HZ,M,M,M,M,M,M,88.48,VIDP 070230Z 00000KT 3500 HZ NSC 31/17 Q1008 NOSIG,M
VIDP,2022-05-07 03:00,89.60,62.60,40.69,0.00,0.00,0.00,29.77,M,2.17,M,NSC,M,M,M,M,M,M,M,HZ,M,M,M,M,M,M,90.32,VIDP 070300Z 00000KT 3500 HZ NSC 32/17 Q1008 NOSIG,M
VIDP,2022-05-07 03:30,91.40,62.60,38.45,40.00,4.00,0.00,29.77,M,2.49,M,NSC,M,M,M,M,M,M,M,HZ,M,M,M,M,M,M,92.23,VIDP 070330Z 04004KT 4000 HZ NSC 33/17 Q1008 NOSIG,M
VIDP,2022-05-07 04:00,93.20,62.60,36.35,100.00,5.00,0.00,29.77,M,2.49,M,NSC,M,M,M,M,M,M,M,HZ,M,M,M,M,M,M,94.20,VIDP 070400Z 10005KT 4000 HZ NSC 34/17 Q1008 NOSIG,M
VIDP,2022-05-07 04:30,95.00,62.60,34.39,80.00,5.00,0.00,29.80,M,2.49,M,NSC,M,M,M,M,M,M,M,HZ,M,M,M,M,M,M,96.22,VIDP 070430Z 08005KT 4000 HZ NSC 35/17 Q1009 NOSIG,M
VIDP,2022-05-07 05:00,96.80,60.80,30.53,100.00,4.00,0.00,29.80,M,2.49,M,NSC,M,M,M,M,M,M,M,HZ,M,M,M,M,M,M,97.33,VIDP 070500Z 10004KT 4000 HZ NSC 36/16 Q1009 NOSIG,M
VIDP,2022-05-07 05:30,98.60,60.80,28.90,110.00,4.00,0.00,29.80,M,2.49,M,NSC,M,M,M,M,M,M,M,HZ,M,M,M,M,M,M,99.39,VIDP 070530Z 11004KT 4000 HZ NSC 37/16 Q1009 NOSIG,M
VIDP,2022-05-07 06:00,100.40,60.80,27.37,110.00,5.00,0.00,29.77,M,2.49,M,NSC,M,M,M,M,M,M,M,HZ,M,M,M,M,M,M,101.47,VIDP 070600Z 11005KT 4000 HZ NSC 38/16 Q1008 NOSIG,M
VIDP,2022-05-07 06:30,100.40,59.00,25.67,20.00,4.00,0.00,29.77,M,2.49,M,NSC,M,M,M,M,M,M,M,HZ,M,M,M,M,M,M,100.57,VIDP 070630Z 02004KT 4000 HZ NSC 38/15 Q1008 NOSIG,M
VIDP,2022-05-07 07:00,100.40,59.00,25.67,300.00,5.00,0.00,29.74,M,2.49,M,NSC,M,M,M,M,M,M,M,HZ,M,M,M,M,M,M,100.57,VIDP 070700Z 30005KT 4000 HZ NSC 38/15 Q1007 NOSIG,M
VIDP,2022-05-07 07:30,102.20,57.20,22.79,310.00,3.00,0.00,29.74,M,2.49,M,NSC,M,M,M,M,M,M,M,HZ,M,M,M,M,M,M,101.78,VIDP 070730Z 31003KT 4000 HZ NSC 39/14 Q1007 NOSIG,M
VIDP,2022-05-07 08:00,102.20,57.20,22.79,320.00,6.00,0.00,29.74,M,2.49,M,NSC,M,M,M,M,M,M,M,HZ,M,M,M,M,M,M,101.78,VIDP 070800Z 32006KT 4000 HZ NSC 39/14 Q1007 NOSIG,M
VIDP,2022-05-07 08:30,104.00,48.20,15.52,310.00,5.00,0.00,29.71,M,2.49,M,NSC,M,M,M,M,M,M,M,HZ,M,M,M,M,M,M,100.65,VIDP 070830Z 31005KT 4000 HZ NSC 40/09 Q1006 NOSIG,M
VIDP,2022-05-07 09:00,104.00,46.40,14.50,20.00,4.00,0.00,29.68,M,2.49,M,NSC,M,M,M,M,M,M,M,HZ,M,M,M,M,M,M,100.21,VIDP 070900Z 02004KT 4000 HZ NSC 40/08 Q1005 NOSIG,M
VIDP,2022-05-07 09:30,102.20,46.40,15.30,10.00,6.00,0.00,29.68,M,2.17,M,FEW,M,M,M,10000.00,M,M,M,HZ,M,M,M,M,M,M,98.43,VIDP 070930Z 01006KT 3500 HZ FEW100 39/08 Q1005 BECMG 3000 HZ,M
VIDP,2022-05-07 10:00,102.20,46.40,15.30,30.00,6.00,0.00,29.65,M,1.86,M,SCT,M,M,M,10000.00,M,M,M,HZ,M,M,M,M,M,M,98.43,VIDP 071000Z 03006KT 3000 HZ SCT100 39/08 Q1004 NOSIG,M
VIDP,2022-05-07 10:30,102.20,44.60,14.29,20.00,8.00,0.00,29.65,M,1.86,M,SCT,M,M,M,10000.00,M,M,M,HZ,M,M,M,M,M,M,98.07,VIDP 071030Z 02008KT 3000 HZ SCT100 39/07 Q1004 NOSIG,M
VIDP,2022-05-07 11:00,102.20,44.60,14.29,40.00,6.00,0.00,29.65,M,1.86,M,SCT,M,M,M,10000.00,M,M,M,HZ,M,M,M,M,M,M,98.07,VIDP 071100Z 04006KT 3000 HZ SCT100 39/07 Q1004 NOSIG,M
VIDP,2022-05-07 11:30,100.40,44.60,15.08,40.00,6.00,0.00,29.62,M,1.74,M,SCT,M,M,M,10000.00,M,M,M,HZ,M,M,M,M,M,M,96.31,VIDP 071130Z 04006KT 2800 HZ SCT100 38/07 Q1003 NOSIG,M
VIDP,2022-05-07 12:00,100.40,46.40,16.15,40.00,5.00,0.00,29.62,M,1.74,M,SCT,M,M,M,10000.00,M,M,M,HZ,M,M,M,M,M,M,96.63,VIDP 071200Z 04005KT 2800 HZ SCT100 38/08 Q1003 NOSIG,M
VIDP,2022-05-07 12:30,100.40,48.20,17.28,40.00,6.00,0.00,29.62,M,1.74,M,SCT,M,M,M,10000.00,M,M,M,HZ,M,M,M,M,M,M,97.00,VIDP 071230Z 04006KT 2800 HZ SCT100 38/09 Q1003 NOSIG,M
VIDP,2022-05-07 13:00,98.60,50.00,19.52,40.00,4.00,0.00,29.62,M,1.74,M,FEW,M,M,M,10000.00,M,M,M,HZ,M,M,M,M,M,M,95.56,VIDP 071300Z 04004KT 2800 HZ FEW100 37/10 Q1003 NOSIG,M
VIDP,2022-05-07 13:30,96.80,51.80,22.04,50.00,5.00,0.00,29.65,M,1.74,M,FEW,M,M,M,10000.00,M,M,M,HZ,M,M,M,M,M,M,94.12,VIDP 071330Z 05005KT 2800 HZ FEW100 36/11 Q1004 NOSIG,M
VIDP,2022-05-07 14:00,95.00,51.80,23.30,40.00,4.00,0.00,29.65,M,1.74,M,FEW,M,M,M,10000.00,M,M,M,HZ,M,M,M,M,M,M,92.26,VIDP 071400Z 04004KT 2800 HZ FEW100 35/11 Q1004 NOSIG,M
VIDP,2022-05-07 14:30,93.20,53.60,26.31,60.00,4.00,0.00,29.65,M,1.74,M,FEW,M,M,M,10000.00,M,M,M,HZ,M,M,M,M,M,M,90.86,VIDP 071430Z 06004KT 2800 HZ FEW100 34/12 Q1004 NOSIG,M
VIDP,2022-05-07 15:00,93.20,53.60,26.31,80.00,3.00,0.00,29.65,M,1.74,M,FEW,M,M,M,10000.00,M,M,M,HZ,M,M,M,M,M,M,90.86,VIDP 071500Z 08003KT 2800 HZ FEW100 34/12 Q1004 NOSIG,M
VIDP,2022-05-07 15:30,93.20,55.40,28.10,80.00,5.00,0.00,29.65,M,1.74,M,FEW,M,M,M,10000.00,M,M,M,HZ,M,M,M,M,M,M,91.35,VIDP 071530Z 08005KT 2800 HZ FEW100 34/13 Q1004 NOSIG,M
VIDP,2022-05-07 16:00,93.20,55.40,28.10,80.00,4.00,0.00,29.65,M,1.74,M,FEW,M,M,M,10000.00,M,M,M,HZ,M,M,M,M,M,M,91.35,VIDP 071600Z 08004KT 2800 HZ FEW100 34/13 Q1004 NOSIG,M
VIDP,2022-05-07 16:30,93.20,55.40,28.10,80.00,4.00,0.00,29.65,M,1.74,M,FEW,M,M,M,10000.00,M,M,M,HZ,M,M,M,M,M,M,91.35,VIDP 071630Z 08004KT 2800 HZ FEW100 34/13 Q1004 NOSIG,M
VIDP,2022-05-07 17:00,91.40,55.40,29.72,100.00,2.00,0.00,29.65,M,1.74,M,FEW,M,M,M,10000.00,M,M,M,HZ,M,M,M,M,M,M,89.53,VIDP 071700Z 10002KT 2800 HZ FEW100 33/13 Q1004 NOSIG,M
VIDP,2022-05-07 17:30,87.80,59.00,37.90,100.00,6.00,0.00,29.65,M,1.74,M,FEW,M,M,M,10000.00,M,M,M,HZ,M,M,M,M,M,M,87.12,VIDP 071730Z 10006KT 2800 HZ FEW100 31/15 Q1004 NOSIG,M
VIDP,2022-05-07 18:00,89.60,57.20,33.56,90.00,4.00,0.00,29.65,M,1.74,M,FEW,M,M,M,10000.00,M,M,M,HZ,M,M,M,M,M,M,88.28,VIDP 071800Z 09004KT 2800 HZ FEW100 32/14 Q1004 NOSIG,M
VIDP,2022-05-07 18:30,87.80,59.00,37.90,100.00,6.00,0.00,29.65,M,1.74,M,FEW,M,M,M,10000.00,M,M,M,HZ,M,M,M,M,M,M,87.12,VIDP 071830Z 10006KT 2800 HZ FEW100 31/15 Q1004 NOSIG,M
VIDP,2022-05-07 19:00,87.80,59.00,37.90,110.00,5.00,0.00,29.65,M,1.74,M,FEW,M,M,M,10000.00,M,M,M,HZ,M,M,M,M,M,M,87.12,VIDP 071900Z 11005KT 2800 HZ FEW100 31/15 Q1004 NOSIG,M
VIDP,2022-05-07 19:30,86.00,60.80,42.80,110.00,5.00,0.00,29.65,M,1.74,M,FEW,M,M,M,10000.00,M,M,M,HZ,M,M,M,M,M,M,86.05,VIDP 071930Z 11005KT 2800 HZ FEW100 30/16 Q1004 NOSIG,M
VIDP,2022-05-07 20:30,84.20,60.80,45.34,110.00,4.00,0.00,29.65,M,1.74,M,FEW,M,M,M,10000.00,M,M,M,HZ,M,M,M,M,M,M,84.43,VIDP 072030Z 11004KT 2800 HZ FEW100 29/16 Q1004 NOSIG,M
VIDP,2022-05-07 21:00,84.20,60.80,45.34,110.00,4.00,0.00,29.65,M,1.74,M,FEW,M,M,M,10000.00,M,M,M,HZ,M,M,M,M,M,M,84.43,VIDP 072100Z 11004KT 2800 HZ FEW100 29/16 Q1004 NOSIG,M
VIDP,2022-05-07 21:30,82.40,62.60,51.21,100.00,4.00,0.00,29.62,M,1.74,M,FEW,M,M,M,10000.00,M,M,M,HZ,M,M,M,M,M,M,83.41,VIDP 072130Z 10004KT 2800 HZ FEW100 28/17 Q1003 NOSIG,M
VIDP,2022-05-07 22:00,82.40,62.60,51.21,120.00,3.00,0.00,29.62,M,1.74,M,FEW,M,M,M,10000.00,M,M,M,HZ,M,M,M,M,M,M,83.41,VIDP 072200Z 12003KT 2800 HZ FEW100 28/17 Q1003 NOSIG,M
VIDP,2022-05-07 22:30,84.20,62.60,48.32,100.00,3.00,0.00,29.65,M,1.74,M,FEW,M,M,M,10000.00,M,M,M,HZ,M,M,M,M,M,M,85.03,VIDP 072230Z 10003KT 2800 HZ FEW100 29/17 Q1004 NOSIG,M
VIDP,2022-05-07 23:00,82.40,62.60,51.21,100.00,4.00,0.00,29.65,M,1.55,M,FEW,M,M,M,10000.00,M,M,M,DU,M,M,M,M,M,M,83.41,VIDP 072300Z 10004KT 2500 DU FEW100 28/17 Q1004 NOSIG,M
VIDP,2022-05-07 23:30,82.40,62.60,51.21,80.00,4.00,0.00,29.65,M,1.55,M,FEW,M,M,M,10000.00,M,M,M,DU,M,M,M,M,M,M,83.41,VIDP 072330Z 08004KT 2500 DU FEW100 28/17 Q1004 NOSIG,M
VIDP,2022-05-08 00:00,82.40,62.60,51.21,90.00,5.00,0.00,29.65,M,1.55,M,FEW,M,M,M,10000.00,M,M,M,DU,M,M,M,M,M,M,83.41,VIDP 080000Z 09005KT 2500 DU FEW100 28/17 Q1004 NOSIG,M
VIDP,2022-05-08 00:30,82.40,62.60,51.21,100.00,6.00,0.00,29.68,M,1.30,M,NSC,M,M,M,M,M,M,M,DU,M,M,M,M,M,M,83.41,VIDP 080030Z 10006KT 2100 DU NSC 28/17 Q1005 NOSIG,M
VIDP,2022-05-08 01:00,82.40,62.60,51.21,100.00,6.00,0.00,29.68,M,1.30,M,NSC,M,M,M,M,M,M,M,DU,M,M,M,M,M,M,83.41,VIDP 080100Z 10006KT 2100 DU NSC 28/17 Q1005 NOSIG,M
VIDP,2022-05-08 01:30,80.60,64.40,57.84,100.00,4.00,0.00,29.71,M,1.24,M,NSC,M,M,M,M,M,M,M,DU,M,M,M,M,M,M,82.27,VIDP 080130Z 10004KT 2000 DU NSC 27/18 Q1006 NOSIG,M
VIDP,2022-05-08 02:00,82.40,66.20,58.08,110.00,6.00,0.00,29.71,M,1.24,M,NSC,M,M,M,M,M,M,M,DU,M,M,M,M,M,M,84.63,VIDP 080200Z 11006KT 2000 DU NSC 28/19 Q1006 NOSIG,M
VIDP,2022-05-08 02:30,84.20,66.20,54.80,120.00,5.00,0.00,29.71,M,1.24,M,NSC,M,M,M,M,M,M,M,DU,M,M,M,M,M,M,86.50,VIDP 080230Z 12005KT 2000 DU NSC 29/19 Q1006 NOSIG,M
VIDP,2022-05-08 03:00,86.00,64.40,48.58,120.00,5.00,0.00,29.71,M,1.37,M,NSC,M,M,M,M,M,M,M,DU,M,M,M,M,M,M,87.49,VIDP 080300Z 12005KT 2200 DU NSC 30/18 Q1006 NOSIG,M
VIDP,2022-05-08 03:30,87.80,62.60,43.07,140.00,5.00,0.00,29.74,M,1.55,M,NSC,M,M,M,M,M,M,M,HZ,M,M,M,M,M,M,88.48,VIDP 080330Z 14005KT 2500 HZ NSC 31/17 Q1007 NOSIG,M
VIDP,2022-05-08 04:00,89.60,60.80,38.18,150.00,6.00,0.00,29.74,M,1.55,M,NSC,M,M,M,M,M,M,M,HZ,M,M,M,M,M,M,89.54,VIDP 080400Z 15006KT 2500 HZ NSC 32/16 Q1007 NOSIG,M
VIDP,2022-05-08 04:30,93.20,59.00,31.99,180.00,5.00,0.00,29.74,M,1.74,M,NSC,M,M,M,M,M,M,M,HZ,M,M,M,M,M,M,92.57,VIDP 080430Z 18005KT 2800 HZ NSC 34/15 Q1007 BECMG 3000 HZ,M
VIDP,2022-05-08 05:00,95.00,57.20,28.37,180.00,5.00,0.00,29.71,M,1.86,M,NSC,M,M,M,M,M,M,M,HZ,M,M,M,M,M,M,93.82,VIDP 080500Z 18005KT 3000 HZ NSC 35/14 Q1006 NOSIG,M
VIDP,2022-05-08 05:30,98.60,55.40,23.81,130.00,6.00,0.00,29.71,M,1.86,M,NSC,M,M,M,M,M,M,M,HZ,M,M,M,M,M,M,97.09,VIDP 080530Z 13006KT 3000 HZ NSC 37/13 Q1006 NOSIG,M
VIDP,2022-05-08 06:00,100.40,53.60,21.11,140.00,6.00,0.00,29.71,M,1.86,M,NSC,M,M,M,M,M,M,M,HZ,M,M,M,M,M,M,98.44,VIDP 080600Z 14006KT 3000 HZ NSC 38/12 Q1006 NOSIG,M
VIDP,2022-05-08 07:00,102.20,50.00,17.51,170.00,5.00,0.00,29.68,M,2.17,M,NSC,M,M,M,M,M,M,M,HZ,M,M,M,M,M,M,99.28,VIDP 080700Z 17005KT 3500 HZ NSC 39/10 Q1005 NOSIG,M
VIDP,2022-05-08 07:30,104.00,50.00,16.59,180.00,3.00,0.00,29.68,M,2.17,M,FEW,M,M,M,10000.00,M,M,M,HZ,M,M,M,M,M,M,101.14,VIDP 080730Z 18003KT 3500 HZ FEW100 40/10 Q1005 NOSIG,M
VIDP,2022-05-08 08:00,104.00,53.60,18.95,60.00,5.00,0.00,29.65,M,2.17,M,FEW,M,M,M,10000.00,M,M,M,HZ,M,M,M,M,M,M,102.31,VIDP 080800Z 06005KT 3500 HZ FEW100 40/12 Q1004 NOSIG,M
VIDP,2022-05-08 08:30,104.00,53.60,18.95,40.00,5.00,0.00,29.65,M,2.17,M,FEW,M,M,M,10000.00,M,M,M,HZ,M,M,M,M,M,M,102.31,VIDP 080830Z 04005KT 3500 HZ FEW100 40/12 Q1004 NOSIG,M
VIDP,2022-05-08 09:00,104.00,53.60,18.95,50.00,7.00,0.00,29.62,M,2.17,M,NSC,M,M,M,M,M,M,M,HZ,M,M,M,M,M,M,102.31,VIDP 080900Z 05007KT 3500 HZ NSC 40/12 Q1003 NOSIG,M
VIDP,2022-05-08 09:30,104.00,53.60,18.95,50.00,8.00,0.00,29.62,M,2.49,M,NSC,M,M,M,M,M,M,M,HZ,M,M,M,M,M,M,102.31,VIDP 080930Z 05008KT 4000 HZ NSC 40/12 Q1003 NOSIG,M
VIDP,2022-05-08 10:00,104.00,55.40,20.24,60.00,9.00,0.00,29.59,M,2.49,M,NSC,M,M,M,M,M,M,M,HZ,M,M,M,M,M,M,103.01,VIDP 081000Z 06009KT 4000 HZ NSC 40/13 Q1002 NOSIG,M
VIDP,2022-05-08 10:30,104.00,55.40,20.24,50.00,8.00,0.00,29.59,M,2.49,M,NSC,M,M,M,M,M,M,M,HZ,M,M,M,M,M,M,103.01,VIDP 081030Z 05008KT 4000 HZ NSC 40/13 Q1002 NOSIG,M
VIDP,2022-05-08 11:00,102.20,57.20,22.79,60.00,10.00,0.00,29.59,M,2.49,M,NSC,M,M,M,M,M,M,M,HZ,M,M,M,M,M,M,101.78,VIDP 081100Z 06010KT 4000 HZ NSC 39/14 Q1002 NOSIG,M
VIDP,2022-05-08 12:00,100.40,60.80,27.37,50.00,8.00,0.00,29.56,M,2.49,M,NSC,M,M,M,M,M,M,M,HZ,M,M,M,M,M,M,101.47,VIDP 081200Z 05008KT 4000 HZ NSC 38/16 Q1001 NOSIG,M
VIDP,2022-05-08 12:30,100.40,60.80,27.37,50.00,7.00,0.00,29.56,M,2.49,M,NSC,M,M,M,M,M,M,M,HZ,M,M,M,M,M,M,101.47,VIDP 081230Z 05007KT 4000 HZ NSC 38/16 Q1001 NOSIG,M
VIDP,2022-05-08 13:00,96.80,62.60,32.54,50.00,7.00,0.00,29.59,M,2.17,M,NSC,M,M,M,M,M,M,M,HZ,M,M,M,M,M,M,98.28,VIDP 081300Z 05007KT 3500 HZ NSC 36/17 Q1002 NOSIG,M
VIDP,2022-05-08 13:30,96.80,62.60,32.54,40.00,6.00,0.00,29.59,M,2.17,M,NSC,M,M,M,M,M,M,M,HZ,M,M,M,M,M,M,98.28,VIDP 081330Z 04006KT 3500 HZ NSC 36/17 Q1002 NOSIG,M
VIDP,2022-05-08 14:00,95.00,62.60,34.39,60.00,6.00,0.00,29.59,M,2.17,M,NSC,M,M,M,M,M,M,M,HZ,M,M,M,M,M,M,96.22,VIDP 081400Z 06006KT 3500 HZ NSC 35/17 Q1002 NOSIG,M
VIDP,2022-05-08 14:30,95.00,64.40,36.63,60.00,6.00,0.00,29.62,M,2.17,M,SCT,M,M,M,10000.00,M,M,M,HZ,M,M,M,M,M,M,97.26,VIDP 081430Z 06006KT 3500 HZ SCT100 35/18 Q1003 NOSIG,M
VIDP,2022-05-08 15:00,93.20,66.20,41.23,70.00,6.00,0.00,29.62,M,2.17,M,SCT,M,M,M,10000.00,M,M,M,HZ,M,M,M,M,M,M,96.35,VIDP 081500Z 07006KT 3500 HZ SCT100 34/19 Q1003 NOSIG,M
VIDP,2022-05-08 15:30,93.20,66.20,41.23,90.00,7.00,0.00,29.62,M,2.17,M,SCT,M,M,M,10000.00,M,M,M,HZ,M,M,M,M,M,M,96.35,VIDP 081530Z 09007KT 3500 HZ SCT100 34/19 Q1003 NOSIG,M
VIDP,2022-05-08 16:00,93.20,66.20,41.23,90.00,6.00,0.00,29.62,M,2.17,M,SCT,M,M,M,10000.00,M,M,M,HZ,M,M,M,M,M,M,96.35,VIDP 081600Z 09006KT 3500 HZ SCT100 34/19 Q1003 NOSIG,M
VIDP,2022-05-08 16:30,93.20,66.20,41.23,90.00,6.00,0.00,29.62,M,2.17,M,SCT,M,M,M,10000.00,M,M,M,HZ,M,M,M,M,M,M,96.35,VIDP 081630Z 09006KT 3500 HZ SCT100 34/19 Q1003 NOSIG,M
VIDP,2022-05-08 17:00,91.40,66.20,43.61,80.00,6.00,0.00,29.62,M,2.17,M,FEW,M,M,M,10000.00,M,M,M,HZ,M,M,M,M,M,M,94.29,VIDP 081700Z 08006KT 3500 HZ FEW100 33/19 Q1003 NOSIG,M
VIDP,2022-05-08 17:30,91.40,66.20,43.61,100.00,8.00,0.00,29.62,M,2.17,M,FEW,M,M,M,10000.00,M,M,M,HZ,M,M,M,M,M,M,94.29,VIDP 081730Z 10008KT 3500 HZ FEW100 33/19 Q1003 NOSIG,M
VIDP,2022-05-08 18:00,89.60,66.20,46.14,110.00,8.00,0.00,29.62,M,2.17,M,NSC,M,M,M,M,M,M,M,HZ,M,M,M,M,M,M,92.27,VIDP 081800Z 11008KT 3500 HZ NSC 32/19 Q1003 NOSIG,M
VIDP,2022-05-08 18:30,89.60,66.20,46.14,110.00,8.00,0.00,29.62,M,2.17,M,NSC,M,M,M,M,M,M,M,HZ,M,M,M,M,M,M,92.27,VIDP 081830Z 11008KT 3500 HZ NSC 32/19 Q1003 NOSIG,M
VIDP,2022-05-08 19:00,87.80,66.20,48.84,110.00,8.00,0.00,29.62,M,2.17,M,NSC,M,M,M,M,M,M,M,HZ,M,M,M,M,M,M,90.31,VIDP 081900Z 11008KT 3500 HZ NSC 31/19 Q1003 NOSIG,M
VIDP,2022-05-08 19:30,87.80,66.20,48.84,100.00,8.00,0.00,29.62,M,2.17,M,NSC,M,M,M,M,M,M,M,HZ,M,M,M,M,M,M,90.31,VIDP 081930Z 10008KT 3500 HZ NSC 31/19 Q1003 NOSIG,M
VIDP,2022-05-08 20:00,87.80,66.20,48.84,110.00,7.00,0.00,29.62,M,2.17,M,NSC,M,M,M,M,M,M,M,HZ,M,M,M,M,M,M,90.31,VIDP 082000Z 11007KT 3500 HZ NSC 31/19 Q1003 NOSIG,M
VIDP,2022-05-08 20:30,87.80,66.20,48.84,100.00,6.00,0.00,29.62,M,2.17,M,NSC,M,M,M,M,M,M,M,HZ,M,M,M,M,M,M,90.31,VIDP 082030Z 10006KT 3500 HZ NSC 31/19 Q1003 NOSIG,M
VIDP,2022-05-08 21:00,86.00,66.20,51.72,100.00,6.00,0.00,29.62,M,2.17,M,NSC,M,M,M,M,M,M,M,HZ,M,M,M,M,M,M,88.39,VIDP 082100Z 10006KT 3500 HZ NSC 30/19 Q1003 NOSIG,M
VIDP,2022-05-08 21:30,86.00,68.00,55.04,110.00,7.00,0.00,29.62,M,2.17,M,NSC,M,M,M,M,M,M,M,HZ,M,M,M,M,M,M,89.41,VIDP 082130Z 11007KT 3500 HZ NSC 30/20 Q1003 NOSIG,M
VIDP,2022-05-08 22:00,86.00,68.00,55.04,110.00,7.00,0.00,29.62,M,2.17,M,NSC,M,M,M,M,M,M,M,HZ,M,M,M,M,M,M,89.41,VIDP 082200Z 11007KT 3500 HZ NSC 30/20 Q1003 NOSIG,M
VIDP,2022-05-08 22:30,84.20,68.00,58.32,120.00,6.00,0.00,29.62,M,2.17,M,NSC,M,M,M,M,M,M,M,HZ,M,M,M,M,M,M,87.40,VIDP 082230Z 12006KT 3500 HZ NSC 29/20 Q1003 NOSIG,M
VIDP,2022-05-08 23:00,84.20,68.00,58.32,120.00,7.00,0.00,29.62,M,1.99,M,NSC,M,M,M,M,M,M,M,HZ,M,M,M,M,M,M,87.40,VIDP 082300Z 12007KT 3200 HZ NSC 29/20 Q1003 NOSIG,M
VIDP,2022-05-08 23:30,84.20,68.00,58.32,120.00,6.00,0.00,29.65,M,1.99,M,NSC,M,M,M,M,M,M,M,HZ,M,M,M,M,M,M,87.40,VIDP 082330Z 12006KT 3200 HZ NSC 29/20 Q1004 BECMG 3000 HZ,M
VIDP,2022-05-09 00:00,84.20,69.80,62.03,130.00,5.00,0.00,29.65,M,1.86,M,NSC,M,M,M,M,M,M,M,HZ,M,M,M,M,M,M,88.43,VIDP 090000Z 13005KT 3000 HZ NSC 29/21 Q1004 NOSIG,M
VIDP,2022-05-09 00:30,84.20,69.80,62.03,100.00,6.00,0.00,29.68,M,1.74,M,NSC,M,M,M,M,M,M,M,HZ,M,M,M,M,M,M,88.43,VIDP 090030Z 10006KT 2800 HZ NSC 29/21 Q1005 NOSIG,M
VIDP,2022-05-09 01:00,84.20,71.60,65.95,100.00,6.00,0.00,29.68,M,1.74,M,NSC,M,M,M,M,M,M,M,HZ,M,M,M,M,M,M,89.60,VIDP 090100Z 10006KT 2800 HZ NSC 29/22 Q1005 NOSIG,M
VIDP,2022-05-09 01:30,84.20,71.60,65.95,100.00,6.00,0.00,29.68,M,1.55,M,NSC,M,M,M,M,M,M,M,HZ,M,M,M,M,M,M,89.60,VIDP 090130Z 10006KT 2500 HZ NSC 29/22 Q1005 NOSIG,M
VIDP,2022-05-09 02:00,86.00,71.60,62.25,110.00,7.00,0.00,29.71,M,1.55,M,NSC,M,M,M,M,M,M,M,HZ,M,M,M,M,M,M,91.92,VIDP 090200Z 11007KT 2500 HZ NSC 30/22 Q1006 NOSIG,M
VIDP,2022-05-09 02:30,87.80,69.80,55.29,120.00,6.00,0.00,29.71,M,1.55,M,NSC,M,M,M,M,M,M,M,HZ,M,M,M,M,M,M,92.71,VIDP 090230Z 12006KT 2500 HZ NSC 31/21 Q1006 NOSIG,M
VIDP,2022-05-09 03:00,89.60,69.80,52.23,110.00,9.00,0.00,29.71,M,1.55,M,NSC,M,M,M,M,M,M,M,HZ,M,M,M,M,M,M,94.85,VIDP 090300Z 11009KT 2500 HZ NSC 32/21 Q1006 NOSIG,M
VIDP,2022-05-09 03:30,89.60,68.00,49.10,120.00,10.00,0.00,29.71,M,1.74,M,NSC,M,M,M,M,M,M,M,HZ,M,M,M,M,M,M,93.47,VIDP 090330Z 12010KT 2800 HZ NSC 32/20 Q1006 BECMG 3000 HZ,M
VIDP,2022-05-09 04:00,91.40,66.20,43.61,100.00,10.00,0.00,29.71,M,1.86,M,NSC,M,M,M,M,M,M,M,HZ,M,M,M,M,M,M,94.29,VIDP 090400Z 10010KT 3000 HZ NSC 33/19 Q1006 NOSIG,M
VIDP,2022-05-09 04:30,93.20,66.20,41.23,110.00,9.00,0.00,29.71,M,1.86,M,NSC,M,M,M,M,M,M,M,HZ,M,M,M,M,M,M,96.35,VIDP 090430Z 11009KT 3000 HZ NSC 34/19 Q1006 NOSIG,M
VIDP,2022-05-09 05:00,95.00,66.20,39.00,100.00,10.00,0.00,29.71,M,2.17,M,NSC,M,M,M,M,M,M,M,HZ,M,M,M,M,M,M,98.46,VIDP 090500Z 10010KT 3500 HZ NSC 35/19 Q1006 NOSIG,M
VIDP,2022-05-09 05:30,95.00,66.20,39.00,110.00,8.00,0.00,29.71,M,2.17,M,NSC,M,M,M,M,M,M,M,HZ,M,M,M,M,M,M,98.46,VIDP 090530Z 11008KT 3500 HZ NSC 35/19 Q1006 NOSIG,M
VIDP,2022-05-09 06:00,96.80,64.40,34.66,100.00,10.00,0.00,29.68,M,2.17,M,NSC,M,M,M,M,M,M,M,HZ,M,M,M,M,M,M,99.37,VIDP 090600Z 10010KT 3500 HZ NSC 36/18 Q1005 NOSIG,M
VIDP,2022-05-09 06:30,98.60,60.80,28.90,110.00,10.00,0.00,29.68,M,2.17,M,NSC,M,M,M,M,M,M,M,HZ,M,M,M,M,M,M,99.39,VIDP 090630Z 11010KT 3500 HZ NSC 37/16 Q1005 NOSIG,M
VIDP,2022-05-09 07:00,98.60,62.60,30.80,100.00,11.00,0.00,29.68,M,2.17,M,NSC,M,M,M,M,M,M,M,HZ,M,M,M,M,M,M,100.38,VIDP 090700Z 10011KT 3500 HZ NSC 37/17 Q1005 NOSIG,M
VIDP,2022-05-09 07:30,100.40,62.60,29.17,90.00,11.00,0.00,29.65,M,2.17,M,NSC,M,M,M,M,M,M,M,HZ,M,M,M,M,M,M,102.50,VIDP 090730Z 09011KT 3500 HZ NSC 38/17 Q1004 NOSIG,M
VIDP,2022-05-09 08:00,102.20,62.60,27.63,80.00,9.00,0.00,29.65,M,2.49,M,NSC,M,M,M,M,M,M,M,HZ,M,M,M,M,M,M,104.63,VIDP 090800Z 08009KT 4000 HZ NSC 39/17 Q1004 NOSIG,M
VIDP,2022-05-09 08:30,102.20,62.60,27.63,90.00,10.00,0.00,29.62,M,2.49,M,NSC,M,M,M,M,M,M,M,HZ,M,M,M,M,M,M,104.63,VIDP 090830Z 09010KT 4000 HZ NSC 39/17 Q1003 NOSIG,M
VIDP,2022-05-09 09:00,102.20,60.80,25.93,90.00,8.00,0.00,29.62,M,2.49,M,NSC,M,M,M,M,M,M,M,HZ,M,M,M,M,M,M,103.57,VIDP 090900Z 09008KT 4000 HZ NSC 39/16 Q1003 NOSIG,M
VIDP,2022-05-09 09:30,102.20,62.60,27.63,80.00,8.00,0.00,29.59,M,2.49,18.00,NSC,M,M,M,M,M,M,M,HZ,M,M,M,M,M,M,104.63,VIDP 090930Z 08008G18KT 4000 HZ NSC 39/17 Q1002 NOSIG,M
VIDP,2022-05-09 10:00,102.20,60.80,25.93,80.00,8.00,0.00,29.59,M,2.49,M,NSC,M,M,M,M,M,M,M,HZ,M,M,M,M,M,M,103.57,VIDP 091000Z 08008KT 4000 HZ NSC 39/16 Q1002 NOSIG,M
VIDP,2022-05-09 10:30,102.20,62.60,27.63,80.00,9.00,0.00,29.56,M,2.49,M,NSC,M,M,M,M,M,M,M,HZ,M,M,M,M,M,M,104.63,VIDP 091030Z 08009KT 4000 HZ NSC 39/17 Q1001 NOSIG,M
VIDP,2022-05-09 11:00,102.20,62.60,27.63,70.00,8.00,0.00,29.56,M,2.49,M,NSC,M,M,M,M,M,M,M,HZ,M,M,M,M,M,M,104.63,VIDP 091100Z 07008KT 4000 HZ NSC 39/17 Q1001 NOSIG,M
VIDP,2022-05-09 11:30,100.40,62.60,29.17,90.00,8.00,0.00,29.56,M,2.49,M,NSC,M,M,M,M,M,M,M,HZ,M,M,M,M,M,M,102.50,VIDP 091130Z 09008KT 4000 HZ NSC 38/17 Q1001 NOSIG,M
VIDP,2022-05-09 12:00,100.40,60.80,27.37,80.00,8.00,0.00,29.56,M,2.49,M,NSC,M,M,M,M,M,M,M,HZ,M,M,M,M,M,M,101.47,VIDP 091200Z 08008KT 4000 HZ NSC 38/16 Q1001 NOSIG,M
VIDP,2022-05-09 12:30,100.40,62.60,29.17,100.00,8.00,0.00,29.56,M,2.49,M,NSC,M,M,M,M,M,M,M,HZ,M,M,M,M,M,M,102.50,VIDP 091230Z 10008KT 4000 HZ NSC 38/17 Q1001 NOSIG,M
VIDP,2022-05-09 13:00,98.60,62.60,30.80,90.00,7.00,0.00,29.56,M,2.49,M,NSC,M,M,M,M,M,M,M,HZ,M,M,M,M,M,M,100.38,VIDP 091300Z 09007KT 4000 HZ NSC 37/17 Q1001 NOSIG,M
VIDP,2022-05-09 13:30,98.60,62.60,30.80,90.00,6.00,0.00,29.56,M,2.49,M,NSC,M,M,M,M,M,M,M,HZ,M,M,M,M,M,M,100.38,VIDP 091330Z 09006KT 4000 HZ NSC 37/17 Q1001 NOSIG,M
VIDP,2022-05-09 14:00,96.80,62.60,32.54,90.00,6.00,0.00,29.59,M,2.49,M,NSC,M,M,M,M,M,M,M,HZ,M,M,M,M,M,M,98.28,VIDP 091400Z 09006KT 4000 HZ NSC 36/17 Q1002 NOSIG,M
VIDP,2022-05-09 14:30,95.00,64.40,36.63,90.00,8.00,0.00,29.59,M,2.49,M,NSC,M,M,M,M,M,M,M,HZ,M,M,M,M,M,M,97.26,VIDP 091430Z 09008KT 4000 HZ NSC 35/18 Q1002 NOSIG,M
VIDP,2022-05-09 15:00,95.00,64.40,36.63,80.00,8.00,0.00,29.59,M,2.49,M,NSC,M,M,M,M,M,M,M,HZ,M,M,M,M,M,M,97.26,VIDP 091500Z 08008KT 4000 HZ NSC 35/18 Q1002 NOSIG,M
VIDP,2022-05-09 15:30,95.00,64.40,36.63,90.00,8.00,0.00,29.62,M,2.49,M,NSC,M,M,M,M,M,M,M,HZ,M,M,M,M,M,M,97.26,VIDP 091530Z 09008KT 4000 HZ NSC 35/18 Q1003 NOSIG,M
VIDP,2022-05-09 16:00,93.20,64.40,38.73,90.00,9.00,0.00,29.62,M,2.49,M,NSC,M,M,M,M,M,M,M,HZ,M,M,M,M,M,M,95.20,VIDP 091600Z 09009KT 4000 HZ NSC 34/18 Q1003 NOSIG,M
VIDP,2022-05-09 16:30,91.40,66.20,43.61,100.00,8.00,0.00,29.62,M,2.49,M,NSC,M,M,M,M,M,M,M,HZ,M,M,M,M,M,M,94.29,VIDP 091630Z 10008KT 4000 HZ NSC 33/19 Q1003 NOSIG,M
VIDP,2022-05-09 17:00,91.40,66.20,43.61,90.00,7.00,0.00,29.65,M,2.49,M,NSC,M,M,M,M,M,M,M,HZ,M,M,M,M,M,M,94.29,VIDP 091700Z 09007KT 4000 HZ NSC 33/19 Q1004 NOSIG,M
VIDP,2022-05-09 17:30,91.40,66.20,43.61,100.00,7.00,0.00,29.65,M,2.17,M,NSC,M,M,M,M,M,M,M,HZ,M,M,M,M,M,M,94.29,VIDP 091730Z 10007KT 3500 HZ NSC 33/19 Q1004 NOSIG,M
VIDP,2022-05-09 18:00,91.40,66.20,43.61,100.00,6.00,0.00,29.65,M,2.17,M,NSC,M,M,M,M,M,M,M,HZ,M,M,M,M,M,M,94.29,VIDP 091800Z 10006KT 3500 HZ NSC 33/19 Q1004 NOSIG,M
VIDP,2022-05-09 18:30,91.40,66.20,43.61,120.00,8.00,0.00,29.65,M,2.17,M,NSC,M,M,M,M,M,M,M,HZ,M,M,M,M,M,M,94.29,VIDP 091830Z 12008KT 3500 HZ NSC 33/19 Q1004 NOSIG,M
VIDP,2022-05-09 19:00,89.60,68.00,49.10,100.00,7.00,0.00,29.65,M,2.17,M,NSC,M,M,M,M,M,M,M,HZ,M,M,M,M,M,M,93.47,VIDP 091900Z 10007KT 3500 HZ NSC 32/20 Q1004 NOSIG,M
VIDP,2022-05-09 19:30,89.60,68.00,49.10,100.00,7.00,0.00,29.65,M,2.17,M,NSC,M,M,M,M,M,M,M,HZ,M,M,M,M,M,M,93.47,VIDP 091930Z 10007KT 3500 HZ NSC 32/20 Q1004 NOSIG,M
VIDP,2022-05-09 20:00,87.80,68.00,51.98,100.00,6.00,0.00,29.65,M,2.17,M,NSC,M,M,M,M,M,M,M,HZ,M,M,M,M,M,M,91.43,VIDP 092000Z 10006KT 3500 HZ NSC 31/20 Q1004 NOSIG,M
VIDP,2022-05-09 20:30,87.80,68.00,51.98,110.00,6.00,0.00,29.65,M,2.17,M,NSC,M,M,M,M,M,M,M,HZ,M,M,M,M,M,M,91.43,VIDP 092030Z 11006KT 3500 HZ NSC 31/20 Q1004 NOSIG,M
VIDP,2022-05-09 21:00,86.00,68.00,55.04,110.00,6.00,0.00,29.65,M,1.99,M,NSC,M,M,M,M,M,M,M,HZ,M,M,M,M,M,M,89.41,VIDP 092100Z 11006KT 3200 HZ NSC 30/20 Q1004 NOSIG,M
VIDP,2022-05-09 21:30,86.00,68.00,55.04,90.00,7.00,0.00,29.62,M,1.99,M,NSC,M,M,M,M,M,M,M,HZ,M,M,M,M,M,M,89.41,VIDP 092130Z 09007KT 3200 HZ NSC 30/20 Q1003 NOSIG,M
VIDP,2022-05-09 22:00,86.00,68.00,55.04,100.00,8.00,0.00,29.65,M,1.99,M,NSC,M,M,M,M,M,M,M,HZ,M,M,M,M,M,M,89.41,VIDP 092200Z 10008KT 3200 HZ NSC 30/20 Q1004 BECMG 3000 HZ,M
VIDP,2022-05-09 22:30,86.00,68.00,55.04,90.00,6.00,0.00,29.65,M,1.86,M,NSC,M,M,M,M,M,M,M,HZ,M,M,M,M,M,M,89.41,VIDP 092230Z 09006KT 3000 HZ NSC 30/20 Q1004 NOSIG,M
VIDP,2022-05-09 23:00,86.00,66.20,51.72,100.00,6.00,0.00,29.65,M,1.86,M,NSC,M,M,M,M,M,M,M,HZ,M,M,M,M,M,M,88.39,VIDP 092300Z 10006KT 3000 HZ NSC 30/19 Q1004 NOSIG,M
VIDP,2022-05-09 23:30,86.00,66.20,51.72,110.00,6.00,0.00,29.65,M,1.86,M,NSC,M,M,M,M,M,M,M,HZ,M,M,M,M,M,M,88.39,VIDP 092330Z 11006KT 3000 HZ NSC 30/19 Q1004 NOSIG,M
VIDP,2022-05-10 00:00,86.00,66.20,51.72,110.00,5.00,0.00,29.65,M,1.86,M,NSC,M,M,M,M,M,M,M,HZ,M,M,M,M,M,M,88.39,VIDP 100000Z 11005KT 3000 HZ NSC 30/19 Q1004 NOSIG,M
VIDP,2022-05-10 00:30,86.00,68.00,55.04,100.00,6.00,0.00,29.68,M,1.86,M,NSC,M,M,M,M,M,M,M,HZ,M,M,M,M,M,M,89.41,VIDP 100030Z 10006KT 3000 HZ NSC 30/20 Q1005 NOSIG,M
VIDP,2022-05-10 01:00,86.00,68.00,55.04,100.00,6.00,0.00,29.71,M,1.86,M,NSC,M,M,M,M,M,M,M,HZ,M,M,M,M,M,M,89.41,VIDP 100100Z 10006KT 3000 HZ NSC 30/20 Q1006 NOSIG,M
VIDP,2022-05-10 01:30,86.00,68.00,55.04,100.00,6.00,0.00,29.71,M,1.55,M,NSC,M,M,M,M,M,M,M,DU,M,M,M,M,M,M,89.41,VIDP 100130Z 10006KT 2500 DU NSC 30/20 Q1006 NOSIG,M
VIDP,2022-05-10 02:00,87.80,68.00,51.98,90.00,9.00,0.00,29.71,M,1.55,M,NSC,M,M,M,M,M,M,M,DU,M,M,M,M,M,M,91.43,VIDP 100200Z 09009KT 2500 DU NSC 31/20 Q1006 NOSIG,M
VIDP,2022-05-10 02:30,87.80,68.00,51.98,110.00,12.00,0.00,29.74,M,1.55,M,NSC,M,M,M,M,M,M,M,DU,M,M,M,M,M,M,91.43,VIDP 100230Z 11012KT 2500 DU NSC 31/20 Q1007 NOSIG,M
VIDP,2022-05-10 03:00,89.60,66.20,46.14,100.00,10.00,0.00,29.74,M,1.55,M,NSC,M,M,M,M,M,M,M,DU,M,M,M,M,M,M,92.27,VIDP 100300Z 10010KT 2500 DU NSC 32/19 Q1007 NOSIG,M
VIDP,2022-05-10 03:30,89.60,68.00,49.10,100.00,10.00,0.00,29.74,M,1.55,M,NSC,M,M,M,M,M,M,M,DU,M,M,M,M,M,M,93.47,VIDP 100330Z 10010KT 2500 DU NSC 32/20 Q1007 NOSIG,M
VIDP,2022-05-10 04:00,91.40,68.00,46.41,110.00,12.00,0.00,29.71,M,1.55,M,NSC,M,M,M,M,M,M,M,DU,M,M,M,M,M,M,95.55,VIDP 100400Z 11012KT 2500 DU NSC 33/20 Q1006 NOSIG,M
VIDP,2022-05-10 04:30,93.20,68.00,43.88,110.00,10.00,0.00,29.71,M,1.74,M,NSC,M,M,M,M,M,M,M,DU,M,M,M,M,M,M,97.67,VIDP 100430Z 11010KT 2800 DU NSC 34/20 Q1006 BECMG 3000 HZ,M
VIDP,2022-05-10 05:00,93.20,66.20,41.23,120.00,10.00,0.00,29.71,M,1.86,M,NSC,M,M,M,M,M,M,M,HZ,M,M,M,M,M,M,96.35,VIDP 100500Z 12010KT 3000 HZ NSC 34/19 Q1006 NOSIG,M
VIDP,2022-05-10 05:30,95.00,68.00,41.50,110.00,10.00,0.00,29.71,M,2.17,M,NSC,M,M,M,M,M,M,M,HZ,M,M,M,M,M,M,99.82,VIDP 100530Z 11010KT 3500 HZ NSC 35/20 Q1006 NOSIG,M
VIDP,2022-05-10 06:00,96.80,66.20,36.90,120.00,8.00,0.00,29.71,M,1.86,M,NSC,M,M,M,M,M,M,M,HZ,M,M,M,M,M,M,100.60,VIDP 100600Z 12008KT 3000 HZ NSC 36/19 Q1006 NOSIG,M
VIDP,2022-05-10 06:30,96.80,66.20,36.90,110.00,10.00,0.00,29.68,M,2.49,M,NSC,M,M,M,M,M,M,M,HZ,M,M,M,M,M,M,100.60,VIDP 100630Z 11010KT 4000 HZ NSC 36/19 Q1005 NOSIG,M
VIDP,2022-05-10 07:00,98.60,64.40,32.81,110.00,9.00,0.00,29.68,M,2.49,M,NSC,M,M,M,M,M,M,M,HZ,M,M,M,M,M,M,101.50,VIDP 100700Z 11009KT 4000 HZ NSC 37/18 Q1005 NOSIG,M
VIDP,2022-05-10 07:30,98.60,64.40,32.81,110.00,8.00,0.00,29.68,M,2.49,M,NSC,M,M,M,M,M,M,M,HZ,M,M,M,M,M,M,101.50,VIDP 100730Z 11008KT 4000 HZ NSC 37/18 Q1005 NOSIG,M
VIDP,2022-05-10 08:00,100.40,64.40,31.07,100.00,8.00,0.00,29.68,M,2.49,M,NSC,M,M,M,M,M,M,M,HZ,M,M,M,M,M,M,103.66,VIDP 100800Z 10008KT 4000 HZ NSC 38/18 Q1005 NOSIG,M
VIDP,2022-05-10 08:30,100.40,64.40,31.07,130.00,8.00,0.00,29.65,M,2.49,M,NSC,M,M,M,M,M,M,M,HZ,M,M,M,M,M,M,103.66,VIDP 100830Z 13008KT 4000 HZ NSC 38/18 Q1004 NOSIG,M
VIDP,2022-05-10 09:00,100.40,64.40,31.07,130.00,6.00,0.00,29.62,M,2.49,M,NSC,M,M,M,M,M,M,M,HZ,M,M,M,M,M,M,103.66,VIDP 100900Z 13006KT 4000 HZ NSC 38/18 Q1003 NOSIG,M
VIDP,2022-05-10 09:30,100.40,66.20,33.08,100.00,7.00,0.00,29.62,M,2.49,M,NSC,M,M,M,M,M,M,M,HZ,M,M,M,M,M,M,104.98,VIDP 100930Z 10007KT 4000 HZ NSC 38/19 Q1003 NOSIG,M
VIDP,2022-05-10 10:00,100.40,66.20,33.08,110.00,6.00,0.00,29.59,M,2.49,M,NSC,M,M,M,M,M,M,M,HZ,M,M,M,M,M,M,104.98,VIDP 101000Z 11006KT 4000 HZ NSC 38/19 Q1002 NOSIG,M
VIDP,2022-05-10 10:30,100.40,64.40,31.07,110.00,7.00,0.00,29.59,M,2.49,M,NSC,M,M,M,M,M,M,M,HZ,M,M,M,M,M,M,103.66,VIDP 101030Z 11007KT 4000 HZ NSC 38/18 Q1002 NOSIG,M
VIDP,2022-05-10 11:00,98.60,64.40,32.81,120.00,6.00,0.00,29.56,M,2.49,M,NSC,M,M,M,M,M,M,M,HZ,M,M,M,M,M,M,101.50,VIDP 101100Z 12006KT 4000 HZ NSC 37/18 Q1001 NOSIG,M
VIDP,2022-05-10 11:30,98.60,64.40,32.81,120.00,6.00,0.00,29.56,M,2.49,M,NSC,M,M,M,M,M,M,M,HZ,M,M,M,M,M,M,101.50,VIDP 101130Z 12006KT 4000 HZ NSC 37/18 Q1001 NOSIG,M
VIDP,2022-05-10 12:00,98.60,64.40,32.81,110.00,7.00,0.00,29.56,M,2.49,M,NSC,M,M,M,M,M,M,M,HZ,M,M,M,M,M,M,101.50,VIDP 101200Z 11007KT 4000 HZ NSC 37/18 Q1001 NOSIG,M
VIDP,2022-05-10 12:30,98.60,64.40,32.81,100.00,7.00,0.00,29.56,M,2.49,M,FEW,M,M,M,10000.00,M,M,M,HZ,M,M,M,M,M,M,101.50,VIDP 101230Z 10007KT 4000 HZ FEW100 37/18 Q1001 NOSIG,M
VIDP,2022-05-10 13:00,98.60,64.40,32.81,90.00,7.00,0.00,29.56,M,2.49,M,FEW,SCT,M,M,3500.00,10000.00,M,M,HZ,M,M,M,M,M,M,101.50,VIDP 101300Z 09007KT 4000 HZ FEW035 SCT100 37/18 Q1001 NOSIG,M
VIDP,2022-05-10 13:30,96.80,64.40,34.66,100.00,8.00,0.00,29.59,M,2.49,M,FEW,SCT,M,M,3500.00,10000.00,M,M,HZ,M,M,M,M,M,M,99.37,VIDP 101330Z 10008KT 4000 HZ FEW035 SCT100 36/18 Q1002 NOSIG,M
VIDP,2022-05-10 14:00,95.00,64.40,36.63,90.00,8.00,0.00,29.59,M,2.49,M,FEW,SCT,M,M,3500.00,10000.00,M,M,HZ,M,M,M,M,M,M,97.26,VIDP 101400Z 09008KT 4000 HZ FEW035 SCT100 35/18 Q1002 NOSIG,M
VIDP,2022-05-10 14:30,95.00,64.40,36.63,90.00,8.00,0.00,29.59,M,2.17,M,SCT,M,M,M,10000.00,M,M,M,HZ,M,M,M,M,M,M,97.26,VIDP 101430Z 09008KT 3500 HZ SCT100 35/18 Q1002 NOSIG,M
VIDP,2022-05-10 15:00,93.20,64.40,38.73,90.00,8.00,0.00,29.62,M,2.17,M,SCT,M,M,M,10000.00,M,M,M,HZ,M,M,M,M,M,M,95.20,VIDP 101500Z 09008KT 3500 HZ SCT100 34/18 Q1003 NOSIG,M
VIDP,2022-05-10 15:30,93.20,64.40,38.73,100.00,6.00,0.00,29.62,M,2.17,M,FEW,M,M,M,10000.00,M,M,M,HZ,M,M,M,M,M,M,95.20,VIDP 101530Z 10006KT 3500 HZ FEW100 34/18 Q1003 NOSIG,M
VIDP,2022-05-10 16:00,93.20,66.20,41.23,90.00,6.00,0.00,29.62,M,2.17,M,FEW,M,M,M,10000.00,M,M,M,HZ,M,M,M,M,M,M,96.35,VIDP 101600Z 09006KT 3500 HZ FEW100 34/19 Q1003 NOSIG,M
VIDP,2022-05-10 16:30,93.20,66.20,41.23,80.00,5.00,0.00,29.62,M,2.17,M,FEW,M,M,M,10000.00,M,M,M,HZ,M,M,M,M,M,M,96.35,VIDP 101630Z 08005KT 3500 HZ FEW100 34/19 Q1003 NOSIG,M
VIDP,2022-05-10 17:00,91.40,64.40,40.96,90.00,6.00,0.00,29.65,M,2.17,M,NSC,M,M,M,M,M,M,M,HZ,M,M,M,M,M,M,93.19,VIDP 101700Z 09006KT 3500 HZ NSC 33/18 Q1004 NOSIG,M
VIDP,2022-05-10 17:30,89.60,64.40,43.34,80.00,5.00,0.00,29.65,M,2.17,M,NSC,M,M,M,M,M,M,M,HZ,M,M,M,M,M,M,91.23,VIDP 101730Z 08005KT 3500 HZ NSC 32/18 Q1004 NOSIG,M
VIDP,2022-05-10 18:00,89.60,64.40,43.34,90.00,5.00,0.00,29.65,M,2.17,M,NSC,M,M,M,M,M,M,M,HZ,M,M,M,M,M,M,91.23,VIDP 101800Z 09005KT 3500 HZ NSC 32/18 Q1004 NOSIG,M
VIDP,2022-05-10 18:30,89.60,64.40,43.34,80.00,5.00,0.00,29.65,M,2.17,M,NSC,M,M,M,M,M,M,M,HZ,M,M,M,M,M,M,91.23,VIDP 101830Z 08005KT 3500 HZ NSC 32/18 Q1004 NOSIG,M
VIDP,2022-05-10 19:00,89.60,64.40,43.34,90.00,5.00,0.00,29.62,M,2.17,M,NSC,M,M,M,M,M,M,M,HZ,M,M,M,M,M,M,91.23,VIDP 101900Z 09005KT 3500 HZ NSC 32/18 Q1003 NOSIG,M
VIDP,2022-05-10 19:30,89.60,64.40,43.34,90.00,6.00,0.00,29.62,M,2.17,M,NSC,M,M,M,M,M,M,M,HZ,M,M,M,M,M,M,91.23,VIDP 101930Z 09006KT 3500 HZ NSC 32/18 Q1003 NOSIG,M
VIDP,2022-05-10 20:00,87.80,64.40,45.88,90.00,7.00,0.00,29.62,M,2.17,M,NSC,M,M,M,M,M,M,M,HZ,M,M,M,M,M,M,89.33,VIDP 102000Z 09007KT 3500 HZ NSC 31/18 Q1003 NOSIG,M
VIDP,2022-05-10 20:30,87.80,62.60,43.07,80.00,5.00,0.00,29.62,M,1.99,M,NSC,M,M,M,M,M,M,M,HZ,M,M,M,M,M,M,88.48,VIDP 102030Z 08005KT 3200 HZ NSC 31/17 Q1003 BECMG 3000 HZ,M
VIDP,2022-05-10 21:00,87.80,62.60,43.07,90.00,6.00,0.00,29.59,M,1.86,M,NSC,M,M,M,M,M,M,M,HZ,M,M,M,M,M,M,88.48,VIDP 102100Z 09006KT 3000 HZ NSC 31/17 Q1002 NOSIG,M
VIDP,2022-05-10 21:30,87.80,62.60,43.07,100.00,6.00,0.00,29.59,M,1.86,M,NSC,M,M,M,M,M,M,M,HZ,M,M,M,M,M,M,88.48,VIDP 102130Z 10006KT 3000 HZ NSC 31/17 Q1002 NOSIG,M
VIDP,2022-05-10 22:00,87.80,62.60,43.07,110.00,6.00,0.00,29.59,M,1.86,M,NSC,M,M,M,M,M,M,M,HZ,M,M,M,M,M,M,88.48,VIDP 102200Z 11006KT 3000 HZ NSC 31/17 Q1002 NOSIG,M
VIDP,2022-05-10 22:30,86.00,64.40,48.58,100.00,6.00,0.00,29.59,M,1.86,M,NSC,M,M,M,M,M,M,M,HZ,M,M,M,M,M,M,87.49,VIDP 102230Z 10006KT 3000 HZ NSC 30/18 Q1002 NOSIG,M
VIDP,2022-05-10 23:00,86.00,64.40,48.58,100.00,5.00,0.00,29.62,M,1.86,M,NSC,M,M,M,M,M,M,M,HZ,M,M,M,M,M,M,87.49,VIDP 102300Z 10005KT 3000 HZ NSC 30/18 Q1003 NOSIG,M
VIDP,2022-05-10 23:30,84.20,64.40,51.47,90.00,5.00,0.00,29.62,M,1.86,M,NSC,M,M,M,M,M,M,M,HZ,M,M,M,M,M,M,85.71,VIDP 102330Z 09005KT 3000 HZ NSC 29/18 Q1003 NOSIG,M
VIDP,2022-05-11 00:00,84.20,66.20,54.80,90.00,5.00,0.00,29.62,M,1.86,M,NSC,M,M,M,M,M,M,M,HZ,M,M,M,M,M,M,86.50,VIDP 110000Z 09005KT 3000 HZ NSC 29/19 Q1003 NOSIG,M
VIDP,2022-05-11 00:30,84.20,66.20,54.80,100.00,6.00,0.00,29.62,M,1.86,M,NSC,M,M,M,M,M,M,M,HZ,M,M,M,M,M,M,86.50,VIDP 110030Z 10006KT 3000 HZ NSC 29/19 Q1003 NOSIG,M
VIDP,2022-05-11 01:00,84.20,66.20,54.80,110.00,7.00,0.00,29.62,M,1.86,M,NSC,M,M,M,M,M,M,M,HZ,M,M,M,M,M,M,86.50,VIDP 110100Z 11007KT 3000 HZ NSC 29/19 Q1003 NOSIG,M
VIDP,2022-05-11 01:30,84.20,68.00,58.32,110.00,8.00,0.00,29.62,M,1.74,M,NSC,M,M,M,M,M,M,M,HZ,M,M,M,M,M,M,87.40,VIDP 110130Z 11008KT 2800 HZ NSC 29/20 Q1003 NOSIG,M
VIDP,2022-05-11 02:00,86.00,68.00,55.04,100.00,7.00,0.00,29.65,M,1.74,M,NSC,M,M,M,M,M,M,M,HZ,M,M,M,M,M,M,89.41,VIDP 110200Z 10007KT 2800 HZ NSC 30/20 Q1004 NOSIG,M
VIDP,2022-05-11 02:30,87.80,68.00,51.98,120.00,7.00,0.00,29.65,M,1.74,M,NSC,M,M,M,M,M,M,M,HZ,M,M,M,M,M,M,91.43,VIDP 110230Z 12007KT 2800 HZ NSC 31/20 Q1004 NOSIG,M
VIDP,2022-05-11 03:00,89.60,68.00,49.10,110.00,6.00,0.00,29.65,M,1.74,M,NSC,M,M,M,M,M,M,M,HZ,M,M,M,M,M,M,93.47,VIDP 110300Z 11006KT 2800 HZ NSC 32/20 Q1004 BECMG 3000 HZ,M
VIDP,2022-05-11 03:30,91.40,69.80,49.36,120.00,7.00,0.00,29.65,M,1.99,M,NSC,M,M,M,M,M,M,M,HZ,M,M,M,M,M,M,96.99,VIDP 110330Z 12007KT 3200 HZ NSC 33/21 Q1004 NOSIG,M
VIDP,2022-05-11 04:00,93.20,69.80,46.67,130.00,7.00,0.00,29.65,M,2.17,M,NSC,M,M,M,M,M,M,M,HZ,M,M,M,M,M,M,99.17,VIDP 110400Z 13007KT 3500 HZ NSC 34/21 Q1004 NOSIG,M
VIDP,2022-05-11 04:30,95.00,69.80,44.14,120.00,6.00,0.00,29.65,M,2.17,M,NSC,M,M,M,M,M,M,M,HZ,M,M,M,M,M,M,101.37,VIDP 110430Z 12006KT 3500 HZ NSC 35/21 Q1004 NOSIG,M
VIDP,2022-05-11 05:00,95.00,71.60,46.93,130.00,8.00,0.00,29.65,M,2.49,M,NSC,M,M,M,M,M,M,M,HZ,M,M,M,M,M,M,103.13,COR VIDP 110500Z 13008KT 4000 HZ NSC 35/22 Q1004 NOSIG,M
VIDP,2022-05-11 05:30,96.80,69.80,41.77,130.00,7.00,0.00,29.65,M,2.49,M,NSC,M,M,M,M,M,M,M,HZ,M,M,M,M,M,M,103.60,VIDP 110530Z 13007KT 4000 HZ NSC 36/21 Q1004 NOSIG,M
VIDP,2022-05-11 06:00,98.60,69.80,39.54,140.00,5.00,0.00,29.65,M,2.49,M,NSC,M,M,M,M,M,M,M,HZ,M,M,M,M,M,M,105.85,VIDP 110600Z 14005KT 4000 HZ NSC 37/21 Q1004 NOSIG,M
VIDP,2022-05-11 06:30,100.40,66.20,33.08,140.00,5.00,0.00,29.62,M,2.49,M,NSC,M,M,M,M,M,M,M,HZ,M,M,M,M,M,M,104.98,VIDP 110630Z 14005KT 4000 HZ NSC 38/19 Q1003 NOSIG,M
VIDP,2022-05-11 07:00,100.40,66.20,33.08,100.00,6.00,0.00,29.62,M,2.49,M,NSC,M,M,M,M,M,M,M,HZ,M,M,M,M,M,M,104.98,VIDP 110700Z 10006KT 4000 HZ NSC 38/19 Q1003 NOSIG,M
VIDP,2022-05-11 07:30,100.40,64.40,31.07,130.00,5.00,0.00,29.62,M,2.49,M,NSC,M,M,M,M,M,M,M,HZ,M,M,M,M,M,M,103.66,VIDP 110730Z 13005KT 4000 HZ NSC 38/18 Q1003 NOSIG,M
VIDP,2022-05-11 08:00,100.40,64.40,31.07,160.00,5.00,0.00,29.59,M,2.49,M,NSC,M,M,M,M,M,M,M,HZ,M,M,M,M,M,M,103.66,VIDP 110800Z 16005KT 4000 HZ NSC 38/18 Q1002 NOSIG,M
VIDP,2022-05-11 08:30,102.20,64.40,29.43,160.00,5.00,0.00,29.59,M,2.49,M,NSC,M,M,M,M,M,M,M,HZ,M,M,M,M,M,M,105.84,VIDP 110830Z 16005KT 4000 HZ NSC 39/18 Q1002 NOSIG,M
VIDP,2022-05-11 09:00,104.00,64.40,27.89,160.00,5.00,0.00,29.56,M,2.49,M,NSC,M,M,M,M,M,M,M,HZ,M,M,M,M,M,M,108.01,VIDP 110900Z 16005KT 4000 HZ NSC 40/18 Q1001 NOSIG,M
VIDP,2022-05-11 09:30,104.00,62.60,26.18,170.00,4.00,0.00,29.56,M,2.49,M,NSC,M,M,M,M,M,M,M,HZ,M,M,M,M,M,M,106.77,VIDP 110930Z 17004KT 4000 HZ NSC 40/17 Q1001 NOSIG,M
VIDP,2022-05-11 10:00,104.00,62.60,26.18,50.00,5.00,0.00,29.53,M,2.49,M,NSC,M,M,M,M,M,M,M,HZ,M,M,M,M,M,M,106.77,VIDP 111000Z 05005KT 4000 HZ NSC 40/17 Q1000 NOSIG,M
VIDP,2022-05-11 10:30,104.00,62.60,26.18,70.00,5.00,0.00,29.53,M,2.49,M,NSC,M,M,M,M,M,M,M,HZ,M,M,M,M,M,M,106.77,VIDP 111030Z 07005KT 4000 HZ NSC 40/17 Q1000 NOSIG,M
VIDP,2022-05-11 11:00,104.00,62.60,26.18,50.00,5.00,0.00,29.53,M,2.49,M,NSC,M,M,M,M,M,M,M,HZ,M,M,M,M,M,M,106.77,VIDP 111100Z 05005KT 4000 HZ NSC 40/17 Q1000 NOSIG,M
VIDP,2022-05-11 11:30,102.20,64.40,29.43,50.00,5.00,0.00,29.50,M,2.49,M,NSC,M,M,M,M,M,M,M,HZ,M,M,M,M,M,M,105.84,VIDP 111130Z 05005KT 4000 HZ NSC 39/18 Q0999 NOSIG,M
VIDP,2022-05-11 12:00,102.20,64.40,29.43,80.00,7.00,0.00,29.50,M,2.49,M,NSC,M,M,M,M,M,M,M,HZ,M,M,M,M,M,M,105.84,VIDP 111200Z 08007KT 4000 HZ NSC 39/18 Q0999 NOSIG,M
VIDP,2022-05-11 12:30,102.20,64.40,29.43,90.00,6.00,0.00,29.50,M,2.49,M,NSC,M,M,M,M,M,M,M,HZ,M,M,M,M,M,M,105.84,VIDP 111230Z 09006KT 4000 HZ NSC 39/18 Q0999 NOSIG,M
VIDP,2022-05-11 13:00,100.40,64.40,31.07,80.00,5.00,0.00,29.50,M,2.49,M,NSC,M,M,M,M,M,M,M,HZ,M,M,M,M,M,M,103.66,VIDP 111300Z 08005KT 4000 HZ NSC 38/18 Q0999 NOSIG,M
VIDP,2022-05-11 13:30,100.40,66.20,33.08,50.00,4.00,0.00,29.50,M,2.49,M,NSC,M,M,M,M,M,M,M,HZ,M,M,M,M,M,M,104.98,VIDP 111330Z 05004KT 4000 HZ NSC 38/19 Q0999 NOSIG,M
VIDP,2022-05-11 14:00,98.60,66.20,34.93,70.00,4.00,0.00,29.53,M,2.17,M,NSC,M,M,M,M,M,M,M,HZ,M,M,M,M,M,M,102.78,VIDP 111400Z 07004KT 3500 HZ NSC 37/19 Q1000 NOSIG,M
VIDP,2022-05-11 14:30,96.80,66.20,36.90,80.00,5.00,0.00,29.53,M,2.17,M,NSC,M,M,M,M,M,M,M,HZ,M,M,M,M,M,M,100.60,COR VIDP 111430Z 08005KT 3500 HZ NSC 36/19 Q1000 NOSIG,M
VIDP,2022-05-11 15:00,96.80,68.00,39.27,100.00,6.00,0.00,29.56,M,2.17,M,NSC,M,M,M,M,M,M,M,HZ,M,M,M,M,M,M,102.01,VIDP 111500Z 10006KT 3500 HZ NSC 36/20 Q1001 NOSIG,M
VIDP,2022-05-11 15:30,96.80,68.00,39.27,100.00,7.00,0.00,29.56,M,2.17,M,NSC,M,M,M,M,M,M,M,HZ,M,M,M,M,M,M,102.01,VIDP 111530Z 10007KT 3500 HZ NSC 36/20 Q1001 NOSIG,M
VIDP,2022-05-11 16:00,95.00,69.80,44.14,90.00,6.00,0.00,29.56,M,2.17,M,NSC,M,M,M,M,M,M,M,HZ,M,M,M,M,M,M,101.37,VIDP 111600Z 09006KT 3500 HZ NSC 35/21 Q1001 NOSIG,M
VIDP,2022-05-11 16:30,95.00,69.80,44.14,90.00,6.00,0.00,29.56,M,2.17,M,NSC,M,M,M,M,M,M,M,HZ,M,M,M,M,M,M,101.37,VIDP 111630Z 09006KT 3500 HZ NSC 35/21 Q1001 NOSIG,M
VIDP,2022-05-11 17:00,95.00,69.80,44.14,80.00,7.00,0.00,29.59,M,2.17,M,NSC,M,M,M,M,M,M,M,HZ,M,M,M,M,M,M,101.37,VIDP 111700Z 08007KT 3500 HZ NSC 35/21 Q1002 NOSIG,M
VIDP,2022-05-11 17:30,93.20,69.80,46.67,90.00,6.00,0.00,29.59,M,2.17,M,NSC,M,M,M,M,M,M,M,HZ,M,M,M,M,M,M,99.17,VIDP 111730Z 09006KT 3500 HZ NSC 34/21 Q1002 NOSIG,M
VIDP,2022-05-11 18:00,93.20,69.80,46.67,100.00,7.00,0.00,29.59,M,2.17,M,NSC,M,M,M,M,M,M,M,HZ,M,M,M,M,M,M,99.17,VIDP 111800Z 10007KT 3500 HZ NSC 34/21 Q1002 NOSIG,M
VIDP,2022-05-11 18:30,91.40,69.80,49.36,100.00,7.00,0.00,29.59,M,2.17,M,NSC,M,M,M,M,M,M,M,HZ,M,M,M,M,M,M,96.99,VIDP 111830Z 10007KT 3500 HZ NSC 33/21 Q1002 NOSIG,M
VIDP,2022-05-11 19:00,91.40,69.80,49.36,110.00,6.00,0.00,29.56,M,2.17,M,NSC,M,M,M,M,M,M,M,HZ,M,M,M,M,M,M,96.99,VIDP 111900Z 11006KT 3500 HZ NSC 33/21 Q1001 NOSIG,M
VIDP,2022-05-11 19:30,91.40,69.80,49.36,130.00,6.00,0.00,29.56,M,2.17,M,NSC,M,M,M,M,M,M,M,HZ,M,M,M,M,M,M,96.99,VIDP 111930Z 13006KT 3500 HZ NSC 33/21 Q1001 NOSIG,M
VIDP,2022-05-11 20:00,91.40,69.80,49.36,100.00,6.00,0.00,29.56,M,2.17,M,NSC,M,M,M,M,M,M,M,HZ,M,M,M,M,M,M,96.99,VIDP 112000Z 10006KT 3500 HZ NSC 33/21 Q1001 NOSIG,M
VIDP,2022-05-11 20:30,91.40,69.80,49.36,120.00,6.00,0.00,29.56,M,2.17,M,NSC,M,M,M,M,M,M,M,HZ,M,M,M,M,M,M,96.99,VIDP 112030Z 12006KT 3500 HZ NSC 33/21 Q1001 NOSIG,M
VIDP,2022-05-11 21:00,89.60,69.80,52.23,120.00,5.00,0.00,29.56,M,2.17,M,NSC,M,M,M,M,M,M,M,HZ,M,M,M,M,M,M,94.85,VIDP 112100Z 12005KT 3500 HZ NSC 32/21 Q1001 NOSIG,M
VIDP,2022-05-11 21:30,89.60,68.00,49.10,120.00,5.00,0.00,29.56,M,2.17,M,NSC,M,M,M,M,M,M,M,HZ,M,M,M,M,M,M,93.47,VIDP 112130Z 12005KT 3500 HZ NSC 32/20 Q1001 NOSIG,M
VIDP,2022-05-11 22:00,89.60,68.00,49.10,100.00,5.00,0.00,29.56,M,2.17,M,NSC,M,M,M,M,M,M,M,HZ,M,M,M,M,M,M,93.47,VIDP 112200Z 10005KT 3500 HZ NSC 32/20 Q1001 NOSIG,M
VIDP,2022-05-11 22:30,87.80,69.80,55.29,110.00,5.00,0.00,29.56,M,2.17,M,NSC,M,M,M,M,M,M,M,HZ,M,M,M,M,M,M,92.71,VIDP 112230Z 11005KT 3500 HZ NSC 31/21 Q1001 NOSIG,M
VIDP,2022-05-11 23:00,87.80,69.80,55.29,120.00,5.00,0.00,29.56,M,2.17,M,NSC,M,M,M,M,M,M,M,HZ,M,M,M,M,M,M,92.71,VIDP 112300Z 12005KT 3500 HZ NSC 31/21 Q1001 BECMG 3000 HZ,M
VIDP,2022-05-11 23:30,87.80,69.80,55.29,90.00,3.00,0.00,29.59,M,1.86,M,NSC,M,M,M,M,M,M,M,HZ,M,M,M,M,M,M,92.71,VIDP 112330Z 09003KT 3000 HZ NSC 31/21 Q1002 NOSIG,M
VIDP,2022-05-12 00:00,87.80,71.60,58.78,110.00,4.00,0.00,29.59,M,1.86,M,NSC,M,M,M,M,M,M,M,HZ,M,M,M,M,M,M,94.18,VIDP 120000Z 11004KT 3000 HZ NSC 31/22 Q1002 NOSIG,M
VIDP,2022-05-12 00:30,86.00,71.60,62.25,120.00,4.00,0.00,29.59,M,1.86,M,NSC,M,M,M,M,M,M,M,HZ,M,M,M,M,M,M,91.92,VIDP 120030Z 12004KT 3000 HZ NSC 30/22 Q1002 NOSIG,M
VIDP,2022-05-12 01:00,86.00,71.60,62.25,120.00,5.00,0.00,29.59,M,1.55,M,NSC,M,M,M,M,M,M,M,HZ,M,M,M,M,M,M,91.92,VIDP 120100Z 12005KT 2500 HZ NSC 30/22 Q1002 NOSIG,M
VIDP,2022-05-12 01:30,87.80,71.60,58.78,130.00,5.00,0.00,29.62,M,1.30,M,NSC,M,M,M,M,M,M,M,HZ,M,M,M,M,M,M,94.18,VIDP 120130Z 13005KT 2100 HZ NSC 31/22 Q1003 NOSIG,M
VIDP,2022-05-12 02:00,87.80,71.60,58.78,120.00,6.00,0.00,29.62,M,1.30,M,NSC,M,M,M,M,M,M,M,HZ,M,M,M,M,M,M,94.18,VIDP 120200Z 12006KT 2100 HZ NSC 31/22 Q1003 BECMG 1500 HZ,M
VIDP,2022-05-12 02:30,89.60,69.80,52.23,140.00,6.00,0.00,29.62,M,1.30,M,NSC,M,M,M,M,M,M,M,HZ,M,M,M,M,M,M,94.85,VIDP 120230Z 14006KT 2100 HZ NSC 32/21 Q1003 NOSIG,M
VIDP,2022-05-12 03:00,91.40,69.80,49.36,130.00,8.00,0.00,29.62,M,1.30,M,NSC,M,M,M,M,M,M,M,HZ,M,M,M,M,M,M,96.99,VIDP 120300Z 13008KT 2100 HZ NSC 33/21 Q1003 NOSIG,M
VIDP,2022-05-12 03:30,93.20,69.80,46.67,130.00,9.00,0.00,29.62,M,1.55,M,NSC,M,M,M,M,M,M,M,HZ,M,M,M,M,M,M,99.17,VIDP 120330Z 13009KT 2500 HZ NSC 34/21 Q1003 NOSIG,M
VIDP,2022-05-12 04:00,93.20,68.00,43.88,140.00,9.00,0.00,29.62,M,1.55,M,NSC,M,M,M,M,M,M,M,HZ,M,M,M,M,M,M,97.67,VIDP 120400Z 14009KT 2500 HZ NSC 34/20 Q1003 NOSIG,M
VIDP,2022-05-12 04:30,96.80,68.00,39.27,150.00,10.00,0.00,29.62,M,1.74,M,NSC,M,M,M,M,M,M,M,HZ,M,M,M,M,M,M,102.01,VIDP 120430Z 15010KT 2800 HZ NSC 36/20 Q1003 BECMG 3000 HZ,M
VIDP,2022-05-12 05:00,96.80,66.20,36.90,140.00,8.00,0.00,29.62,M,1.99,M,NSC,M,M,M,M,M,M,M,HZ,M,M,M,M,M,M,100.60,VIDP 120500Z 14008KT 3200 HZ NSC 36/19 Q1003 NOSIG,M
VIDP,2022-05-12 05:30,98.60,66.20,34.93,150.00,7.00,0.00,29.62,M,2.17,M,NSC,M,M,M,M,M,M,M,HZ,M,M,M,M,M,M,102.78,VIDP 120530Z 15007KT 3500 HZ NSC 37/19 Q1003 NOSIG,M
VIDP,2022-05-12 06:00,102.20,66.20,31.34,150.00,7.00,0.00,29.62,M,2.17,M,NSC,M,M,M,M,M,M,M,HZ,M,M,M,M,M,M,107.19,VIDP 120600Z 15007KT 3500 HZ NSC 39/19 Q1003 NOSIG,M
VIDP,2022-05-12 06:30,102.20,66.20,31.34,160.00,6.00,0.00,29.59,M,2.17,M,NSC,M,M,M,M,M,M,M,HZ,M,M,M,M,M,M,107.19,VIDP 120630Z 16006KT 3500 HZ NSC 39/19 Q1002 NOSIG,M
VIDP,2022-05-12 07:00,102.20,64.40,29.43,140.00,5.00,0.00,29.59,M,2.49,M,NSC,M,M,M,M,M,M,M,HZ,M,M,M,M,M,M,105.84,VIDP 120700Z 14005KT 4000 HZ NSC 39/18 Q1002 NOSIG,M
VIDP,2022-05-12 07:30,102.20,64.40,29.43,140.00,5.00,0.00,29.56,M,2.49,M,NSC,M,M,M,M,M,M,M,HZ,M,M,M,M,M,M,105.84,VIDP 120730Z 14005KT 4000 HZ NSC 39/18 Q1001 NOSIG,M
VIDP,2022-05-12 08:00,104.00,62.60,26.18,130.00,7.00,0.00,29.56,M,2.80,M,NSC,M,M,M,M,M,M,M,HZ,M,M,M,M,M,M,106.77,VIDP 120800Z 13007KT 4500 HZ NSC 40/17 Q1001 NOSIG,M
VIDP,2022-05-12 08:30,107.60,57.20,19.42,250.00,7.00,0.00,29.53,M,2.80,M,NSC,M,M,M,M,M,M,M,HZ,M,M,M,M,M,M,107.78,VIDP 120830Z 25007KT 4500 HZ NSC 42/14 Q1000 NOSIG,M
VIDP,2022-05-12 09:00,107.60,57.20,19.42,250.00,7.00,0.00,29.53,M,2.80,M,NSC,M,M,M,M,M,M,M,HZ,M,M,M,M,M,M,107.78,VIDP 120900Z 25007KT 4500 HZ NSC 42/14 Q1000 NOSIG,M
VIDP,2022-05-12 09:30,109.40,55.40,17.27,340.00,5.00,0.00,29.50,M,2.80,M,NSC,M,M,M,M,M,M,M,HZ,M,M,M,M,M,M,108.82,VIDP 120930Z 34005KT 4500 HZ NSC 43/13 Q0999 NOSIG,M
VIDP,2022-05-12 10:00,109.40,53.60,16.17,40.00,4.00,0.00,29.47,M,2.80,M,NSC,M,M,M,M,M,M,M,HZ,M,M,M,M,M,M,108.00,VIDP 121000Z 04004KT 4500 HZ NSC 43/12 Q0998 NOSIG,M
VIDP,2022-05-12 10:30,109.40,53.60,16.17,300.00,4.00,0.00,29.47,M,2.80,M,NSC,M,M,M,M,M,M,M,HZ,M,M,M,M,M,M,108.00,VIDP 121030Z 30004KT 4500 HZ NSC 43/12 Q0998 NOSIG,M
VIDP,2022-05-12 11:00,109.40,55.40,17.27,340.00,5.00,0.00,29.47,M,2.80,M,NSC,M,M,M,M,M,M,M,HZ,M,M,M,M,M,M,108.82,VIDP 121100Z 34005KT 4500 HZ NSC 43/13 Q0998 NOSIG,M
VIDP,2022-05-12 11:30,107.60,57.20,19.42,80.00,5.00,0.00,29.44,M,2.80,M,NSC,M,M,M,M,M,M,M,HZ,M,M,M,M,M,M,107.78,VIDP 121130Z 08005KT 4500 HZ NSC 42/14 Q0997 NOSIG,M
VIDP,2022-05-12 12:00,107.60,57.20,19.42,100.00,4.00,0.00,29.44,M,2.80,M,FEW,M,M,M,10000.00,M,M,M,HZ,M,M,M,M,M,M,107.78,VIDP 121200Z 10004KT 4500 HZ FEW100 42/14 Q0997 NOSIG,M
VIDP,2022-05-12 12:30,105.80,59.00,21.85,70.00,4.00,0.00,29.44,M,2.49,M,FEW,M,M,M,10000.00,M,M,M,HZ,M,M,M,M,M,M,106.72,VIDP 121230Z 07004KT 4000 HZ FEW100 41/15 Q0997 NOSIG,M
VIDP,2022-05-12 13:00,104.00,60.80,24.57,100.00,5.00,0.00,29.44,M,2.49,M,FEW,M,M,M,10000.00,M,M,M,HZ,M,M,M,M,M,M,105.66,VIDP 121300Z 10005KT 4000 HZ FEW100 40/16 Q0997 NOSIG,M
VIDP,2022-05-12 13:30,102.20,62.60,27.63,100.00,5.00,0.00,29.44,M,2.49,M,FEW,M,M,M,10000.00,M,M,M,HZ,M,M,M,M,M,M,104.63,VIDP 121330Z 10005KT 4000 HZ FEW100 39/17 Q0997 NOSIG,M
VIDP,2022-05-12 14:00,102.20,62.60,27.63,110.00,5.00,0.00,29.47,M,2.49,M,FEW,M,M,M,10000.00,M,M,M,HZ,M,M,M,M,M,M,104.63,VIDP 121400Z 11005KT 4000 HZ FEW100 39/17 Q0998 NOSIG,M
VIDP,2022-05-12 14:30,100.40,62.60,29.17,120.00,5.00,0.00,29.47,M,2.17,M,FEW,M,M,M,10000.00,M,M,M,HZ,M,M,M,M,M,M,102.50,VIDP 121430Z 12005KT 3500 HZ FEW100 38/17 Q0998 NOSIG,M
VIDP,2022-05-12 15:00,100.40,62.60,29.17,140.00,6.00,0.00,29.47,M,2.17,M,FEW,M,M,M,10000.00,M,M,M,HZ,M,M,M,M,M,M,102.50,VIDP 121500Z 14006KT 3500 HZ FEW100 38/17 Q0998 NOSIG,M
VIDP,2022-05-12 15:30,98.60,62.60,30.80,110.00,5.00,0.00,29.47,M,2.17,M,FEW,M,M,M,10000.00,M,M,M,HZ,M,M,M,M,M,M,100.38,VIDP 121530Z 11005KT 3500 HZ FEW100 37/17 Q0998 NOSIG,M
VIDP,2022-05-12 16:00,96.80,64.40,34.66,100.00,5.00,0.00,29.50,M,2.17,M,FEW,M,M,M,10000.00,M,M,M,HZ,M,M,M,M,M,M,99.37,VIDP 121600Z 10005KT 3500 HZ FEW100 36/18 Q0999 NOSIG,M
VIDP,2022-05-12 16:30,95.00,64.40,36.63,100.00,5.00,0.00,29.50,M,2.17,M,FEW,M,M,M,10000.00,M,M,M,HZ,M,M,M,M,M,M,97.26,VIDP 121630Z 10005KT 3500 HZ FEW100 35/18 Q0999 NOSIG,M
VIDP,2022-05-12 17:00,95.00,64.40,36.63,90.00,6.00,0.00,29.50,M,2.17,M,FEW,M,M,M,10000.00,M,M,M,HZ,M,M,M,M,M,M,97.26,VIDP 121700Z 09006KT 3500 HZ FEW100 35/18 Q0999 NOSIG,M
VIDP,2022-05-12 17:30,95.00,66.20,39.00,80.00,6.00,0.00,29.50,M,2.17,M,FEW,M,M,M,10000.00,M,M,M,HZ,M,M,M,M,M,M,98.46,VIDP 121730Z 08006KT 3500 HZ FEW100 35/19 Q0999 NOSIG,M
VIDP,2022-05-12 18:00,95.00,66.20,39.00,80.00,6.00,0.00,29.50,M,2.17,M,SCT,M,M,M,10000.00,M,M,M,HZ,M,M,M,M,M,M,98.46,VIDP 121800Z 08006KT 3500 HZ SCT100 35/19 Q0999 NOSIG,M
VIDP,2022-05-12 18:30,93.20,66.20,41.23,50.00,8.00,0.00,29.53,M,2.17,M,SCT,M,M,M,10000.00,M,M,M,HZ,M,M,M,M,M,M,96.35,VIDP 121830Z 05008KT 3500 HZ SCT100 34/19 Q1000 NOSIG,M
VIDP,2022-05-12 19:00,93.20,66.20,41.23,90.00,8.00,0.00,29.50,M,2.17,18.00,FEW,SCT,M,M,4000.00,10000.00,M,M,HZ,M,M,M,M,M,M,96.35,VIDP 121900Z 09008G18KT 3500 HZ FEW040 SCT100 34/19 Q0999 NOSIG,M
VIDP,2022-05-12 19:30,91.40,66.20,43.61,70.00,8.00,0.00,29.50,M,2.17,18.00,FEW,SCT,M,M,4000.00,10000.00,M,M,HZ,M,M,M,M,M,M,94.29,VIDP 121930Z 07008G18KT 3500 HZ FEW040 SCT100 33/19 Q0999 NOSIG,M
VIDP,2022-05-12 20:00,89.60,68.00,49.10,80.00,9.00,0.00,29.50,M,2.17,M,FEW,SCT,M,M,4000.00,10000.00,M,M,HZ,M,M,M,M,M,M,93.47,VIDP 122000Z 08009KT 3500 HZ FEW040 SCT100 32/20 Q0999 NOSIG,M
VIDP,2022-05-12 20:30,87.80,68.00,51.98,90.00,9.00,0.00,29.50,M,2.17,M,FEW,SCT,M,M,4000.00,10000.00,M,M,HZ,M,M,M,M,M,M,91.43,VIDP 122030Z 09009KT 3500 HZ FEW040 SCT100 31/20 Q0999 NOSIG,M
VIDP,2022-05-12 21:00,87.80,68.00,51.98,90.00,10.00,0.00,29.47,M,2.17,M,FEW,SCT,M,M,4000.00,10000.00,M,M,HZ,M,M,M,M,M,M,91.43,VIDP 122100Z 09010KT 3500 HZ FEW040 SCT100 31/20 Q0998 NOSIG,M
VIDP,2022-05-12 21:30,86.00,68.00,55.04,90.00,10.00,0.00,29.47,M,2.17,M,FEW,SCT,M,M,4000.00,10000.00,M,M,HZ,M,M,M,M,M,M,89.41,VIDP 122130Z 09010KT 3500 HZ FEW040 SCT100 30/20 Q0998 NOSIG,M
VIDP,2022-05-12 22:00,86.00,68.00,55.04,100.00,9.00,0.00,29.47,M,2.17,M,SCT,M,M,M,10000.00,M,M,M,HZ,M,M,M,M,M,M,89.41,VIDP 122200Z 10009KT 3500 HZ SCT100 30/20 Q0998 NOSIG,M
VIDP,2022-05-12 22:30,86.00,69.80,58.55,100.00,8.00,0.00,29.47,M,2.17,M,FEW,M,M,M,10000.00,M,M,M,HZ,M,M,M,M,M,M,90.58,VIDP 122230Z 10008KT 3500 HZ FEW100 30/21 Q0998 NOSIG,M
VIDP,2022-05-12 23:00,84.20,71.60,65.95,120.00,6.00,0.00,29.50,M,2.17,M,FEW,M,M,M,10000.00,M,M,M,HZ,M,M,M,M,M,M,89.60,VIDP 122300Z 12006KT 3500 HZ FEW100 29/22 Q0999 NOSIG,M
VIDP,2022-05-12 23:30,84.20,71.60,65.95,120.00,5.00,0.00,29.50,M,2.17,M,FEW,M,M,M,10000.00,M,M,M,HZ,M,M,M,M,M,M,89.60,VIDP 122330Z 12005KT 3500 HZ FEW100 29/22 Q0999 NOSIG,M
VIDP,2022-05-13 00:00,84.20,77.00,79.04,140.00,6.00,0.00,29.50,M,2.17,M,NSC,M,M,M,M,M,M,M,BR,M,M,M,M,M,M,94.16,VIDP 130000Z 14006KT 3500 BR NSC 29/25 Q0999 BECMG 3000 BR,M
VIDP,2022-05-13 00:30,84.20,77.00,79.04,140.00,5.00,0.00,29.50,M,1.99,M,NSC,M,M,M,M,M,M,M,BR,M,M,M,M,M,M,94.16,VIDP 130030Z 14005KT 3200 BR NSC 29/25 Q0999 BECMG 3000 BR,M
VIDP,2022-05-13 01:00,84.20,77.00,79.04,150.00,6.00,0.00,29.50,M,1.74,M,NSC,M,M,M,M,M,M,M,BR,M,M,M,M,M,M,94.16,VIDP 130100Z 15006KT 2800 BR NSC 29/25 Q0999 NOSIG,M
VIDP,2022-05-13 01:30,86.00,73.40,66.15,50.00,4.00,0.00,29.53,M,1.74,M,NSC,M,M,M,M,M,M,M,HZ,M,M,M,M,M,M,93.45,VIDP 130130Z 05004KT 2800 HZ NSC 30/23 Q1000 NOSIG,M
VIDP,2022-05-13 02:00,86.00,73.40,66.15,80.00,6.00,0.00,29.53,M,1.74,M,NSC,M,M,M,M,M,M,M,HZ,M,M,M,M,M,M,93.45,VIDP 130200Z 08006KT 2800 HZ NSC 30/23 Q1000 NOSIG,M
VIDP,2022-05-13 02:30,87.80,71.60,58.78,120.00,7.00,0.00,29.53,M,1.74,M,NSC,M,M,M,M,M,M,M,HZ,M,M,M,M,M,M,94.18,VIDP 130230Z 12007KT 2800 HZ NSC 31/22 Q1000 BECMG 3000 HZ,M
VIDP,2022-05-13 03:00,89.60,69.80,52.23,110.00,7.00,0.00,29.53,M,1.86,M,NSC,M,M,M,M,M,M,M,HZ,M,M,M,M,M,M,94.85,VIDP 130300Z 11007KT 3000 HZ NSC 32/21 Q1000 NOSIG,M
VIDP,2022-05-13 03:30,91.40,68.00,46.41,130.00,6.00,0.00,29.53,M,2.17,M,NSC,M,M,M,M,M,M,M,HZ,M,M,M,M,M,M,95.55,VIDP 130330Z 13006KT 3500 HZ NSC 33/20 Q1000 NOSIG,M
VIDP,2022-05-13 04:00,93.20,68.00,43.88,160.00,4.00,0.00,29.53,M,2.17,M,NSC,M,M,M,M,M,M,M,HZ,M,M,M,M,M,M,97.67,VIDP 130400Z 16004KT 3500 HZ NSC 34/20 Q1000 NOSIG,M
VIDP,2022-05-13 04:30,93.20,68.00,43.88,180.00,4.00,0.00,29.53,M,2.17,M,NSC,M,M,M,M,M,M,M,HZ,M,M,M,M,M,M,97.67,VIDP 130430Z 18004KT 3500 HZ NSC 34/20 Q1000 NOSIG,M
VIDP,2022-05-13 05:00,95.00,66.20,39.00,150.00,4.00,0.00,29.53,M,2.17,M,NSC,M,M,M,M,M,M,M,HZ,M,M,M,M,M,M,98.46,VIDP 130500Z 15004KT 3500 HZ NSC 35/19 Q1000 NOSIG,M
VIDP,2022-05-13 05:30,96.80,66.20,36.90,280.00,4.00,0.00,29.53,M,2.17,M,NSC,M,M,M,M,M,M,M,HZ,M,M,M,M,M,M,100.60,VIDP 130530Z 28004KT 3500 HZ NSC 36/19 Q1000 NOSIG,M
VIDP,2022-05-13 06:00,98.60,66.20,34.93,340.00,3.00,0.00,29.53,M,2.17,M,NSC,M,M,M,M,M,M,M,HZ,M,M,M,M,M,M,102.78,VIDP 130600Z 34003KT 3500 HZ NSC 37/19 Q1000 NOSIG,M
VIDP,2022-05-13 06:30,98.60,62.60,30.80,280.00,6.00,0.00,29.53,M,2.17,M,NSC,M,M,M,M,M,M,M,HZ,M,M,M,M,M,M,100.38,VIDP 130630Z 28006KT 3500 HZ NSC 37/17 Q1000 NOSIG,M
VIDP,2022-05-13 07:00,100.40,62.60,29.17,310.00,5.00,0.00,29.50,M,2.17,M,NSC,M,M,M,M,M,M,M,HZ,M,M,M,M,M,M,102.50,VIDP 130700Z 31005KT 3500 HZ NSC 38/17 Q0999 NOSIG,M
VIDP,2022-05-13 07:30,102.20,60.80,25.93,320.00,6.00,0.00,29.50,M,2.49,M,NSC,M,M,M,M,M,M,M,HZ,M,M,M,M,M,M,103.57,VIDP 130730Z 32006KT 4000 HZ NSC 39/16 Q0999 NOSIG,M
VIDP,2022-05-13 08:00,102.20,59.00,24.32,330.00,7.00,0.00,29.50,M,2.49,M,NSC,M,M,M,M,M,M,M,HZ,M,M,M,M,M,M,102.62,VIDP 130800Z 33007KT 4000 HZ NSC 39/15 Q0999 NOSIG,M
VIDP,2022-05-13 08:30,105.80,53.60,17.97,300.00,8.00,0.00,29.47,M,2.49,M,NSC,M,M,M,M,M,M,M,HZ,M,M,M,M,M,M,104.23,VIDP 130830Z 30008KT 4000 HZ NSC 41/12 Q0998 NOSIG,M
VIDP,2022-05-13 09:00,107.60,53.60,17.04,300.00,9.00,0.00,29.44,M,2.49,M,NSC,M,M,M,M,M,M,M,HZ,M,M,M,M,M,M,106.13,VIDP 130900Z 30009KT 4000 HZ NSC 42/12 Q0997 NOSIG,M
VIDP,2022-05-13 09:30,107.60,53.60,17.04,330.00,8.00,0.00,29.41,M,2.49,M,NSC,M,M,M,M,M,M,M,HZ,M,M,M,M,M,M,106.13,VIDP 130930Z 33008KT 4000 HZ NSC 42/12 Q0996 NOSIG,M
VIDP,2022-05-13 10:00,109.40,51.80,15.13,310.00,9.00,0.00,29.41,M,2.49,M,NSC,M,M,M,M,M,M,M,HZ,M,M,M,M,M,M,107.25,VIDP 131000Z 31009KT 4000 HZ NSC 43/11 Q0996 NOSIG,M
VIDP,2022-05-13 10:30,111.20,50.00,13.44,300.00,8.00,0.00,29.38,M,2.80,M,NSC,M,M,M,M,M,M,M,HZ,M,M,M,M,M,M,108.33,VIDP 131030Z 30008KT 4500 HZ NSC 44/10 Q0995 NOSIG,M
VIDP,2022-05-13 11:00,111.20,50.00,13.44,310.00,7.00,0.00,29.38,M,2.80,M,NSC,M,M,M,M,M,M,M,HZ,M,M,M,M,M,M,108.33,VIDP 131100Z 31007KT 4500 HZ NSC 44/10 Q0995 NOSIG,M
VIDP,2022-05-13 11:30,111.20,50.00,13.44,310.00,7.00,0.00,29.38,M,2.80,M,NSC,M,M,M,M,M,M,M,HZ,M,M,M,M,M,M,108.33,VIDP 131130Z 31007KT 4500 HZ NSC 44/10 Q0995 NOSIG,M
VIDP,2022-05-13 12:00,109.40,59.00,19.66,30.00,6.00,0.00,29.38,M,2.80,M,NSC,M,M,M,M,M,M,M,HZ,M,M,M,M,M,M,110.74,VIDP 131200Z 03006KT 4500 HZ NSC 43/15 Q0995 NOSIG,M
VIDP,2022-05-13 12:30,107.60,64.40,25.08,50.00,7.00,0.00,29.38,M,2.80,M,NSC,M,M,M,M,M,M,M,HZ,M,M,M,M,M,M,112.33,VIDP 131230Z 05007KT 4500 HZ NSC 42/18 Q0995 BECMG 5000 HZ,M
VIDP,2022-05-13 13:00,105.80,66.20,28.15,50.00,5.00,0.00,29.38,M,3.11,M,NSC,M,M,M,M,M,M,M,HZ,M,M,M,M,M,M,111.61,VIDP 131300Z 05005KT 5000 HZ NSC 41/19 Q0995 NOSIG,M
VIDP,2022-05-13 13:30,104.00,68.00,31.60,30.00,5.00,0.00,29.38,M,2.49,M,NSC,M,M,M,M,M,M,M,HZ,M,M,M,M,M,M,110.96,VIDP 131330Z 03005KT 4000 HZ NSC 40/20 Q0995 NOSIG,M
VIDP,2022-05-13 14:00,102.20,68.00,33.35,40.00,5.00,0.00,29.41,M,2.49,M,NSC,M,M,M,M,M,M,M,HZ,M,M,M,M,M,M,108.70,VIDP 131400Z 04005KT 4000 HZ NSC 39/20 Q0996 NOSIG,M
VIDP,2022-05-13 14:30,100.40,68.00,35.20,70.00,4.00,0.00,29.41,M,2.49,M,NSC,M,M,M,M,M,M,M,HZ,M,M,M,M,M,M,106.46,VIDP 131430Z 07004KT 4000 HZ NSC 38/20 Q0996 NOSIG,M
VIDP,2022-05-13 15:00,100.40,68.00,35.20,80.00,4.00,0.00,29.41,M,2.17,M,NSC,M,M,M,M,M,M,M,HZ,M,M,M,M,M,M,106.46,VIDP 131500Z 08004KT 3500 HZ NSC 38/20 Q0996 NOSIG,M
VIDP,2022-05-13 15:30,96.80,68.00,39.27,0.00,0.00,0.00,29.41,M,2.17,M,NSC,M,M,M,M,M,M,M,HZ,M,M,M,M,M,M,102.01,VIDP 131530Z 00000KT 3500 HZ NSC 36/20 Q0996 NOSIG,M
VIDP,2022-05-13 16:00,95.00,69.80,44.14,0.00,0.00,0.00,29.44,M,2.17,M,NSC,M,M,M,M,M,M,M,HZ,M,M,M,M,M,M,101.37,VIDP 131600Z 00000KT 3500 HZ NSC 35/21 Q0997 NOSIG,M
VIDP,2022-05-13 16:30,95.00,69.80,44.14,0.00,0.00,0.00,29.44,M,2.17,M,NSC,M,M,M,M,M,M,M,HZ,M,M,M,M,M,M,101.37,VIDP 131630Z 00000KT 3500 HZ NSC 35/21 Q0997 NOSIG,M
VIDP,2022-05-13 17:00,93.20,69.80,46.67,0.00,0.00,0.00,29.44,M,2.17,M,NSC,M,M,M,M,M,M,M,HZ,M,M,M,M,M,M,99.17,VIDP 131700Z 00000KT 3500 HZ NSC 34/21 Q0997 NOSIG,M
VIDP,2022-05-13 17:30,95.00,66.20,39.00,180.00,3.00,0.00,29.44,M,2.17,M,NSC,M,M,M,M,M,M,M,HZ,M,M,M,M,M,M,98.46,VIDP 131730Z 18003KT 3500 HZ NSC 35/19 Q0997 NOSIG,M
VIDP,2022-05-13 18:00,93.20,68.00,43.88,210.00,4.00,0.00,29.44,M,2.17,M,NSC,M,M,M,M,M,M,M,HZ,M,M,M,M,M,M,97.67,VIDP 131800Z 21004KT 3500 HZ NSC 34/20 Q0997 NOSIG,M
VIDP,2022-05-13 18:30,93.20,68.00,43.88,180.00,5.00,0.00,29.44,M,2.17,M,NSC,M,M,M,M,M,M,M,HZ,M,M,M,M,M,M,97.67,VIDP 131830Z 18005KT 3500 HZ NSC 34/20 Q0997 NOSIG,M
VIDP,2022-05-13 19:00,91.40,68.00,46.41,0.00,0.00,0.00,29.44,M,2.17,M,NSC,M,M,M,M,M,M,M,HZ,M,M,M,M,M,M,95.55,VIDP 131900Z 00000KT 3500 HZ NSC 33/20 Q0997 NOSIG,M
VIDP,2022-05-13 19:30,91.40,66.20,43.61,0.00,0.00,0.00,29.44,M,2.17,M,NSC,M,M,M,M,M,M,M,HZ,M,M,M,M,M,M,94.29,VIDP 131930Z 00000KT 3500 HZ NSC 33/19 Q0997 NOSIG,M
VIDP,2022-05-13 20:00,91.40,66.20,43.61,0.00,0.00,0.00,29.44,M,2.17,M,NSC,M,M,M,M,M,M,M,HZ,M,M,M,M,M,M,94.29,VIDP 132000Z 00000KT 3500 HZ NSC 33/19 Q0997 NOSIG,M
VIDP,2022-05-13 20:30,89.60,66.20,46.14,0.00,0.00,0.00,29.44,M,2.17,M,NSC,M,M,M,M,M,M,M,HZ,M,M,M,M,M,M,92.27,VIDP 132030Z 00000KT 3500 HZ NSC 32/19 Q0997 NOSIG,M
VIDP,2022-05-13 21:00,89.60,68.00,49.10,0.00,0.00,0.00,29.44,M,1.86,M,NSC,M,M,M,M,M,M,M,HZ,M,M,M,M,M,M,93.47,VIDP 132100Z 00000KT 3000 HZ NSC 32/20 Q0997 NOSIG,M
VIDP,2022-05-13 21:30,89.60,68.00,49.10,0.00,0.00,0.00,29.41,M,1.86,M,NSC,M,M,M,M,M,M,M,HZ,M,M,M,M,M,M,93.47,VIDP 132130Z 00000KT 3000 HZ NSC 32/20 Q0996 NOSIG,M
VIDP,2022-05-13 22:00,89.60,69.80,52.23,220.00,4.00,0.00,29.41,M,1.86,M,NSC,M,M,M,M,M,M,M,HZ,M,M,M,M,M,M,94.85,VIDP 132200Z 22004KT 3000 HZ NSC 32/21 Q0996 NOSIG,M
VIDP,2022-05-13 22:30,87.80,69.80,55.29,230.00,4.00,0.00,29.44,M,1.86,M,NSC,M,M,M,M,M,M,M,HZ,M,M,M,M,M,M,92.71,VIDP 132230Z 23004KT 3000 HZ NSC 31/21 Q0997 NOSIG,M
VIDP,2022-05-13 23:00,87.80,68.00,51.98,0.00,0.00,0.00,29.44,M,1.86,M,NSC,M,M,M,M,M,M,M,HZ,M,M,M,M,M,M,91.43,VIDP 132300Z 00000KT 3000 HZ NSC 31/20 Q0997 NOSIG,M
VIDP,2022-05-13 23:30,86.00,68.00,55.04,0.00,0.00,0.00,29.44,M,1.74,M,NSC,M,M,M,M,M,M,M,HZ,M,M,M,M,M,M,89.41,VIDP 132330Z 00000KT 2800 HZ NSC 30/20 Q0997 NOSIG,M
VIDP,2022-05-14 00:00,86.00,68.00,55.04,0.00,0.00,0.00,29.44,M,1.55,M,NSC,M,M,M,M,M,M,M,HZ,M,M,M,M,M,M,89.41,VIDP 140000Z 00000KT 2500 HZ NSC 30/20 Q0997 NOSIG,M
VIDP,2022-05-14 00:30,86.00,66.20,51.72,0.00,0.00,0.00,29.47,M,0.99,M,NSC,M,M,M,M,M,M,M,HZ,M,M,M,M,M,M,88.39,VIDP 140030Z 00000KT 1600 R28/2000 R29/2000 HZ NSC 30/19 Q0998 BECMG 1500 HZ,M
VIDP,2022-05-14 01:00,87.80,66.20,48.84,260.00,3.00,0.00,29.47,M,0.93,M,NSC,M,M,M,M,M,M,M,HZ,M,M,M,M,M,M,90.31,VIDP 140100Z 26003KT 1500 R28/2000 R29/2000 HZ NSC 31/19 Q0998 NOSIG,M
VIDP,2022-05-14 01:30,89.60,62.60,40.69,0.00,0.00,0.00,29.47,M,0.93,M,NSC,M,M,M,M,M,M,M,HZ,M,M,M,M,M,M,90.32,VIDP 140130Z 00000KT 1500 R28/2000 R29/2000 HZ NSC 32/17 Q0998 NOSIG,M
VIDP,2022-05-14 02:00,91.40,60.80,36.08,260.00,4.00,0.00,29.50,M,1.12,M,NSC,M,M,M,M,M,M,M,HZ,M,M,M,M,M,M,91.40,VIDP 140200Z 26004KT 1800 R28/2000 R29/2000 HZ NSC 33/16 Q0999 NOSIG,M
VIDP,2022-05-14 02:30,93.20,53.60,26.31,260.00,4.00,0.00,29.50,M,1.30,M,NSC,M,M,M,M,M,M,M,HZ,M,M,M,M,M,M,90.86,VIDP 140230Z 26004KT 2100 HZ NSC 34/12 Q0999 NOSIG,M
VIDP,2022-05-14 03:00,95.00,53.60,24.89,270.00,6.00,0.00,29.53,M,1.37,M,NSC,M,M,M,M,M,M,M,DU,M,M,M,M,M,M,92.71,VIDP 140300Z 27006KT 2200 DU NSC 35/12 Q1000 NOSIG,M
VIDP,2022-05-14 03:30,96.80,53.60,23.55,270.00,4.00,0.00,29.53,M,1.55,M,NSC,M,M,M,M,M,M,M,DU,M,M,M,M,M,M,94.59,VIDP 140330Z 27004KT 2500 DU NSC 36/12 Q1000 NOSIG,M
VIDP,2022-05-14 04:00,100.40,55.40,22.54,270.00,5.00,0.00,29.53,M,1.74,M,NSC,M,M,M,M,M,M,M,DU,M,M,M,M,M,M,99.06,VIDP 140400Z 27005KT 2800 DU NSC 38/13 Q1000 NOSIG,M
VIDP,2022-05-14 04:30,102.20,55.40,21.36,270.00,5.00,0.00,29.53,M,1.74,M,NSC,M,M,M,M,M,M,M,DU,M,M,M,M,M,M,101.04,VIDP 140430Z 27005KT 2800 DU NSC 39/13 Q1000 BECMG 3000 HZ,M
VIDP,2022-05-14 05:00,104.00,48.20,15.52,300.00,9.00,0.00,29.56,M,1.86,M,NSC,M,M,M,M,M,M,M,HZ,M,M,M,M,M,M,100.65,VIDP 140500Z 30009KT 3000 HZ NSC 40/09 Q1001 NOSIG,M
VIDP,2022-05-14 05:30,105.80,44.60,12.84,300.00,9.00,0.00,29.53,M,2.17,M,NSC,M,M,M,M,M,M,M,HZ,M,M,M,M,M,M,101.53,VIDP 140530Z 30009KT 3500 HZ NSC 41/07 Q1000 NOSIG,M
VIDP,2022-05-14 06:00,107.60,44.60,12.18,300.00,8.00,0.00,29.53,M,2.17,M,NSC,M,M,M,M,M,M,M,HZ,M,M,M,M,M,M,103.15,VIDP 140600Z 30008KT 3500 HZ NSC 42/07 Q1000 NOSIG,M
VIDP,2022-05-14 06:30,107.60,44.60,12.18,290.00,6.00,0.00,29.53,M,2.17,M,NSC,M,M,M,M,M,M,M,HZ,M,M,M,M,M,M,103.15,VIDP 140630Z 29006KT 3500 HZ NSC 42/07 Q1000 NOSIG,M
VIDP,2022-05-14 07:00,107.60,44.60,12.18,300.00,8.00,0.00,29.53,M,2.17,M,NSC,M,M,M,M,M,M,M,HZ,M,M,M,M,M,M,103.15,VIDP 140700Z 30008KT 3500 HZ NSC 42/07 Q1000 NOSIG,M
VIDP,2022-05-14 07:30,109.40,44.60,11.55,310.00,6.00,0.00,29.53,M,2.17,M,NSC,M,M,M,M,M,M,M,HZ,M,M,M,M,M,M,104.78,VIDP 140730Z 31006KT 3500 HZ NSC 43/07 Q1000 NOSIG,M
VIDP,2022-05-14 08:00,109.40,41.00,10.06,300.00,9.00,0.00,29.50,M,2.49,M,NSC,M,M,M,M,M,M,M,HZ,M,M,M,M,M,M,103.77,VIDP 140800Z 30009KT 4000 HZ NSC 43/05 Q0999 NOSIG,M
VIDP,2022-05-14 08:30,109.40,39.20,9.38,310.00,9.00,0.00,29.50,M,2.49,M,NSC,M,M,M,M,M,M,M,HZ,M,M,M,M,M,M,103.33,VIDP 140830Z 31009KT 4000 HZ NSC 43/04 Q0999 NOSIG,M
VIDP,2022-05-14 09:00,111.20,39.20,8.90,290.00,10.00,0.00,29.47,M,2.49,M,NSC,M,M,M,M,M,M,M,HZ,M,M,M,M,M,M,104.98,VIDP 140900Z 29010KT 4000 HZ NSC 44/04 Q0998 NOSIG,M
VIDP,2022-05-14 09:30,111.20,39.20,8.90,280.00,8.00,0.00,29.47,M,2.49,M,NSC,M,M,M,M,M,M,M,HZ,M,M,M,M,M,M,104.98,VIDP 140930Z 28008KT 4000 HZ NSC 44/04 Q0998 NOSIG,M
VIDP,2022-05-14 10:00,111.20,39.20,8.90,290.00,9.00,0.00,29.44,M,2.49,M,NSC,M,M,M,M,M,M,M,HZ,M,M,M,M,M,M,104.98,VIDP 141000Z 29009KT 4000 HZ NSC 44/04 Q0997 NOSIG,M
VIDP,2022-05-14 10:30,109.40,39.20,9.38,310.00,8.00,0.00,29.44,M,2.49,M,NSC,M,M,M,M,M,M,M,HZ,M,M,M,M,M,M,103.33,VIDP 141030Z 31008KT 4000 HZ NSC 43/04 Q0997 NOSIG,M
VIDP,2022-05-14 11:00,109.40,39.20,9.38,300.00,9.00,0.00,29.44,M,2.49,M,NSC,M,M,M,M,M,M,M,HZ,M,M,M,M,M,M,103.33,VIDP 141100Z 30009KT 4000 HZ NSC 43/04 Q0997 NOSIG,M
VIDP,2022-05-14 11:30,109.40,39.20,9.38,300.00,8.00,0.00,29.44,M,2.49,M,NSC,M,M,M,M,M,M,M,HZ,M,M,M,M,M,M,103.33,VIDP 141130Z 30008KT 4000 HZ NSC 43/04 Q0997 NOSIG,M
VIDP,2022-05-14 12:00,109.40,37.40,8.74,290.00,9.00,0.00,29.44,M,2.49,M,NSC,M,M,M,M,M,M,M,HZ,M,M,M,M,M,M,102.93,VIDP 141200Z 29009KT 4000 HZ NSC 43/03 Q0997 NOSIG,M
VIDP,2022-05-14 12:30,109.40,39.20,9.38,300.00,6.00,0.00,29.44,M,2.49,M,NSC,M,M,M,M,M,M,M,HZ,M,M,M,M,M,M,103.33,VIDP 141230Z 30006KT 4000 HZ NSC 43/04 Q0997 NOSIG,M
VIDP,2022-05-14 13:00,107.60,39.20,9.89,300.00,7.00,0.00,29.44,M,2.49,M,NSC,M,M,M,M,M,M,M,HZ,M,M,M,M,M,M,101.73,VIDP 141300Z 30007KT 4000 HZ NSC 42/04 Q0997 NOSIG,M
VIDP,2022-05-14 13:30,105.80,39.20,10.43,290.00,5.00,0.00,29.47,M,2.49,M,NSC,M,M,M,M,M,M,M,HZ,M,M,M,M,M,M,100.14,VIDP 141330Z 29005KT 4000 HZ NSC 41/04 Q0998 NOSIG,M
VIDP,2022-05-14 14:00,104.00,41.00,11.79,290.00,5.00,0.00,29.47,M,2.49,M,NSC,M,M,M,M,M,M,M,HZ,M,M,M,M,M,M,98.97,VIDP 141400Z 29005KT 4000 HZ NSC 40/05 Q0998 NOSIG,M
VIDP,2022-05-14 14:30,102.20,39.20,11.60,0.00,0.00,0.00,29.47,M,2.49,M,NSC,M,M,M,M,M,M,M,HZ,M,M,M,M,M,M,96.99,VIDP 141430Z 00000KT 4000 HZ NSC 39/04 Q0998 NOSIG,M
VIDP,2022-05-14 15:00,100.40,39.20,12.25,0.00,0.00,0.00,29.47,M,2.49,M,NSC,M,M,M,M,M,M,M,HZ,M,M,M,M,M,M,95.43,VIDP 141500Z 00000KT 4000 HZ NSC 38/04 Q0998 NOSIG,M
VIDP,2022-05-14 15:30,100.40,41.00,13.14,0.00,0.00,0.00,29.50,M,2.49,M,NSC,M,M,M,M,M,M,M,HZ,M,M,M,M,M,M,95.79,VIDP 141530Z 00000KT 4000 HZ NSC 38/05 Q0999 NOSIG,M
VIDP,2022-05-14 16:00,98.60,41.00,13.87,0.00,0.00,0.00,29.50,M,2.49,M,NSC,M,M,M,M,M,M,M,HZ,M,M,M,M,M,M,94.09,VIDP 141600Z 00000KT 4000 HZ NSC 37/05 Q0999 NOSIG,M
VIDP,2022-05-14 16:30,96.80,42.80,15.71,0.00,0.00,0.00,29.50,M,2.17,M,NSC,M,M,M,M,M,M,M,HZ,M,M,M,M,M,M,92.57,VIDP 141630Z 00000KT 3500 HZ NSC 36/06 Q0999 NOSIG,M
VIDP,2022-05-14 17:00,95.00,42.80,16.60,0.00,0.00,0.00,29.50,M,2.17,M,NSC,M,M,M,M,M,M,M,HZ,M,M,M,M,M,M,90.86,VIDP 141700Z 00000KT 3500 HZ NSC 35/06 Q0999 NOSIG,M
VIDP,2022-05-14 17:30,93.20,42.80,17.55,0.00,0.00,0.00,29.50,M,2.17,M,NSC,M,M,M,M,M,M,M,HZ,M,M,M,M,M,M,89.17,VIDP 141730Z 00000KT 3500 HZ NSC 34/06 Q0999 NOSIG,M
VIDP,2022-05-14 18:00,91.40,44.60,19.89,0.00,0.00,0.00,29.50,M,2.17,M,NSC,M,M,M,M,M,M,M,HZ,M,M,M,M,M,M,87.68,VIDP 141800Z 00000KT 3500 HZ NSC 33/07 Q0999 NOSIG,M
VIDP,2022-05-14 18:30,91.40,44.60,19.89,0.00,0.00,0.00,29.50,M,2.17,M,NSC,M,M,M,M,M,M,M,HZ,M,M,M,M,M,M,87.68,VIDP 141830Z 00000KT 3500 HZ NSC 33/07 Q0999 NOSIG,M
VIDP,2022-05-14 19:00,91.40,44.60,19.89,0.00,0.00,0.00,29.47,M,2.17,M,NSC,M,M,M,M,M,M,M,HZ,M,M,M,M,M,M,87.68,VIDP 141900Z 00000KT 3500 HZ NSC 33/07 Q0998 NOSIG,M
VIDP,2022-05-14 19:30,89.60,44.60,21.04,0.00,0.00,0.00,29.47,M,2.17,M,NSC,M,M,M,M,M,M,M,HZ,M,M,M,M,M,M,86.07,VIDP 141930Z 00000KT 3500 HZ NSC 32/07 Q0998 NOSIG,M
VIDP,2022-05-14 20:00,87.80,44.60,22.27,0.00,0.00,0.00,29.47,M,2.17,M,NSC,M,M,M,M,M,M,M,HZ,M,M,M,M,M,M,84.53,VIDP 142000Z 00000KT 3500 HZ NSC 31/07 Q0998 NOSIG,M
VIDP,2022-05-14 20:30,87.80,46.40,23.85,0.00,0.00,0.00,29.47,M,2.17,M,NSC,M,M,M,M,M,M,M,HZ,M,M,M,M,M,M,84.68,VIDP 142030Z 00000KT 3500 HZ NSC 31/08 Q0998 NOSIG,M
VIDP,2022-05-14 21:00,87.80,46.40,23.85,0.00,0.00,0.00,29.47,M,2.17,M,NSC,M,M,M,M,M,M,M,HZ,M,M,M,M,M,M,84.68,VIDP 142100Z 00000KT 3500 HZ NSC 31/08 Q0998 NOSIG,M
VIDP,2022-05-14 21:30,87.80,46.40,23.85,0.00,0.00,0.00,29.47,M,2.17,M,NSC,M,M,M,M,M,M,M,HZ,M,M,M,M,M,M,84.68,VIDP 142130Z 00000KT 3500 HZ NSC 31/08 Q0998 NOSIG,M
VIDP,2022-05-14 22:00,87.80,46.40,23.85,0.00,0.00,0.00,29.47,M,2.17,M,NSC,M,M,M,M,M,M,M,HZ,M,M,M,M,M,M,84.68,VIDP 142200Z 00000KT 3500 HZ NSC 31/08 Q0998 NOSIG,M
VIDP,2022-05-14 22:30,87.80,48.20,25.52,0.00,0.00,0.00,29.47,M,2.17,M,NSC,M,M,M,M,M,M,M,HZ,M,M,M,M,M,M,84.87,VIDP 142230Z 00000KT 3500 HZ NSC 31/09 Q0998 NOSIG,M
VIDP,2022-05-14 23:00,86.00,48.20,27.03,0.00,0.00,0.00,29.50,M,1.99,M,NSC,M,M,M,M,M,M,M,HZ,M,M,M,M,M,M,83.40,VIDP 142300Z 00000KT 3200 HZ NSC 30/09 Q0999 BECMG 3000 HZ,M
VIDP,2022-05-14 23:30,86.00,50.00,28.90,0.00,0.00,0.00,29.50,M,1.86,M,NSC,M,M,M,M,M,M,M,HZ,M,M,M,M,M,M,83.62,VIDP 142330Z 00000KT 3000 HZ NSC 30/10 Q0999 NOSIG,M
VIDP,2022-05-15 00:00,86.00,50.00,28.90,0.00,0.00,0.00,29.50,M,1.86,M,NSC,M,M,M,M,M,M,M,HZ,M,M,M,M,M,M,83.62,VIDP 150000Z 00000KT 3000 HZ NSC 30/10 Q0999 NOSIG,M
VIDP,2022-05-15 00:30,86.00,50.00,28.90,80.00,4.00,0.00,29.53,M,1.86,M,NSC,M,M,M,M,M,M,M,HZ,M,M,M,M,M,M,83.62,VIDP 150030Z 08004KT 3000 HZ NSC 30/10 Q1000 NOSIG,M
VIDP,2022-05-15 01:00,86.00,50.00,28.90,0.00,0.00,0.00,29.53,M,1.55,M,NSC,M,M,M,M,M,M,M,DU,M,M,M,M,M,M,83.62,VIDP 150100Z 00000KT 2500 DU NSC 30/10 Q1000 NOSIG,M
VIDP,2022-05-15 01:30,87.80,51.80,29.18,0.00,0.00,0.00,29.53,M,1.55,M,NSC,M,M,M,M,M,M,M,DU,M,M,M,M,M,M,85.39,VIDP 150130Z 00000KT 2500 DU NSC 31/11 Q1000 NOSIG,M
VIDP,2022-05-15 02:00,89.60,51.80,27.56,0.00,0.00,0.00,29.56,M,1.37,M,NSC,M,M,M,M,M,M,M,DU,M,M,M,M,M,M,87.00,VIDP 150200Z 00000KT 2200 DU NSC 32/11 Q1001 NOSIG,M
VIDP,2022-05-15 02:30,91.40,51.80,26.05,240.00,4.00,0.00,29.56,M,1.37,M,NSC,M,M,M,M,M,M,M,DU,M,M,M,M,M,M,88.69,VIDP 150230Z 24004KT 2200 DU NSC 33/11 Q1001 NOSIG,M
VIDP,2022-05-15 03:00,93.20,51.80,24.63,270.00,5.00,0.00,29.56,M,1.55,M,NSC,M,M,M,M,M,M,M,DU,M,M,M,M,M,M,90.45,VIDP 150300Z 27005KT 2500 DU NSC 34/11 Q1001 BECMG 3000 DU,M
VIDP,2022-05-15 03:30,95.00,50.00,21.79,270.00,6.00,0.00,29.56,M,1.86,M,NSC,M,M,M,M,M,M,M,DU,M,M,M,M,M,M,91.89,VIDP 150330Z 27006KT 3000 DU NSC 35/10 Q1001 NOSIG,M
VIDP,2022-05-15 04:00,96.80,50.00,20.62,270.00,6.00,0.00,29.59,M,2.17,M,NSC,M,M,M,M,M,M,M,DU,M,M,M,M,M,M,93.71,VIDP 150400Z 27006KT 3500 DU NSC 36/10 Q1002 NOSIG,M
VIDP,2022-05-15 04:30,98.60,48.20,18.25,270.00,8.00,0.00,29.59,M,2.49,M,NSC,M,M,M,M,M,M,M,DU,M,M,M,M,M,M,95.17,VIDP 150430Z 27008KT 4000 DU NSC 37/09 Q1002 NOSIG,M
VIDP,2022-05-15 05:00,102.20,48.20,16.37,280.00,7.00,0.00,29.59,M,2.49,M,NSC,M,M,M,M,M,M,M,DU,M,M,M,M,M,M,98.83,VIDP 150500Z 28007KT 4000 DU NSC 39/09 Q1002 NOSIG,M
VIDP,2022-05-15 05:30,102.20,48.20,16.37,290.00,6.00,0.00,29.56,M,2.49,M,NSC,M,M,M,M,M,M,M,DU,M,M,M,M,M,M,98.83,VIDP 150530Z 29006KT 4000 DU NSC 39/09 Q1001 NOSIG,M
VIDP,2022-05-15 06:00,104.00,46.40,14.50,280.00,5.00,0.00,29.56,M,2.49,M,NSC,M,M,M,M,M,M,M,DU,M,M,M,M,M,M,100.21,VIDP 150600Z 28005KT 4000 DU NSC 40/08 Q1001 NOSIG,M
VIDP,2022-05-15 06:30,105.80,46.40,13.75,310.00,5.00,0.00,29.56,M,2.49,M,NSC,M,M,M,M,M,M,M,DU,M,M,M,M,M,M,101.97,VIDP 150630Z 31005KT 4000 DU NSC 41/08 Q1001 NOSIG,M
VIDP,2022-05-15 07:00,109.40,46.40,12.37,280.00,9.00,0.00,29.53,M,2.49,M,NSC,M,M,M,M,M,M,M,DU,M,M,M,M,M,M,105.36,VIDP 150700Z 28009KT 4000 DU NSC 43/08 Q1000 NOSIG,M
VIDP,2022-05-15 07:30,111.20,46.40,11.74,260.00,8.00,0.00,29.53,M,2.49,M,NSC,M,M,M,M,M,M,M,DU,M,M,M,M,M,M,107.02,VIDP 150730Z 26008KT 4000 DU NSC 44/08 Q1000 NOSIG,M
VIDP,2022-05-15 08:00,111.20,44.60,10.96,270.00,10.00,0.00,29.53,M,2.49,M,NSC,M,M,M,M,M,M,M,DU,M,M,M,M,M,M,106.44,VIDP 150800Z 27010KT 4000 DU NSC 44/07 Q1000 NOSIG,M
VIDP,2022-05-15 08:30,111.20,37.40,8.30,270.00,8.00,0.00,29.53,M,2.49,18.00,NSC,M,M,M,M,M,M,M,DU,M,M,M,M,M,M,104.58,VIDP 150830Z 27008G18KT 4000 DU NSC 44/03 Q1000 NOSIG,M
VIDP,2022-05-15 09:00,113.00,33.80,6.83,280.00,8.00,0.00,29.50,M,2.49,18.00,NSC,M,M,M,M,M,M,M,DU,M,M,M,M,M,M,105.58,VIDP 150900Z 28008G18KT 4000 DU NSC 45/01 Q0999 NOSIG,M
VIDP,2022-05-15 09:30,113.00,33.80,6.83,290.00,8.00,0.00,29.50,M,2.80,18.00,NSC,M,M,M,M,M,M,M,HZ,M,M,M,M,M,M,105.58,VIDP 150930Z 29008G18KT 4500 HZ NSC 45/01 Q0999 NOSIG,M
VIDP,2022-05-15 10:00,113.00,33.80,6.83,280.00,8.00,0.00,29.47,M,2.80,18.00,FEW,M,M,M,10000.00,M,M,M,HZ,M,M,M,M,M,M,105.58,VIDP 151000Z 28008G18KT 4500 HZ FEW100 45/01 Q0998 NOSIG,M
VIDP,2022-05-15 10:30,113.00,33.80,6.83,290.00,9.00,0.00,29.47,M,2.80,M,SCT,M,M,M,10000.00,M,M,M,HZ,M,M,M,M,M,M,105.58,VIDP 151030Z 29009KT 4500 HZ SCT100 45/01 Q0998 NOSIG,M
VIDP,2022-05-15 11:00,111.20,33.80,7.19,290.00,8.00,0.00,29.47,M,2.80,M,SCT,M,M,M,10000.00,M,M,M,HZ,M,M,M,M,M,M,103.88,VIDP 151100Z 29008KT 4500 HZ SCT100 44/01 Q0998 NOSIG,M
VIDP,2022-05-15 11:30,111.20,33.80,7.19,300.00,8.00,0.00,29.47,M,2.80,M,SCT,M,M,M,10000.00,M,M,M,HZ,M,M,M,M,M,M,103.88,VIDP 151130Z 30008KT 4500 HZ SCT100 44/01 Q0998 NOSIG,M
VIDP,2022-05-15 12:00,113.00,33.80,6.83,300.00,7.00,0.00,29.47,M,2.80,M,SCT,M,M,M,10000.00,M,M,M,HZ,M,M,M,M,M,M,105.58,VIDP 151200Z 30007KT 4500 HZ SCT100 45/01 Q0998 NOSIG,M
VIDP,2022-05-15 12:30,111.20,33.80,7.19,300.00,5.00,0.00,29.47,M,2.80,M,FEW,SCT,M,M,3500.00,10000.00,M,M,HZ,M,M,M,M,M,M,103.88,VIDP 151230Z 30005KT 4500 HZ FEW035 SCT100 44/01 Q0998 NOSIG,M
VIDP,2022-05-15 13:00,109.40,35.60,8.14,300.00,5.00,0.00,29.47,M,2.80,M,FEW,SCT,M,M,3500.00,10000.00,M,M,HZ,M,M,M,M,M,M,102.57,VIDP 151300Z 30005KT 4500 HZ FEW035 SCT100 43/02 Q0998 NOSIG,M
VIDP,2022-05-15 13:30,107.60,39.20,9.89,290.00,3.00,0.00,29.47,M,2.80,M,FEW,SCT,M,M,3500.00,10000.00,M,M,HZ,M,M,M,M,M,M,101.73,VIDP 151330Z 29003KT 4500 HZ FEW035 SCT100 42/04 Q0998 NOSIG,M
VIDP,2022-05-15 14:00,104.00,42.80,12.64,M,2.00,0.00,29.47,M,2.49,M,FEW,SCT,M,M,3500.00,10000.00,M,M,HZ,M,M,M,M,M,M,99.42,VIDP 151400Z VRB02KT 4000 HZ FEW035 SCT100 40/06 Q0998 NOSIG,M
VIDP,2022-05-15 14:30,104.00,44.60,13.54,M,2.00,0.00,29.50,M,2.49,M,FEW,SCT,M,M,3500.00,10000.00,M,M,HZ,M,M,M,M,M,M,99.82,VIDP 151430Z VRB02KT 4000 HZ FEW035 SCT100 40/07 Q0999 NOSIG,M
VIDP,2022-05-15 15:00,102.20,46.40,15.30,M,2.00,0.00,29.50,M,2.49,M,FEW,SCT,M,M,3500.00,10000.00,M,M,HZ,M,M,M,M,M,M,98.43,VIDP 151500Z VRB02KT 4000 HZ FEW035 SCT100 39/08 Q0999 NOSIG,M
VIDP,2022-05-15 15:30,100.40,46.40,16.15,M,2.00,0.00,29.50,M,2.49,M,FEW,SCT,M,M,3500.00,10000.00,M,M,HZ,M,M,M,M,M,M,96.63,VIDP 151530Z VRB02KT 4000 HZ FEW035 SCT100 38/08 Q0999 NOSIG,M
VIDP,2022-05-15 16:00,98.60,48.20,18.25,M,2.00,0.00,29.50,M,2.49,M,FEW,SCT,M,M,3500.00,10000.00,M,M,HZ,M,M,M,M,M,M,95.17,VIDP 151600Z VRB02KT 4000 HZ FEW035 SCT100 37/09 Q0999 NOSIG,M
VIDP,2022-05-15 16:30,100.40,50.00,18.48,140.00,6.00,0.00,29.53,M,2.17,M,FEW,SCT,M,M,3500.00,10000.00,M,M,HZ,M,M,M,M,M,M,97.42,VIDP 151630Z 14006KT 3500 HZ FEW035 SCT100 38/10 Q1000 NOSIG,M
VIDP,2022-05-15 17:00,98.60,53.60,22.29,110.00,6.00,0.00,29.53,M,2.17,M,FEW,SCT,M,M,3500.00,10000.00,M,M,HZ,M,M,M,M,M,M,96.51,VIDP 151700Z 11006KT 3500 HZ FEW035 SCT100 37/12 Q1000 NOSIG,M
VIDP,2022-05-15 17:30,98.60,55.40,23.81,140.00,3.00,0.00,29.53,M,2.17,M,FEW,SCT,M,M,3500.00,10000.00,M,M,HZ,M,M,M,M,M,M,97.09,VIDP 151730Z 14003KT 3500 HZ FEW035 SCT100 37/13 Q1000 NOSIG,M
VIDP,2022-05-15 18:00,98.60,59.00,27.10,150.00,4.00,0.00,29.53,M,2.17,M,FEW,SCT,M,M,3500.00,10000.00,M,M,HZ,M,M,M,M,M,M,98.52,VIDP 151800Z 15004KT 3500 HZ FEW035 SCT100 37/15 Q1000 NOSIG,M
VIDP,2022-05-15 18:30,98.60,59.00,27.10,170.00,4.00,0.00,29.53,M,2.17,M,FEW,SCT,M,M,3500.00,10000.00,M,M,HZ,M,M,M,M,M,M,98.52,VIDP 151830Z 17004KT 3500 HZ FEW035 SCT100 37/15 Q1000 NOSIG,M
VIDP,2022-05-15 19:00,96.80,59.00,28.63,180.00,4.00,0.00,29.50,M,1.99,M,FEW,SCT,M,M,3500.00,10000.00,M,M,HZ,M,M,M,M,M,M,96.50,VIDP 151900Z 18004KT 3200 HZ FEW035 SCT100 36/15 Q0999 BECMG 3000 HZ,M
VIDP,2022-05-15 19:30,96.80,59.00,28.63,230.00,4.00,0.00,29.50,M,1.86,M,FEW,SCT,M,M,3500.00,10000.00,M,M,HZ,M,M,M,M,M,M,96.50,VIDP 151930Z 23004KT 3000 HZ FEW035 SCT100 36/15 Q0999 NOSIG,M
VIDP,2022-05-15 20:00,96.80,55.40,25.15,220.00,4.00,0.00,29.50,M,1.86,M,FEW,SCT,M,M,3500.00,10000.00,M,M,HZ,M,M,M,M,M,M,95.14,VIDP 152000Z 22004KT 3000 HZ FEW035 SCT100 36/13 Q0999 NOSIG,M
VIDP,2022-05-15 20:30,98.60,51.80,20.87,220.00,4.00,0.00,29.50,M,1.86,M,FEW,SCT,M,M,3500.00,10000.00,M,M,HZ,M,M,M,M,M,M,96.00,VIDP 152030Z 22004KT 3000 HZ FEW035 SCT100 37/11 Q0999 NOSIG,M
VIDP,2022-05-15 21:00,98.60,48.20,18.25,230.00,7.00,0.00,29.50,M,2.17,M,FEW,SCT,M,M,3500.00,10000.00,M,M,HZ,M,M,M,M,M,M,95.17,VIDP 152100Z 23007KT 3500 HZ FEW035 SCT100 37/09 Q0999 NOSIG,M
VIDP,2022-05-15 21:30,98.60,46.40,17.05,230.00,8.00,0.00,29.50,M,2.17,M,FEW,SCT,M,M,3500.00,10000.00,M,M,HZ,M,M,M,M,M,M,94.84,VIDP 152130Z 23008KT 3500 HZ FEW035 SCT100 37/08 Q0999 NOSIG,M
VIDP,2022-05-15 22:00,98.60,46.40,17.05,250.00,8.00,0.00,29.50,M,2.17,M,FEW,SCT,M,M,3500.00,10000.00,M,M,HZ,M,M,M,M,M,M,94.84,VIDP 152200Z 25008KT 3500 HZ FEW035 SCT100 37/08 Q0999 NOSIG,M
VIDP,2022-05-15 22:30,98.60,46.40,17.05,280.00,9.00,0.00,29.50,M,2.17,M,FEW,SCT,M,M,3500.00,10000.00,M,M,HZ,M,M,M,M,M,M,94.84,VIDP 152230Z 28009KT 3500 HZ FEW035 SCT100 37/08 Q0999 NOSIG,M
VIDP,2022-05-15 23:00,96.80,46.40,18.02,230.00,10.00,0.00,29.50,M,2.17,M,FEW,SCT,M,M,3500.00,10000.00,M,M,HZ,M,M,M,M,M,M,93.05,VIDP 152300Z 23010KT 3500 HZ FEW035 SCT100 36/08 Q0999 BECMG 3000 HZ,M
VIDP,2022-05-15 23:30,95.00,44.60,17.78,240.00,10.00,0.00,29.50,M,1.86,M,FEW,SCT,M,M,3500.00,10000.00,M,M,HZ,M,M,M,M,M,M,91.06,VIDP 152330Z 24010KT 3000 HZ FEW035 SCT100 35/07 Q0999 NOSIG,M
VIDP,2022-05-16 00:00,95.00,44.60,17.78,250.00,10.00,0.00,29.50,M,1.86,M,FEW,SCT,M,M,3500.00,10000.00,M,M,HZ,M,M,M,M,M,M,91.06,VIDP 160000Z 25010KT 3000 HZ FEW035 SCT100 35/07 Q0999 NOSIG,M
VIDP,2022-05-16 00:30,95.00,44.60,17.78,270.00,8.00,0.00,29.50,M,1.86,M,FEW,SCT,M,M,3500.00,10000.00,M,M,HZ,M,M,M,M,M,M,91.06,VIDP 160030Z 27008KT 3000 HZ FEW035 SCT100 35/07 Q0999 NOSIG,M
VIDP,2022-05-16 01:00,96.80,44.60,16.83,250.00,7.00,0.00,29.50,M,1.86,M,FEW,SCT,M,M,3500.00,10000.00,M,M,HZ,M,M,M,M,M,M,92.79,VIDP 160100Z 25007KT 3000 HZ FEW035 SCT100 36/07 Q0999 NOSIG,M
VIDP,2022-05-16 01:30,96.80,44.60,16.83,260.00,7.00,0.00,29.53,M,1.55,M,FEW,SCT,M,M,3500.00,10000.00,M,M,HZ,M,M,M,M,M,M,92.79,VIDP 160130Z 26007KT 2500 HZ FEW035 SCT100 36/07 Q1000 NOSIG,M
VIDP,2022-05-16 02:00,96.80,44.60,16.83,250.00,7.00,0.00,29.56,M,1.30,M,FEW,SCT,M,M,3500.00,10000.00,M,M,HZ,M,M,M,M,M,M,92.79,VIDP 160200Z 25007KT 2100 HZ FEW035 SCT100 36/07 Q1001 NOSIG,M
VIDP,2022-05-16 02:30,96.80,42.80,15.71,260.00,9.00,0.00,29.56,M,1.55,M,SCT,BKN,M,M,3500.00,10000.00,M,M,HZ,M,M,M,M,M,M,92.57,VIDP 160230Z 26009KT 2500 HZ SCT035 BKN100 36/06 Q1001 NOSIG,M
VIDP,2022-05-16 03:00,98.60,41.00,13.87,250.00,9.00,0.00,29.56,M,1.55,M,SCT,BKN,M,M,3500.00,10000.00,M,M,HZ,M,M,M,M,M,M,94.09,VIDP 160300Z 25009KT 2500 HZ SCT035 BKN100 37/05 Q1001 NOSIG,M
VIDP,2022-05-16 03:30,98.60,37.40,12.05,210.00,5.00,0.00,29.59,M,1.74,M,SCT,BKN,M,M,3500.00,10000.00,M,M,HZ,M,M,M,M,M,M,93.54,VIDP 160330Z 21005KT 2800 HZ SCT035 BKN100 37/03 Q1002 BECMG 3000 HZ,M
VIDP,2022-05-16 04:00,98.60,37.40,12.05,260.00,7.00,0.00,29.59,M,1.86,M,SCT,BKN,M,M,3500.00,10000.00,M,M,DU,M,M,M,M,M,M,93.54,VIDP 160400Z 26007KT 3000 DU SCT035 BKN100 37/03 Q1002 NOSIG,M
VIDP,2022-05-16 04:30,100.40,37.40,11.41,280.00,8.00,0.00,29.59,M,1.86,18.00,SCT,BKN,M,M,3500.00,10000.00,M,M,DU,M,M,M,M,M,M,95.08,VIDP 160430Z 28008G18KT 3000 DU SCT035 BKN100 38/03 Q1002 NOSIG,M
VIDP,2022-05-16 05:00,102.20,35.60,10.07,270.00,8.00,0.00,29.59,M,1.86,18.00,SCT,BKN,M,M,3500.00,10000.00,M,M,DU,M,M,M,M,M,M,96.30,VIDP 160500Z 27008G18KT 3000 DU SCT035 BKN100 39/02 Q1002 NOSIG,M
VIDP,2022-05-16 05:30,102.20,33.80,9.37,270.00,10.00,0.00,29.59,M,1.86,20.00,SCT,BKN,M,M,3500.00,10000.00,M,M,DU,M,M,M,M,M,M,96.01,VIDP 160530Z 27010G20KT 3000 DU SCT035 BKN100 39/01 Q1002 NOSIG,M
VIDP,2022-05-16 06:00,102.20,35.60,10.07,270.00,12.00,0.00,29.56,M,1.86,22.00,SCT,BKN,M,M,3500.00,10000.00,M,M,DU,M,M,M,M,M,M,96.30,VIDP 160600Z 27012G22KT 3000 DU SCT035 BKN100 39/02 Q1001 NOSIG,M
VIDP,2022-05-16 06:30,104.00,33.80,8.88,280.00,8.00,0.00,29.56,M,1.55,18.00,SCT,BKN,M,M,3500.00,10000.00,M,M,DU,M,M,M,M,M,M,97.55,VIDP 160630Z 28008G18KT 2500 DU SCT035 BKN100 40/01 Q1001 NOSIG,M
VIDP,2022-05-16 07:00,105.80,33.80,8.42,290.00,8.00,0.00,29.56,M,1.55,18.00,SCT,BKN,M,M,3500.00,10000.00,M,M,DU,M,M,M,M,M,M,99.10,VIDP 160700Z 29008G18KT 2500 DU SCT035 BKN100 41/01 Q1001 NOSIG,M
VIDP,2022-05-16 07:30,105.80,33.80,8.42,310.00,8.00,0.00,29.56,M,1.55,18.00,SCT,BKN,M,M,3500.00,10000.00,M,M,DU,M,M,M,M,M,M,99.10,VIDP 160730Z 31008G18KT 2500 DU SCT035 BKN100 41/01 Q1001 NOSIG,M
VIDP,2022-05-16 08:00,105.80,35.60,9.05,290.00,8.00,0.00,29.53,M,1.74,18.00,SCT,BKN,M,M,3500.00,10000.00,M,M,BLDU,M,M,M,M,M,M,99.42,VIDP 160800Z 29008G18KT 2800 BLDU SCT035 BKN100 41/02 Q1000 NOSIG,M
VIDP,2022-05-16 08:30,105.80,35.60,9.05,290.00,8.00,0.00,29.53,M,1.74,18.00,SCT,BKN,M,M,3500.00,10000.00,M,M,BLDU,M,M,M,M,M,M,99.42,VIDP 160830Z 29008G18KT 2800 BLDU SCT035 BKN100 41/02 Q1000 NOSIG,M
VIDP,2022-05-16 09:00,105.80,35.60,9.05,300.00,8.00,0.00,29.50,M,1.74,18.00,SCT,BKN,M,M,3500.00,10000.00,M,M,BLDU,M,M,M,M,M,M,99.42,VIDP 160900Z 30008G18KT 2800 BLDU SCT035 BKN100 41/02 Q0999 BECMG 3000 BLDU,M
VIDP,2022-05-16 09:30,105.80,35.60,9.05,300.00,10.00,0.00,29.50,M,1.86,M,SCT,BKN,M,M,3500.00,10000.00,M,M,BLDU,M,M,M,M,M,M,99.42,VIDP 160930Z 30010KT 3000 BLDU SCT035 BKN100 41/02 Q0999 NOSIG,M
VIDP,2022-05-16 10:00,105.80,35.60,9.05,290.00,10.00,0.00,29.47,M,1.99,M,SCT,BKN,M,M,3500.00,10000.00,M,M,BLDU,M,M,M,M,M,M,99.42,VIDP 161000Z 29010KT 3200 BLDU SCT035 BKN100 41/02 Q0998 NOSIG,M
VIDP,2022-05-16 10:30,105.80,35.60,9.05,270.00,8.00,0.00,29.47,M,1.99,M,SCT,BKN,M,M,3500.00,10000.00,M,M,DU,M,M,M,M,M,M,99.42,VIDP 161030Z 27008KT 3200 DU SCT035 BKN100 41/02 Q0998 NOSIG,M
VIDP,2022-05-16 11:00,105.80,35.60,9.05,280.00,6.00,0.00,29.47,M,2.17,M,SCT,BKN,M,M,3500.00,10000.00,M,M,DU,M,M,M,M,M,M,99.42,VIDP 161100Z 28006KT 3500 DU SCT035 BKN100 41/02 Q0998 NOSIG,M
VIDP,2022-05-16 11:30,105.80,35.60,9.05,280.00,9.00,0.00,29.44,M,2.17,M,SCT,BKN,M,M,3500.00,10000.00,M,M,DU,M,M,M,M,M,M,99.42,VIDP 161130Z 28009KT 3500 DU SCT035 BKN100 41/02 Q0997 NOSIG,M
VIDP,2022-05-16 12:00,105.80,35.60,9.05,270.00,6.00,0.00,29.44,M,2.17,M,SCT,BKN,M,M,3500.00,10000.00,M,M,DU,M,M,M,M,M,M,99.42,VIDP 161200Z 27006KT 3500 DU SCT035 BKN100 41/02 Q0997 NOSIG,M
VIDP,2022-05-16 12:30,104.00,37.40,10.25,270.00,4.00,0.00,29.44,M,2.17,M,FEW,SCT,M,M,4000.00,10000.00,M,M,DU,M,M,M,M,M,M,98.19,VIDP 161230Z 27004KT 3500 DU FEW040 SCT100 40/03 Q0997 NOSIG,M
VIDP,2022-05-16 13:00,104.00,39.20,11.00,260.00,4.00,0.00,29.47,M,2.17,M,FEW,M,M,M,10000.00,M,M,M,DU,M,M,M,M,M,M,98.56,VIDP 161300Z 26004KT 3500 DU FEW100 40/04 Q0998 NOSIG,M
VIDP,2022-05-16 13:30,102.20,39.20,11.60,290.00,6.00,0.00,29.47,M,1.99,M,FEW,M,M,M,10000.00,M,M,M,DU,M,M,M,M,M,M,96.99,VIDP 161330Z 29006KT 3200 DU FEW100 39/04 Q0998 BECMG 3000 DU,M
VIDP,2022-05-16 14:00,102.20,41.00,12.44,290.00,5.00,0.00,29.47,M,1.86,M,FEW,M,M,M,10000.00,M,M,M,DU,M,M,M,M,M,M,97.39,VIDP 161400Z 29005KT 3000 DU FEW100 39/05 Q0998 NOSIG,M
VIDP,2022-05-16 14:30,100.40,41.00,13.14,300.00,4.00,0.00,29.47,M,1.86,M,FEW,M,M,M,10000.00,M,M,M,HZ,M,M,M,M,M,M,95.79,VIDP 161430Z 30004KT 3000 HZ FEW100 38/05 Q0998 NOSIG,M
VIDP,2022-05-16 15:00,100.40,41.00,13.14,320.00,4.00,0.00,29.50,M,1.86,M,FEW,M,M,M,10000.00,M,M,M,HZ,M,M,M,M,M,M,95.79,VIDP 161500Z 32004KT 3000 HZ FEW100 38/05 Q0999 NOSIG,M
VIDP,2022-05-16 15:30,98.60,41.00,13.87,340.00,4.00,0.00,29.50,M,1.86,M,FEW,M,M,M,10000.00,M,M,M,HZ,M,M,M,M,M,M,94.09,VIDP 161530Z 34004KT 3000 HZ FEW100 37/05 Q0999 NOSIG,M
VIDP,2022-05-16 16:00,95.00,42.80,16.60,40.00,6.00,0.00,29.53,M,1.74,16.00,FEW,M,M,M,10000.00,M,M,M,HZ,M,M,M,M,M,M,90.86,VIDP 161600Z 04006G16KT 2800 HZ FEW100 35/06 Q1000 NOSIG,M
VIDP,2022-05-16 16:30,93.20,42.80,17.55,30.00,6.00,0.00,29.53,M,1.74,16.00,FEW,M,M,M,10000.00,M,M,M,HZ,M,M,M,M,M,M,89.17,VIDP 161630Z 03006G16KT 2800 HZ FEW100 34/06 Q1000 NOSIG,M
VIDP,2022-05-16 17:00,93.20,42.80,17.55,60.00,6.00,0.00,29.53,M,1.74,16.00,FEW,M,M,M,10000.00,M,M,M,HZ,M,M,M,M,M,M,89.17,VIDP 161700Z 06006G16KT 2800 HZ FEW100 34/06 Q1000 NOSIG,M
VIDP,2022-05-16 17:30,91.40,44.60,19.89,70.00,6.00,0.00,29.56,M,1.74,16.00,NSC,M,M,M,M,M,M,M,HZ,M,M,M,M,M,M,87.68,VIDP 161730Z 07006G16KT 2800 HZ NSC 33/07 Q1001 NOSIG,M
VIDP,2022-05-16 18:00,89.60,46.40,22.53,70.00,6.00,0.00,29.56,M,1.74,16.00,NSC,M,M,M,M,M,M,M,HZ,M,M,M,M,M,M,86.24,VIDP 161800Z 07006G16KT 2800 HZ NSC 32/08 Q1001 NOSIG,M
VIDP,2022-05-16 18:30,87.80,46.40,23.85,60.00,6.00,0.00,29.56,M,1.74,16.00,NSC,M,M,M,M,M,M,M,HZ,M,M,M,M,M,M,84.68,VIDP 161830Z 06006G16KT 2800 HZ NSC 31/08 Q1001 NOSIG,M
VIDP,2022-05-16 19:00,87.80,46.40,23.85,50.00,6.00,0.00,29.56,M,1.74,16.00,NSC,M,M,M,M,M,M,M,HZ,M,M,M,M,M,M,84.68,VIDP 161900Z 05006G16KT 2800 HZ NSC 31/08 Q1001 NOSIG,M
VIDP,2022-05-16 19:30,87.80,46.40,23.85,60.00,7.00,0.00,29.56,M,1.74,M,NSC,M,M,M,M,M,M,M,HZ,M,M,M,M,M,M,84.68,VIDP 161930Z 06007KT 2800 HZ NSC 31/08 Q1001 NOSIG,M
VIDP,2022-05-16 20:00,87.80,48.20,25.52,90.00,7.00,0.00,29.53,M,1.74,M,NSC,M,M,M,M,M,M,M,HZ,M,M,M,M,M,M,84.87,VIDP 162000Z 09007KT 2800 HZ NSC 31/09 Q1000 NOSIG,M
VIDP,2022-05-16 20:30,87.80,48.20,25.52,100.00,7.00,0.00,29.53,M,1.74,M,NSC,M,M,M,M,M,M,M,HZ,M,M,M,M,M,M,84.87,VIDP 162030Z 10007KT 2800 HZ NSC 31/09 Q1000 NOSIG,M
VIDP,2022-05-16 21:00,86.00,50.00,28.90,100.00,6.00,0.00,29.53,M,1.74,M,NSC,M,M,M,M,M,M,M,HZ,M,M,M,M,M,M,83.62,VIDP 162100Z 10006KT 2800 HZ NSC 30/10 Q1000 NOSIG,M
VIDP,2022-05-16 21:30,86.00,50.00,28.90,110.00,7.00,0.00,29.53,M,1.74,M,NSC,M,M,M,M,M,M,M,HZ,M,M,M,M,M,M,83.62,VIDP 162130Z 11007KT 2800 HZ NSC 30/10 Q1000 NOSIG,M
VIDP,2022-05-16 22:00,86.00,51.80,30.90,120.00,4.00,0.00,29.53,M,1.74,M,NSC,M,M,M,M,M,M,M,HZ,M,M,M,M,M,M,83.87,VIDP 162200Z 12004KT 2800 HZ NSC 30/11 Q1000 NOSIG,M
VIDP,2022-05-16 22:30,84.20,53.60,34.97,120.00,4.00,0.00,29.53,M,1.74,M,NSC,M,M,M,M,M,M,M,HZ,M,M,M,M,M,M,82.76,VIDP 162230Z 12004KT 2800 HZ NSC 29/12 Q1000 BECMG 3000 HZ,M
VIDP,2022-05-16 23:00,84.20,55.40,37.35,130.00,6.00,0.00,29.53,M,1.99,M,NSC,M,M,M,M,M,M,M,HZ,M,M,M,M,M,M,83.09,VIDP 162300Z 13006KT 3200 HZ NSC 29/13 Q1000 NOSIG,M
VIDP,2022-05-16 23:30,84.20,55.40,37.35,80.00,5.00,0.00,29.53,M,1.99,M,NSC,M,M,M,M,M,M,M,HZ,M,M,M,M,M,M,83.09,VIDP 162330Z 08005KT 3200 HZ NSC 29/13 Q1000 NOSIG,M
VIDP,2022-05-17 00:00,84.20,57.20,39.86,90.00,4.00,0.00,29.56,M,1.99,M,NSC,M,M,M,M,M,M,M,HZ,M,M,M,M,M,M,83.47,VIDP 170000Z 09004KT 3200 HZ NSC 29/14 Q1001 NOSIG,M
VIDP,2022-05-17 00:30,84.20,59.00,42.52,170.00,5.00,0.00,29.56,M,1.99,M,NSC,M,M,M,M,M,M,M,HZ,M,M,M,M,M,M,83.92,VIDP 170030Z 17005KT 3200 HZ NSC 29/15 Q1001 NOSIG,M
VIDP,2022-05-17 01:00,84.20,59.00,42.52,150.00,4.00,0.00,29.56,M,1.99,M,NSC,M,M,M,M,M,M,M,HZ,M,M,M,M,M,M,83.92,VIDP 170100Z 15004KT 3200 HZ NSC 29/15 Q1001 NOSIG,M
VIDP,2022-05-17 01:30,86.00,59.00,40.14,120.00,4.00,0.00,29.59,M,1.99,M,NSC,M,M,M,M,M,M,M,HZ,M,M,M,M,M,M,85.47,VIDP 170130Z 12004KT 3200 HZ NSC 30/15 Q1002 NOSIG,M
VIDP,2022-05-17 02:00,86.00,59.00,40.14,150.00,5.00,0.00,29.59,M,1.99,M,NSC,M,M,M,M,M,M,M,HZ,M,M,M,M,M,M,85.47,VIDP 170200Z 15005KT 3200 HZ NSC 30/15 Q1002 NOSIG,M
VIDP,2022-05-17 02:30,86.00,60.80,42.80,130.00,4.00,0.00,29.59,M,2.17,M,NSC,M,M,M,M,M,M,M,HZ,M,M,M,M,M,M,86.05,VIDP 170230Z 13004KT 3500 HZ NSC 30/16 Q1002 NOSIG,M
VIDP,2022-05-17 03:00,87.80,60.80,40.41,110.00,7.00,0.00,29.62,M,2.17,M,NSC,M,M,M,M,M,M,M,HZ,M,M,M,M,M,M,87.75,VIDP 170300Z 11007KT 3500 HZ NSC 31/16 Q1003 NOSIG,M
VIDP,2022-05-17 03:30,89.60,60.80,38.18,120.00,7.00,0.00,29.62,M,2.17,M,NSC,M,M,M,M,M,M,M,HZ,M,M,M,M,M,M,89.54,VIDP 170330Z 12007KT 3500 HZ NSC 32/16 Q1003 NOSIG,M
VIDP,2022-05-17 04:00,91.40,60.80,36.08,120.00,5.00,0.00,29.62,M,2.49,M,NSC,M,M,M,M,M,M,M,HZ,M,M,M,M,M,M,91.40,VIDP 170400Z 12005KT 4000 HZ NSC 33/16 Q1003 NOSIG,M
VIDP,2022-05-17 04:30,95.00,59.00,30.26,90.00,3.00,0.00,29.62,M,2.49,M,NSC,M,M,M,M,M,M,M,HZ,M,M,M,M,M,M,94.51,VIDP 170430Z 09003KT 4000 HZ NSC 35/15 Q1003 NOSIG,M
VIDP,2022-05-17 05:00,96.80,57.20,26.84,220.00,5.00,0.00,29.62,M,2.49,M,NSC,M,M,M,M,M,M,M,HZ,M,M,M,M,M,M,95.77,VIDP 170500Z 22005KT 4000 HZ NSC 36/14 Q1003 NOSIG,M
VIDP,2022-05-17 05:30,98.60,55.40,23.81,240.00,5.00,0.00,29.62,M,2.49,M,NSC,M,M,M,M,M,M,M,HZ,M,M,M,M,M,M,97.09,VIDP 170530Z 24005KT 4000 HZ NSC 37/13 Q1003 NOSIG,M
VIDP,2022-05-17 06:00,100.40,53.60,21.11,290.00,5.00,0.00,29.59,M,2.49,M,NSC,M,M,M,M,M,M,M,HZ,M,M,M,M,M,M,98.44,VIDP 170600Z 29005KT 4000 HZ NSC 38/12 Q1002 NOSIG,M
VIDP,2022-05-17 06:30,102.20,51.80,18.72,280.00,5.00,0.00,29.59,M,2.17,M,NSC,M,M,M,M,M,M,M,DU,M,M,M,M,M,M,99.80,VIDP 170630Z 28005KT 3500 DU NSC 39/11 Q1002 NOSIG,M
VIDP,2022-05-17 07:00,104.00,50.00,16.59,310.00,6.00,0.00,29.59,M,2.17,M,NSC,M,M,M,M,M,M,M,DU,M,M,M,M,M,M,101.14,VIDP 170700Z 31006KT 3500 DU NSC 40/10 Q1002 NOSIG,M
VIDP,2022-05-17 07:30,105.80,48.20,14.71,290.00,8.00,0.00,29.56,M,2.17,M,FEW,M,M,M,10000.00,M,M,M,DU,M,M,M,M,M,M,102.45,VIDP 170730Z 29008KT 3500 DU FEW100 41/09 Q1001 NOSIG,M
VIDP,2022-05-17 08:00,105.80,48.20,14.71,320.00,7.00,0.00,29.56,M,2.17,M,FEW,M,M,M,10000.00,M,M,M,DU,M,M,M,M,M,M,102.45,VIDP 170800Z 32007KT 3500 DU FEW100 41/09 Q1001 NOSIG,M
VIDP,2022-05-17 08:30,105.80,48.20,14.71,300.00,6.00,0.00,29.53,M,2.17,M,FEW,M,M,M,10000.00,M,M,M,DU,M,M,M,M,M,M,102.45,VIDP 170830Z 30006KT 3500 DU FEW100 41/09 Q1000 NOSIG,M
VIDP,2022-05-17 09:00,105.80,48.20,14.71,320.00,6.00,0.00,29.53,M,2.17,M,FEW,M,M,M,10000.00,M,M,M,DU,M,M,M,M,M,M,102.45,VIDP 170900Z 32006KT 3500 DU FEW100 41/09 Q1000 NOSIG,M
VIDP,2022-05-17 09:30,107.60,46.40,13.04,310.00,4.00,0.00,29.50,M,2.17,M,FEW,M,M,M,10000.00,M,M,M,DU,M,M,M,M,M,M,103.71,VIDP 170930Z 31004KT 3500 DU FEW100 42/08 Q0999 NOSIG,M
VIDP,2022-05-17 10:00,107.60,46.40,13.04,310.00,7.00,0.00,29.50,M,2.17,M,FEW,M,M,M,10000.00,M,M,M,DU,M,M,M,M,M,M,103.71,VIDP 171000Z 31007KT 3500 DU FEW100 42/08 Q0999 NOSIG,M
VIDP,2022-05-17 10:30,107.60,44.60,12.18,320.00,7.00,0.00,29.50,M,2.17,M,FEW,M,M,M,10000.00,M,M,M,DU,M,M,M,M,M,M,103.15,VIDP 171030Z 32007KT 3500 DU FEW100 42/07 Q0999 NOSIG,M
VIDP,2022-05-17 11:00,107.60,44.60,12.18,330.00,5.00,0.00,29.47,M,2.17,M,FEW,M,M,M,10000.00,M,M,M,DU,M,M,M,M,M,M,103.15,VIDP 171100Z 33005KT 3500 DU FEW100 42/07 Q0998 NOSIG,M
VIDP,2022-05-17 11:30,107.60,44.60,12.18,320.00,5.00,0.00,29.47,M,2.17,M,FEW,M,M,M,10000.00,M,M,M,DU,M,M,M,M,M,M,103.15,VIDP 171130Z 32005KT 3500 DU FEW100 42/07 Q0998 NOSIG,M
VIDP,2022-05-17 12:00,104.00,53.60,18.95,50.00,6.00,0.00,29.47,M,2.17,M,FEW,SCT,M,M,4000.00,10000.00,M,M,DU,M,M,M,M,M,M,102.31,VIDP 171200Z 05006KT 3500 DU FEW040 SCT100 40/12 Q0998 NOSIG,M
VIDP,2022-05-17 12:30,102.20,55.40,21.36,50.00,7.00,0.00,29.47,M,2.17,M,FEW,SCT,M,M,4000.00,10000.00,M,M,DU,M,M,M,M,M,M,101.04,VIDP 171230Z 05007KT 3500 DU FEW040 SCT100 39/13 Q0998 NOSIG,M
VIDP,2022-05-17 13:00,100.40,57.20,24.06,50.00,7.00,0.00,29.50,M,2.17,M,FEW,SCT,M,M,4000.00,10000.00,M,M,DU,M,M,M,M,M,M,99.77,VIDP 171300Z 05007KT 3500 DU FEW040 SCT100 38/14 Q0999 NOSIG,M
VIDP,2022-05-17 13:30,100.40,57.20,24.06,40.00,6.00,0.00,29.50,M,2.17,M,FEW,SCT,M,M,4000.00,10000.00,M,M,DU,M,M,M,M,M,M,99.77,VIDP 171330Z 04006KT 3500 DU FEW040 SCT100 38/14 Q0999 NOSIG,M
VIDP,2022-05-17 14:00,98.60,59.00,27.10,40.00,6.00,0.00,29.50,M,2.17,M,FEW,SCT,M,M,4000.00,10000.00,M,M,DU,M,M,M,M,M,M,98.52,VIDP 171400Z 04006KT 3500 DU FEW040 SCT100 37/15 Q0999 NOSIG,M
VIDP,2022-05-17 14:30,96.80,59.00,28.63,90.00,5.00,0.00,29.53,M,2.17,M,FEW,SCT,M,M,4000.00,10000.00,M,M,DU,M,M,M,M,M,M,96.50,VIDP 171430Z 09005KT 3500 DU FEW040 SCT100 36/15 Q1000 NOSIG,M
VIDP,2022-05-17 15:00,96.80,59.00,28.63,110.00,5.00,0.00,29.53,M,2.17,M,FEW,SCT,M,M,4000.00,10000.00,M,M,DU,M,M,M,M,M,M,96.50,VIDP 171500Z 11005KT 3500 DU FEW040 SCT100 36/15 Q1000 NOSIG,M
VIDP,2022-05-17 15:30,95.00,60.80,32.27,100.00,5.00,0.00,29.53,M,1.99,M,FEW,SCT,M,M,4000.00,10000.00,M,M,DU,M,M,M,M,M,M,95.30,VIDP 171530Z 10005KT 3200 DU FEW040 SCT100 35/16 Q1000 BECMG 3000 HZ,M
VIDP,2022-05-17 16:00,95.00,60.80,32.27,90.00,4.00,0.00,29.56,M,1.86,M,FEW,SCT,M,M,3500.00,10000.00,M,M,HZ,M,M,M,M,M,M,95.30,VIDP 171600Z 09004KT 3000 HZ FEW035 SCT100 35/16 Q1001 NOSIG,M
VIDP,2022-05-17 16:30,95.00,60.80,32.27,80.00,4.00,0.00,29.56,M,1.86,M,FEW,SCT,M,M,3500.00,10000.00,M,M,HZ,M,M,M,M,M,M,95.30,VIDP 171630Z 08004KT 3000 HZ FEW035 SCT100 35/16 Q1001 NOSIG,M
VIDP,2022-05-17 17:00,91.40,60.80,36.08,70.00,5.00,0.00,29.56,M,1.86,M,FEW,SCT,M,M,3500.00,10000.00,M,M,HZ,M,M,M,M,M,M,91.40,VIDP 171700Z 07005KT 3000 HZ FEW035 SCT100 33/16 Q1001 NOSIG,M
VIDP,2022-05-17 17:30,91.40,62.60,38.45,80.00,4.00,0.00,29.56,M,1.86,M,FEW,SCT,M,M,3500.00,10000.00,M,M,HZ,M,M,M,M,M,M,92.23,VIDP 171730Z 08004KT 3000 HZ FEW035 SCT100 33/17 Q1001 NOSIG,M
VIDP,2022-05-17 18:00,91.40,64.40,40.96,80.00,3.00,0.00,29.56,M,1.86,M,SCT,BKN,M,M,3500.00,10000.00,M,M,HZ,M,M,M,M,M,M,93.19,VIDP 171800Z 08003KT 3000 HZ SCT035 BKN100 33/18 Q1001 NOSIG,M
VIDP,2022-05-17 18:30,89.60,64.40,43.34,60.00,5.00,0.00,29.56,M,1.86,M,SCT,FEW,BKN,M,3500.00,4000.00,10000.00,M,HZ,M,M,M,M,M,M,91.23,VIDP 171830Z 06005KT 3000 HZ SCT035 FEW040CB BKN100 32/18 Q1001 NOSIG,M
VIDP,2022-05-17 19:00,91.40,62.60,38.45,170.00,5.00,0.00,29.59,M,1.86,M,SCT,FEW,BKN,M,3500.00,4000.00,10000.00,M,HZ,M,M,M,M,M,M,92.23,VIDP 171900Z 17005KT 3000 HZ SCT035 FEW040CB BKN100 33/17 Q1002 NOSIG,M
VIDP,2022-05-17 19:30,91.40,64.40,40.96,110.00,4.00,0.00,29.59,M,1.86,M,SCT,FEW,BKN,M,3500.00,4000.00,10000.00,M,HZ,M,M,M,M,M,M,93.19,VIDP 171930Z 11004KT 3000 HZ SCT035 FEW040CB BKN100 33/18 Q1002 TEMPO 34015G35KT 1000 DS TSRA,M
VIDP,2022-05-17 20:00,89.60,64.40,43.34,100.00,3.00,0.00,29.59,M,1.86,M,SCT,FEW,BKN,M,3500.00,4000.00,10000.00,M,HZ,M,M,M,M,M,M,91.23,VIDP 172000Z 10003KT 3000 HZ SCT035 FEW040CB BKN100 32/18 Q1002 TEMPO 34015G35KT 1000 DS TSRA,M
VIDP,2022-05-17 20:30,91.40,64.40,40.96,300.00,3.00,0.00,29.59,M,1.86,M,SCT,FEW,BKN,M,3500.00,4000.00,10000.00,M,HZ,M,M,M,M,M,M,93.19,VIDP 172030Z 30003KT 3000 HZ SCT035 FEW040CB BKN100 33/18 Q1002 TEMPO 34015G35KT 1000 DS TSRA,M
VIDP,2022-05-17 21:00,89.60,64.40,43.34,80.00,5.00,0.00,29.59,M,1.86,M,SCT,FEW,BKN,M,3000.00,3500.00,10000.00,M,HZ,M,M,M,M,M,M,91.23,VIDP 172100Z 08005KT 3000 HZ SCT030 FEW035CB BKN100 32/18 Q1002 NOSIG,M
VIDP,2022-05-17 21:30,89.60,64.40,43.34,40.00,4.00,0.00,29.59,M,1.86,M,SCT,FEW,BKN,M,3000.00,3500.00,10000.00,M,HZ,M,M,M,M,M,M,91.23,VIDP 172130Z 04004KT 3000 HZ SCT030 FEW035CB BKN100 32/18 Q1002 TEMPO 34015G35KT 1000 DS TSRA,M
VIDP,2022-05-17 22:00,89.60,66.20,46.14,280.00,3.00,0.00,29.59,M,1.86,M,SCT,FEW,BKN,M,3000.00,3500.00,10000.00,M,HZ,M,M,M,M,M,M,92.27,VIDP 172200Z 28003KT 3000 HZ SCT030 FEW035CB BKN100 32/19 Q1002 TEMPO 34015G35KT 1000 DS TSRA,M
VIDP,2022-05-17 22:30,89.60,64.40,43.34,230.00,9.00,0.00,29.59,M,1.86,19.00,SCT,FEW,BKN,M,3000.00,3500.00,10000.00,M,TS,M,M,M,M,M,M,91.23,VIDP 172230Z 23009G19KT 3000 TS SCT030 FEW035CB BKN100 32/18 Q1002 TEMPO 34015G35KT 1000 DS TSRA,M
VIDP,2022-05-17 23:00,93.20,59.00,31.99,220.00,15.00,0.00,29.59,M,1.74,25.00,SCT,FEW,BKN,M,3000.00,3500.00,10000.00,M,-TSRA,M,M,M,M,M,M,92.57,VIDP 172300Z 22015G25KT 2800 -TSRA SCT030 FEW035CB BKN100 34/15 Q1002 TEMPO 34015G35KT 1000 DS TSRA,M
VIDP,2022-05-17 23:30,95.00,55.40,26.58,150.00,10.00,0.00,29.59,M,1.74,M,SCT,FEW,BKN,M,3000.00,3500.00,10000.00,M,TS,M,M,M,M,M,M,93.22,VIDP 172330Z 15010KT 2800 TS SCT030 FEW035CB BKN100 35/13 Q1002 TEMPO 34015G35KT 1000 DS TSRA,M
VIDP,2022-05-18 00:00,95.00,51.80,23.30,140.00,10.00,0.00,29.59,M,1.74,20.00,SCT,FEW,BKN,M,3000.00,3500.00,10000.00,M,TS,M,M,M,M,M,M,92.26,VIDP 180000Z 14010G20KT 2800 TS SCT030 FEW035CB BKN100 35/11 Q1002 NOSIG,M
VIDP,2022-05-18 00:30,93.20,50.00,23.04,130.00,8.00,0.00,29.59,M,1.74,M,SCT,FEW,BKN,M,3000.00,3500.00,10000.00,M,TS,M,M,M,M,M,M,90.10,VIDP 180030Z 13008KT 2800 TS SCT030 FEW035CB BKN100 34/10 Q1002 NOSIG,M
VIDP,2022-05-18 01:00,93.20,48.20,21.54,100.00,8.00,0.00,29.62,M,1.74,M,SCT,FEW,BKN,M,3000.00,3500.00,10000.00,M,TS,M,M,M,M,M,M,89.80,VIDP 180100Z 10008KT 2800 TS SCT030 FEW035CB BKN100 34/09 Q1003 BECMG 3000 HZ,M
VIDP,2022-05-18 01:30,93.20,48.20,21.54,90.00,10.00,0.00,29.62,M,1.37,M,SCT,FEW,BKN,M,3000.00,3500.00,10000.00,M,HZ,M,M,M,M,M,M,89.80,VIDP 180130Z 09010KT 2200 HZ SCT030 FEW035CB BKN100 34/09 Q1003 NOSIG,M
VIDP,2022-05-18 02:00,93.20,51.80,24.63,100.00,10.00,0.00,29.62,M,1.37,M,SCT,BKN,M,M,3500.00,10000.00,M,M,HZ,M,M,M,M,M,M,90.45,VIDP 180200Z 10010KT 2200 HZ SCT035 BKN100 34/11 Q1003 NOSIG,M
VIDP,2022-05-18 02:30,95.00,57.20,28.37,140.00,8.00,0.00,29.62,M,1.55,M,FEW,SCT,M,M,4000.00,10000.00,M,M,DU,M,M,M,M,M,M,93.82,VIDP 180230Z 14008KT 2500 DU FEW040 SCT100 35/14 Q1003 NOSIG,M
VIDP,2022-05-18 03:00,96.80,55.40,25.15,110.00,6.00,0.00,29.65,M,1.74,M,FEW,SCT,M,M,4000.00,10000.00,M,M,DU,M,M,M,M,M,M,95.14,VIDP 180300Z 11006KT 2800 DU FEW040 SCT100 36/13 Q1004 BECMG 3000 HZ,M
VIDP,2022-05-18 03:30,98.60,55.40,23.81,40.00,4.00,0.00,29.65,M,1.86,M,FEW,SCT,M,M,4000.00,10000.00,M,M,HZ,M,M,M,M,M,M,97.09,VIDP 180330Z 04004KT 3000 HZ FEW040 SCT100 37/13 Q1004 NOSIG,M
VIDP,2022-05-18 04:00,100.40,53.60,21.11,90.00,5.00,0.00,29.65,M,2.17,M,FEW,SCT,M,M,4000.00,10000.00,M,M,HZ,M,M,M,M,M,M,98.44,VIDP 180400Z 09005KT 3500 HZ FEW040 SCT100 38/12 Q1004 NOSIG,M
VIDP,2022-05-18 04:30,100.40,51.80,19.76,110.00,4.00,0.00,29.65,M,2.49,M,FEW,SCT,M,M,4000.00,10000.00,M,M,HZ,M,M,M,M,M,M,97.90,VIDP 180430Z 11004KT 4000 HZ FEW040 SCT100 38/11 Q1004 NOSIG,M
VIDP,2022-05-18 05:00,102.20,50.00,17.51,110.00,4.00,0.00,29.65,M,2.49,M,FEW,SCT,M,M,4000.00,10000.00,M,M,HZ,M,M,M,M,M,M,99.28,VIDP 180500Z 11004KT 4000 HZ FEW040 SCT100 39/10 Q1004 NOSIG,M
VIDP,2022-05-18 05:30,104.00,50.00,16.59,120.00,4.00,0.00,29.65,M,2.49,M,FEW,SCT,M,M,4000.00,10000.00,M,M,HZ,M,M,M,M,M,M,101.14,VIDP 180530Z 12004KT 4000 HZ FEW040 SCT100 40/10 Q1004 NOSIG,M
VIDP,2022-05-18 06:00,105.80,50.00,15.73,120.00,4.00,0.00,29.65,M,2.49,M,FEW,SCT,M,M,4000.00,10000.00,M,M,HZ,M,M,M,M,M,M,102.98,VIDP 180600Z 12004KT 4000 HZ FEW040 SCT100 41/10 Q1004 NOSIG,M
VIDP,2022-05-18 06:30,105.80,50.00,15.73,170.00,5.00,0.00,29.65,M,2.80,M,FEW,SCT,M,M,4000.00,10000.00,M,M,HZ,M,M,M,M,M,M,102.98,VIDP 180630Z 17005KT 4500 HZ FEW040 SCT100 41/10 Q1004 BECMG 5000 HZ,M
VIDP,2022-05-18 07:00,105.80,51.80,16.82,350.00,7.00,0.00,29.65,M,3.11,M,FEW,SCT,M,M,4000.00,10000.00,M,M,HZ,M,M,M,M,M,M,103.57,VIDP 180700Z 35007KT 5000 HZ FEW040 SCT100 41/11 Q1004 NOSIG,M
VIDP,2022-05-18 07:30,104.00,55.40,20.24,30.00,10.00,0.00,29.62,M,2.49,20.00,FEW,SCT,M,M,4000.00,10000.00,M,M,BLDU,M,M,M,M,M,M,103.01,VIDP 180730Z 03010G20KT 4000 BLDU FEW040 SCT100 40/13 Q1003 NOSIG,M
VIDP,2022-05-18 08:00,104.00,57.20,21.60,60.00,10.00,0.00,29.62,M,2.49,20.00,FEW,SCT,M,M,4000.00,10000.00,M,M,BLDU,M,M,M,M,M,M,103.79,VIDP 180800Z 06010G20KT 4000 BLDU FEW040 SCT100 40/14 Q1003 NOSIG,M
VIDP,2022-05-18 08:30,102.20,59.00,24.32,40.00,10.00,0.00,29.62,M,2.17,20.00,FEW,SCT,M,M,4000.00,10000.00,M,M,BLDU,M,M,M,M,M,M,102.62,VIDP 180830Z 04010G20KT 3500 BLDU FEW040 SCT100 39/15 Q1003 NOSIG,M
VIDP,2022-05-18 09:00,100.40,59.00,25.67,50.00,8.00,0.00,29.59,M,2.17,18.00,FEW,SCT,M,M,4000.00,10000.00,M,M,BLDU,M,M,M,M,M,M,100.57,VIDP 180900Z 05008G18KT 3500 BLDU FEW040 SCT100 38/15 Q1002 NOSIG,M
VIDP,2022-05-18 09:30,100.40,59.00,25.67,80.00,7.00,0.00,29.59,M,2.17,17.00,FEW,SCT,M,M,4000.00,10000.00,M,M,BLDU,M,M,M,M,M,M,100.57,VIDP 180930Z 08007G17KT 3500 BLDU FEW040 SCT100 38/15 Q1002 NOSIG,M
VIDP,2022-05-18 10:00,102.20,59.00,24.32,60.00,8.00,0.00,29.59,M,2.17,18.00,SCT,M,M,M,10000.00,M,M,M,BLDU,M,M,M,M,M,M,102.62,VIDP 181000Z 06008G18KT 3500 BLDU SCT100 39/15 Q1002 NOSIG,M
VIDP,2022-05-18 10:30,102.20,59.00,24.32,70.00,7.00,0.00,29.56,M,2.17,17.00,SCT,M,M,M,10000.00,M,M,M,BLDU,M,M,M,M,M,M,102.62,VIDP 181030Z 07007G17KT 3500 BLDU SCT100 39/15 Q1001 NOSIG,M
VIDP,2022-05-18 11:00,102.20,59.00,24.32,60.00,7.00,0.00,29.56,M,2.17,17.00,SCT,M,M,M,10000.00,M,M,M,BLDU,M,M,M,M,M,M,102.62,VIDP 181100Z 06007G17KT 3500 BLDU SCT100 39/15 Q1001 NOSIG,M
VIDP,2022-05-18 11:30,102.20,59.00,24.32,70.00,9.00,0.00,29.56,M,2.17,M,SCT,M,M,M,10000.00,M,M,M,DU,M,M,M,M,M,M,102.62,VIDP 181130Z 07009KT 3500 DU SCT100 39/15 Q1001 NOSIG,M
VIDP,2022-05-18 12:00,102.20,59.00,24.32,70.00,8.00,0.00,29.56,M,2.17,M,FEW,M,M,M,10000.00,M,M,M,DU,M,M,M,M,M,M,102.62,VIDP 181200Z 07008KT 3500 DU FEW100 39/15 Q1001 NOSIG,M
VIDP,2022-05-18 12:30,100.40,59.00,25.67,70.00,8.00,0.00,29.56,M,2.17,M,FEW,M,M,M,10000.00,M,M,M,DU,M,M,M,M,M,M,100.57,VIDP 181230Z 07008KT 3500 DU FEW100 38/15 Q1001 NOSIG,M
VIDP,2022-05-18 13:00,98.60,60.80,28.90,60.00,7.00,0.00,29.56,M,2.17,M,FEW,M,M,M,10000.00,M,M,M,DU,M,M,M,M,M,M,99.39,VIDP 181300Z 06007KT 3500 DU FEW100 37/16 Q1001 NOSIG,M
VIDP,2022-05-18 13:30,98.60,60.80,28.90,50.00,5.00,0.00,29.56,M,2.17,M,NSC,M,M,M,M,M,M,M,DU,M,M,M,M,M,M,99.39,VIDP 181330Z 05005KT 3500 DU NSC 37/16 Q1001 NOSIG,M
VIDP,2022-05-18 14:00,96.80,60.80,30.53,60.00,5.00,0.00,29.59,M,2.17,M,NSC,M,M,M,M,M,M,M,HZ,M,M,M,M,M,M,97.33,VIDP 181400Z 06005KT 3500 HZ NSC 36/16 Q1002 NOSIG,M
VIDP,2022-05-18 14:30,95.00,60.80,32.27,60.00,5.00,0.00,29.59,M,2.17,M,NSC,M,M,M,M,M,M,M,HZ,M,M,M,M,M,M,95.30,VIDP 181430Z 06005KT 3500 HZ NSC 35/16 Q1002 NOSIG,M
VIDP,2022-05-18 15:00,95.00,60.80,32.27,70.00,4.00,0.00,29.59,M,2.17,M,NSC,M,M,M,M,M,M,M,HZ,M,M,M,M,M,M,95.30,VIDP 181500Z 07004KT 3500 HZ NSC 35/16 Q1002 NOSIG,M
VIDP,2022-05-18 15:30,93.20,60.80,34.11,50.00,6.00,0.00,29.59,M,2.17,M,NSC,M,M,M,M,M,M,M,HZ,M,M,M,M,M,M,93.32,VIDP 181530Z 05006KT 3500 HZ NSC 34/16 Q1002 NOSIG,M
VIDP,2022-05-18 16:00,93.20,62.60,36.35,50.00,4.00,0.00,29.62,M,2.17,M,NSC,M,M,M,M,M,M,M,HZ,M,M,M,M,M,M,94.20,VIDP 181600Z 05004KT 3500 HZ NSC 34/17 Q1003 NOSIG,M
VIDP,2022-05-18 16:30,91.40,62.60,38.45,60.00,4.00,0.00,29.62,M,2.17,M,NSC,M,M,M,M,M,M,M,HZ,M,M,M,M,M,M,92.23,VIDP 181630Z 06004KT 3500 HZ NSC 33/17 Q1003 NOSIG,M
VIDP,2022-05-18 17:00,91.40,62.60,38.45,100.00,4.00,0.00,29.62,M,2.17,M,NSC,M,M,M,M,M,M,M,HZ,M,M,M,M,M,M,92.23,VIDP 181700Z 10004KT 3500 HZ NSC 33/17 Q1003 NOSIG,M
VIDP,2022-05-18 17:30,91.40,62.60,38.45,120.00,4.00,0.00,29.62,M,2.17,M,NSC,M,M,M,M,M,M,M,HZ,M,M,M,M,M,M,92.23,VIDP 181730Z 12004KT 3500 HZ NSC 33/17 Q1003 NOSIG,M
VIDP,2022-05-18 18:00,91.40,62.60,38.45,120.00,4.00,0.00,29.62,M,2.17,M,NSC,M,M,M,M,M,M,M,HZ,M,M,M,M,M,M,92.23,VIDP 181800Z 12004KT 3500 HZ NSC 33/17 Q1003 NOSIG,M
VIDP,2022-05-18 18:30,89.60,60.80,38.18,110.00,4.00,0.00,29.62,M,2.17,M,NSC,M,M,M,M,M,M,M,HZ,M,M,M,M,M,M,89.54,VIDP 181830Z 11004KT 3500 HZ NSC 32/16 Q1003 NOSIG,M
VIDP,2022-05-18 19:00,89.60,60.80,38.18,90.00,3.00,0.00,29.59,M,2.17,M,NSC,M,M,M,M,M,M,M,HZ,M,M,M,M,M,M,89.54,VIDP 181900Z 09003KT 3500 HZ NSC 32/16 Q1002 NOSIG,M
VIDP,2022-05-18 19:30,89.60,60.80,38.18,130.00,5.00,0.00,29.59,M,2.17,M,NSC,M,M,M,M,M,M,M,HZ,M,M,M,M,M,M,89.54,VIDP 181930Z 13005KT 3500 HZ NSC 32/16 Q1002 NOSIG,M
VIDP,2022-05-18 20:00,89.60,60.80,38.18,110.00,3.00,0.00,29.59,M,2.17,M,NSC,M,M,M,M,M,M,M,HZ,M,M,M,M,M,M,89.54,VIDP 182000Z 11003KT 3500 HZ NSC 32/16 Q1002 NOSIG,M
VIDP,2022-05-18 20:30,89.60,60.80,38.18,120.00,4.00,0.00,29.62,M,2.17,M,NSC,M,M,M,M,M,M,M,HZ,M,M,M,M,M,M,89.54,VIDP 182030Z 12004KT 3500 HZ NSC 32/16 Q1003 NOSIG,M
VIDP,2022-05-18 21:00,89.60,60.80,38.18,120.00,3.00,0.00,29.62,M,2.17,M,NSC,M,M,M,M,M,M,M,HZ,M,M,M,M,M,M,89.54,VIDP 182100Z 12003KT 3500 HZ NSC 32/16 Q1003 NOSIG,M
VIDP,2022-05-18 21:30,87.80,62.60,43.07,0.00,0.00,0.00,29.62,M,2.17,M,NSC,M,M,M,M,M,M,M,HZ,M,M,M,M,M,M,88.48,VIDP 182130Z 00000KT 3500 HZ NSC 31/17 Q1003 NOSIG,M
VIDP,2022-05-18 22:00,87.80,62.60,43.07,0.00,0.00,0.00,29.62,M,2.17,M,NSC,M,M,M,M,M,M,M,HZ,M,M,M,M,M,M,88.48,VIDP 182200Z 00000KT 3500 HZ NSC 31/17 Q1003 NOSIG,M
VIDP,2022-05-18 22:30,87.80,62.60,43.07,0.00,0.00,0.00,29.62,M,2.17,M,NSC,M,M,M,M,M,M,M,HZ,M,M,M,M,M,M,88.48,VIDP 182230Z 00000KT 3500 HZ NSC 31/17 Q1003 NOSIG,M
VIDP,2022-05-18 23:00,87.80,62.60,43.07,0.00,0.00,0.00,29.62,M,2.17,M,NSC,M,M,M,M,M,M,M,HZ,M,M,M,M,M,M,88.48,VIDP 182300Z 00000KT 3500 HZ NSC 31/17 Q1003 NOSIG,M
VIDP,2022-05-18 23:30,87.80,62.60,43.07,0.00,0.00,0.00,29.62,M,2.17,M,NSC,M,M,M,M,M,M,M,HZ,M,M,M,M,M,M,88.48,VIDP 182330Z 00000KT 3500 HZ NSC 31/17 Q1003 NOSIG,M
VIDP,2022-05-19 00:00,86.00,62.60,45.61,100.00,3.00,0.00,29.62,M,2.17,M,NSC,M,M,M,M,M,M,M,HZ,M,M,M,M,M,M,86.72,VIDP 190000Z 10003KT 3500 HZ NSC 30/17 Q1003 NOSIG,M
VIDP,2022-05-19 00:30,86.00,62.60,45.61,90.00,3.00,0.00,29.62,M,1.99,M,NSC,M,M,M,M,M,M,M,HZ,M,M,M,M,M,M,86.72,COR VIDP 190030Z 09003KT 3200 HZ NSC 30/17 Q1003 BECMG 3000 HZ,M
VIDP,2022-05-19 01:00,86.00,62.60,45.61,100.00,3.00,0.00,29.65,M,1.86,M,NSC,M,M,M,M,M,M,M,HZ,M,M,M,M,M,M,86.72,VIDP 190100Z 10003KT 3000 HZ NSC 30/17 Q1004 NOSIG,M
VIDP,2022-05-19 01:30,87.80,62.60,43.07,100.00,4.00,0.00,29.65,M,1.86,M,NSC,M,M,M,M,M,M,M,HZ,M,M,M,M,M,M,88.48,VIDP 190130Z 10004KT 3000 HZ NSC 31/17 Q1004 NOSIG,M
VIDP,2022-05-19 02:00,89.60,62.60,40.69,120.00,5.00,0.00,29.65,M,1.86,M,NSC,M,M,M,M,M,M,M,HZ,M,M,M,M,M,M,90.32,VIDP 190200Z 12005KT 3000 HZ NSC 32/17 Q1004 NOSIG,M
VIDP,2022-05-19 02:30,91.40,64.40,40.96,120.00,4.00,0.00,29.68,M,1.86,M,NSC,M,M,M,M,M,M,M,HZ,M,M,M,M,M,M,93.19,VIDP 190230Z 12004KT 3000 HZ NSC 33/18 Q1005 NOSIG,M
VIDP,2022-05-19 03:00,93.20,64.40,38.73,110.00,4.00,0.00,29.68,M,1.99,M,NSC,M,M,M,M,M,M,M,HZ,M,M,M,M,M,M,95.20,VIDP 190300Z 11004KT 3200 HZ NSC 34/18 Q1005 NOSIG,M
VIDP,2022-05-19 03:30,95.00,64.40,36.63,130.00,4.00,0.00,29.68,M,2.17,M,NSC,M,M,M,M,M,M,M,HZ,M,M,M,M,M,M,97.26,VIDP 190330Z 13004KT 3500 HZ NSC 35/18 Q1005 NOSIG,M
VIDP,2022-05-19 04:00,96.80,64.40,34.66,150.00,4.00,0.00,29.68,M,2.17,M,NSC,M,M,M,M,M,M,M,HZ,M,M,M,M,M,M,99.37,VIDP 190400Z 15004KT 3500 HZ NSC 36/18 Q1005 NOSIG,M
VIDP,2022-05-19 04:30,98.60,64.40,32.81,140.00,6.00,0.00,29.68,M,2.49,M,NSC,M,M,M,M,M,M,M,HZ,M,M,M,M,M,M,101.50,VIDP 190430Z 14006KT 4000 HZ NSC 37/18 Q1005 NOSIG,M
VIDP,2022-05-19 05:00,98.60,62.60,30.80,150.00,4.00,0.00,29.68,M,2.49,M,NSC,M,M,M,M,M,M,M,HZ,M,M,M,M,M,M,100.38,VIDP 190500Z 15004KT 4000 HZ NSC 37/17 Q1005 NOSIG,M
VIDP,2022-05-19 05:30,100.40,62.60,29.17,160.00,4.00,0.00,29.65,M,2.49,M,NSC,M,M,M,M,M,M,M,HZ,M,M,M,M,M,M,102.50,VIDP 190530Z 16004KT 4000 HZ NSC 38/17 Q1004 NOSIG,M
VIDP,2022-05-19 06:00,102.20,60.80,25.93,160.00,3.00,0.00,29.65,M,2.49,M,NSC,M,M,M,M,M,M,M,HZ,M,M,M,M,M,M,103.57,VIDP 190600Z 16003KT 4000 HZ NSC 39/16 Q1004 NOSIG,M
VIDP,2022-05-19 06:30,104.00,60.80,24.57,200.00,4.00,0.00,29.65,M,2.49,M,NSC,M,M,M,M,M,M,M,HZ,M,M,M,M,M,M,105.66,VIDP 190630Z 20004KT 4000 HZ NSC 40/16 Q1004 NOSIG,M
VIDP,2022-05-19 07:00,104.00,60.80,24.57,210.00,4.00,0.00,29.62,M,2.49,M,NSC,M,M,M,M,M,M,M,HZ,M,M,M,M,M,M,105.66,VIDP 190700Z 21004KT 4000 HZ NSC 40/16 Q1003 NOSIG,M
VIDP,2022-05-19 07:30,105.80,59.00,21.85,260.00,3.00,0.00,29.62,M,2.49,M,NSC,M,M,M,M,M,M,M,HZ,M,M,M,M,M,M,106.72,VIDP 190730Z 26003KT 4000 HZ NSC 41/15 Q1003 NOSIG,M
VIDP,2022-05-19 08:00,107.60,57.20,19.42,10.00,3.00,0.00,29.59,M,2.49,M,NSC,M,M,M,M,M,M,M,HZ,M,M,M,M,M,M,107.78,VIDP 190800Z 01003KT 4000 HZ NSC 42/14 Q1002 NOSIG,M
VIDP,2022-05-19 08:30,107.60,48.20,13.95,290.00,8.00,0.00,29.56,M,2.49,M,NSC,M,M,M,M,M,M,M,HZ,M,M,M,M,M,M,104.23,VIDP 190830Z 29008KT 4000 HZ NSC 42/09 Q1001 NOSIG,M
VIDP,2022-05-19 09:00,107.60,44.60,12.18,290.00,9.00,0.00,29.56,M,2.49,M,NSC,M,M,M,M,M,M,M,HZ,M,M,M,M,M,M,103.15,VIDP 190900Z 29009KT 4000 HZ NSC 42/07 Q1001 NOSIG,M
VIDP,2022-05-19 09:30,109.40,41.00,10.06,300.00,8.00,0.00,29.53,M,2.49,18.00,NSC,M,M,M,M,M,M,M,HZ,M,M,M,M,M,M,103.77,VIDP 190930Z 30008G18KT 4000 HZ NSC 43/05 Q1000 NOSIG,M
VIDP,2022-05-19 10:00,109.40,41.00,10.06,300.00,8.00,0.00,29.53,M,2.49,18.00,NSC,M,M,M,M,M,M,M,HZ,M,M,M,M,M,M,103.77,VIDP 191000Z 30008G18KT 4000 HZ NSC 43/05 Q1000 NOSIG,M
VIDP,2022-05-19 10:30,109.40,37.40,8.74,300.00,8.00,0.00,29.53,M,2.49,18.00,NSC,M,M,M,M,M,M,M,HZ,M,M,M,M,M,M,102.93,VIDP 191030Z 30008G18KT 4000 HZ NSC 43/03 Q1000 NOSIG,M
VIDP,2022-05-19 11:00,109.40,37.40,8.74,310.00,8.00,0.00,29.50,M,2.49,18.00,NSC,M,M,M,M,M,M,M,HZ,M,M,M,M,M,M,102.93,VIDP 191100Z 31008G18KT 4000 HZ NSC 43/03 Q0999 NOSIG,M
VIDP,2022-05-19 11:30,109.40,37.40,8.74,320.00,7.00,0.00,29.50,M,2.49,17.00,NSC,M,M,M,M,M,M,M,HZ,M,M,M,M,M,M,102.93,VIDP 191130Z 32007G17KT 4000 HZ NSC 43/03 Q0999 NOSIG,M
VIDP,2022-05-19 12:00,107.60,39.20,9.89,310.00,9.00,0.00,29.50,M,2.49,M,NSC,M,M,M,M,M,M,M,HZ,M,M,M,M,M,M,101.73,VIDP 191200Z 31009KT 4000 HZ NSC 42/04 Q0999 NOSIG,M
VIDP,2022-05-19 12:30,107.60,41.00,10.60,300.00,8.00,0.00,29.50,M,2.49,M,NSC,M,M,M,M,M,M,M,HZ,M,M,M,M,M,M,102.16,VIDP 191230Z 30008KT 4000 HZ NSC 42/05 Q0999 NOSIG,M
VIDP,2022-05-19 13:00,107.60,41.00,10.60,320.00,6.00,0.00,29.50,M,2.49,M,NSC,M,M,M,M,M,M,M,HZ,M,M,M,M,M,M,102.16,VIDP 191300Z 32006KT 4000 HZ NSC 42/05 Q0999 NOSIG,M
VIDP,2022-05-19 13:30,104.00,44.60,13.54,160.00,4.00,0.00,29.50,M,2.17,M,NSC,M,M,M,M,M,M,M,HZ,M,M,M,M,M,M,99.82,VIDP 191330Z 16004KT 3500 HZ NSC 40/07 Q0999 NOSIG,M
VIDP,2022-05-19 14:00,102.20,50.00,17.51,70.00,4.00,0.00,29.50,M,2.17,M,NSC,M,M,M,M,M,M,M,HZ,M,M,M,M,M,M,99.28,VIDP 191400Z 07004KT 3500 HZ NSC 39/10 Q0999 NOSIG,M
VIDP,2022-05-19 14:30,104.00,50.00,16.59,80.00,4.00,0.00,29.50,M,2.17,M,NSC,M,M,M,M,M,M,M,HZ,M,M,M,M,M,M,101.14,VIDP 191430Z 08004KT 3500 HZ NSC 40/10 Q0999 NOSIG,M
VIDP,2022-05-19 15:00,100.40,50.00,18.48,90.00,5.00,0.00,29.50,M,2.17,M,NSC,M,M,M,M,M,M,M,HZ,M,M,M,M,M,M,97.42,VIDP 191500Z 09005KT 3500 HZ NSC 38/10 Q0999 NOSIG,M
VIDP,2022-05-19 15:30,100.40,51.80,19.76,80.00,3.00,0.00,29.50,M,2.17,M,NSC,M,M,M,M,M,M,M,HZ,M,M,M,M,M,M,97.90,VIDP 191530Z 08003KT 3500 HZ NSC 38/11 Q0999 NOSIG,M
VIDP,2022-05-19 16:00,100.40,51.80,19.76,70.00,3.00,0.00,29.53,M,2.17,M,NSC,M,M,M,M,M,M,M,HZ,M,M,M,M,M,M,97.90,VIDP 191600Z 07003KT 3500 HZ NSC 38/11 Q1000 NOSIG,M
VIDP,2022-05-19 16:30,98.60,64.40,32.81,M,2.00,0.00,29.53,M,2.17,M,NSC,M,M,M,M,M,M,M,HZ,M,M,M,M,M,M,101.50,VIDP 191630Z VRB02KT 3500 HZ NSC 37/18 Q1000 NOSIG,M
VIDP,2022-05-19 17:00,96.80,64.40,34.66,M,2.00,0.00,29.53,M,2.17,M,NSC,M,M,M,M,M,M,M,HZ,M,M,M,M,M,M,99.37,VIDP 191700Z VRB02KT 3500 HZ NSC 36/18 Q1000 NOSIG,M
VIDP,2022-05-19 17:30,98.60,64.40,32.81,90.00,5.00,0.00,29.50,M,2.17,M,NSC,M,M,M,M,M,M,M,HZ,M,M,M,M,M,M,101.50,VIDP 191730Z 09005KT 3500 HZ NSC 37/18 Q0999 NOSIG,M
VIDP,2022-05-19 18:00,96.80,66.20,36.90,110.00,5.00,0.00,29.50,M,2.17,M,NSC,M,M,M,M,M,M,M,HZ,M,M,M,M,M,M,100.60,VIDP 191800Z 11005KT 3500 HZ NSC 36/19 Q0999 NOSIG,M
VIDP,2022-05-19 18:30,95.00,66.20,39.00,110.00,4.00,0.00,29.50,M,2.17,M,NSC,M,M,M,M,M,M,M,HZ,M,M,M,M,M,M,98.46,VIDP 191830Z 11004KT 3500 HZ NSC 35/19 Q0999 NOSIG,M
VIDP,2022-05-19 19:00,95.00,64.40,36.63,90.00,4.00,0.00,29.50,M,2.17,M,NSC,M,M,M,M,M,M,M,HZ,M,M,M,M,M,M,97.26,VIDP 191900Z 09004KT 3500 HZ NSC 35/18 Q0999 NOSIG,M
VIDP,2022-05-19 19:30,93.20,62.60,36.35,100.00,4.00,0.00,29.50,M,2.17,M,NSC,M,M,M,M,M,M,M,HZ,M,M,M,M,M,M,94.20,VIDP 191930Z 10004KT 3500 HZ NSC 34/17 Q0999 NOSIG,M
VIDP,2022-05-19 20:00,93.20,64.40,38.73,130.00,4.00,0.00,29.50,M,2.17,M,NSC,M,M,M,M,M,M,M,HZ,M,M,M,M,M,M,95.20,VIDP 192000Z 13004KT 3500 HZ NSC 34/18 Q0999 NOSIG,M
VIDP,2022-05-19 20:30,93.20,64.40,38.73,100.00,3.00,0.00,29.50,M,2.17,M,NSC,M,M,M,M,M,M,M,HZ,M,M,M,M,M,M,95.20,VIDP 192030Z 10003KT 3500 HZ NSC 34/18 Q0999 NOSIG,M
VIDP,2022-05-19 21:00,93.20,64.40,38.73,M,2.00,0.00,29.47,M,2.17,M,NSC,M,M,M,M,M,M,M,HZ,M,M,M,M,M,M,95.20,VIDP 192100Z VRB02KT 3500 HZ NSC 34/18 Q0998 NOSIG,M
VIDP,2022-05-19 21:30,91.40,64.40,40.96,100.00,3.00,0.00,29.47,M,2.17,M,NSC,M,M,M,M,M,M,M,HZ,M,M,M,M,M,M,93.19,VIDP 192130Z 10003KT 3500 HZ NSC 33/18 Q0998 NOSIG,M
VIDP,2022-05-19 22:00,91.40,64.40,40.96,70.00,3.00,0.00,29.50,M,2.17,M,NSC,M,M,M,M,M,M,M,HZ,M,M,M,M,M,M,93.19,VIDP 192200Z 07003KT 3500 HZ NSC 33/18 Q0999 NOSIG,M
VIDP,2022-05-19 22:30,89.60,64.40,43.34,100.00,3.00,0.00,29.50,M,2.17,M,NSC,M,M,M,M,M,M,M,HZ,M,M,M,M,M,M,91.23,VIDP 192230Z 10003KT 3500 HZ NSC 32/18 Q0999 NOSIG,M
VIDP,2022-05-19 23:00,89.60,64.40,43.34,100.00,3.00,0.00,29.50,M,1.86,M,NSC,M,M,M,M,M,M,M,HZ,M,M,M,M,M,M,91.23,VIDP 192300Z 10003KT 3000 HZ NSC 32/18 Q0999 NOSIG,M
VIDP,2022-05-19 23:30,89.60,66.20,46.14,0.00,0.00,0.00,29.50,M,1.86,M,NSC,M,M,M,M,M,M,M,HZ,M,M,M,M,M,M,92.27,VIDP 192330Z 00000KT 3000 HZ NSC 32/19 Q0999 NOSIG,M
VIDP,2022-05-20 00:00,87.80,66.20,48.84,0.00,0.00,0.00,29.50,M,1.86,M,NSC,M,M,M,M,M,M,M,HZ,M,M,M,M,M,M,90.31,VIDP 200000Z 00000KT 3000 HZ NSC 31/19 Q0999 NOSIG,M
VIDP,2022-05-20 00:30,87.80,66.20,48.84,0.00,0.00,0.00,29.50,M,1.86,M,NSC,M,M,M,M,M,M,M,HZ,M,M,M,M,M,M,90.31,VIDP 200030Z 00000KT 3000 HZ NSC 31/19 Q0999 NOSIG,M
VIDP,2022-05-20 01:00,89.60,66.20,46.14,0.00,0.00,0.00,29.53,M,1.55,M,NSC,M,M,M,M,M,M,M,HZ,M,M,M,M,M,M,92.27,VIDP 200100Z 00000KT 2500 HZ NSC 32/19 Q1000 NOSIG,M
VIDP,2022-05-20 01:30,89.60,64.40,43.34,200.00,4.00,0.00,29.53,M,1.55,M,NSC,M,M,M,M,M,M,M,HZ,M,M,M,M,M,M,91.23,VIDP 200130Z 20004KT 2500 HZ NSC 32/18 Q1000 NOSIG,M
VIDP,2022-05-20 02:00,89.60,62.60,40.69,210.00,4.00,0.00,29.53,M,1.55,M,NSC,M,M,M,M,M,M,M,HZ,M,M,M,M,M,M,90.32,VIDP 200200Z 21004KT 2500 HZ NSC 32/17 Q1000 NOSIG,M
VIDP,2022-05-20 02:30,93.20,59.00,31.99,250.00,4.00,0.00,29.56,M,1.55,M,NSC,M,M,M,M,M,M,M,HZ,M,M,M,M,M,M,92.57,VIDP 200230Z 25004KT 2500 HZ NSC 34/15 Q1001 NOSIG,M
VIDP,2022-05-20 03:00,95.00,55.40,26.58,250.00,5.00,0.00,29.56,M,1.74,M,NSC,M,M,M,M,M,M,M,HZ,M,M,M,M,M,M,93.22,VIDP 200300Z 25005KT 2800 HZ NSC 35/13 Q1001 BECMG 3000 HZ,M
VIDP,2022-05-20 03:30,96.80,51.80,22.04,280.00,5.00,0.00,29.56,M,1.86,M,NSC,M,M,M,M,M,M,M,HZ,M,M,M,M,M,M,94.12,VIDP 200330Z 28005KT 3000 HZ NSC 36/11 Q1001 NOSIG,M
VIDP,2022-05-20 04:00,100.40,51.80,19.76,270.00,6.00,0.00,29.56,M,1.86,M,FEW,M,M,M,10000.00,M,M,M,HZ,M,M,M,M,M,M,97.90,VIDP 200400Z 27006KT 3000 HZ FEW100 38/11 Q1001 NOSIG,M
VIDP,2022-05-20 04:30,100.40,50.00,18.48,280.00,5.00,0.00,29.56,M,1.86,M,FEW,M,M,M,10000.00,M,M,M,HZ,M,M,M,M,M,M,97.42,VIDP 200430Z 28005KT 3000 HZ FEW100 38/10 Q1001 NOSIG,M
VIDP,2022-05-20 05:00,102.20,48.20,16.37,310.00,5.00,0.00,29.56,M,1.86,M,FEW,M,M,M,10000.00,M,M,M,HZ,M,M,M,M,M,M,98.83,VIDP 200500Z 31005KT 3000 HZ FEW100 39/09 Q1001 NOSIG,M
VIDP,2022-05-20 05:30,104.00,48.20,15.52,300.00,5.00,0.00,29.56,M,1.86,M,FEW,M,M,M,10000.00,M,M,M,HZ,M,M,M,M,M,M,100.65,VIDP 200530Z 30005KT 3000 HZ FEW100 40/09 Q1001 NOSIG,M
VIDP,2022-05-20 06:00,105.80,46.40,13.75,300.00,5.00,0.00,29.56,M,1.86,M,FEW,M,M,M,10000.00,M,M,M,HZ,M,M,M,M,M,M,101.97,VIDP 200600Z 30005KT 3000 HZ FEW100 41/08 Q1001 NOSIG,M
VIDP,2022-05-20 06:30,107.60,42.80,11.37,330.00,7.00,0.00,29.53,M,2.17,M,FEW,M,M,M,10000.00,M,M,M,HZ,M,M,M,M,M,M,102.63,VIDP 200630Z 33007KT 3500 HZ FEW100 42/06 Q1000 NOSIG,M
VIDP,2022-05-20 07:00,107.60,42.80,11.37,310.00,5.00,0.00,29.53,M,2.17,M,FEW,M,M,M,10000.00,M,M,M,HZ,M,M,M,M,M,M,102.63,VIDP 200700Z 31005KT 3500 HZ FEW100 42/06 Q1000 NOSIG,M
VIDP,2022-05-20 07:30,109.40,37.40,8.74,320.00,8.00,0.00,29.50,M,2.17,M,FEW,M,M,M,10000.00,M,M,M,HZ,M,M,M,M,M,M,102.93,VIDP 200730Z 32008KT 3500 HZ FEW100 43/03 Q0999 NOSIG,M
VIDP,2022-05-20 08:00,109.40,37.40,8.74,300.00,8.00,0.00,29.50,M,2.49,18.00,FEW,M,M,M,10000.00,M,M,M,HZ,M,M,M,M,M,M,102.93,VIDP 200800Z 30008G18KT 4000 HZ FEW100 43/03 Q0999 NOSIG,M
VIDP,2022-05-20 08:30,109.40,39.20,9.38,290.00,8.00,0.00,29.50,M,2.49,18.00,FEW,M,M,M,10000.00,M,M,M,HZ,M,M,M,M,M,M,103.33,VIDP 200830Z 29008G18KT 4000 HZ FEW100 43/04 Q0999 NOSIG,M
VIDP,2022-05-20 09:00,111.20,39.20,8.90,260.00,8.00,0.00,29.47,M,2.80,18.00,SCT,M,M,M,10000.00,M,M,M,HZ,M,M,M,M,M,M,104.98,VIDP 200900Z 26008G18KT 4500 HZ SCT100 44/04 Q0998 NOSIG,M
VIDP,2022-05-20 09:30,111.20,39.20,8.90,280.00,8.00,0.00,29.47,M,2.80,18.00,SCT,M,M,M,10000.00,M,M,M,HZ,M,M,M,M,M,M,104.98,VIDP 200930Z 28008G18KT 4500 HZ SCT100 44/04 Q0998 NOSIG,M
VIDP,2022-05-20 10:00,111.20,39.20,8.90,280.00,8.00,0.00,29.44,M,2.80,18.00,SCT,M,M,M,10000.00,M,M,M,HZ,M,M,M,M,M,M,104.98,VIDP 201000Z 28008G18KT 4500 HZ SCT100 44/04 Q0997 NOSIG,M
VIDP,2022-05-20 10:30,109.40,41.00,10.06,300.00,7.00,0.00,29.44,M,2.80,17.00,SCT,BKN,M,M,3500.00,10000.00,M,M,HZ,M,M,M,M,M,M,103.77,VIDP 201030Z 30007G17KT 4500 HZ SCT035 BKN100 43/05 Q0997 NOSIG,M
VIDP,2022-05-20 11:00,109.40,39.20,9.38,310.00,7.00,0.00,29.44,M,2.80,17.00,SCT,BKN,M,M,3500.00,10000.00,M,M,HZ,M,M,M,M,M,M,103.33,VIDP 201100Z 31007G17KT 4500 HZ SCT035 BKN100 43/04 Q0997 NOSIG,M
VIDP,2022-05-20 11:30,107.60,39.20,9.89,290.00,7.00,0.00,29.44,M,2.80,17.00,SCT,FEW,BKN,M,3500.00,4000.00,10000.00,M,HZ,M,M,M,M,M,M,101.73,VIDP 201130Z 29007G17KT 4500 HZ SCT035 FEW040CB BKN100 42/04 Q0997 NOSIG,M
VIDP,2022-05-20 12:00,107.60,39.20,9.89,270.00,10.00,0.00,29.41,M,2.49,M,SCT,FEW,BKN,M,3500.00,4000.00,10000.00,M,HZ,M,M,M,M,M,M,101.73,VIDP 201200Z 27010KT 4000 HZ SCT035 FEW040CB BKN100 42/04 Q0996 TEMPO 24025G35KT DS -TSRA,M
VIDP,2022-05-20 12:30,107.60,39.20,9.89,270.00,8.00,0.00,29.41,M,2.17,M,SCT,FEW,BKN,M,3500.00,4000.00,10000.00,M,HZ,M,M,M,M,M,M,101.73,VIDP 201230Z 27008KT 3500 HZ SCT035 FEW040CB BKN100 42/04 Q0996 TEMPO 24025G35KT DS -TSRA,M
VIDP,2022-05-20 13:00,107.60,41.00,10.60,240.00,6.00,0.00,29.41,M,1.86,M,SCT,FEW,BKN,M,3500.00,4000.00,10000.00,M,HZ,M,M,M,M,M,M,102.16,VIDP 201300Z 24006KT 3000 HZ SCT035 FEW040CB BKN100 42/05 Q0996 TEMPO 24025G35KT DS -TSRA,M
VIDP,2022-05-20 14:00,100.40,50.00,18.48,190.00,10.00,0.00,29.47,M,1.37,20.00,SCT,FEW,BKN,M,3500.00,4000.00,10000.00,M,-TSRA,M,M,M,M,M,M,97.42,VIDP 201400Z 19010G20KT 2200 -TSRA SCT035 FEW040CB BKN100 38/10 Q0998 TEMPO 24025G35KT DS TSRA,M
VIDP,2022-05-20 14:30,95.00,53.60,24.89,60.00,5.00,0.00,29.41,M,1.55,M,SCT,FEW,BKN,M,3500.00,4000.00,10000.00,M,-TS,M,M,M,M,M,M,92.71,VIDP 201430Z 06005KT 2500 -TS SCT035 FEW040CB BKN100 35/12 Q0996 TEMPO 24015G25KT 1500 DS TSRA,M
VIDP,2022-05-20 15:00,95.00,57.20,28.37,220.00,8.00,0.00,29.47,M,1.55,M,SCT,FEW,BKN,M,3500.00,4000.00,10000.00,M,TS,M,M,M,M,M,M,93.82,VIDP 201500Z 22008KT 2500 TS SCT035 FEW040CB BKN100 35/14 Q0998 TEMPO 24015G25KT 1500 TSRA,M
VIDP,2022-05-20 15:30,95.00,57.20,28.37,270.00,15.00,0.00,29.56,M,0.50,25.00,SCT,FEW,BKN,M,3500.00,4000.00,10000.00,M,-TSRA,M,M,M,M,M,M,93.82,VIDP 201530Z 27015G25KT 0800 R28/1800 R29/P2000 -TSRA SCT035 FEW040CB BKN100 35/14 Q1001 TEMPO 0600 TSRA,M
VIDP,2022-05-20 16:00,96.80,55.40,25.15,330.00,15.00,0.00,29.47,M,0.62,25.00,SCT,FEW,BKN,M,3500.00,4000.00,10000.00,M,-TSRA,M,M,M,M,M,M,95.14,VIDP 201600Z 33015G25KT 1000 R28/1400 R29/P2000 -TSRA SCT035 FEW040CB BKN100 36/13 Q0998 BECMG 1500 TSRA,M
VIDP,2022-05-20 16:30,96.80,55.40,25.15,300.00,15.00,0.00,29.47,M,0.62,25.00,SCT,FEW,BKN,M,3500.00,4000.00,10000.00,M,-TSRA,M,M,M,M,M,M,95.14,VIDP 201630Z 30015G25KT 1000 R28/1400 R29/P2000 -TSRA SCT035 FEW040CB BKN100 36/13 Q0998 BECMG 1500 TSRA,M
VIDP,2022-05-20 17:00,96.80,55.40,25.15,290.00,15.00,0.00,29.50,M,0.62,25.00,SCT,FEW,BKN,M,3500.00,4000.00,10000.00,M,-TSRA,M,M,M,M,M,M,95.14,VIDP 201700Z 29015G25KT 1000 R28/1400 R29/P2000 -TSRA SCT035 FEW040CB BKN100 36/13 Q0999 BECMG 1500 TSRA,M
VIDP,2022-05-20 17:30,95.00,55.40,26.58,30.00,15.00,0.00,29.50,M,0.62,25.00,SCT,FEW,BKN,M,3500.00,4000.00,10000.00,M,TSRA,M,M,M,M,M,M,93.22,VIDP 201730Z 03015G25KT 1000 R28/1500 R29/P2000 TSRA SCT035 FEW040CB BKN100 35/13 Q0999 BECMG 1500 TSRA,M
VIDP,2022-05-20 18:00,91.40,55.40,29.72,120.00,10.00,0.00,29.47,M,0.93,M,SCT,FEW,BKN,M,3500.00,4000.00,10000.00,M,TS,M,M,M,M,M,M,89.53,COR VIDP 201800Z 12010KT 1500 R28/P2000 R29/P2000 TS SCT035 FEW040CB BKN100 33/13 Q0998 TEMPO TSRA,M
VIDP,2022-05-20 18:30,91.40,57.20,31.72,0.00,0.00,0.00,29.47,M,0.93,M,SCT,FEW,BKN,M,3500.00,4000.00,10000.00,M,M,M,M,M,M,M,M,90.06,VIDP 201830Z 00000KT 1500 R28/P2000 R29/P2000 SCT035 FEW040CB BKN100 33/14 Q0998 TEMPO TSRA,M
VIDP,2022-05-20 19:00,91.40,57.20,31.72,100.00,8.00,0.00,29.44,M,0.93,M,SCT,FEW,BKN,M,3500.00,4000.00,10000.00,M,TS,M,M,M,M,M,M,90.06,VIDP 201900Z 10008KT 1500 R28/P2000 R29/P2000 TS SCT035 FEW040CB BKN100 33/14 Q0997 TEMPO TSRA,M
VIDP,2022-05-20 19:30,91.40,57.20,31.72,60.00,7.00,0.00,29.44,M,1.37,M,SCT,FEW,BKN,M,3500.00,4000.00,10000.00,M,TS,M,M,M,M,M,M,90.06,VIDP 201930Z 06007KT 2200 TS SCT035 FEW040CB BKN100 33/14 Q0997 NOSIG,M
VIDP,2022-05-20 20:00,91.40,57.20,31.72,0.00,0.00,0.00,29.44,M,1.55,M,SCT,FEW,BKN,M,3500.00,4000.00,10000.00,M,HZ,M,M,M,M,M,M,90.06,VIDP 202000Z 00000KT 2500 HZ SCT035 FEW040CB BKN100 33/14 Q0997 NOSIG,M
VIDP,2022-05-20 20:30,91.40,57.20,31.72,280.00,10.00,0.00,29.47,M,1.74,20.00,SCT,FEW,BKN,M,3500.00,4000.00,10000.00,M,HZ,M,M,M,M,M,M,90.06,VIDP 202030Z 28010G20KT 2800 HZ SCT035 FEW040CB BKN100 33/14 Q0998 NOSIG,M
VIDP,2022-05-20 21:00,93.20,57.20,29.99,350.00,4.00,0.00,29.47,M,1.74,M,SCT,FEW,BKN,M,3500.00,4000.00,10000.00,M,HZ,M,M,M,M,M,M,91.91,VIDP 202100Z 35004KT 2800 HZ SCT035 FEW040CB BKN100 34/14 Q0998 NOSIG,M
VIDP,2022-05-20 21:30,93.20,57.20,29.99,330.00,5.00,0.00,29.47,M,1.74,M,SCT,FEW,BKN,M,3500.00,4000.00,10000.00,M,HZ,M,M,M,M,M,M,91.91,VIDP 202130Z 33005KT 2800 HZ SCT035 FEW040CB BKN100 34/14 Q0998 NOSIG,M
VIDP,2022-05-20 22:00,93.20,57.20,29.99,50.00,10.00,0.00,29.44,M,1.74,M,SCT,FEW,BKN,M,3500.00,4000.00,10000.00,M,HZ,M,M,M,M,M,M,91.91,VIDP 202200Z 05010KT 2800 HZ SCT035 FEW040CB BKN100 34/14 Q0997 NOSIG,M
VIDP,2022-05-20 22:30,91.40,57.20,31.72,50.00,6.00,0.00,29.44,M,1.55,16.00,SCT,FEW,BKN,M,3500.00,4000.00,10000.00,M,HZ,M,M,M,M,M,M,90.06,VIDP 202230Z 05006G16KT 2500 HZ SCT035 FEW040CB BKN100 33/14 Q0997 NOSIG,M
VIDP,2022-05-20 23:00,89.60,57.20,33.56,90.00,8.00,0.00,29.44,M,1.55,M,SCT,BKN,M,M,3500.00,10000.00,M,M,HZ,M,M,M,M,M,M,88.28,VIDP 202300Z 09008KT 2500 HZ SCT035 BKN100 32/14 Q0997 NOSIG,M
VIDP,2022-05-20 23:30,89.60,57.20,33.56,80.00,6.00,0.00,29.47,M,1.55,M,SCT,BKN,M,M,3500.00,10000.00,M,M,HZ,M,M,M,M,M,M,88.28,VIDP 202330Z 08006KT 2500 HZ SCT035 BKN100 32/14 Q0998 NOSIG,M
VIDP,2022-05-21 00:00,87.80,57.20,35.53,90.00,5.00,0.00,29.47,M,1.55,M,FEW,SCT,M,M,3500.00,10000.00,M,M,HZ,M,M,M,M,M,M,86.58,VIDP 210000Z 09005KT 2500 HZ FEW035 SCT100 31/14 Q0998 NOSIG,M
VIDP,2022-05-21 00:30,87.80,57.20,35.53,140.00,7.00,0.00,29.50,M,1.55,M,SCT,M,M,M,10000.00,M,M,M,HZ,M,M,M,M,M,M,86.58,VIDP 210030Z 14007KT 2500 HZ SCT100 31/14 Q0999 NOSIG,M
VIDP,2022-05-21 01:00,89.60,57.20,33.56,120.00,8.00,0.00,29.50,M,1.55,M,SCT,M,M,M,10000.00,M,M,M,HZ,M,M,M,M,M,M,88.28,VIDP 210100Z 12008KT 2500 HZ SCT100 32/14 Q0999 NOSIG,M
VIDP,2022-05-21 01:30,89.60,55.40,31.45,140.00,7.00,0.00,29.53,M,1.74,M,SCT,M,M,M,10000.00,M,M,M,HZ,M,M,M,M,M,M,87.78,VIDP 210130Z 14007KT 2800 HZ SCT100 32/13 Q1000 BECMG 3000 HZ,M
VIDP,2022-05-21 02:00,91.40,55.40,29.72,170.00,8.00,0.00,29.53,M,1.86,M,FEW,M,M,M,10000.00,M,M,M,HZ,M,M,M,M,M,M,89.53,VIDP 210200Z 17008KT 3000 HZ FEW100 33/13 Q1000 NOSIG,M
VIDP,2022-05-21 02:30,93.20,55.40,28.10,170.00,5.00,0.00,29.53,M,1.86,M,SCT,BKN,M,M,3500.00,10000.00,M,M,HZ,M,M,M,M,M,M,91.35,VIDP 210230Z 17005KT 3000 HZ SCT035 BKN100 34/13 Q1000 TEMPO 21015G35KT 1800 TSRA,M
VIDP,2022-05-21 03:00,95.00,55.40,26.58,130.00,6.00,0.00,29.50,M,1.37,M,SCT,FEW,BKN,M,3000.00,3500.00,10000.00,M,BLDU,M,M,M,M,M,M,93.22,VIDP 210300Z 13006KT 2200 BLDU SCT030 FEW035CB BKN100 35/13 Q0999 TEMPO 21015G25KT 1800 TSRA,M
VIDP,2022-05-21 03:30,96.80,57.20,26.84,150.00,10.00,0.00,29.50,M,1.37,M,SCT,FEW,BKN,M,3000.00,3500.00,10000.00,M,BLDU,M,M,M,M,M,M,95.77,VIDP 210330Z 15010KT 2200 BLDU SCT030 FEW035CB BKN100 36/14 Q0999 TEMPO 21015G25KT 1800 TSRA,M
VIDP,2022-05-21 04:00,96.80,53.60,23.55,100.00,8.00,0.00,29.44,M,1.37,18.00,SCT,FEW,BKN,M,3000.00,3500.00,10000.00,M,BLDU,M,M,M,M,M,M,94.59,VIDP 210400Z 10008G18KT 2200 BLDU SCT030 FEW035CB BKN100 36/12 Q0997 TEMPO 21015G25KT 1800 TSRA,M
VIDP,2022-05-21 04:30,100.40,50.00,18.48,110.00,6.00,0.00,29.44,M,1.55,M,SCT,BKN,M,M,4000.00,10000.00,M,M,BLDU,M,M,M,M,M,M,97.42,VIDP 210430Z 11006KT 2500 BLDU SCT040 BKN100 38/10 Q0997 NOSIG,M
VIDP,2022-05-21 05:00,102.20,50.00,17.51,200.00,8.00,0.00,29.47,M,1.55,M,SCT,BKN,M,M,4000.00,10000.00,M,M,BLDU,M,M,M,M,M,M,99.28,VIDP 210500Z 20008KT 2500 BLDU SCT040 BKN100 39/10 Q0998 NOSIG,M
VIDP,2022-05-21 05:30,102.20,50.00,17.51,200.00,7.00,0.00,29.47,M,1.55,M,SCT,BKN,M,M,4000.00,10000.00,M,M,BLDU,M,M,M,M,M,M,99.28,VIDP 210530Z 20007KT 2500 BLDU SCT040 BKN100 39/10 Q0998 NOSIG,M
VIDP,2022-05-21 06:00,102.20,50.00,17.51,170.00,6.00,0.00,29.47,M,1.55,M,SCT,BKN,M,M,4000.00,10000.00,M,M,BLDU,M,M,M,M,M,M,99.28,VIDP 210600Z 17006KT 2500 BLDU SCT040 BKN100 39/10 Q0998 NOSIG,M
VIDP,2022-05-21 06:30,104.00,48.20,15.52,210.00,4.00,0.00,29.44,M,1.74,M,FEW,SCT,M,M,4000.00,10000.00,M,M,BLDU,M,M,M,M,M,M,100.65,VIDP 210630Z 21004KT 2800 BLDU FEW040 SCT100 40/09 Q0997 NOSIG,M
VIDP,2022-05-21 07:00,105.80,48.20,14.71,220.00,4.00,0.00,29.44,M,1.86,M,FEW,SCT,M,M,4000.00,10000.00,M,M,HZ,M,M,M,M,M,M,102.45,VIDP 210700Z 22004KT 3000 HZ FEW040 SCT100 41/09 Q0997 NOSIG,M
VIDP,2022-05-21 07:30,105.80,48.20,14.71,240.00,3.00,0.00,29.41,M,1.86,M,FEW,SCT,M,M,4000.00,10000.00,M,M,HZ,M,M,M,M,M,M,102.45,VIDP 210730Z 24003KT 3000 HZ FEW040 SCT100 41/09 Q0996 NOSIG,M
VIDP,2022-05-21 08:00,105.80,46.40,13.75,250.00,4.00,0.00,29.41,M,1.86,M,FEW,SCT,M,M,4000.00,10000.00,M,M,HZ,M,M,M,M,M,M,101.97,VIDP 210800Z 25004KT 3000 HZ FEW040 SCT100 41/08 Q0996 NOSIG,M
VIDP,2022-05-21 08:30,107.60,46.40,13.04,270.00,8.00,0.00,29.41,M,1.86,M,FEW,SCT,M,M,4000.00,10000.00,M,M,HZ,M,M,M,M,M,M,103.71,VIDP 210830Z 27008KT 3000 HZ FEW040 SCT100 42/08 Q0996 NOSIG,M
VIDP,2022-05-21 09:00,107.60,46.40,13.04,270.00,8.00,0.00,29.38,M,1.86,M,FEW,SCT,M,M,4000.00,10000.00,M,M,HZ,M,M,M,M,M,M,103.71,VIDP 210900Z 27008KT 3000 HZ FEW040 SCT100 42/08 Q0995 NOSIG,M
VIDP,2022-05-21 09:30,107.60,46.40,13.04,250.00,8.00,0.00,29.38,M,2.17,M,FEW,SCT,M,M,4000.00,10000.00,M,M,HZ,M,M,M,M,M,M,103.71,VIDP 210930Z 25008KT 3500 HZ FEW040 SCT100 42/08 Q0995 NOSIG,M
VIDP,2022-05-21 10:00,107.60,46.40,13.04,260.00,9.00,0.00,29.38,M,2.17,M,SCT,FEW,BKN,M,3500.00,4000.00,10000.00,M,HZ,M,M,M,M,M,M,103.71,VIDP 211000Z 26009KT 3500 HZ SCT035 FEW040CB BKN100 42/08 Q0995 TEMPO 29025G35KT 1000 DS -TSRA,M
VIDP,2022-05-21 10:30,107.60,46.40,13.04,240.00,8.00,0.00,29.35,M,2.17,M,SCT,FEW,BKN,M,3500.00,4000.00,10000.00,M,HZ,M,M,M,M,M,M,103.71,VIDP 211030Z 24008KT 3500 HZ SCT035 FEW040CB BKN100 42/08 Q0994 TEMPO 29025G35KT 1000 DS -TSRA,M
VIDP,2022-05-21 11:00,104.00,44.60,13.54,250.00,8.00,0.00,29.35,M,1.55,18.00,SCT,FEW,BKN,M,3500.00,4000.00,10000.00,M,BLDU,M,M,M,M,M,M,99.82,VIDP 211100Z 25008G18KT 2500 BLDU SCT035 FEW040CB BKN100 40/07 Q0994 TEMPO 29025G35KT 1000 DS -TSRA,M
VIDP,2022-05-21 11:30,102.20,44.60,14.29,230.00,8.00,0.00,29.35,M,1.55,18.00,SCT,FEW,BKN,M,3500.00,4000.00,10000.00,M,BLDU,M,M,M,M,M,M,98.07,VIDP 211130Z 23008G18KT 2500 BLDU SCT035 FEW040CB BKN100 39/07 Q0994 TEMPO 29025G35KT 1000 DS -TSRA,M
VIDP,2022-05-21 12:00,102.20,44.60,14.29,250.00,8.00,0.00,29.35,M,1.55,18.00,SCT,FEW,BKN,M,3500.00,4000.00,10000.00,M,BLDU,M,M,M,M,M,M,98.07,VIDP 211200Z 25008G18KT 2500 BLDU SCT035 FEW040CB BKN100 39/07 Q0994 TEMPO 29025G35KT 1000 DS -TSRA,M
VIDP,2022-05-21 12:30,102.20,44.60,14.29,240.00,7.00,0.00,29.35,M,1.55,M,SCT,FEW,OVC,M,3000.00,3500.00,9000.00,M,BLDU,M,M,M,M,M,M,98.07,VIDP 211230Z 24007KT 2500 BLDU SCT030 FEW035CB OVC090 39/07 Q0994 TEMPO 29025G35KT 1000 DS -TSRA,M
VIDP,2022-05-21 12:31,102.20,44.60,14.29,240.00,7.00,0.00,29.35,M,1.55,M,SCT,FEW,OVC,M,3000.00,3500.00,9000.00,M,BLDU,M,M,M,M,M,M,98.07,VIDP 211231Z 24007KT 2500 BLDU SCT030 FEW035CB OVC090 39/07 Q0994 TEMPO 29025G35KT 1000 DS -TSRA,M
VIDP,2022-05-21 13:00,100.40,44.60,15.08,250.00,5.00,0.00,29.35,M,1.55,M,SCT,FEW,OVC,M,3000.00,3500.00,9000.00,M,BLDU,M,M,M,M,M,M,96.31,VIDP 211300Z 25005KT 2500 BLDU SCT030 FEW035CB OVC090 38/07 Q0994 TEMPO 29025G35KT 1000 DS -TSRA,M
VIDP,2022-05-21 13:30,96.80,46.40,18.02,270.00,20.00,0.00,29.38,M,0.62,30.00,BKN,FEW,OVC,M,3000.00,3500.00,9000.00,M,BLDU,M,M,M,M,M,M,93.05,VIDP 211330Z 27020G30KT 1000 R28/1100 R29/2000 BLDU BKN030 FEW035CB OVC090 36/08 Q0995 TEMPO 25025G35KT DS -TSRA,M
VIDP,2022-05-21 14:00,93.20,48.20,21.54,290.00,10.00,0.00,29.41,M,0.68,20.00,BKN,FEW,OVC,M,3000.00,3500.00,9000.00,M,BLDU,M,M,M,M,M,M,89.80,VIDP 211400Z 29010G20KT 1100 R28/1300 R29/2000 BLDU BKN030 FEW035CB OVC090 34/09 Q0996 TEMPO 25025G35KT 1000 DS -TSRA,M
VIDP,2022-05-21 14:30,91.40,46.40,21.29,300.00,10.00,0.00,29.44,M,0.68,20.00,BKN,FEW,OVC,M,3000.00,3500.00,9000.00,M,DZ,M,M,M,M,M,M,87.86,VIDP 211430Z 30010G20KT 1100 R28/2000 R29/2000 DZ BKN030 FEW035CB OVC090 33/08 Q0997 TEMPO 25025G35KT 1000 DS -TSRA,M
VIDP,2022-05-21 15:00,87.80,53.60,31.17,250.00,10.00,0.00,29.47,M,0.68,25.00,BKN,FEW,OVC,M,3000.00,3500.00,9000.00,M,-TSRA,M,M,M,M,M,M,85.72,VIDP 211500Z 25010G25KT 1100 R28/1600 R29/2000 -TSRA BKN030 FEW035CB OVC090 31/12 Q0998 TEMPO 25025G35KT 0500 DS -TSRA,M
VIDP,2022-05-21 15:30,84.20,55.40,37.35,260.00,10.00,0.00,29.50,M,0.68,20.00,BKN,FEW,OVC,M,3000.00,3500.00,9000.00,M,-TSRA,M,M,M,M,M,M,83.09,VIDP 211530Z 26010G20KT 1100 R28/2000 R29/2000 -TSRA BKN030 FEW035CB OVC090 29/13 Q0999 TEMPO 25025G35KT 0500 DS -TSRA,M
VIDP,2022-05-21 16:00,80.60,62.60,54.30,210.00,8.00,0.00,29.47,M,0.68,18.00,BKN,FEW,OVC,M,3000.00,3500.00,9000.00,M,-RA,M,M,M,M,M,M,81.84,VIDP 211600Z 21008G18KT 1100 R28/2000 R29/2000 -RA BKN030 FEW035CB OVC090 27/17 Q0998 TEMPO 25025G35KT 0500 DS -TSRA,M
VIDP,2022-05-21 16:30,78.80,64.40,61.36,140.00,7.00,0.00,29.44,M,0.68,17.00,BKN,FEW,OVC,M,3000.00,3500.00,9000.00,M,-TSRA,M,M,M,M,M,M,78.80,VIDP 211630Z 14007G17KT 1100 R28/2000 R29/2000 -TSRA BKN030 FEW035CB OVC090 26/18 Q0997 TEMPO 25025G35KT 0500 DS -TSRA,M
VIDP,2022-05-21 17:00,80.60,62.60,54.30,110.00,7.00,0.00,29.41,M,0.75,M,BKN,FEW,OVC,M,3000.00,3500.00,9000.00,M,HZ,M,M,M,M,M,M,81.84,VIDP 211700Z 11007KT 1200 R28/2000 R29/2000 HZ BKN030 FEW035CB OVC090 27/17 Q0996 BECMG 1500 HZ,M
VIDP,2022-05-21 17:30,80.60,64.40,57.84,80.00,4.00,0.00,29.41,M,1.12,M,BKN,FEW,OVC,M,3000.00,3500.00,9000.00,M,HZ,M,M,M,M,M,M,82.27,VIDP 211730Z 08004KT 1800 R28/2000 R29/2000 HZ BKN030 FEW035CB OVC090 27/18 Q0996 NOSIG,M
VIDP,2022-05-21 18:00,80.60,64.40,57.84,10.00,5.00,0.00,29.41,M,1.12,M,BKN,FEW,OVC,M,3000.00,3500.00,9000.00,M,HZ,M,M,M,M,M,M,82.27,VIDP 211800Z 01005KT 1800 R28/2000 R29/2000 HZ BKN030 FEW035CB OVC090 27/18 Q0996 NOSIG,M
VIDP,2022-05-21 18:30,80.60,64.40,57.84,M,2.00,0.00,29.41,M,1.12,M,BKN,OVC,M,M,3000.00,9000.00,M,M,HZ,M,M,M,M,M,M,82.27,VIDP 211830Z VRB02KT 1800 R28/2000 R29/2000 HZ BKN030 OVC090 27/18 Q0996 NOSIG,M
VIDP,2022-05-21 19:00,80.60,64.40,57.84,70.00,4.00,0.00,29.41,M,1.12,M,BKN,OVC,M,M,3000.00,9000.00,M,M,HZ,M,M,M,M,M,M,82.27,VIDP 211900Z 07004KT 1800 R28/2000 R29/2000 HZ BKN030 OVC090 27/18 Q0996 NOSIG,M
VIDP,2022-05-21 19:30,80.60,64.40,57.84,70.00,4.00,0.00,29.38,M,1.12,M,BKN,OVC,M,M,3000.00,9000.00,M,M,HZ,M,M,M,M,M,M,82.27,VIDP 211930Z 07004KT 1800 R28/2000 R29/2000 HZ BKN030 OVC090 27/18 Q0995 NOSIG,M
VIDP,2022-05-21 20:00,80.60,64.40,57.84,20.00,4.00,0.00,29.38,M,1.12,M,BKN,OVC,M,M,3000.00,9000.00,M,M,HZ,M,M,M,M,M,M,82.27,VIDP 212000Z 02004KT 1800 R28/2000 R29/2000 HZ BKN030 OVC090 27/18 Q0995 NOSIG,M
VIDP,2022-05-21 20:30,80.60,66.20,61.58,0.00,0.00,0.00,29.35,M,1.37,M,BKN,OVC,M,M,3000.00,9000.00,M,M,HZ,M,M,M,M,M,M,82.75,VIDP 212030Z 00000KT 2200 HZ BKN030 OVC090 27/19 Q0994 NOSIG,M
VIDP,2022-05-21 21:00,80.60,66.20,61.58,0.00,0.00,0.00,29.38,M,1.55,M,BKN,OVC,M,M,3000.00,9000.00,M,M,HZ,M,M,M,M,M,M,82.75,VIDP 212100Z 00000KT 2500 HZ BKN030 OVC090 27/19 Q0995 NOSIG,M
VIDP,2022-05-21 21:30,80.60,66.20,61.58,280.00,5.00,0.00,29.38,M,1.55,M,BKN,OVC,M,M,3000.00,9000.00,M,M,HZ,M,M,M,M,M,M,82.75,VIDP 212130Z 28005KT 2500 HZ BKN030 OVC090 27/19 Q0995 NOSIG,M
VIDP,2022-05-21 22:00,78.80,68.00,69.52,250.00,5.00,0.00,29.38,M,1.55,M,BKN,OVC,M,M,3000.00,9000.00,M,M,HZ,M,M,M,M,M,M,78.80,VIDP 212200Z 25005KT 2500 HZ BKN030 OVC090 26/20 Q0995 NOSIG,M
VIDP,2022-05-21 22:30,78.80,68.00,69.52,210.00,5.00,0.00,29.38,M,1.55,M,BKN,OVC,M,M,3000.00,9000.00,M,M,HZ,M,M,M,M,M,M,78.80,VIDP 212230Z 21005KT 2500 HZ BKN030 OVC090 26/20 Q0995 NOSIG,M
VIDP,2022-05-21 23:00,77.00,66.20,69.33,0.00,0.00,0.00,29.38,M,1.37,M,SCT,BKN,M,M,3500.00,10000.00,M,M,HZ,M,M,M,M,M,M,77.00,VIDP 212300Z 00000KT 2200 HZ SCT035 BKN100 25/19 Q0995 NOSIG,M
VIDP,2022-05-21 23:30,77.00,68.00,73.78,0.00,0.00,0.00,29.38,M,1.37,M,FEW,SCT,M,M,3500.00,10000.00,M,M,HZ,M,M,M,M,M,M,77.00,VIDP 212330Z 00000KT 2200 HZ FEW035 SCT100 25/20 Q0995 NOSIG,M
VIDP,2022-05-22 00:00,78.80,64.40,61.36,190.00,4.00,0.00,29.41,M,1.37,M,FEW,SCT,M,M,3500.00,10000.00,M,M,HZ,M,M,M,M,M,M,78.80,VIDP 220000Z 19004KT 2200 HZ FEW035 SCT100 26/18 Q0996 NOSIG,M
VIDP,2022-05-22 00:30,78.80,64.40,61.36,170.00,4.00,0.00,29.41,M,1.24,M,FEW,SCT,M,M,3500.00,10000.00,M,M,HZ,M,M,M,M,M,M,78.80,VIDP 220030Z 17004KT 2000 HZ FEW035 SCT100 26/18 Q0996 NOSIG,M
VIDP,2022-05-22 01:00,78.80,68.00,69.52,240.00,5.00,0.00,29.44,M,1.24,M,FEW,SCT,M,M,3500.00,10000.00,M,M,HZ,M,M,M,M,M,M,78.80,VIDP 220100Z 24005KT 2000 HZ FEW035 SCT100 26/20 Q0997 NOSIG,M
VIDP,2022-05-22 01:30,80.60,66.20,61.58,250.00,5.00,0.00,29.44,M,1.24,M,FEW,M,M,M,10000.00,M,M,M,HZ,M,M,M,M,M,M,82.75,VIDP 220130Z 25005KT 2000 HZ FEW100 27/19 Q0997 NOSIG,M
VIDP,2022-05-22 02:00,80.60,66.20,61.58,140.00,4.00,0.00,29.44,M,1.12,M,FEW,M,M,M,10000.00,M,M,M,HZ,M,M,M,M,M,M,82.75,VIDP 220200Z 14004KT 1800 R28/2000 R29/2000 HZ FEW100 27/19 Q0997 NOSIG,M
VIDP,2022-05-22 02:30,82.40,64.40,54.55,110.00,4.00,0.00,29.44,M,1.37,M,FEW,M,M,M,10000.00,M,M,M,HZ,M,M,M,M,M,M,83.98,VIDP 220230Z 11004KT 2200 HZ FEW100 28/18 Q0997 BECMG 3000 HZ,M
VIDP,2022-05-22 03:00,84.20,62.60,48.32,140.00,4.00,0.00,29.47,M,1.55,M,FEW,M,M,M,10000.00,M,M,M,HZ,M,M,M,M,M,M,85.03,VIDP 220300Z 14004KT 2500 HZ FEW100 29/17 Q0998 BECMG 3000 HZ,M
VIDP,2022-05-22 03:30,86.00,62.60,45.61,110.00,6.00,0.00,29.44,M,1.86,M,FEW,M,M,M,10000.00,M,M,M,HZ,M,M,M,M,M,M,86.72,VIDP 220330Z 11006KT 3000 HZ FEW100 30/17 Q0997 NOSIG,M
VIDP,2022-05-22 04:00,87.80,62.60,43.07,80.00,7.00,0.00,29.44,M,2.17,M,FEW,M,M,M,10000.00,M,M,M,HZ,M,M,M,M,M,M,88.48,VIDP 220400Z 08007KT 3500 HZ FEW100 31/17 Q0997 NOSIG,M
VIDP,2022-05-22 04:30,89.60,60.80,38.18,100.00,7.00,0.00,29.47,M,2.17,M,FEW,M,M,M,10000.00,M,M,M,HZ,M,M,M,M,M,M,89.54,VIDP 220430Z 10007KT 3500 HZ FEW100 32/16 Q0998 NOSIG,M
VIDP,2022-05-22 05:00,91.40,62.60,38.45,130.00,5.00,0.00,29.47,M,2.17,M,FEW,M,M,M,10000.00,M,M,M,HZ,M,M,M,M,M,M,92.23,VIDP 220500Z 13005KT 3500 HZ FEW100 33/17 Q0998 NOSIG,M
VIDP,2022-05-22 05:30,93.20,60.80,34.11,130.00,5.00,0.00,29.47,M,2.17,M,FEW,M,M,M,10000.00,M,M,M,HZ,M,M,M,M,M,M,93.32,VIDP 220530Z 13005KT 3500 HZ FEW100 34/16 Q0998 NOSIG,M
VIDP,2022-05-22 06:00,95.00,59.00,30.26,210.00,4.00,0.00,29.47,M,2.17,M,FEW,M,M,M,10000.00,M,M,M,HZ,M,M,M,M,M,M,94.51,VIDP 220600Z 21004KT 3500 HZ FEW100 35/15 Q0998 NOSIG,M
VIDP,2022-05-22 06:30,95.00,59.00,30.26,210.00,4.00,0.00,29.47,M,2.17,M,FEW,M,M,M,10000.00,M,M,M,HZ,M,M,M,M,M,M,94.51,VIDP 220630Z 21004KT 3500 HZ FEW100 35/15 Q0998 NOSIG,M
VIDP,2022-05-22 07:00,96.80,59.00,28.63,210.00,4.00,0.00,29.44,M,2.17,M,FEW,M,M,M,10000.00,M,M,M,HZ,M,M,M,M,M,M,96.50,VIDP 220700Z 21004KT 3500 HZ FEW100 36/15 Q0997 NOSIG,M
VIDP,2022-05-22 07:30,98.60,57.20,25.41,190.00,4.00,0.00,29.44,M,2.49,M,FEW,M,M,M,10000.00,M,M,M,HZ,M,M,M,M,M,M,97.76,VIDP 220730Z 19004KT 4000 HZ FEW100 37/14 Q0997 NOSIG,M
VIDP,2022-05-22 08:00,98.60,57.20,25.41,40.00,5.00,0.00,29.44,M,2.49,M,FEW,M,M,M,10000.00,M,M,M,HZ,M,M,M,M,M,M,97.76,VIDP 220800Z 04005KT 4000 HZ FEW100 37/14 Q0997 NOSIG,M
VIDP,2022-05-22 08:30,100.40,55.40,22.54,10.00,3.00,0.00,29.41,M,2.49,M,NSC,M,M,M,M,M,M,M,HZ,M,M,M,M,M,M,99.06,VIDP 220830Z 01003KT 4000 HZ NSC 38/13 Q0996 NOSIG,M
VIDP,2022-05-22 09:00,100.40,55.40,22.54,20.00,4.00,0.00,29.38,M,2.49,M,NSC,M,M,M,M,M,M,M,HZ,M,M,M,M,M,M,99.06,VIDP 220900Z 02004KT 4000 HZ NSC 38/13 Q0995 NOSIG,M
VIDP,2022-05-22 09:30,102.20,55.40,21.36,30.00,3.00,0.00,29.38,M,2.49,M,NSC,M,M,M,M,M,M,M,HZ,M,M,M,M,M,M,101.04,VIDP 220930Z 03003KT 4000 HZ NSC 39/13 Q0995 NOSIG,M
VIDP,2022-05-22 10:00,102.20,53.60,20.00,320.00,4.00,0.00,29.38,M,2.49,M,NSC,M,M,M,M,M,M,M,HZ,M,M,M,M,M,M,100.38,VIDP 221000Z 32004KT 4000 HZ NSC 39/12 Q0995 NOSIG,M
VIDP,2022-05-22 10:30,102.20,51.80,18.72,310.00,4.00,0.00,29.35,M,2.49,M,NSC,M,M,M,M,M,M,M,HZ,M,M,M,M,M,M,99.80,VIDP 221030Z 31004KT 4000 HZ NSC 39/11 Q0994 NOSIG,M
VIDP,2022-05-22 11:00,104.00,51.80,17.74,330.00,3.00,0.00,29.35,M,2.49,M,NSC,M,M,M,M,M,M,M,HZ,M,M,M,M,M,M,101.69,VIDP 221100Z 33003KT 4000 HZ NSC 40/11 Q0994 NOSIG,M
VIDP,2022-05-22 11:30,104.00,50.00,16.59,130.00,4.00,0.00,29.35,M,2.80,M,NSC,M,M,M,M,M,M,M,HZ,M,M,M,M,M,M,101.14,VIDP 221130Z 13004KT 4500 HZ NSC 40/10 Q0994 NOSIG,M
VIDP,2022-05-22 12:00,102.20,50.00,17.51,30.00,3.00,0.00,29.35,M,2.80,M,NSC,M,M,M,M,M,M,M,HZ,M,M,M,M,M,M,99.28,VIDP 221200Z 03003KT 4500 HZ NSC 39/10 Q0994 NOSIG,M
VIDP,2022-05-22 12:30,100.40,50.00,18.48,40.00,5.00,0.00,29.35,M,2.80,M,NSC,M,M,M,M,M,M,M,HZ,M,M,M,M,M,M,97.42,VIDP 221230Z 04005KT 4500 HZ NSC 38/10 Q0994 NOSIG,M
VIDP,2022-05-22 13:00,100.40,50.00,18.48,60.00,7.00,0.00,29.35,M,2.49,M,NSC,M,M,M,M,M,M,M,HZ,M,M,M,M,M,M,97.42,VIDP 221300Z 06007KT 4000 HZ NSC 38/10 Q0994 NOSIG,M
VIDP,2022-05-22 13:30,98.60,51.80,20.87,60.00,8.00,0.00,29.35,M,2.49,M,NSC,M,M,M,M,M,M,M,HZ,M,M,M,M,M,M,96.00,VIDP 221330Z 06008KT 4000 HZ NSC 37/11 Q0994 NOSIG,M
VIDP,2022-05-22 14:00,96.80,53.60,23.55,60.00,7.00,0.00,29.38,M,2.17,M,NSC,M,M,M,M,M,M,M,HZ,M,M,M,M,M,M,94.59,VIDP 221400Z 06007KT 3500 HZ NSC 36/12 Q0995 NOSIG,M
VIDP,2022-05-22 14:30,95.00,55.40,26.58,60.00,8.00,0.00,29.38,M,2.17,M,NSC,M,M,M,M,M,M,M,HZ,M,M,M,M,M,M,93.22,VIDP 221430Z 06008KT 3500 HZ NSC 35/13 Q0995 NOSIG,M
VIDP,2022-05-22 15:00,95.00,57.20,28.37,80.00,9.00,0.00,29.41,M,2.17,M,NSC,M,M,M,M,M,M,M,HZ,M,M,M,M,M,M,93.82,VIDP 221500Z 08009KT 3500 HZ NSC 35/14 Q0996 NOSIG,M
VIDP,2022-05-22 15:30,93.20,59.00,31.99,90.00,9.00,0.00,29.41,M,2.17,M,NSC,M,M,M,M,M,M,M,HZ,M,M,M,M,M,M,92.57,VIDP 221530Z 09009KT 3500 HZ NSC 34/15 Q0996 NOSIG,M
VIDP,2022-05-22 16:00,93.20,59.00,31.99,90.00,8.00,0.00,29.41,M,2.17,M,FEW,M,M,M,10000.00,M,M,M,HZ,M,M,M,M,M,M,92.57,VIDP 221600Z 09008KT 3500 HZ FEW100 34/15 Q0996 NOSIG,M
VIDP,2022-05-22 16:30,91.40,60.80,36.08,110.00,8.00,0.00,29.44,M,2.17,M,FEW,M,M,M,10000.00,M,M,M,HZ,M,M,M,M,M,M,91.40,VIDP 221630Z 11008KT 3500 HZ FEW100 33/16 Q0997 NOSIG,M
VIDP,2022-05-22 17:00,91.40,60.80,36.08,100.00,11.00,0.00,29.44,M,2.17,M,FEW,M,M,M,10000.00,M,M,M,HZ,M,M,M,M,M,M,91.40,VIDP 221700Z 10011KT 3500 HZ FEW100 33/16 Q0997 NOSIG,M
VIDP,2022-05-22 17:30,91.40,60.80,36.08,100.00,12.00,0.00,29.44,M,2.17,M,FEW,M,M,M,10000.00,M,M,M,HZ,M,M,M,M,M,M,91.40,VIDP 221730Z 10012KT 3500 HZ FEW100 33/16 Q0997 NOSIG,M
VIDP,2022-05-22 18:00,89.60,62.60,40.69,110.00,11.00,0.00,29.44,M,2.17,M,FEW,M,M,M,10000.00,M,M,M,HZ,M,M,M,M,M,M,90.32,VIDP 221800Z 11011KT 3500 HZ FEW100 32/17 Q0997 NOSIG,M
VIDP,2022-05-22 18:30,87.80,64.40,45.88,110.00,11.00,0.00,29.44,M,2.17,M,FEW,M,M,M,10000.00,M,M,M,HZ,M,M,M,M,M,M,89.33,VIDP 221830Z 11011KT 3500 HZ FEW100 31/18 Q0997 NOSIG,M
VIDP,2022-05-22 19:00,87.80,66.20,48.84,110.00,8.00,0.00,29.44,M,2.17,18.00,FEW,SCT,M,M,4000.00,10000.00,M,M,HZ,M,M,M,M,M,M,90.31,VIDP 221900Z 11008G18KT 3500 HZ FEW040 SCT100 31/19 Q0997 NOSIG,M
VIDP,2022-05-22 19:30,86.00,66.20,51.72,100.00,12.00,0.00,29.41,M,2.17,M,FEW,SCT,M,M,4000.00,10000.00,M,M,HZ,M,M,M,M,M,M,88.39,VIDP 221930Z 10012KT 3500 HZ FEW040 SCT100 30/19 Q0996 NOSIG,M
VIDP,2022-05-22 20:00,86.00,66.20,51.72,120.00,12.00,0.00,29.41,M,2.17,M,FEW,SCT,M,M,4000.00,10000.00,M,M,HZ,M,M,M,M,M,M,88.39,VIDP 222000Z 12012KT 3500 HZ FEW040 SCT100 30/19 Q0996 NOSIG,M
VIDP,2022-05-22 20:30,86.00,68.00,55.04,110.00,13.00,0.00,29.38,M,2.17,M,FEW,SCT,M,M,4000.00,10000.00,M,M,HZ,M,M,M,M,M,M,89.41,VIDP 222030Z 11013KT 3500 HZ FEW040 SCT100 30/20 Q0995 NOSIG,M
VIDP,2022-05-22 21:00,84.20,68.00,58.32,100.00,14.00,0.00,29.38,M,2.17,M,FEW,FEW,SCT,M,3500.00,4000.00,10000.00,M,HZ,M,M,M,M,M,M,87.40,VIDP 222100Z 10014KT 3500 HZ FEW035 FEW040CB SCT100 29/20 Q0995 TEMPO 31025G35KT 1000 DS TSRA,M
VIDP,2022-05-22 21:30,84.20,68.00,58.32,110.00,12.00,0.00,29.38,M,2.17,M,FEW,FEW,SCT,M,3500.00,4000.00,10000.00,M,HZ,M,M,M,M,M,M,87.40,VIDP 222130Z 11012KT 3500 HZ FEW035 FEW040CB SCT100 29/20 Q0995 TEMPO 31025G35KT 1000 DS TSRA,M
VIDP,2022-05-22 22:00,84.20,68.00,58.32,110.00,11.00,0.00,29.38,M,2.17,M,FEW,FEW,SCT,M,3500.00,4000.00,10000.00,M,HZ,M,M,M,M,M,M,87.40,VIDP 222200Z 11011KT 3500 HZ FEW035 FEW040CB SCT100 29/20 Q0995 TEMPO 31025G35KT 1000 DS TSRA,M
VIDP,2022-05-22 22:30,84.20,68.00,58.32,120.00,12.00,0.00,29.38,M,2.17,M,SCT,FEW,BKN,M,3500.00,4000.00,10000.00,M,HZ,M,M,M,M,M,M,87.40,VIDP 222230Z 12012KT 3500 HZ SCT035 FEW040CB BKN100 29/20 Q0995 TEMPO 31025G35KT 1000 DS TSRA,M
VIDP,2022-05-22 23:00,84.20,68.00,58.32,90.00,10.00,0.00,29.41,M,1.86,M,SCT,FEW,BKN,M,3500.00,4000.00,10000.00,M,HZ,M,M,M,M,M,M,87.40,VIDP 222300Z 09010KT 3000 HZ SCT035 FEW040CB BKN100 29/20 Q0996 TEMPO 31025G35KT 1000 DS TSRA,M
VIDP,2022-05-22 23:30,84.20,68.00,58.32,50.00,10.00,0.00,29.41,M,1.86,20.00,SCT,FEW,BKN,M,3500.00,4000.00,10000.00,M,TS,M,M,M,M,M,M,87.40,VIDP 222330Z 05010G20KT 3000 TS SCT035 FEW040CB BKN100 29/20 Q0996 TEMPO 31025G35KT 1000 DS TSRA,M
VIDP,2022-05-23 00:00,84.20,68.00,58.32,70.00,10.00,0.00,29.44,M,1.86,20.00,SCT,FEW,BKN,M,3500.00,4000.00,10000.00,M,TS,M,M,M,M,M,M,87.40,VIDP 230000Z 07010G20KT 3000 TS SCT035 FEW040CB BKN100 29/20 Q0997 TEMPO 31025G35KT 1000 DS TSRA,M
VIDP,2022-05-23 00:30,73.40,68.00,83.21,40.00,20.00,0.00,29.50,M,0.93,30.00,SCT,FEW,BKN,M,3000.00,3500.00,10000.00,M,TSRA,M,M,M,M,M,M,73.40,VIDP 230030Z 04020G30KT 1500 R28/P2000 R29/P2000 TSRA SCT030 FEW035CB BKN100 23/20 Q0999 TEMPO 05030G40KT 0800 TSRA,M
VIDP,2022-05-23 01:00,66.20,64.40,93.92,310.00,22.00,0.00,29.59,M,0.62,32.00,BKN,FEW,OVC,M,3000.00,3500.00,9000.00,M,TSRA,M,M,M,M,M,M,66.20,VIDP 230100Z 31022G32KT 1000 R28/2000 R29/2000 TSRA BKN030 FEW035CB OVC090 19/18 Q1002 TEMPO 05030G40KT 0800 TSRA,M
VIDP,2022-05-23 01:30,64.40,62.60,93.88,40.00,25.00,0.00,29.59,M,0.62,40.00,BKN,FEW,OVC,M,3000.00,3500.00,9000.00,M,TSRA,M,M,M,M,M,M,64.40,VIDP 230130Z 04025G40KT 1000 R28/2000 R29/1800 TSRA BKN030 FEW035CB OVC090 18/17 Q1002 TEMPO 05030G40KT 0800 TSRA,M
VIDP,2022-05-23 02:00,64.40,62.60,93.88,30.00,20.00,0.00,29.62,M,0.93,30.00,BKN,FEW,OVC,M,3000.00,3500.00,9000.00,M,TSRA,M,M,M,M,M,M,64.40,VIDP 230200Z 03020G30KT 1500 R28/P2000 R29/P2000 TSRA BKN030 FEW035CB OVC090 18/17 Q1003 TEMPO 05030G40KT 0800 TSRA,M
VIDP,2022-05-23 02:30,64.40,62.60,93.88,40.00,20.00,0.00,29.62,M,0.93,30.00,BKN,FEW,OVC,M,3000.00,3500.00,9000.00,M,TSRA,M,M,M,M,M,M,64.40,VIDP 230230Z 04020G30KT 1500 R28/P2000 R29/P2000 TSRA BKN030 FEW035CB OVC090 18/17 Q1003 TEMPO 05030G40KT 0800 TSRA,M
VIDP,2022-05-23 03:00,64.40,62.60,93.88,80.00,18.00,0.00,29.62,M,0.93,28.00,BKN,FEW,OVC,M,3000.00,3500.00,9000.00,M,TSRA,M,M,M,M,M,M,64.40,VIDP 230300Z 08018G28KT 1500 R28/P2000 R29/P2000 TSRA BKN030 FEW035CB OVC090 18/17 Q1003 TEMPO 27020G30KT 0800 TSRA,M
VIDP,2022-05-23 03:30,66.20,62.60,88.18,70.00,18.00,0.00,29.56,M,1.37,28.00,BKN,FEW,OVC,M,3000.00,3500.00,9000.00,M,TS,M,M,M,M,M,M,66.20,VIDP 230330Z 07018G28KT 2200 TS BKN030 FEW035CB OVC090 19/17 Q1001 TEMPO 27020G30KT 0800 TSRA,M
VIDP,2022-05-23 04:00,68.00,64.40,88.26,60.00,20.00,0.00,29.50,M,1.55,30.00,BKN,FEW,OVC,M,3000.00,3500.00,9000.00,M,TS,M,M,M,M,M,M,68.00,VIDP 230400Z 06020G30KT 2500 TS BKN030 FEW035CB OVC090 20/18 Q0999 TEMPO 27020G30KT 0800 TSRA,M
VIDP,2022-05-23 04:30,69.80,66.20,88.34,50.00,8.00,0.00,29.50,M,1.55,18.00,BKN,FEW,OVC,M,3500.00,4000.00,9000.00,M,BR,M,M,M,M,M,M,69.80,VIDP 230430Z 05008G18KT 2500 BR BKN035 FEW040CB OVC090 21/19 Q0999 TEMPO 27020G30KT 0800 TSRA,M
VIDP,2022-05-23 05:00,69.80,69.80,100.00,100.00,10.00,0.00,29.53,M,1.86,20.00,BKN,OVC,M,M,3000.00,9000.00,M,M,BR,M,M,M,M,M,M,69.80,VIDP 230500Z 10010G20KT 3000 BR BKN030 OVC090 21/21 Q1000 NOSIG,M
VIDP,2022-05-23 05:30,71.60,69.80,94.06,70.00,7.00,0.00,29.50,M,2.17,17.00,BKN,OVC,M,M,3000.00,9000.00,M,M,BR,M,M,M,M,M,M,71.60,VIDP 230530Z 07007G17KT 3500 BR BKN030 OVC090 22/21 Q0999 NOSIG,M
VIDP,2022-05-23 06:00,73.40,73.40,100.00,80.00,7.00,0.00,29.50,M,2.17,17.00,BKN,OVC,M,M,3000.00,9000.00,M,M,BR,M,M,M,M,M,M,73.40,VIDP 230600Z 08007G17KT 3500 BR BKN030 OVC090 23/23 Q0999 NOSIG,M
VIDP,2022-05-23 06:30,77.00,71.60,83.44,80.00,5.00,0.00,29.50,M,2.17,15.00,SCT,BKN,M,M,3000.00,10000.00,M,M,BR,M,M,M,M,M,M,77.00,VIDP 230630Z 08005G15KT 3500 BR SCT030 BKN100 25/22 Q0999 NOSIG,M
VIDP,2022-05-23 07:00,78.80,71.60,78.62,70.00,5.00,0.00,29.50,M,2.17,15.00,SCT,BKN,M,M,3000.00,10000.00,M,M,BR,M,M,M,M,M,M,78.80,VIDP 230700Z 07005G15KT 3500 BR SCT030 BKN100 26/22 Q0999 NOSIG,M
VIDP,2022-05-23 07:30,80.60,71.60,74.11,60.00,12.00,0.00,29.53,M,2.17,M,SCT,BKN,M,M,3500.00,10000.00,M,M,HZ,M,M,M,M,M,M,84.57,VIDP 230730Z 06012KT 3500 HZ SCT035 BKN100 27/22 Q1000 NOSIG,M
VIDP,2022-05-23 08:00,82.40,68.00,61.81,60.00,9.00,0.00,29.50,M,2.17,M,SCT,BKN,M,M,3500.00,10000.00,M,M,HZ,M,M,M,M,M,M,85.38,VIDP 230800Z 06009KT 3500 HZ SCT035 BKN100 28/20 Q0999 NOSIG,M
VIDP,2022-05-23 08:30,84.20,69.80,62.03,110.00,10.00,0.00,29.50,M,2.49,M,SCT,BKN,M,M,3500.00,10000.00,M,M,HZ,M,M,M,M,M,M,88.43,VIDP 230830Z 11010KT 4000 HZ SCT035 BKN100 29/21 Q0999 BECMG 5000 HZ,M
VIDP,2022-05-23 09:00,82.40,68.00,61.81,110.00,9.00,0.00,29.50,M,2.49,M,SCT,BKN,M,M,3500.00,10000.00,M,M,HZ,M,M,M,M,M,M,85.38,VIDP 230900Z 11009KT 4000 HZ SCT035 BKN100 28/20 Q0999 NOSIG,M
VIDP,2022-05-23 09:30,84.20,68.00,58.32,100.00,9.00,0.00,29.50,M,2.49,M,SCT,BKN,M,M,3500.00,10000.00,M,M,HZ,M,M,M,M,M,M,87.40,VIDP 230930Z 10009KT 4000 HZ SCT035 BKN100 29/20 Q0999 NOSIG,M
VIDP,2022-05-23 10:00,84.20,68.00,58.32,90.00,9.00,0.00,29.50,M,2.49,M,SCT,BKN,M,M,3500.00,10000.00,M,M,HZ,M,M,M,M,M,M,87.40,VIDP 231000Z 09009KT 4000 HZ SCT035 BKN100 29/20 Q0999 NOSIG,M
VIDP,2022-05-23 10:30,84.20,68.00,58.32,100.00,13.00,0.00,29.47,M,2.49,M,SCT,BKN,M,M,3500.00,10000.00,M,M,HZ,M,M,M,M,M,M,87.40,VIDP 231030Z 10013KT 4000 HZ SCT035 BKN100 29/20 Q0998 NOSIG,M
VIDP,2022-05-23 11:00,82.40,69.80,65.74,100.00,10.00,0.00,29.47,M,2.49,20.00,SCT,BKN,M,M,3500.00,10000.00,M,M,HZ,M,M,M,M,M,M,86.22,VIDP 231100Z 10010G20KT 4000 HZ SCT035 BKN100 28/21 Q0998 NOSIG,M
VIDP,2022-05-23 11:30,82.40,69.80,65.74,90.00,10.00,0.00,29.47,M,2.49,20.00,SCT,BKN,M,M,3500.00,10000.00,M,M,HZ,M,M,M,M,M,M,86.22,VIDP 231130Z 09010G20KT 4000 HZ SCT035 BKN100 28/21 Q0998 NOSIG,M
VIDP,2022-05-23 12:00,80.60,69.80,69.71,100.00,9.00,0.00,29.50,M,2.49,19.00,SCT,BKN,M,M,3500.00,10000.00,M,M,HZ,M,M,M,M,M,M,83.90,VIDP 231200Z 10009G19KT 4000 HZ SCT035 BKN100 27/21 Q0999 NOSIG,M
VIDP,2022-05-23 12:30,80.60,69.80,69.71,110.00,9.00,0.00,29.50,M,2.49,M,SCT,BKN,M,M,3500.00,10000.00,M,M,HZ,M,M,M,M,M,M,83.90,VIDP 231230Z 11009KT 4000 HZ SCT035 BKN100 27/21 Q0999 NOSIG,M
VIDP,2022-05-23 13:00,80.60,69.80,69.71,110.00,9.00,0.00,29.47,M,2.49,19.00,SCT,BKN,M,M,3500.00,10000.00,M,M,HZ,M,M,M,M,M,M,83.90,VIDP 231300Z 11009G19KT 4000 HZ SCT035 BKN100 27/21 Q0998 NOSIG,M
VIDP,2022-05-23 13:30,78.80,69.80,73.95,100.00,8.00,0.00,29.47,M,2.49,18.00,SCT,BKN,M,M,3500.00,10000.00,M,M,HZ,M,M,M,M,M,M,78.80,VIDP 231330Z 10008G18KT 4000 HZ SCT035 BKN100 26/21 Q0998 NOSIG,M
VIDP,2022-05-23 14:00,78.80,69.80,73.95,90.00,7.00,0.00,29.47,M,2.49,17.00,SCT,BKN,M,M,3500.00,10000.00,M,M,HZ,M,M,M,M,M,M,78.80,VIDP 231400Z 09007G17KT 4000 HZ SCT035 BKN100 26/21 Q0998 NOSIG,M
VIDP,2022-05-23 14:30,78.80,66.20,65.33,90.00,10.00,0.00,29.50,M,2.49,M,SCT,BKN,M,M,3500.00,10000.00,M,M,HZ,M,M,M,M,M,M,78.80,VIDP 231430Z 09010KT 4000 HZ SCT035 BKN100 26/19 Q0999 NOSIG,M
VIDP,2022-05-23 15:00,78.80,66.20,65.33,80.00,8.00,0.00,29.50,M,2.49,M,SCT,BKN,M,M,3500.00,10000.00,M,M,HZ,M,M,M,M,M,M,78.80,VIDP 231500Z 08008KT 4000 HZ SCT035 BKN100 26/19 Q0999 NOSIG,M
VIDP,2022-05-23 15:30,78.80,66.20,65.33,90.00,9.00,0.00,29.50,M,2.49,M,SCT,BKN,M,M,3500.00,10000.00,M,M,HZ,M,M,M,M,M,M,78.80,VIDP 231530Z 09009KT 4000 HZ SCT035 BKN100 26/19 Q0999 NOSIG,M
VIDP,2022-05-23 16:00,78.80,68.00,69.52,90.00,9.00,0.00,29.53,M,2.17,M,SCT,FEW,BKN,M,3500.00,4000.00,10000.00,M,HZ,M,M,M,M,M,M,78.80,VIDP 231600Z 09009KT 3500 HZ SCT035 FEW040CB BKN100 26/20 Q1000 TEMPO 29030G40KT 1500 DS TSRA,M
VIDP,2022-05-23 16:30,77.00,68.00,73.78,90.00,10.00,0.00,29.50,M,2.17,M,SCT,FEW,BKN,M,3500.00,4000.00,10000.00,M,TS,M,M,M,M,M,M,77.00,VIDP 231630Z 09010KT 3500 TS SCT035 FEW040CB BKN100 25/20 Q0999 TEMPO 29030G40KT 1500 TSRA,M
VIDP,2022-05-23 17:00,77.00,68.00,73.78,100.00,12.00,0.00,29.53,M,2.17,M,SCT,FEW,BKN,M,3000.00,3500.00,10000.00,M,TS,M,M,M,M,M,M,77.00,VIDP 231700Z 10012KT 3500 TS SCT030 FEW035CB BKN100 25/20 Q1000 TEMPO 29030G40KT 1500 TSRA,M
VIDP,2022-05-23 17:30,71.60,69.80,94.06,300.00,30.00,0.00,29.62,M,0.37,40.00,BKN,FEW,OVC,M,3000.00,3500.00,8000.00,M,TSRA,M,M,M,M,M,M,71.60,VIDP 231730Z 30030G40KT 0600 R28/2000 R29/2000 TSRA BKN030 FEW035CB OVC080 22/21 Q1003 NOSIG,M
VIDP,2022-05-23 18:30,69.80,69.80,100.00,350.00,8.00,0.00,29.71,M,1.37,M,BKN,FEW,OVC,M,3000.00,3500.00,8000.00,M,-TSRA,M,M,M,M,M,M,69.80,VIDP 231830Z 35008KT 2200 -TSRA BKN030 FEW035CB OVC080 21/21 Q1006 TEMPO 29030G40KT 1500 TSRA,M
VIDP,2022-05-23 19:00,69.80,69.80,100.00,40.00,8.00,0.00,29.68,M,1.37,M,BKN,FEW,OVC,M,3000.00,3500.00,8000.00,M,-TSRA,M,M,M,M,M,M,69.80,VIDP 231900Z 04008KT 2200 -TSRA BKN030 FEW035CB OVC080 21/21 Q1005 TEMPO 1500 TSRA,M
VIDP,2022-05-23 19:30,69.80,68.00,94.01,50.00,7.00,0.00,29.62,M,1.55,M,BKN,FEW,OVC,M,3000.00,3500.00,8000.00,M,-TSRA,M,M,M,M,M,M,69.80,VIDP 231930Z 05007KT 2500 -TSRA BKN030 FEW035CB OVC080 21/20 Q1003 TEMPO 1500 TSRA,M
VIDP,2022-05-23 20:00,69.80,68.00,94.01,60.00,12.00,0.00,29.59,M,1.55,M,BKN,FEW,OVC,M,3000.00,3500.00,8000.00,M,BR,M,M,M,M,M,M,69.80,VIDP 232000Z 06012KT 2500 BR BKN030 FEW035CB OVC080 21/20 Q1002 TEMPO 1500 TSRA,M
VIDP,2022-05-23 20:30,69.80,68.00,94.01,80.00,15.00,0.00,29.47,M,2.17,25.00,BKN,FEW,OVC,M,3000.00,3500.00,8000.00,M,BR,M,M,M,M,M,M,69.80,VIDP 232030Z 08015G25KT 3500 BR BKN030 FEW035CB OVC080 21/20 Q0998 TEMPO 05030G40KT 1500 TSRA,M
VIDP,2022-05-23 21:00,69.80,69.80,100.00,60.00,15.00,0.00,29.50,M,2.17,25.00,BKN,FEW,OVC,M,3000.00,3500.00,8000.00,M,BR,M,M,M,M,M,M,69.80,VIDP 232100Z 06015G25KT 3500 BR BKN030 FEW035CB OVC080 21/21 Q0999 TEMPO 05030G40KT 1500 TSRA,M
VIDP,2022-05-23 21:30,69.80,69.80,100.00,200.00,8.00,0.00,29.59,M,2.17,M,BKN,FEW,OVC,M,3000.00,3500.00,8000.00,M,BR,M,M,M,M,M,M,69.80,VIDP 232130Z 20008KT 3500 BR BKN030 FEW035CB OVC080 21/21 Q1002 TEMPO 05030G40KT 1500 TSRA,M
VIDP,2022-05-23 22:00,69.80,69.80,100.00,110.00,6.00,0.00,29.59,M,2.17,M,BKN,FEW,OVC,M,3000.00,3500.00,8000.00,M,BR,M,M,M,M,M,M,69.80,VIDP 232200Z 11006KT 3500 BR BKN030 FEW035CB OVC080 21/21 Q1002 TEMPO 05030G40KT 1500 TSRA,M
VIDP,2022-05-23 22:30,69.80,69.80,100.00,120.00,4.00,0.00,29.59,M,2.17,M,BKN,FEW,OVC,M,3000.00,3500.00,8000.00,M,BR,M,M,M,M,M,M,69.80,VIDP 232230Z 12004KT 3500 BR BKN030 FEW035CB OVC080 21/21 Q1002 TEMPO 05030G40KT 1500 TSRA,M
VIDP,2022-05-23 23:00,69.80,69.80,100.00,60.00,34.00,0.00,29.59,M,2.17,M,BKN,FEW,OVC,M,3000.00,3500.00,8000.00,M,BR,M,M,M,M,M,M,69.80,VIDP 232300Z 060034KT 3500 BR BKN030 FEW035CB OVC080 21/21 Q1002 TEMPO 05030G40KT 1500 TSRA,M
VIDP,2022-05-23 23:30,68.00,68.00,100.00,90.00,3.00,0.00,29.59,M,2.17,M,FEW,SCT,M,M,4000.00,10000.00,M,M,BR,M,M,M,M,M,M,68.00,VIDP 232330Z 09003KT 3500 BR FEW040 SCT100 20/20 Q1002 NOSIG,M
VIDP,2022-05-24 00:00,68.00,68.00,100.00,120.00,5.00,0.00,29.59,M,2.17,M,FEW,SCT,M,M,4000.00,10000.00,M,M,BR,M,M,M,M,M,M,68.00,VIDP 240000Z 12005KT 3500 BR FEW040 SCT100 20/20 Q1002 NOSIG,M
VIDP,2022-05-24 00:30,68.00,68.00,100.00,90.00,4.00,0.00,29.65,M,1.99,M,FEW,SCT,M,M,4000.00,10000.00,M,M,BR,M,M,M,M,M,M,68.00,VIDP 240030Z 09004KT 3200 BR FEW040 SCT100 20/20 Q1004 BECMG 3000 BR,M
VIDP,2022-05-24 01:00,69.80,69.80,100.00,100.00,5.00,0.00,29.65,M,1.74,M,FEW,SCT,M,M,4000.00,10000.00,M,M,BR,M,M,M,M,M,M,69.80,VIDP 240100Z 10005KT 2800 BR FEW040 SCT100 21/21 Q1004 NOSIG,M
VIDP,2022-05-24 01:30,71.60,69.80,94.06,130.00,4.00,0.00,29.68,M,1.74,M,FEW,M,M,M,10000.00,M,M,M,BR,M,M,M,M,M,M,71.60,VIDP 240130Z 13004KT 2800 BR FEW100 22/21 Q1005 NOSIG,M
VIDP,2022-05-24 02:00,73.40,71.60,94.10,110.00,5.00,0.00,29.68,M,1.55,M,FEW,M,M,M,10000.00,M,M,M,BR,M,M,M,M,M,M,73.40,VIDP 240200Z 11005KT 2500 BR FEW100 23/22 Q1005 NOSIG,M
VIDP,2022-05-24 02:30,73.40,73.40,100.00,100.00,8.00,0.00,29.68,M,1.55,M,FEW,SCT,M,M,4000.00,10000.00,M,M,BR,M,M,M,M,M,M,73.40,VIDP 240230Z 10008KT 2500 BR FEW040 SCT100 23/23 Q1005 NOSIG,M
VIDP,2022-05-24 03:00,75.20,73.40,94.14,110.00,9.00,0.00,29.71,M,1.55,M,FEW,SCT,M,M,3500.00,10000.00,M,M,BR,M,M,M,M,M,M,75.20,VIDP 240300Z 11009KT 2500 BR FEW035 SCT100 24/23 Q1006 BECMG 3000 BR,M
VIDP,2022-05-24 03:30,75.20,75.20,100.00,110.00,9.00,0.00,29.71,M,1.99,M,FEW,SCT,M,M,3500.00,10000.00,M,M,BR,M,M,M,M,M,M,75.20,VIDP 240330Z 11009KT 3200 BR FEW035 SCT100 24/24 Q1006 NOSIG,M
VIDP,2022-05-24 04:00,77.00,75.20,94.19,120.00,8.00,0.00,29.71,M,1.99,M,FEW,SCT,M,M,3500.00,10000.00,M,M,BR,M,M,M,M,M,M,77.00,VIDP 240400Z 12008KT 3200 BR FEW035 SCT100 25/24 Q1006 NOSIG,M
VIDP,2022-05-24 04:30,78.80,73.40,83.55,120.00,9.00,0.00,29.71,M,2.17,M,FEW,M,M,M,10000.00,M,M,M,BR,M,M,M,M,M,M,78.80,VIDP 240430Z 12009KT 3500 BR FEW100 26/23 Q1006 NOSIG,M
VIDP,2022-05-24 05:00,80.60,75.20,83.66,120.00,9.00,0.00,29.71,M,2.17,M,FEW,M,M,M,10000.00,M,M,M,BR,M,M,M,M,M,M,86.17,VIDP 240500Z 12009KT 3500 BR FEW100 27/24 Q1006 NOSIG,M
VIDP,2022-05-24 05:30,80.60,75.20,83.66,130.00,8.00,0.00,29.71,M,2.49,M,FEW,SCT,M,M,3500.00,10000.00,M,M,BR,M,M,M,M,M,M,86.17,VIDP 240530Z 13008KT 4000 BR FEW035 SCT100 27/24 Q1006 NOSIG,M
VIDP,2022-05-24 06:00,80.60,75.20,83.66,130.00,9.00,0.00,29.71,M,2.49,M,FEW,SCT,M,M,3500.00,10000.00,M,M,BR,M,M,M,M,M,M,86.17,VIDP 240600Z 13009KT 4000 BR FEW035 SCT100 27/24 Q1006 NOSIG,M
VIDP,2022-05-24 06:30,80.60,75.20,83.66,120.00,8.00,0.00,29.71,M,2.49,M,SCT,BKN,M,M,3500.00,10000.00,M,M,BR,M,M,M,M,M,M,86.17,VIDP 240630Z 12008KT 4000 BR SCT035 BKN100 27/24 Q1006 NOSIG,M
VIDP,2022-05-24 07:00,82.40,75.20,78.90,130.00,7.00,0.00,29.71,M,2.80,M,SCT,BKN,M,M,3500.00,10000.00,M,M,BR,M,M,M,M,M,M,89.48,VIDP 240700Z 13007KT 4500 BR SCT035 BKN100 28/24 Q1006 NOSIG,M
VIDP,2022-05-24 07:30,82.40,73.40,74.28,100.00,6.00,0.00,29.71,M,3.11,M,SCT,BKN,M,M,3500.00,10000.00,M,M,HZ,M,M,M,M,M,M,88.26,VIDP 240730Z 10006KT 5000 HZ SCT035 BKN100 28/23 Q1006 NOSIG,M
VIDP,2022-05-24 08:00,84.20,73.40,70.08,120.00,6.00,0.00,29.71,M,3.11,M,SCT,BKN,M,M,3500.00,10000.00,M,M,HZ,M,M,M,M,M,M,90.94,VIDP 240800Z 12006KT 5000 HZ SCT035 BKN100 29/23 Q1006 NOSIG,M
VIDP,2022-05-24 08:30,86.00,73.40,66.15,170.00,4.00,0.00,29.71,M,3.11,M,SCT,M,M,M,10000.00,M,M,M,HZ,M,M,M,M,M,M,93.45,VIDP 240830Z 17004KT 5000 HZ SCT100 30/23 Q1006 NOSIG,M
VIDP,2022-05-24 09:00,87.80,71.60,58.78,140.00,7.00,0.00,29.68,M,3.11,M,SCT,M,M,M,10000.00,M,M,M,HZ,M,M,M,M,M,M,94.18,VIDP 240900Z 14007KT 5000 HZ SCT100 31/22 Q1005 NOSIG,M
VIDP,2022-05-24 09:30,89.60,71.60,55.53,100.00,5.00,0.00,29.68,M,3.11,M,SCT,M,M,M,10000.00,M,M,M,HZ,M,M,M,M,M,M,96.41,VIDP 240930Z 10005KT 5000 HZ SCT100 32/22 Q1005 NOSIG,M
VIDP,2022-05-24 10:00,89.60,69.80,52.23,110.00,6.00,0.00,29.68,M,3.11,M,SCT,M,M,M,10000.00,M,M,M,HZ,M,M,M,M,M,M,94.85,VIDP 241000Z 11006KT 5000 HZ SCT100 32/21 Q1005 NOSIG,M
VIDP,2022-05-24 10:30,89.60,71.60,55.53,110.00,4.00,0.00,29.68,M,3.11,M,SCT,M,M,M,10000.00,M,M,M,HZ,M,M,M,M,M,M,96.41,VIDP 241030Z 11004KT 5000 HZ SCT100 32/22 Q1005 NOSIG,M
VIDP,2022-05-24 11:00,89.60,69.80,52.23,90.00,5.00,0.00,29.68,M,3.11,M,SCT,M,M,M,10000.00,M,M,M,HZ,M,M,M,M,M,M,94.85,VIDP 241100Z 09005KT 5000 HZ SCT100 32/21 Q1005 NOSIG,M
VIDP,2022-05-24 11:20,89.60,68.00,49.10,80.00,5.00,0.00,29.68,M,2.80,M,FEW,M,M,M,10000.00,M,M,M,HZ,M,M,M,M,M,M,93.47,VIDP 241120Z 08005KT 4500 HZ FEW100 32/20 Q1005 NOSIG,M
VIDP,2022-05-24 11:30,89.60,68.00,49.10,110.00,4.00,0.00,29.68,M,2.80,M,FEW,M,M,M,10000.00,M,M,M,HZ,M,M,M,M,M,M,93.47,VIDP 241130Z 11004KT 4500 HZ FEW100 32/20 Q1005 NOSIG,M
VIDP,2022-05-24 12:00,89.60,68.00,49.10,80.00,5.00,0.00,29.68,M,2.80,M,FEW,M,M,M,10000.00,M,M,M,HZ,M,M,M,M,M,M,93.47,VIDP 241200Z 08005KT 4500 HZ FEW100 32/20 Q1005 NOSIG,M
VIDP,2022-05-24 12:30,87.80,68.00,51.98,90.00,5.00,0.00,29.68,M,2.49,M,FEW,M,M,M,10000.00,M,M,M,HZ,M,M,M,M,M,M,91.43,VIDP 241230Z 09005KT 4000 HZ FEW100 31/20 Q1005 NOSIG,M
VIDP,2022-05-24 13:00,87.80,68.00,51.98,80.00,5.00,0.00,29.68,M,2.49,M,FEW,M,M,M,10000.00,M,M,M,HZ,M,M,M,M,M,M,91.43,VIDP 241300Z 08005KT 4000 HZ FEW100 31/20 Q1005 NOSIG,M
VIDP,2022-05-24 13:30,86.00,68.00,55.04,90.00,5.00,0.00,29.68,M,2.17,M,FEW,M,M,M,10000.00,M,M,M,HZ,M,M,M,M,M,M,89.41,VIDP 241330Z 09005KT 3500 HZ FEW100 30/20 Q1005 NOSIG,M
VIDP,2022-05-24 14:00,86.00,68.00,55.04,90.00,4.00,0.00,29.71,M,2.17,M,FEW,M,M,M,10000.00,M,M,M,HZ,M,M,M,M,M,M,89.41,VIDP 241400Z 09004KT 3500 HZ FEW100 30/20 Q1006 NOSIG,M
VIDP,2022-05-24 14:30,84.20,68.00,58.32,80.00,4.00,0.00,29.71,M,2.17,M,FEW,M,M,M,10000.00,M,M,M,HZ,M,M,M,M,M,M,87.40,VIDP 241430Z 08004KT 3500 HZ FEW100 29/20 Q1006 NOSIG,M
VIDP,2022-05-24 15:00,84.20,68.00,58.32,110.00,4.00,0.00,29.71,M,2.17,M,FEW,M,M,M,10000.00,M,M,M,HZ,M,M,M,M,M,M,87.40,VIDP 241500Z 11004KT 3500 HZ FEW100 29/20 Q1006 NOSIG,M
VIDP,2022-05-24 15:30,84.20,68.00,58.32,120.00,4.00,0.00,29.71,M,2.17,M,FEW,M,M,M,10000.00,M,M,M,HZ,M,M,M,M,M,M,87.40,VIDP 241530Z 12004KT 3500 HZ FEW100 29/20 Q1006 NOSIG,M
VIDP,2022-05-24 16:00,84.20,68.00,58.32,110.00,4.00,0.00,29.74,M,2.17,M,FEW,M,M,M,10000.00,M,M,M,HZ,M,M,M,M,M,M,87.40,VIDP 241600Z 11004KT 3500 HZ FEW100 29/20 Q1007 NOSIG,M
VIDP,2022-05-24 16:30,82.40,69.80,65.74,90.00,3.00,0.00,29.74,M,2.17,M,FEW,M,M,M,10000.00,M,M,M,HZ,M,M,M,M,M,M,86.22,VIDP 241630Z 09003KT 3500 HZ FEW100 28/21 Q1007 NOSIG,M
VIDP,2022-05-24 17:00,82.40,69.80,65.74,0.00,0.00,0.00,29.74,M,2.17,M,FEW,M,M,M,10000.00,M,M,M,HZ,M,M,M,M,M,M,86.22,VIDP 241700Z 00000KT 3500 HZ FEW100 28/21 Q1007 NOSIG,M
VIDP,2022-05-24 17:30,80.60,69.80,69.71,0.00,0.00,0.00,29.74,M,2.17,M,FEW,M,M,M,10000.00,M,M,M,HZ,M,M,M,M,M,M,83.90,VIDP 241730Z 00000KT 3500 HZ FEW100 27/21 Q1007 NOSIG,M
VIDP,2022-05-24 18:00,80.60,69.80,69.71,0.00,0.00,0.00,29.74,M,2.17,M,NSC,M,M,M,M,M,M,M,HZ,M,M,M,M,M,M,83.90,VIDP 241800Z 00000KT 3500 HZ NSC 27/21 Q1007 NOSIG,M
VIDP,2022-05-24 18:30,80.60,71.60,74.11,0.00,0.00,0.00,29.71,M,2.17,M,NSC,M,M,M,M,M,M,M,HZ,M,M,M,M,M,M,84.57,VIDP 241830Z 00000KT 3500 HZ NSC 27/22 Q1006 NOSIG,M
VIDP,2022-05-24 19:00,80.60,71.60,74.11,0.00,0.00,0.00,29.71,M,2.17,M,NSC,M,M,M,M,M,M,M,HZ,M,M,M,M,M,M,84.57,VIDP 241900Z 00000KT 3500 HZ NSC 27/22 Q1006 NOSIG,M
VIDP,2022-05-24 19:30,80.60,71.60,74.11,0.00,0.00,0.00,29.71,M,2.17,M,SCT,M,M,M,10000.00,M,M,M,HZ,M,M,M,M,M,M,84.57,VIDP 241930Z 00000KT 3500 HZ SCT100 27/22 Q1006 NOSIG,M
VIDP,2022-05-24 20:00,78.80,71.60,78.62,0.00,0.00,0.00,29.71,M,2.17,M,SCT,M,M,M,10000.00,M,M,M,BR,M,M,M,M,M,M,78.80,VIDP 242000Z 00000KT 3500 BR SCT100 26/22 Q1006 NOSIG,M
VIDP,2022-05-24 20:30,78.80,71.60,78.62,0.00,0.00,0.00,29.71,M,1.99,M,SCT,M,M,M,10000.00,M,M,M,BR,M,M,M,M,M,M,78.80,VIDP 242030Z 00000KT 3200 BR SCT100 26/22 Q1006 NOSIG,M
VIDP,2022-05-24 21:00,78.80,71.60,78.62,0.00,0.00,0.00,29.71,M,1.99,M,SCT,M,M,M,10000.00,M,M,M,BR,M,M,M,M,M,M,78.80,VIDP 242100Z 00000KT 3200 BR SCT100 26/22 Q1006 NOSIG,M
VIDP,2022-05-24 21:30,78.80,71.60,78.62,0.00,0.00,0.00,29.71,M,1.99,M,SCT,M,M,M,10000.00,M,M,M,BR,M,M,M,M,M,M,78.80,VIDP 242130Z 00000KT 3200 BR SCT100 26/22 Q1006 NOSIG,M
VIDP,2022-05-24 22:00,78.80,71.60,78.62,0.00,0.00,0.00,29.71,M,1.99,M,SCT,M,M,M,10000.00,M,M,M,BR,M,M,M,M,M,M,78.80,VIDP 242200Z 00000KT 3200 BR SCT100 26/22 Q1006 NOSIG,M
VIDP,2022-05-24 22:30,78.80,71.60,78.62,0.00,0.00,0.00,29.71,M,1.99,M,SCT,M,M,M,10000.00,M,M,M,BR,M,M,M,M,M,M,78.80,VIDP 242230Z 00000KT 3200 BR SCT100 26/22 Q1006 BECMG 3000 BR,M
VIDP,2022-05-24 23:00,78.80,73.40,83.55,0.00,0.00,0.00,29.71,M,1.86,M,FEW,M,M,M,10000.00,M,M,M,BR,M,M,M,M,M,M,78.80,VIDP 242300Z 00000KT 3000 BR FEW100 26/23 Q1006 NOSIG,M
VIDP,2022-05-24 23:30,78.80,73.40,83.55,0.00,0.00,0.00,29.71,M,1.86,M,FEW,M,M,M,10000.00,M,M,M,BR,M,M,M,M,M,M,78.80,VIDP 242330Z 00000KT 3000 BR FEW100 26/23 Q1006 NOSIG,M
VIDP,2022-05-25 00:00,78.80,73.40,83.55,0.00,0.00,0.00,29.71,M,1.86,M,FEW,M,M,M,10000.00,M,M,M,BR,M,M,M,M,M,M,78.80,VIDP 250000Z 00000KT 3000 BR FEW100 26/23 Q1006 NOSIG,M
VIDP,2022-05-25 00:30,78.80,73.40,83.55,0.00,0.00,0.00,29.71,M,1.86,M,FEW,M,M,M,10000.00,M,M,M,BR,M,M,M,M,M,M,78.80,VIDP 250030Z 00000KT 3000 BR FEW100 26/23 Q1006 NOSIG,M
VIDP,2022-05-25 01:00,78.80,73.40,83.55,40.00,3.00,0.00,29.74,M,1.55,M,FEW,M,M,M,10000.00,M,M,M,BR,M,M,M,M,M,M,78.80,VIDP 250100Z 04003KT 2500 BR FEW100 26/23 Q1007 NOSIG,M
VIDP,2022-05-25 01:30,80.60,73.40,78.76,50.00,3.00,0.00,29.74,M,1.55,M,FEW,M,M,M,10000.00,M,M,M,BR,M,M,M,M,M,M,85.32,VIDP 250130Z 05003KT 2500 BR FEW100 27/23 Q1007 NOSIG,M
VIDP,2022-05-25 02:00,80.60,73.40,78.76,50.00,4.00,0.00,29.77,M,1.55,M,FEW,M,M,M,10000.00,M,M,M,BR,M,M,M,M,M,M,85.32,VIDP 250200Z 05004KT 2500 BR FEW100 27/23 Q1008 NOSIG,M
VIDP,2022-05-25 02:30,82.40,75.20,78.90,60.00,5.00,0.00,29.77,M,1.55,M,FEW,M,M,M,10000.00,M,M,M,BR,M,M,M,M,M,M,89.48,VIDP 250230Z 06005KT 2500 BR FEW100 28/24 Q1008 NOSIG,M
VIDP,2022-05-25 03:00,84.20,75.20,74.44,50.00,3.00,0.00,29.77,M,1.55,M,FEW,M,M,M,10000.00,M,M,M,HZ,M,M,M,M,M,M,92.45,VIDP 250300Z 05003KT 2500 HZ FEW100 29/24 Q1008 NOSIG,M
VIDP,2022-05-25 03:30,86.00,73.40,66.15,50.00,4.00,0.00,29.77,M,1.74,M,FEW,M,M,M,10000.00,M,M,M,HZ,M,M,M,M,M,M,93.45,VIDP 250330Z 05004KT 2800 HZ FEW100 30/23 Q1008 BECMG 3000 HZ,M
VIDP,2022-05-25 04:00,87.80,71.60,58.78,60.00,5.00,0.00,29.77,M,2.17,M,FEW,M,M,M,10000.00,M,M,M,HZ,M,M,M,M,M,M,94.18,VIDP 250400Z 06005KT 3500 HZ FEW100 31/22 Q1008 NOSIG,M
VIDP,2022-05-25 04:30,87.80,71.60,58.78,340.00,4.00,0.00,29.77,M,2.17,M,FEW,M,M,M,10000.00,M,M,M,HZ,M,M,M,M,M,M,94.18,VIDP 250430Z 34004KT 3500 HZ FEW100 31/22 Q1008 NOSIG,M
VIDP,2022-05-25 05:00,87.80,73.40,62.47,30.00,4.00,0.00,29.74,M,2.17,M,FEW,SCT,M,M,4000.00,10000.00,M,M,HZ,M,M,M,M,M,M,95.86,VIDP 250500Z 03004KT 3500 HZ FEW040 SCT100 31/23 Q1007 NOSIG,M
VIDP,2022-05-25 05:30,87.80,73.40,62.47,330.00,4.00,0.00,29.74,M,2.17,M,FEW,SCT,M,M,4000.00,10000.00,M,M,HZ,M,M,M,M,M,M,95.86,VIDP 250530Z 33004KT 3500 HZ FEW040 SCT100 31/23 Q1007 NOSIG,M
VIDP,2022-05-25 06:00,87.80,75.20,66.35,350.00,4.00,0.00,29.74,M,2.17,M,FEW,SCT,M,M,4000.00,10000.00,M,M,HZ,M,M,M,M,M,M,97.76,VIDP 250600Z 35004KT 3500 HZ FEW040 SCT100 31/24 Q1007 NOSIG,M
VIDP,2022-05-25 06:30,89.60,75.20,62.68,90.00,4.00,0.00,29.74,M,2.17,M,FEW,SCT,M,M,4000.00,10000.00,M,M,HZ,M,M,M,M,M,M,100.23,VIDP 250630Z 09004KT 3500 HZ FEW040 SCT100 32/24 Q1007 NOSIG,M
VIDP,2022-05-25 07:00,91.40,75.20,59.24,50.00,4.00,0.00,29.74,M,2.17,M,FEW,SCT,M,M,4000.00,10000.00,M,M,HZ,M,M,M,M,M,M,102.65,VIDP 250700Z 05004KT 3500 HZ FEW040 SCT100 33/24 Q1007 NOSIG,M
VIDP,2022-05-25 07:30,91.40,73.40,55.77,320.00,4.00,0.00,29.71,M,2.17,M,FEW,SCT,M,M,4000.00,10000.00,M,M,HZ,M,M,M,M,M,M,100.52,VIDP 250730Z 32004KT 3500 HZ FEW040 SCT100 33/23 Q1006 NOSIG,M
VIDP,2022-05-25 08:00,91.40,71.60,52.48,250.00,5.00,0.00,29.71,M,2.17,M,FEW,SCT,M,M,4000.00,10000.00,M,M,HZ,M,M,M,M,M,M,98.64,VIDP 250800Z 25005KT 3500 HZ FEW040 SCT100 33/22 Q1006 NOSIG,M
VIDP,2022-05-25 08:30,93.20,69.80,46.67,250.00,5.00,0.00,29.71,M,2.17,M,FEW,SCT,M,M,4000.00,10000.00,M,M,HZ,M,M,M,M,M,M,99.17,VIDP 250830Z 25005KT 3500 HZ FEW040 SCT100 34/21 Q1006 NOSIG,M
VIDP,2022-05-25 09:00,93.20,69.80,46.67,270.00,5.00,0.00,29.68,M,2.17,M,FEW,SCT,M,M,4000.00,10000.00,M,M,HZ,M,M,M,M,M,M,99.17,VIDP 250900Z 27005KT 3500 HZ FEW040 SCT100 34/21 Q1005 NOSIG,M
VIDP,2022-05-25 09:30,93.20,69.80,46.67,260.00,6.00,0.00,29.68,M,2.17,M,FEW,SCT,M,M,4000.00,10000.00,M,M,HZ,M,M,M,M,M,M,99.17,VIDP 250930Z 26006KT 3500 HZ FEW040 SCT100 34/21 Q1005 NOSIG,M
VIDP,2022-05-25 10:00,91.40,68.00,46.41,270.00,8.00,0.00,29.65,M,2.17,M,FEW,SCT,M,M,4000.00,10000.00,M,M,HZ,M,M,M,M,M,M,95.55,VIDP 251000Z 27008KT 3500 HZ FEW040 SCT100 33/20 Q1004 NOSIG,M
VIDP,2022-05-25 10:30,91.40,68.00,46.41,250.00,8.00,0.00,29.65,M,2.17,M,FEW,SCT,M,M,4000.00,10000.00,M,M,HZ,M,M,M,M,M,M,95.55,VIDP 251030Z 25008KT 3500 HZ FEW040 SCT100 33/20 Q1004 NOSIG,M
VIDP,2022-05-25 11:00,91.40,68.00,46.41,280.00,7.00,0.00,29.65,M,2.17,M,FEW,SCT,M,M,4000.00,10000.00,M,M,HZ,M,M,M,M,M,M,95.55,VIDP 251100Z 28007KT 3500 HZ FEW040 SCT100 33/20 Q1004 NOSIG,M
VIDP,2022-05-25 11:30,91.40,62.60,38.45,270.00,9.00,0.00,29.65,M,2.17,M,FEW,SCT,M,M,4000.00,10000.00,M,M,HZ,M,M,M,M,M,M,92.23,VIDP 251130Z 27009KT 3500 HZ FEW040 SCT100 33/17 Q1004 NOSIG,M
VIDP,2022-05-25 12:00,91.40,64.40,40.96,270.00,8.00,0.00,29.65,M,2.17,M,FEW,SCT,M,M,4000.00,10000.00,M,M,HZ,M,M,M,M,M,M,93.19,VIDP 251200Z 27008KT 3500 HZ FEW040 SCT100 33/18 Q1004 NOSIG,M
VIDP,2022-05-25 12:30,89.60,64.40,43.34,270.00,7.00,0.00,29.65,M,2.17,M,FEW,SCT,M,M,4000.00,10000.00,M,M,HZ,M,M,M,M,M,M,91.23,VIDP 251230Z 27007KT 3500 HZ FEW040 SCT100 32/18 Q1004 NOSIG,M
VIDP,2022-05-25 13:00,89.60,64.40,43.34,280.00,7.00,0.00,29.65,M,2.17,M,FEW,M,M,M,10000.00,M,M,M,HZ,M,M,M,M,M,M,91.23,VIDP 251300Z 28007KT 3500 HZ FEW100 32/18 Q1004 NOSIG,M
VIDP,2022-05-25 13:30,87.80,66.20,48.84,280.00,6.00,0.00,29.65,M,2.17,M,FEW,M,M,M,10000.00,M,M,M,HZ,M,M,M,M,M,M,90.31,VIDP 251330Z 28006KT 3500 HZ FEW100 31/19 Q1004 NOSIG,M
VIDP,2022-05-25 14:00,87.80,69.80,55.29,290.00,6.00,0.00,29.65,M,2.17,M,FEW,M,M,M,10000.00,M,M,M,HZ,M,M,M,M,M,M,92.71,VIDP 251400Z 29006KT 3500 HZ FEW100 31/21 Q1004 NOSIG,M
VIDP,2022-05-25 14:30,86.00,69.80,58.55,270.00,4.00,0.00,29.68,M,2.17,M,FEW,M,M,M,10000.00,M,M,M,HZ,M,M,M,M,M,M,90.58,VIDP 251430Z 27004KT 3500 HZ FEW100 30/21 Q1005 NOSIG,M
VIDP,2022-05-25 15:00,86.00,69.80,58.55,270.00,5.00,0.00,29.68,M,2.17,M,FEW,M,M,M,10000.00,M,M,M,HZ,M,M,M,M,M,M,90.58,VIDP 251500Z 27005KT 3500 HZ FEW100 30/21 Q1005 NOSIG,M
VIDP,2022-05-25 15:30,84.20,69.80,62.03,210.00,4.00,0.00,29.68,M,2.17,M,FEW,M,M,M,10000.00,M,M,M,HZ,M,M,M,M,M,M,88.43,VIDP 251530Z 21004KT 3500 HZ FEW100 29/21 Q1005 NOSIG,M
VIDP,2022-05-25 16:00,84.20,69.80,62.03,210.00,4.00,0.00,29.68,M,2.17,M,FEW,M,M,M,10000.00,M,M,M,HZ,M,M,M,M,M,M,88.43,VIDP 251600Z 21004KT 3500 HZ FEW100 29/21 Q1005 NOSIG,M
VIDP,2022-05-25 16:30,84.20,69.80,62.03,M,2.00,0.00,29.68,M,2.17,M,FEW,M,M,M,10000.00,M,M,M,HZ,M,M,M,M,M,M,88.43,VIDP 251630Z VRB02KT 3500 HZ FEW100 29/21 Q1005 NOSIG,M
VIDP,2022-05-25 17:00,84.20,69.80,62.03,340.00,4.00,0.00,29.68,M,2.17,M,FEW,M,M,M,10000.00,M,M,M,HZ,M,M,M,M,M,M,88.43,VIDP 251700Z 34004KT 3500 HZ FEW100 29/21 Q1005 NOSIG,M
VIDP,2022-05-25 17:30,82.40,71.60,69.90,310.00,3.00,0.00,29.68,M,2.17,M,FEW,M,M,M,10000.00,M,M,M,HZ,M,M,M,M,M,M,87.18,VIDP 251730Z 31003KT 3500 HZ FEW100 28/22 Q1005 NOSIG,M
VIDP,2022-05-25 18:00,84.20,71.60,65.95,330.00,3.00,0.00,29.68,M,2.17,M,FEW,M,M,M,10000.00,M,M,M,HZ,M,M,M,M,M,M,89.60,VIDP 251800Z 33003KT 3500 HZ FEW100 29/22 Q1005 NOSIG,M
VIDP,2022-05-25 18:30,82.40,71.60,69.90,0.00,0.00,0.00,29.68,M,2.17,M,FEW,M,M,M,10000.00,M,M,M,HZ,M,M,M,M,M,M,87.18,VIDP 251830Z 00000KT 3500 HZ FEW100 28/22 Q1005 NOSIG,M
VIDP,2022-05-25 19:00,82.40,71.60,69.90,350.00,3.00,0.00,29.68,M,2.17,M,FEW,M,M,M,10000.00,M,M,M,HZ,M,M,M,M,M,M,87.18,VIDP 251900Z 35003KT 3500 HZ FEW100 28/22 Q1005 NOSIG,M
VIDP,2022-05-25 19:30,80.60,71.60,74.11,0.00,0.00,0.00,29.68,M,2.17,M,FEW,M,M,M,10000.00,M,M,M,HZ,M,M,M,M,M,M,84.57,VIDP 251930Z 00000KT 3500 HZ FEW100 27/22 Q1005 NOSIG,M
VIDP,2022-05-25 20:00,80.60,73.40,78.76,0.00,0.00,0.00,29.68,M,2.17,M,FEW,M,M,M,10000.00,M,M,M,BR,M,M,M,M,M,M,85.32,VIDP 252000Z 00000KT 3500 BR FEW100 27/23 Q1005 NOSIG,M
VIDP,2022-05-25 20:30,78.80,75.20,88.75,0.00,0.00,0.00,29.65,M,2.17,M,FEW,M,M,M,10000.00,M,M,M,BR,M,M,M,M,M,M,78.80,VIDP 252030Z 00000KT 3500 BR FEW100 26/24 Q1004 NOSIG,M
VIDP,2022-05-25 21:00,78.80,75.20,88.75,60.00,4.00,0.00,29.65,M,2.17,M,FEW,M,M,M,10000.00,M,M,M,BR,M,M,M,M,M,M,78.80,VIDP 252100Z 06004KT 3500 BR FEW100 26/24 Q1004 NOSIG,M
VIDP,2022-05-25 21:30,78.80,73.40,83.55,170.00,3.00,0.00,29.65,M,2.17,M,FEW,M,M,M,10000.00,M,M,M,BR,M,M,M,M,M,M,78.80,VIDP 252130Z 17003KT 3500 BR FEW100 26/23 Q1004 NOSIG,M
VIDP,2022-05-25 22:00,78.80,75.20,88.75,0.00,0.00,0.00,29.65,M,2.17,M,FEW,M,M,M,10000.00,M,M,M,BR,M,M,M,M,M,M,78.80,VIDP 252200Z 00000KT 3500 BR FEW100 26/24 Q1004 NOSIG,M
VIDP,2022-05-25 22:30,78.80,75.20,88.75,0.00,0.00,0.00,29.65,M,1.99,M,NSC,M,M,M,M,M,M,M,BR,M,M,M,M,M,M,78.80,VIDP 252230Z 00000KT 3200 BR NSC 26/24 Q1004 BECMG 3000 BR,M
VIDP,2022-05-25 23:00,77.00,75.20,94.19,0.00,0.00,0.00,29.65,M,1.86,M,NSC,M,M,M,M,M,M,M,BR,M,M,M,M,M,M,77.00,VIDP 252300Z 00000KT 3000 BR NSC 25/24 Q1004 NOSIG,M
VIDP,2022-05-25 23:30,77.00,75.20,94.19,0.00,0.00,0.00,29.65,M,1.86,M,NSC,M,M,M,M,M,M,M,BR,M,M,M,M,M,M,77.00,VIDP 252330Z 00000KT 3000 BR NSC 25/24 Q1004 NOSIG,M
VIDP,2022-05-26 00:00,77.00,75.20,94.19,0.00,0.00,0.00,29.68,M,1.74,M,NSC,M,M,M,M,M,M,M,BR,M,M,M,M,M,M,77.00,VIDP 260000Z 00000KT 2800 BR NSC 25/24 Q1005 NOSIG,M
VIDP,2022-05-26 00:30,78.80,75.20,88.75,0.00,0.00,0.00,29.68,M,1.37,M,NSC,M,M,M,M,M,M,M,BR,M,M,M,M,M,M,78.80,VIDP 260030Z 00000KT 2200 BR NSC 26/24 Q1005 NOSIG,M
VIDP,2022-05-26 01:00,78.80,75.20,88.75,0.00,0.00,0.00,29.68,M,1.37,M,NSC,M,M,M,M,M,M,M,BR,M,M,M,M,M,M,78.80,VIDP 260100Z 00000KT 2200 BR NSC 26/24 Q1005 NOSIG,M
VIDP,2022-05-26 01:30,80.60,75.20,83.66,M,2.00,0.00,29.71,M,1.37,M,NSC,M,M,M,M,M,M,M,BR,M,M,M,M,M,M,86.17,VIDP 260130Z VRB02KT 2200 BR NSC 27/24 Q1006 NOSIG,M
VIDP,2022-05-26 02:00,82.40,75.20,78.90,260.00,4.00,0.00,29.71,M,1.37,M,NSC,M,M,M,M,M,M,M,BR,M,M,M,M,M,M,89.48,VIDP 260200Z 26004KT 2200 BR NSC 28/24 Q1006 NOSIG,M
VIDP,2022-05-26 02:30,84.20,69.80,62.03,0.00,0.00,0.00,29.71,M,1.37,M,NSC,M,M,M,M,M,M,M,DU,M,M,M,M,M,M,88.43,VIDP 260230Z 00000KT 2200 DU NSC 29/21 Q1006 NOSIG,M
VIDP,2022-05-26 03:00,86.00,69.80,58.55,0.00,0.00,0.00,29.71,M,1.12,M,NSC,M,M,M,M,M,M,M,DU,M,M,M,M,M,M,90.58,VIDP 260300Z 00000KT 1800 R28/P2000 R29/P2000 DU NSC 30/21 Q1006 NOSIG,M
VIDP,2022-05-26 03:30,87.80,68.00,51.98,0.00,0.00,0.00,29.71,M,1.12,M,NSC,M,M,M,M,M,M,M,DU,M,M,M,M,M,M,91.43,VIDP 260330Z 00000KT 1800 R28/P2000 R29/P2000 DU NSC 31/20 Q1006 NOSIG,M
VIDP,2022-05-26 04:00,87.80,68.00,51.98,0.00,0.00,0.00,29.71,M,1.30,M,NSC,M,M,M,M,M,M,M,DU,M,M,M,M,M,M,91.43,VIDP 260400Z 00000KT 2100 DU NSC 31/20 Q1006 NOSIG,M
VIDP,2022-05-26 04:30,89.60,68.00,49.10,0.00,0.00,0.00,29.71,M,1.30,M,NSC,M,M,M,M,M,M,M,DU,M,M,M,M,M,M,93.47,VIDP 260430Z 00000KT 2100 DU NSC 32/20 Q1006 NOSIG,M
VIDP,2022-05-26 05:00,89.60,66.20,46.14,0.00,0.00,0.00,29.68,M,1.55,M,NSC,M,M,M,M,M,M,M,DU,M,M,M,M,M,M,92.27,VIDP 260500Z 00000KT 2500 DU NSC 32/19 Q1005 NOSIG,M
VIDP,2022-05-26 05:30,91.40,66.20,43.61,0.00,0.00,0.00,29.68,M,1.55,M,NSC,M,M,M,M,M,M,M,DU,M,M,M,M,M,M,94.29,VIDP 260530Z 00000KT 2500 DU NSC 33/19 Q1005 NOSIG,M
VIDP,2022-05-26 06:00,93.20,66.20,41.23,0.00,0.00,0.00,29.68,M,1.55,M,NSC,M,M,M,M,M,M,M,DU,M,M,M,M,M,M,96.35,VIDP 260600Z 00000KT 2500 DU NSC 34/19 Q1005 NOSIG,M
VIDP,2022-05-26 06:30,93.20,57.20,29.99,0.00,0.00,0.00,29.68,M,1.55,M,NSC,M,M,M,M,M,M,M,DU,M,M,M,M,M,M,91.91,VIDP 260630Z 00000KT 2500 DU NSC 34/14 Q1005 NOSIG,M
VIDP,2022-05-26 07:00,95.00,55.40,26.58,260.00,4.00,0.00,29.68,M,1.74,M,NSC,M,M,M,M,M,M,M,DU,M,M,M,M,M,M,93.22,VIDP 260700Z 26004KT 2800 DU NSC 35/13 Q1005 BECMG 3000 HZ,M
VIDP,2022-05-26 07:30,95.00,53.60,24.89,230.00,3.00,0.00,29.65,M,1.86,M,NSC,M,M,M,M,M,M,M,HZ,M,M,M,M,M,M,92.71,VIDP 260730Z 23003KT 3000 HZ NSC 35/12 Q1004 NOSIG,M
VIDP,2022-05-26 08:00,95.00,53.60,24.89,200.00,4.00,0.00,29.65,M,2.17,M,FEW,M,M,M,10000.00,M,M,M,HZ,M,M,M,M,M,M,92.71,VIDP 260800Z 20004KT 3500 HZ FEW100 35/12 Q1004 NOSIG,M
VIDP,2022-05-26 08:30,96.80,53.60,23.55,260.00,5.00,0.00,29.65,M,2.49,M,FEW,M,M,M,10000.00,M,M,M,HZ,M,M,M,M,M,M,94.59,VIDP 260830Z 26005KT 4000 HZ FEW100 36/12 Q1004 NOSIG,M
VIDP,2022-05-26 09:00,96.80,57.20,26.84,320.00,5.00,0.00,29.62,M,2.49,M,NSC,M,M,M,M,M,M,M,HZ,M,M,M,M,M,M,95.77,VIDP 260900Z 32005KT 4000 HZ NSC 36/14 Q1003 NOSIG,M
VIDP,2022-05-26 09:30,96.80,57.20,26.84,300.00,5.00,0.00,29.59,M,2.49,M,NSC,M,M,M,M,M,M,M,HZ,M,M,M,M,M,M,95.77,VIDP 260930Z 30005KT 4000 HZ NSC 36/14 Q1002 NOSIG,M
VIDP,2022-05-26 10:00,96.80,57.20,26.84,320.00,5.00,0.00,29.59,M,2.49,M,NSC,M,M,M,M,M,M,M,HZ,M,M,M,M,M,M,95.77,VIDP 261000Z 32005KT 4000 HZ NSC 36/14 Q1002 NOSIG,M
VIDP,2022-05-26 10:30,96.80,59.00,28.63,330.00,4.00,0.00,29.59,M,2.49,M,NSC,M,M,M,M,M,M,M,HZ,M,M,M,M,M,M,96.50,VIDP 261030Z 33004KT 4000 HZ NSC 36/15 Q1002 NOSIG,M
VIDP,2022-05-26 11:00,96.80,59.00,28.63,340.00,5.00,0.00,29.59,M,2.49,M,NSC,M,M,M,M,M,M,M,HZ,M,M,M,M,M,M,96.50,VIDP 261100Z 34005KT 4000 HZ NSC 36/15 Q1002 NOSIG,M
VIDP,2022-05-26 11:30,96.80,57.20,26.84,310.00,7.00,0.00,29.56,M,2.49,M,NSC,M,M,M,M,M,M,M,HZ,M,M,M,M,M,M,95.77,VIDP 261130Z 31007KT 4000 HZ NSC 36/14 Q1001 NOSIG,M
VIDP,2022-05-26 12:00,96.80,57.20,26.84,320.00,5.00,0.00,29.56,M,2.49,M,NSC,M,M,M,M,M,M,M,HZ,M,M,M,M,M,M,95.77,VIDP 261200Z 32005KT 4000 HZ NSC 36/14 Q1001 NOSIG,M
VIDP,2022-05-26 12:30,95.00,57.20,28.37,20.00,5.00,0.00,29.56,M,2.49,M,NSC,M,M,M,M,M,M,M,HZ,M,M,M,M,M,M,93.82,VIDP 261230Z 02005KT 4000 HZ NSC 35/14 Q1001 NOSIG,M
VIDP,2022-05-26 13:00,95.00,57.20,28.37,30.00,5.00,0.00,29.56,M,2.49,M,NSC,M,M,M,M,M,M,M,HZ,M,M,M,M,M,M,93.82,VIDP 261300Z 03005KT 4000 HZ NSC 35/14 Q1001 NOSIG,M
VIDP,2022-05-26 13:30,93.20,59.00,31.99,40.00,5.00,0.00,29.56,M,2.17,M,NSC,M,M,M,M,M,M,M,HZ,M,M,M,M,M,M,92.57,VIDP 261330Z 04005KT 3500 HZ NSC 34/15 Q1001 NOSIG,M
VIDP,2022-05-26 14:00,91.40,60.80,36.08,50.00,5.00,0.00,29.59,M,2.17,M,NSC,M,M,M,M,M,M,M,HZ,M,M,M,M,M,M,91.40,VIDP 261400Z 05005KT 3500 HZ NSC 33/16 Q1002 NOSIG,M
VIDP,2022-05-26 14:30,89.60,60.80,38.18,40.00,5.00,0.00,29.59,M,2.17,M,NSC,M,M,M,M,M,M,M,HZ,M,M,M,M,M,M,89.54,VIDP 261430Z 04005KT 3500 HZ NSC 32/16 Q1002 NOSIG,M
VIDP,2022-05-26 15:00,89.60,62.60,40.69,50.00,7.00,0.00,29.59,M,2.17,M,NSC,M,M,M,M,M,M,M,HZ,M,M,M,M,M,M,90.32,VIDP 261500Z 05007KT 3500 HZ NSC 32/17 Q1002 NOSIG,M
VIDP,2022-05-26 15:30,89.60,64.40,43.34,60.00,6.00,0.00,29.59,M,2.17,M,NSC,M,M,M,M,M,M,M,HZ,M,M,M,M,M,M,91.23,VIDP 261530Z 06006KT 3500 HZ NSC 32/18 Q1002 NOSIG,M
VIDP,2022-05-26 16:00,87.80,66.20,48.84,50.00,6.00,0.00,29.59,M,2.17,M,NSC,M,M,M,M,M,M,M,HZ,M,M,M,M,M,M,90.31,VIDP 261600Z 05006KT 3500 HZ NSC 31/19 Q1002 NOSIG,M
VIDP,2022-05-26 16:30,87.80,66.20,48.84,50.00,5.00,0.00,29.59,M,2.17,M,NSC,M,M,M,M,M,M,M,HZ,M,M,M,M,M,M,90.31,VIDP 261630Z 05005KT 3500 HZ NSC 31/19 Q1002 NOSIG,M
VIDP,2022-05-26 17:00,86.00,66.20,51.72,60.00,4.00,0.00,29.59,M,2.17,M,NSC,M,M,M,M,M,M,M,HZ,M,M,M,M,M,M,88.39,VIDP 261700Z 06004KT 3500 HZ NSC 30/19 Q1002 NOSIG,M
VIDP,2022-05-26 17:30,86.00,66.20,51.72,0.00,0.00,0.00,29.59,M,2.17,M,NSC,M,M,M,M,M,M,M,HZ,M,M,M,M,M,M,88.39,VIDP 261730Z 00000KT 3500 HZ NSC 30/19 Q1002 NOSIG,M
VIDP,2022-05-26 18:00,86.00,66.20,51.72,0.00,0.00,0.00,29.59,M,2.17,M,NSC,M,M,M,M,M,M,M,HZ,M,M,M,M,M,M,88.39,VIDP 261800Z 00000KT 3500 HZ NSC 30/19 Q1002 NOSIG,M
VIDP,2022-05-26 18:30,86.00,66.20,51.72,160.00,4.00,0.00,29.59,M,2.17,M,NSC,M,M,M,M,M,M,M,HZ,M,M,M,M,M,M,88.39,VIDP 261830Z 16004KT 3500 HZ NSC 30/19 Q1002 NOSIG,M
VIDP,2022-05-26 19:00,86.00,66.20,51.72,150.00,4.00,0.00,29.59,M,2.17,M,NSC,M,M,M,M,M,M,M,HZ,M,M,M,M,M,M,88.39,VIDP 261900Z 15004KT 3500 HZ NSC 30/19 Q1002 NOSIG,M
VIDP,2022-05-26 19:30,84.20,68.00,58.32,160.00,4.00,0.00,29.59,M,2.17,M,NSC,M,M,M,M,M,M,M,HZ,M,M,M,M,M,M,87.40,VIDP 261930Z 16004KT 3500 HZ NSC 29/20 Q1002 NOSIG,M
VIDP,2022-05-26 20:00,84.20,68.00,58.32,150.00,4.00,0.00,29.56,M,2.17,M,NSC,M,M,M,M,M,M,M,HZ,M,M,M,M,M,M,87.40,VIDP 262000Z 15004KT 3500 HZ NSC 29/20 Q1001 NOSIG,M
VIDP,2022-05-26 20:30,84.20,68.00,58.32,140.00,3.00,0.00,29.56,M,2.17,M,NSC,M,M,M,M,M,M,M,HZ,M,M,M,M,M,M,87.40,VIDP 262030Z 14003KT 3500 HZ NSC 29/20 Q1001 NOSIG,M
VIDP,2022-05-26 21:00,84.20,68.00,58.32,180.00,3.00,0.00,29.56,M,2.17,M,NSC,M,M,M,M,M,M,M,HZ,M,M,M,M,M,M,87.40,VIDP 262100Z 18003KT 3500 HZ NSC 29/20 Q1001 NOSIG,M
VIDP,2022-05-26 21:30,82.40,68.00,61.81,170.00,3.00,0.00,29.53,M,2.17,M,NSC,M,M,M,M,M,M,M,HZ,M,M,M,M,M,M,85.38,VIDP 262130Z 17003KT 3500 HZ NSC 28/20 Q1000 NOSIG,M
VIDP,2022-05-26 22:00,82.40,68.00,61.81,130.00,3.00,0.00,29.53,M,1.99,M,FEW,M,M,M,10000.00,M,M,M,HZ,M,M,M,M,M,M,85.38,VIDP 262200Z 13003KT 3200 HZ FEW100 28/20 Q1000 BECMG 3000 HZ,M
VIDP,2022-05-26 22:30,82.40,69.80,65.74,80.00,3.00,0.00,29.56,M,1.86,M,FEW,M,M,M,10000.00,M,M,M,HZ,M,M,M,M,M,M,86.22,VIDP 262230Z 08003KT 3000 HZ FEW100 28/21 Q1001 NOSIG,M
VIDP,2022-05-26 23:00,82.40,71.60,69.90,50.00,4.00,0.00,29.56,M,1.74,M,FEW,M,M,M,10000.00,M,M,M,HZ,M,M,M,M,M,M,87.18,VIDP 262300Z 05004KT 2800 HZ FEW100 28/22 Q1001 NOSIG,M
VIDP,2022-05-26 23:30,82.40,73.40,74.28,80.00,3.00,0.00,29.56,M,1.74,M,FEW,M,M,M,10000.00,M,M,M,HZ,M,M,M,M,M,M,88.26,VIDP 262330Z 08003KT 2800 HZ FEW100 28/23 Q1001 NOSIG,M
