station,valid,tmpf,dwpf,relh,drct,sknt,p01i,alti,mslp,vsby,gust,skyc1,skyc2,skyc3,skyc4,skyl1,skyl2,skyl3,skyl4,wxcodes,ice_accretion_1hr,ice_accretion_3hr,ice_accretion_6hr,peak_wind_gust,peak_wind_drct,peak_wind_time,feel,metar,snowdepth
VABB,2022-03-16 00:00,78.80,59.00,50.69,0.00,0.00,0.00,29.74,M,1.86,M,NSC,M,M,M,M,M,M,M,FU,M,M,M,M,M,M,78.80,VABB 160000Z 00000KT 3000 FU NSC 26/15 Q1007 NOSIG,M
VABB,2022-03-16 00:30,78.80,60.80,54.05,M,2.00,0.00,29.74,M,1.86,M,NSC,M,M,M,M,M,M,M,FU,M,M,M,M,M,M,78.80,VABB 160030Z VRB02KT 3000 FU NSC 26/16 Q1007 NOSIG,M
VABB,2022-03-16 01:00,78.80,59.00,50.69,0.00,0.00,0.00,29.74,M,1.55,M,NSC,M,M,M,M,M,M,M,FU,M,M,M,M,M,M,78.80,VABB 160100Z 00000KT 2500 FU NSC 26/15 Q1007 NOSIG,M
VABB,2022-03-16 01:30,78.80,60.80,54.05,0.00,0.00,0.00,29.77,M,1.55,M,FEW,M,M,M,10000.00,M,M,M,FU,M,M,M,M,M,M,78.80,VABB 160130Z 00000KT 2500 FU FEW100 26/16 Q1008 NOSIG,M
VABB,2022-03-16 02:00,78.80,60.80,54.05,0.00,0.00,0.00,29.77,M,1.55,M,NSC,M,M,M,M,M,M,M,FU,M,M,M,M,M,M,78.80,VABB 160200Z 00000KT 2500 FU NSC 26/16 Q1008 NOSIG,M
VABB,2022-03-16 02:30,82.40,59.00,45.07,0.00,0.00,0.00,29.80,M,1.55,M,NSC,M,M,M,M,M,M,M,FU,M,M,M,M,M,M,82.46,VABB 160230Z 00000KT 2500 FU NSC 28/15 Q1009 NOSIG,M
VABB,2022-03-16 03:00,86.00,60.80,42.80,230.00,4.00,0.00,29.80,M,1.55,M,NSC,M,M,M,M,M,M,M,FU,M,M,M,M,M,M,86.05,VABB 160300Z 23004KT 2500 FU NSC 30/16 Q1009 NOSIG,M
VABB,2022-03-16 03:30,87.80,60.80,40.41,170.00,3.00,0.00,29.83,M,1.55,M,NSC,M,M,M,M,M,M,M,FU,M,M,M,M,M,M,87.75,VABB 160330Z 17003KT 2500 FU NSC 31/16 Q1010 BECMG 3000 FU,M
VABB,2022-03-16 04:00,89.60,59.00,35.81,0.00,0.00,0.00,29.83,M,1.86,M,NSC,M,M,M,M,M,M,M,FU,M,M,M,M,M,M,88.86,VABB 160400Z 00000KT 3000 FU NSC 32/15 Q1010 NOSIG,M
VABB,2022-03-16 04:30,91.40,59.00,33.84,0.00,0.00,0.00,29.83,M,1.86,M,NSC,M,M,M,M,M,M,M,FU,M,M,M,M,M,M,90.68,VABB 160430Z 00000KT 3000 FU NSC 33/15 Q1010 NOSIG,M
VABB,2022-03-16 05:00,95.00,57.20,28.37,30.00,3.00,0.00,29.83,M,1.86,M,NSC,M,M,M,M,M,M,M,FU,M,M,M,M,M,M,93.82,VABB 160500Z 03003KT 3000 FU NSC 35/14 Q1010 NOSIG,M
VABB,2022-03-16 05:30,95.00,68.00,41.50,260.00,8.00,0.00,29.83,M,1.86,M,NSC,M,M,M,M,M,M,M,FU,M,M,M,M,M,M,99.82,VABB 160530Z 26008KT 3000 FU NSC 35/20 Q1010 NOSIG,M
VABB,2022-03-16 06:00,93.20,69.80,46.67,250.00,8.00,0.00,29.80,M,1.86,M,NSC,M,M,M,M,M,M,M,FU,M,M,M,M,M,M,99.17,VABB 160600Z 25008KT 3000 FU NSC 34/21 Q1009 NOSIG,M
VABB,2022-03-16 06:30,96.80,68.00,39.27,270.00,5.00,0.00,29.80,M,1.86,M,NSC,M,M,M,M,M,M,M,FU,M,M,M,M,M,M,102.01,VABB 160630Z 27005KT 3000 FU NSC 36/20 Q1009 NOSIG,M
VABB,2022-03-16 07:00,93.20,71.60,49.62,240.00,10.00,0.00,29.77,M,1.86,M,NSC,M,M,M,M,M,M,M,FU,M,M,M,M,M,M,100.88,VABB 160700Z 24010KT 3000 FU NSC 34/22 Q1008 NOSIG,M
VABB,2022-03-16 07:30,95.00,66.20,39.00,260.00,8.00,0.00,29.74,M,2.17,M,NSC,M,M,M,M,M,M,M,FU,M,M,M,M,M,M,98.46,VABB 160730Z 26008KT 3500 FU NSC 35/19 Q1007 NOSIG,M
VABB,2022-03-16 08:00,95.00,60.80,32.27,260.00,11.00,0.00,29.71,M,2.17,M,NSC,M,M,M,M,M,M,M,FU,M,M,M,M,M,M,95.30,VABB 160800Z 26011KT 3500 FU NSC 35/16 Q1006 NOSIG,M
VABB,2022-03-16 08:30,95.00,66.20,39.00,260.00,10.00,0.00,29.71,M,2.17,M,NSC,M,M,M,M,M,M,M,FU,M,M,M,M,M,M,98.46,VABB 160830Z 26010KT 3500 FU NSC 35/19 Q1006 NOSIG,M
VABB,2022-03-16 09:00,96.80,62.60,32.54,300.00,9.00,0.00,29.68,M,2.17,M,NSC,M,M,M,M,M,M,M,FU,M,M,M,M,M,M,98.28,VABB 160900Z 30009KT 3500 FU NSC 36/17 Q1005 NOSIG,M
VABB,2022-03-16 09:30,98.60,62.60,30.80,280.00,10.00,0.00,29.68,M,2.17,M,NSC,M,M,M,M,M,M,M,FU,M,M,M,M,M,M,100.38,VABB 160930Z 28010KT 3500 FU NSC 37/17 Q1005 NOSIG,M
VABB,2022-03-16 10:00,98.60,57.20,25.41,280.00,14.00,0.00,29.65,M,2.17,M,NSC,M,M,M,M,M,M,M,FU,M,M,M,M,M,M,97.76,VABB 161000Z 28014KT 3500 FU NSC 37/14 Q1004 NOSIG,M
VABB,2022-03-16 10:30,100.40,55.40,22.54,290.00,14.00,0.00,29.65,M,2.17,M,NSC,M,M,M,M,M,M,M,FU,M,M,M,M,M,M,99.06,VABB 161030Z 29014KT 3500 FU NSC 38/13 Q1004 NOSIG,M
VABB,2022-03-16 11:00,100.40,51.80,19.76,300.00,12.00,0.00,29.65,M,2.17,M,NSC,M,M,M,M,M,M,M,FU,M,M,M,M,M,M,97.90,VABB 161100Z 30012KT 3500 FU NSC 38/11 Q1004 NOSIG,M
VABB,2022-03-16 11:30,100.40,51.80,19.76,300.00,12.00,0.00,29.65,M,2.17,M,NSC,M,M,M,M,M,M,M,FU,M,M,M,M,M,M,97.90,VABB 161130Z 30012KT 3500 FU NSC 38/11 Q1004 NOSIG,M
VABB,2022-03-16 12:00,100.40,48.20,17.28,10.00,7.00,0.00,29.65,M,2.17,17.00,NSC,M,M,M,M,M,M,M,FU,M,M,M,M,M,M,97.00,VABB 161200Z 01007G17KT 3500 FU NSC 38/09 Q1004 NOSIG,M
VABB,2022-03-16 12:30,98.60,48.20,18.25,320.00,10.00,0.00,29.68,M,2.17,M,NSC,M,M,M,M,M,M,M,FU,M,M,M,M,M,M,95.17,VABB 161230Z 32010KT 3500 FU NSC 37/09 Q1005 NOSIG,M
VABB,2022-03-16 13:00,98.60,48.20,18.25,330.00,9.00,0.00,29.68,M,2.17,M,NSC,M,M,M,M,M,M,M,FU,M,M,M,M,M,M,95.17,VABB 161300Z 33009KT 3500 FU NSC 37/09 Q1005 NOSIG,M
VABB,2022-03-16 13:30,98.60,50.00,19.52,10.00,10.00,0.00,29.68,M,2.17,M,NSC,M,M,M,M,M,M,M,FU,M,M,M,M,M,M,95.56,VABB 161330Z 01010KT 3500 FU NSC 37/10 Q1005 NOSIG,M
VABB,2022-03-16 14:00,96.80,50.00,20.62,340.00,8.00,0.00,29.71,M,2.17,M,NSC,M,M,M,M,M,M,M,FU,M,M,M,M,M,M,93.71,VABB 161400Z 34008KT 3500 FU NSC 36/10 Q1006 BECMG 3000 FU,M
VABB,2022-03-16 14:30,96.80,48.20,19.28,340.00,8.00,0.00,29.71,M,1.86,M,NSC,M,M,M,M,M,M,M,FU,M,M,M,M,M,M,93.36,VABB 161430Z 34008KT 3000 FU NSC 36/09 Q1006 NOSIG,M
VABB,2022-03-16 15:00,96.80,46.40,18.02,340.00,7.00,0.00,29.71,M,1.86,M,NSC,M,M,M,M,M,M,M,FU,M,M,M,M,M,M,93.05,VABB 161500Z 34007KT 3000 FU NSC 36/08 Q1006 NOSIG,M
VABB,2022-03-16 15:30,95.00,48.20,20.38,350.00,6.00,0.00,29.74,M,1.86,M,NSC,M,M,M,M,M,M,M,FU,M,M,M,M,M,M,91.56,VABB 161530Z 35006KT 3000 FU NSC 35/09 Q1007 NOSIG,M
VABB,2022-03-16 16:00,95.00,48.20,20.38,20.00,6.00,0.00,29.74,M,1.86,M,NSC,M,M,M,M,M,M,M,FU,M,M,M,M,M,M,91.56,VABB 161600Z 02006KT 3000 FU NSC 35/09 Q1007 NOSIG,M
VABB,2022-03-16 16:30,95.00,46.40,19.04,10.00,5.00,0.00,29.74,M,1.86,M,NSC,M,M,M,M,M,M,M,FU,M,M,M,M,M,M,91.29,VABB 161630Z 01005KT 3000 FU NSC 35/08 Q1007 NOSIG,M
VABB,2022-03-16 17:00,95.00,44.60,17.78,30.00,5.00,0.00,29.74,M,1.86,M,NSC,M,M,M,M,M,M,M,FU,M,M,M,M,M,M,91.06,VABB 161700Z 03005KT 3000 FU NSC 35/07 Q1007 NOSIG,M
VABB,2022-03-16 17:30,93.20,44.60,18.80,350.00,5.00,0.00,29.74,M,1.86,M,NSC,M,M,M,M,M,M,M,FU,M,M,M,M,M,M,89.34,VABB 161730Z 35005KT 3000 FU NSC 34/07 Q1007 NOSIG,M
VABB,2022-03-16 18:00,93.20,44.60,18.80,10.00,4.00,0.00,29.74,M,1.86,M,NSC,M,M,M,M,M,M,M,FU,M,M,M,M,M,M,89.34,VABB 161800Z 01004KT 3000 FU NSC 34/07 Q1007 NOSIG,M
VABB,2022-03-16 18:30,91.40,50.00,24.37,260.00,4.00,0.00,29.74,M,1.86,M,NSC,M,M,M,M,M,M,M,FU,M,M,M,M,M,M,88.36,VABB 161830Z 26004KT 3000 FU NSC 33/10 Q1007 NOSIG,M
VABB,2022-03-16 19:00,87.80,66.20,48.84,260.00,8.00,0.00,29.74,M,1.86,M,NSC,M,M,M,M,M,M,M,FU,M,M,M,M,M,M,90.31,VABB 161900Z 26008KT 3000 FU NSC 31/19 Q1007 NOSIG,M
VABB,2022-03-16 19:30,86.00,64.40,48.58,240.00,6.00,0.00,29.71,M,1.86,M,NSC,M,M,M,M,M,M,M,FU,M,M,M,M,M,M,87.49,VABB 161930Z 24006KT 3000 FU NSC 30/18 Q1006 NOSIG,M
VABB,2022-03-16 20:00,84.20,68.00,58.32,270.00,6.00,0.00,29.71,M,1.86,M,NSC,M,M,M,M,M,M,M,FU,M,M,M,M,M,M,87.40,VABB 162000Z 27006KT 3000 FU NSC 29/20 Q1006 NOSIG,M
VABB,2022-03-16 20:30,84.20,69.80,62.03,310.00,4.00,0.00,29.71,M,1.86,M,NSC,M,M,M,M,M,M,M,FU,M,M,M,M,M,M,88.43,VABB 162030Z 31004KT 3000 FU NSC 29/21 Q1006 NOSIG,M
VABB,2022-03-16 21:00,84.20,71.60,65.95,340.00,6.00,0.00,29.71,M,1.86,M,NSC,M,M,M,M,M,M,M,FU,M,M,M,M,M,M,89.60,VABB 162100Z 34006KT 3000 FU NSC 29/22 Q1006 NOSIG,M
VABB,2022-03-16 21:30,82.40,71.60,69.90,290.00,5.00,0.00,29.68,M,1.86,M,NSC,M,M,M,M,M,M,M,FU,M,M,M,M,M,M,87.18,VABB 162130Z 29005KT 3000 FU NSC 28/22 Q1005 NOSIG,M
VABB,2022-03-16 22:00,82.40,68.00,61.81,320.00,5.00,0.00,29.68,M,1.86,M,NSC,M,M,M,M,M,M,M,FU,M,M,M,M,M,M,85.38,VABB 162200Z 32005KT 3000 FU NSC 28/20 Q1005 NOSIG,M
VABB,2022-03-16 22:30,84.20,64.40,51.47,330.00,5.00,0.00,29.68,M,1.86,M,NSC,M,M,M,M,M,M,M,FU,M,M,M,M,M,M,85.71,VABB 162230Z 33005KT 3000 FU NSC 29/18 Q1005 NOSIG,M
VABB,2022-03-16 23:00,84.20,64.40,51.47,330.00,4.00,0.00,29.68,M,1.86,M,NSC,M,M,M,M,M,M,M,FU,M,M,M,M,M,M,85.71,VABB 162300Z 33004KT 3000 FU NSC 29/18 Q1005 NOSIG,M
VABB,2022-03-16 23:30,84.20,62.60,48.32,300.00,4.00,0.00,29.68,M,1.86,M,NSC,M,M,M,M,M,M,M,FU,M,M,M,M,M,M,85.03,VABB 162330Z 30004KT 3000 FU NSC 29/17 Q1005 NOSIG,M
VABB,2022-03-17 00:00,84.20,60.80,45.34,350.00,4.00,0.00,29.71,M,1.86,M,NSC,M,M,M,M,M,M,M,FU,M,M,M,M,M,M,84.43,VABB 170000Z 35004KT 3000 FU NSC 29/16 Q1006 NOSIG,M
VABB,2022-03-17 00:30,84.20,60.80,45.34,0.00,0.00,0.00,29.71,M,1.86,M,NSC,M,M,M,M,M,M,M,FU,M,M,M,M,M,M,84.43,VABB 170030Z 00000KT 3000 FU NSC 29/16 Q1006 NOSIG,M
VABB,2022-03-17 01:00,84.20,59.00,42.52,120.00,3.00,0.00,29.71,M,1.86,M,NSC,M,M,M,M,M,M,M,FU,M,M,M,M,M,M,83.92,VABB 170100Z 12003KT 3000 FU NSC 29/15 Q1006 NOSIG,M
VABB,2022-03-17 01:30,84.20,60.80,45.34,0.00,0.00,0.00,29.74,M,1.55,M,NSC,M,M,M,M,M,M,M,FU,M,M,M,M,M,M,84.43,VABB 170130Z 00000KT 2500 FU NSC 29/16 Q1007 NOSIG,M
VABB,2022-03-17 02:00,84.20,60.80,45.34,100.00,4.00,0.00,29.74,M,1.55,M,NSC,M,M,M,M,M,M,M,FU,M,M,M,M,M,M,84.43,VABB 170200Z 10004KT 2500 FU NSC 29/16 Q1007 NOSIG,M
VABB,2022-03-17 02:30,84.20,60.80,45.34,120.00,3.00,0.00,29.77,M,1.55,M,NSC,M,M,M,M,M,M,M,FU,M,M,M,M,M,M,84.43,VABB 170230Z 12003KT 2500 FU NSC 29/16 Q1008 NOSIG,M
VABB,2022-03-17 03:00,86.00,60.80,42.80,0.00,0.00,0.00,29.77,M,1.55,M,NSC,M,M,M,M,M,M,M,FU,M,M,M,M,M,M,86.05,VABB 170300Z 00000KT 2500 FU NSC 30/16 Q1008 NOSIG,M
VABB,2022-03-17 03:30,87.80,62.60,43.07,170.00,4.00,0.00,29.80,M,1.55,M,NSC,M,M,M,M,M,M,M,FU,M,M,M,M,M,M,88.48,VABB 170330Z 17004KT 2500 FU NSC 31/17 Q1009 NOSIG,M
VABB,2022-03-17 04:00,91.40,60.80,36.08,250.00,3.00,0.00,29.80,M,1.55,M,NSC,M,M,M,M,M,M,M,FU,M,M,M,M,M,M,91.40,VABB 170400Z 25003KT 2500 FU NSC 33/16 Q1009 NOSIG,M
VABB,2022-03-17 04:30,93.20,62.60,36.35,230.00,5.00,0.00,29.80,M,1.55,M,NSC,M,M,M,M,M,M,M,FU,M,M,M,M,M,M,94.20,VABB 170430Z 23005KT 2500 FU NSC 34/17 Q1009 NOSIG,M
VABB,2022-03-17 05:00,95.00,60.80,32.27,270.00,3.00,0.00,29.80,M,1.55,M,NSC,M,M,M,M,M,M,M,FU,M,M,M,M,M,M,95.30,VABB 170500Z 27003KT 2500 FU NSC 35/16 Q1009 BECMG 3000 FU,M
VABB,2022-03-17 05:30,95.00,66.20,39.00,260.00,4.00,0.00,29.77,M,1.86,M,NSC,M,M,M,M,M,M,M,FU,M,M,M,M,M,M,98.46,VABB 170530Z 26004KT 3000 FU NSC 35/19 Q1008 NOSIG,M
VABB,2022-03-17 06:00,93.20,68.00,43.88,260.00,6.00,0.00,29.77,M,1.86,M,NSC,M,M,M,M,M,M,M,FU,M,M,M,M,M,M,97.67,VABB 170600Z 26006KT 3000 FU NSC 34/20 Q1008 NOSIG,M
VABB,2022-03-17 06:30,93.20,71.60,49.62,270.00,8.00,0.00,29.74,M,1.86,M,NSC,M,M,M,M,M,M,M,FU,M,M,M,M,M,M,100.88,VABB 170630Z 27008KT 3000 FU NSC 34/22 Q1007 NOSIG,M
VABB,2022-03-17 07:00,93.20,69.80,46.67,250.00,9.00,0.00,29.74,M,1.86,M,NSC,M,M,M,M,M,M,M,FU,M,M,M,M,M,M,99.17,VABB 170700Z 25009KT 3000 FU NSC 34/21 Q1007 NOSIG,M
VABB,2022-03-17 07:30,93.20,69.80,46.67,240.00,9.00,0.00,29.71,M,1.86,M,NSC,M,M,M,M,M,M,M,FU,M,M,M,M,M,M,99.17,VABB 170730Z 24009KT 3000 FU NSC 34/21 Q1006 NOSIG,M
VABB,2022-03-17 08:00,95.00,68.00,41.50,240.00,10.00,0.00,29.71,M,1.86,M,NSC,M,M,M,M,M,M,M,FU,M,M,M,M,M,M,99.82,VABB 170800Z 24010KT 3000 FU NSC 35/20 Q1006 NOSIG,M
VABB,2022-03-17 08:30,96.80,60.80,30.53,260.00,11.00,0.00,29.68,M,1.86,M,NSC,M,M,M,M,M,M,M,FU,M,M,M,M,M,M,97.33,VABB 170830Z 26011KT 3000 FU NSC 36/16 Q1005 NOSIG,M
VABB,2022-03-17 09:00,96.80,62.60,32.54,300.00,10.00,0.00,29.68,M,1.86,M,NSC,M,M,M,M,M,M,M,FU,M,M,M,M,M,M,98.28,VABB 170900Z 30010KT 3000 FU NSC 36/17 Q1005 NOSIG,M
VABB,2022-03-17 09:30,96.80,60.80,30.53,271.00,12.00,0.00,29.65,M,1.86,M,NSC,M,M,M,M,M,M,M,FU,M,M,M,M,M,M,97.33,VABB 170930Z 27112KT 3000 FU NSC 36/16 Q1004 NOSIG,M
VABB,2022-03-17 10:00,96.80,57.20,26.84,310.00,7.00,0.00,29.65,M,1.86,17.00,NSC,M,M,M,M,M,M,M,FU,M,M,M,M,M,M,95.77,VABB 171000Z 31007G17KT 3000 FU NSC 36/14 Q1004 NOSIG,M
VABB,2022-03-17 10:30,95.00,59.00,30.26,300.00,13.00,0.00,29.65,M,1.86,M,NSC,M,M,M,M,M,M,M,FU,M,M,M,M,M,M,94.51,VABB 171030Z 30013KT 3000 FU NSC 35/15 Q1004 NOSIG,M
VABB,2022-03-17 11:00,96.80,60.80,30.53,300.00,11.00,0.00,29.65,M,1.86,M,NSC,M,M,M,M,M,M,M,FU,M,M,M,M,M,M,97.33,VABB 171100Z 30011KT 3000 FU NSC 36/16 Q1004 NOSIG,M
VABB,2022-03-17 11:30,95.00,60.80,32.27,330.00,9.00,0.00,29.65,M,1.86,M,NSC,M,M,M,M,M,M,M,FU,M,M,M,M,M,M,95.30,VABB 171130Z 33009KT 3000 FU NSC 35/16 Q1004 NOSIG,M
VABB,2022-03-17 12:00,95.00,60.80,32.27,320.00,9.00,0.00,29.65,M,2.17,M,NSC,M,M,M,M,M,M,M,FU,M,M,M,M,M,M,95.30,VABB 171200Z 32009KT 3500 FU NSC 35/16 Q1004 NOSIG,M
VABB,2022-03-17 12:30,95.00,60.80,32.27,340.00,11.00,0.00,29.65,M,2.17,M,NSC,M,M,M,M,M,M,M,FU,M,M,M,M,M,M,95.30,VABB 171230Z 34011KT 3500 FU NSC 35/16 Q1004 NOSIG,M
VABB,2022-03-17 13:00,93.20,62.60,36.35,330.00,11.00,0.00,29.65,M,2.17,M,NSC,M,M,M,M,M,M,M,FU,M,M,M,M,M,M,94.20,VABB 171300Z 33011KT 3500 FU NSC 34/17 Q1004 NOSIG,M
VABB,2022-03-17 13:30,93.20,62.60,36.35,330.00,9.00,0.00,29.68,M,2.17,M,NSC,M,M,M,M,M,M,M,FU,M,M,M,M,M,M,94.20,VABB 171330Z 33009KT 3500 FU NSC 34/17 Q1005 BECMG 3000 FU,M
VABB,2022-03-17 14:00,91.40,62.60,38.45,340.00,9.00,0.00,29.68,M,1.86,M,NSC,M,M,M,M,M,M,M,FU,M,M,M,M,M,M,92.23,VABB 171400Z 34009KT 3000 FU NSC 33/17 Q1005 NOSIG,M
VABB,2022-03-17 14:30,91.40,62.60,38.45,350.00,4.00,0.00,29.71,M,1.86,M,NSC,M,M,M,M,M,M,M,FU,M,M,M,M,M,M,92.23,VABB 171430Z 35004KT 3000 FU NSC 33/17 Q1006 NOSIG,M
VABB,2022-03-17 15:00,91.40,62.60,38.45,30.00,4.00,0.00,29.71,M,1.86,M,NSC,M,M,M,M,M,M,M,FU,M,M,M,M,M,M,92.23,VABB 171500Z 03004KT 3000 FU NSC 33/17 Q1006 NOSIG,M
VABB,2022-03-17 15:30,93.20,60.80,34.11,340.00,8.00,0.00,29.71,M,1.86,M,NSC,M,M,M,M,M,M,M,FU,M,M,M,M,M,M,93.32,VABB 171530Z 34008KT 3000 FU NSC 34/16 Q1006 NOSIG,M
VABB,2022-03-17 16:00,93.20,59.00,31.99,30.00,4.00,0.00,29.71,M,1.86,M,NSC,M,M,M,M,M,M,M,FU,M,M,M,M,M,M,92.57,VABB 171600Z 03004KT 3000 FU NSC 34/15 Q1006 NOSIG,M
VABB,2022-03-17 16:30,86.00,68.00,55.04,250.00,13.00,0.00,29.74,M,1.86,M,NSC,M,M,M,M,M,M,M,FU,M,M,M,M,M,M,89.41,VABB 171630Z 25013KT 3000 FU NSC 30/20 Q1007 NOSIG,M
VABB,2022-03-17 17:00,86.00,69.80,58.55,350.00,5.00,0.00,29.74,M,1.86,M,NSC,M,M,M,M,M,M,M,FU,M,M,M,M,M,M,90.58,VABB 171700Z 35005KT 3000 FU NSC 30/21 Q1007 NOSIG,M
VABB,2022-03-17 17:30,86.00,69.80,58.55,300.00,4.00,0.00,29.74,M,1.86,M,NSC,M,M,M,M,M,M,M,FU,M,M,M,M,M,M,90.58,VABB 171730Z 30004KT 3000 FU NSC 30/21 Q1007 NOSIG,M
VABB,2022-03-17 18:00,84.20,71.60,65.95,250.00,9.00,0.00,29.74,M,1.86,M,NSC,M,M,M,M,M,M,M,FU,M,M,M,M,M,M,89.60,VABB 171800Z 25009KT 3000 FU NSC 29/22 Q1007 NOSIG,M
VABB,2022-03-17 18:30,84.20,73.40,70.08,260.00,7.00,0.00,29.74,M,1.86,M,NSC,M,M,M,M,M,M,M,FU,M,M,M,M,M,M,90.94,VABB 171830Z 26007KT 3000 FU NSC 29/23 Q1007 NOSIG,M
VABB,2022-03-17 19:00,84.20,71.60,65.95,340.00,3.00,0.00,29.74,M,1.86,M,NSC,M,M,M,M,M,M,M,HZ,M,M,M,M,M,M,89.60,VABB 171900Z 34003KT 3000 HZ NSC 29/22 Q1007 NOSIG,M
VABB,2022-03-17 19:30,84.20,69.80,62.03,290.00,5.00,0.00,29.71,M,1.86,M,NSC,M,M,M,M,M,M,M,HZ,M,M,M,M,M,M,88.43,VABB 171930Z 29005KT 3000 HZ NSC 29/21 Q1006 NOSIG,M
VABB,2022-03-17 20:00,84.20,68.00,58.32,0.00,0.00,0.00,29.71,M,1.86,M,NSC,M,M,M,M,M,M,M,HZ,M,M,M,M,M,M,87.40,VABB 172000Z 00000KT 3000 HZ NSC 29/20 Q1006 NOSIG,M
VABB,2022-03-17 20:30,84.20,66.20,54.80,310.00,4.00,0.00,29.71,M,1.86,M,NSC,M,M,M,M,M,M,M,HZ,M,M,M,M,M,M,86.50,VABB 172030Z 31004KT 3000 HZ NSC 29/19 Q1006 NOSIG,M
VABB,2022-03-17 21:00,84.20,68.00,58.32,330.00,4.00,0.00,29.71,M,1.86,M,NSC,M,M,M,M,M,M,M,HZ,M,M,M,M,M,M,87.40,VABB 172100Z 33004KT 3000 HZ NSC 29/20 Q1006 NOSIG,M
VABB,2022-03-17 21:30,84.20,68.00,58.32,320.00,3.00,0.00,29.68,M,1.86,M,NSC,M,M,M,M,M,M,M,HZ,M,M,M,M,M,M,87.40,VABB 172130Z 32003KT 3000 HZ NSC 29/20 Q1005 NOSIG,M
VABB,2022-03-17 22:00,84.20,68.00,58.32,0.00,0.00,0.00,29.68,M,1.86,M,NSC,M,M,M,M,M,M,M,HZ,M,M,M,M,M,M,87.40,VABB 172200Z 00000KT 3000 HZ NSC 29/20 Q1005 NOSIG,M
VABB,2022-03-17 22:30,82.40,68.00,61.81,0.00,0.00,0.00,29.68,M,1.86,M,NSC,M,M,M,M,M,M,M,HZ,M,M,M,M,M,M,85.38,VABB 172230Z 00000KT 3000 HZ NSC 28/20 Q1005 NOSIG,M
VABB,2022-03-17 23:00,82.40,66.20,58.08,330.00,4.00,0.00,29.68,M,1.86,M,NSC,M,M,M,M,M,M,M,HZ,M,M,M,M,M,M,84.63,VABB 172300Z 33004KT 3000 HZ NSC 28/19 Q1005 NOSIG,M
VABB,2022-03-17 23:30,82.40,66.20,58.08,0.00,0.00,0.00,29.68,M,1.86,M,NSC,M,M,M,M,M,M,M,FU,M,M,M,M,M,M,84.63,VABB 172330Z 00000KT 3000 FU NSC 28/19 Q1005 NOSIG,M
VABB,2022-03-18 00:00,82.40,66.20,58.08,70.00,4.00,0.00,29.71,M,1.86,M,NSC,M,M,M,M,M,M,M,FU,M,M,M,M,M,M,84.63,VABB 180000Z 07004KT 3000 FU NSC 28/19 Q1006 NOSIG,M
VABB,2022-03-18 00:30,80.60,68.00,65.54,90.00,4.00,0.00,29.71,M,1.55,M,NSC,M,M,M,M,M,M,M,HZ,M,M,M,M,M,M,83.29,VABB 180030Z 09004KT 2500 HZ NSC 27/20 Q1006 NOSIG,M
VABB,2022-03-18 01:00,80.60,69.80,69.71,0.00,0.00,0.00,29.74,M,1.55,M,NSC,M,M,M,M,M,M,M,HZ,M,M,M,M,M,M,83.90,VABB 180100Z 00000KT 2500 HZ NSC 27/21 Q1007 NOSIG,M
VABB,2022-03-18 01:30,80.60,71.60,74.11,0.00,0.00,0.00,29.74,M,1.55,M,NSC,M,M,M,M,M,M,M,HZ,M,M,M,M,M,M,84.57,VABB 180130Z 00000KT 2500 HZ NSC 27/22 Q1007 NOSIG,M
VABB,2022-03-18 02:00,80.60,71.60,74.11,0.00,0.00,0.00,29.74,M,1.37,M,NSC,M,M,M,M,M,M,M,HZ,M,M,M,M,M,M,84.57,VABB 180200Z 00000KT 2200 HZ NSC 27/22 Q1007 NOSIG,M
VABB,2022-03-18 02:30,82.40,69.80,65.74,140.00,3.00,0.00,29.77,M,1.37,M,NSC,M,M,M,M,M,M,M,FU,M,M,M,M,M,M,86.22,VABB 180230Z 14003KT 2200 FU NSC 28/21 Q1008 NOSIG,M
VABB,2022-03-18 03:00,84.20,71.60,65.95,0.00,0.00,0.00,29.77,M,1.37,M,NSC,M,M,M,M,M,M,M,FU,M,M,M,M,M,M,89.60,VABB 180300Z 00000KT 2200 FU NSC 29/22 Q1008 NOSIG,M
VABB,2022-03-18 03:30,86.00,68.00,55.04,200.00,3.00,0.00,29.77,M,1.37,M,NSC,M,M,M,M,M,M,M,FU,M,M,M,M,M,M,89.41,VABB 180330Z 20003KT 2200 FU NSC 30/20 Q1008 NOSIG,M
VABB,2022-03-18 04:00,87.80,69.80,55.29,0.00,0.00,0.00,29.80,M,1.37,M,NSC,M,M,M,M,M,M,M,FU,M,M,M,M,M,M,92.71,VABB 180400Z 00000KT 2200 FU NSC 31/21 Q1009 NOSIG,M
VABB,2022-03-18 04:30,89.60,68.00,49.10,210.00,3.00,0.00,29.80,M,1.55,M,NSC,M,M,M,M,M,M,M,FU,M,M,M,M,M,M,93.47,VABB 180430Z 21003KT 2500 FU NSC 32/20 Q1009 NOSIG,M
VABB,2022-03-18 05:00,91.40,68.00,46.41,0.00,0.00,0.00,29.80,M,1.55,M,NSC,M,M,M,M,M,M,M,FU,M,M,M,M,M,M,95.55,VABB 180500Z 00000KT 2500 FU NSC 33/20 Q1009 NOSIG,M
VABB,2022-03-18 05:30,91.40,69.80,49.36,260.00,7.00,0.00,29.77,M,1.55,M,NSC,M,M,M,M,M,M,M,FU,M,M,M,M,M,M,96.99,VABB 180530Z 26007KT 2500 FU NSC 33/21 Q1008 NOSIG,M
VABB,2022-03-18 06:00,91.40,68.00,46.41,250.00,8.00,0.00,29.77,M,1.55,M,NSC,M,M,M,M,M,M,M,FU,M,M,M,M,M,M,95.55,VABB 180600Z 25008KT 2500 FU NSC 33/20 Q1008 BECMG 3000 FU,M
VABB,2022-03-18 06:30,91.40,68.00,46.41,260.00,9.00,0.00,29.74,M,1.86,M,NSC,M,M,M,M,M,M,M,FU,M,M,M,M,M,M,95.55,VABB 180630Z 26009KT 3000 FU NSC 33/20 Q1007 NOSIG,M
VABB,2022-03-18 07:00,93.20,69.80,46.67,260.00,12.00,0.00,29.74,M,1.86,M,NSC,M,M,M,M,M,M,M,FU,M,M,M,M,M,M,99.17,VABB 180700Z 26012KT 3000 FU NSC 34/21 Q1007 NOSIG,M
VABB,2022-03-18 07:30,91.40,73.40,55.77,250.00,10.00,0.00,29.71,M,1.86,M,NSC,M,M,M,M,M,M,M,FU,M,M,M,M,M,M,100.52,VABB 180730Z 25010KT 3000 FU NSC 33/23 Q1006 NOSIG,M
VABB,2022-03-18 08:00,91.40,69.80,49.36,260.00,10.00,0.00,29.71,M,1.86,M,NSC,M,M,M,M,M,M,M,FU,M,M,M,M,M,M,96.99,VABB 180800Z 26010KT 3000 FU NSC 33/21 Q1006 NOSIG,M
VABB,2022-03-18 08:30,91.40,69.80,49.36,260.00,11.00,0.00,29.68,M,1.86,M,NSC,M,M,M,M,M,M,M,FU,M,M,M,M,M,M,96.99,VABB 180830Z 26011KT 3000 FU NSC 33/21 Q1005 NOSIG,M
VABB,2022-03-18 09:00,93.20,69.80,46.67,270.00,11.00,0.00,29.68,M,1.86,M,NSC,M,M,M,M,M,M,M,FU,M,M,M,M,M,M,99.17,VABB 180900Z 27011KT 3000 FU NSC 34/21 Q1005 NOSIG,M
VABB,2022-03-18 09:30,95.00,62.60,34.39,290.00,12.00,0.00,29.65,M,2.17,M,FEW,M,M,M,10000.00,M,M,M,FU,M,M,M,M,M,M,96.22,VABB 180930Z 29012KT 3500 FU FEW100 35/17 Q1004 NOSIG,M
VABB,2022-03-18 10:00,98.60,57.20,25.41,300.00,14.00,0.00,29.62,M,2.17,M,FEW,M,M,M,10000.00,M,M,M,FU,M,M,M,M,M,M,97.76,VABB 181000Z 30014KT 3500 FU FEW100 37/14 Q1003 NOSIG,M
VABB,2022-03-18 10:30,98.60,53.60,22.29,310.00,9.00,0.00,29.62,M,2.49,M,NSC,M,M,M,M,M,M,M,FU,M,M,M,M,M,M,96.51,VABB 181030Z 31009KT 4000 FU NSC 37/12 Q1003 BECMG 5000 FU,M
VABB,2022-03-18 11:00,98.60,53.60,22.29,300.00,14.00,0.00,29.62,M,3.11,24.00,NSC,M,M,M,M,M,M,M,FU,M,M,M,M,M,M,96.51,VABB 181100Z 30014G24KT 5000 FU NSC 37/12 Q1003 NOSIG,M
VABB,2022-03-18 11:30,98.60,46.40,17.05,280.00,14.00,0.00,29.62,M,3.11,M,NSC,M,M,M,M,M,M,M,FU,M,M,M,M,M,M,94.84,VABB 181130Z 28014KT 5000 FU NSC 37/08 Q1003 NOSIG,M
VABB,2022-03-18 12:00,98.60,46.40,17.05,320.00,11.00,0.00,29.62,M,3.11,M,FEW,M,M,M,10000.00,M,M,M,FU,M,M,M,M,M,M,94.84,VABB 181200Z 32011KT 5000 FU FEW100 37/08 Q1003 NOSIG,M
VABB,2022-03-18 12:30,98.60,46.40,17.05,330.00,9.00,0.00,29.62,M,3.11,19.00,FEW,M,M,M,10000.00,M,M,M,FU,M,M,M,M,M,M,94.84,VABB 181230Z 33009G19KT 5000 FU FEW100 37/08 Q1003 NOSIG,M
VABB,2022-03-18 13:00,96.80,48.20,19.28,320.00,10.00,0.00,29.62,M,3.11,M,FEW,M,M,M,10000.00,M,M,M,FU,M,M,M,M,M,M,93.36,VABB 181300Z 32010KT 5000 FU FEW100 36/09 Q1003 BECMG 4000 FU,M
VABB,2022-03-18 13:30,95.00,50.00,21.79,310.00,5.00,0.00,29.62,M,2.49,M,FEW,M,M,M,10000.00,M,M,M,FU,M,M,M,M,M,M,91.89,VABB 181330Z 31005KT 4000 FU FEW100 35/10 Q1003 BECMG 3000 FU,M
VABB,2022-03-18 14:00,95.00,50.00,21.79,360.00,4.00,0.00,29.65,M,2.17,M,SCT,M,M,M,10000.00,M,M,M,FU,M,M,M,M,M,M,91.89,VABB 181400Z 36004KT 3500 FU SCT100 35/10 Q1004 NOSIG,M
VABB,2022-03-18 14:30,93.20,51.80,24.63,210.00,6.00,0.00,29.68,M,2.17,M,SCT,M,M,M,10000.00,M,M,M,FU,M,M,M,M,M,M,90.45,VABB 181430Z 21006KT 3500 FU SCT100 34/11 Q1005 NOSIG,M
VABB,2022-03-18 15:00,89.60,62.60,40.69,220.00,4.00,0.00,29.68,M,2.17,M,SCT,M,M,M,10000.00,M,M,M,FU,M,M,M,M,M,M,90.32,VABB 181500Z 22004KT 3500 FU SCT100 32/17 Q1005 NOSIG,M
VABB,2022-03-18 15:30,87.80,68.00,51.98,250.00,11.00,0.00,29.71,M,2.17,M,SCT,M,M,M,10000.00,M,M,M,FU,M,M,M,M,M,M,91.43,VABB 181530Z 25011KT 3500 FU SCT100 31/20 Q1006 NOSIG,M
VABB,2022-03-18 16:00,86.00,69.80,58.55,320.00,7.00,0.00,29.71,M,2.17,M,SCT,M,M,M,10000.00,M,M,M,FU,M,M,M,M,M,M,90.58,VABB 181600Z 32007KT 3500 FU SCT100 30/21 Q1006 NOSIG,M
VABB,2022-03-18 16:30,87.80,66.20,48.84,310.00,6.00,0.00,29.74,M,2.17,M,SCT,M,M,M,10000.00,M,M,M,FU,M,M,M,M,M,M,90.31,VABB 181630Z 31006KT 3500 FU SCT100 31/19 Q1007 NOSIG,M
VABB,2022-03-18 17:00,84.20,69.80,62.03,280.00,12.00,0.00,29.74,M,2.17,M,SCT,M,M,M,10000.00,M,M,M,FU,M,M,M,M,M,M,88.43,VABB 181700Z 28012KT 3500 FU SCT100 29/21 Q1007 NOSIG,M
VABB,2022-03-18 17:30,84.20,71.60,65.95,300.00,8.00,0.00,29.74,M,2.17,M,SCT,M,M,M,10000.00,M,M,M,FU,M,M,M,M,M,M,89.60,VABB 181730Z 30008KT 3500 FU SCT100 29/22 Q1007 NOSIG,M
VABB,2022-03-18 18:00,84.20,73.40,70.08,290.00,5.00,0.00,29.74,M,1.86,M,SCT,M,M,M,10000.00,M,M,M,FU,M,M,M,M,M,M,90.94,VABB 181800Z 29005KT 3000 FU SCT100 29/23 Q1007 NOSIG,M
VABB,2022-03-18 18:30,84.20,73.40,70.08,320.00,5.00,0.00,29.74,M,1.86,M,SCT,M,M,M,10000.00,M,M,M,HZ,M,M,M,M,M,M,90.94,VABB 181830Z 32005KT 3000 HZ SCT100 29/23 Q1007 NOSIG,M
VABB,2022-03-18 19:00,84.20,71.60,65.95,0.00,0.00,0.00,29.71,M,1.86,M,SCT,M,M,M,10000.00,M,M,M,HZ,M,M,M,M,M,M,89.60,VABB 181900Z 00000KT 3000 HZ SCT100 29/22 Q1006 NOSIG,M
VABB,2022-03-18 19:30,84.20,69.80,62.03,270.00,4.00,0.00,29.71,M,1.86,M,SCT,M,M,M,10000.00,M,M,M,HZ,M,M,M,M,M,M,88.43,VABB 181930Z 27004KT 3000 HZ SCT100 29/21 Q1006 NOSIG,M
VABB,2022-03-18 20:00,82.40,69.80,65.74,250.00,4.00,0.00,29.71,M,1.86,M,SCT,M,M,M,10000.00,M,M,M,HZ,M,M,M,M,M,M,86.22,VABB 182000Z 25004KT 3000 HZ SCT100 28/21 Q1006 NOSIG,M
VABB,2022-03-18 20:30,82.40,69.80,65.74,160.00,3.00,0.00,29.68,M,1.86,M,SCT,M,M,M,10000.00,M,M,M,HZ,M,M,M,M,M,M,86.22,VABB 182030Z 16003KT 3000 HZ SCT100 28/21 Q1005 NOSIG,M
VABB,2022-03-18 21:00,82.40,69.80,65.74,210.00,5.00,0.00,29.68,M,1.86,M,SCT,M,M,M,10000.00,M,M,M,HZ,M,M,M,M,M,M,86.22,VABB 182100Z 21005KT 3000 HZ SCT100 28/21 Q1005 NOSIG,M
VABB,2022-03-18 21:30,82.40,69.80,65.74,0.00,0.00,0.00,29.68,M,1.86,M,SCT,M,M,M,10000.00,M,M,M,HZ,M,M,M,M,M,M,86.22,VABB 182130Z 00000KT 3000 HZ SCT100 28/21 Q1005 NOSIG,M
VABB,2022-03-18 22:00,82.40,73.40,74.28,200.00,4.00,0.00,29.68,M,1.86,M,FEW,SCT,M,M,2000.00,10000.00,M,M,HZ,M,M,M,M,M,M,88.26,VABB 182200Z 20004KT 3000 HZ FEW020 SCT100 28/23 Q1005 NOSIG,M
VABB,2022-03-18 22:30,80.60,73.40,78.76,170.00,3.00,0.00,29.68,M,1.86,M,FEW,SCT,M,M,2000.00,10000.00,M,M,HZ,M,M,M,M,M,M,85.32,VABB 182230Z 17003KT 3000 HZ FEW020 SCT100 27/23 Q1005 NOSIG,M
VABB,2022-03-18 23:00,82.40,73.40,74.28,0.00,0.00,0.00,29.68,M,1.86,M,FEW,SCT,M,M,2000.00,10000.00,M,M,HZ,M,M,M,M,M,M,88.26,VABB 182300Z 00000KT 3000 HZ FEW020 SCT100 28/23 Q1005 NOSIG,M
VABB,2022-03-18 23:30,80.60,73.40,78.76,0.00,0.00,0.00,29.68,M,1.86,M,FEW,SCT,M,M,2000.00,10000.00,M,M,HZ,M,M,M,M,M,M,85.32,VABB 182330Z 00000KT 3000 HZ FEW020 SCT100 27/23 Q1005 NOSIG,M
VABB,2022-03-19 00:00,82.40,73.40,74.28,0.00,0.00,0.00,29.71,M,1.86,M,FEW,M,M,M,10000.00,M,M,M,HZ,M,M,M,M,M,M,88.26,VABB 190000Z 00000KT 3000 HZ FEW100 28/23 Q1006 NOSIG,M
VABB,2022-03-19 00:30,80.60,73.40,78.76,170.00,3.00,0.00,29.71,M,1.86,M,NSC,M,M,M,M,M,M,M,HZ,M,M,M,M,M,M,85.32,VABB 190030Z 17003KT 3000 HZ NSC 27/23 Q1006 NOSIG,M
VABB,2022-03-19 01:00,80.60,75.20,83.66,0.00,0.00,0.00,29.71,M,1.86,M,NSC,M,M,M,M,M,M,M,HZ,M,M,M,M,M,M,86.17,VABB 190100Z 00000KT 3000 HZ NSC 27/24 Q1006 NOSIG,M
VABB,2022-03-19 01:30,80.60,75.20,83.66,170.00,3.00,0.00,29.74,M,1.86,M,FEW,M,M,M,10000.00,M,M,M,HZ,M,M,M,M,M,M,86.17,VABB 190130Z 17003KT 3000 HZ FEW100 27/24 Q1007 NOSIG,M
VABB,2022-03-19 02:00,82.40,75.20,78.90,180.00,3.00,0.00,29.74,M,1.86,M,FEW,M,M,M,10000.00,M,M,M,HZ,M,M,M,M,M,M,89.48,VABB 190200Z 18003KT 3000 HZ FEW100 28/24 Q1007 NOSIG,M
VABB,2022-03-19 02:30,82.40,75.20,78.90,110.00,3.00,0.00,29.74,M,1.86,M,FEW,M,M,M,10000.00,M,M,M,HZ,M,M,M,M,M,M,89.48,VABB 190230Z 11003KT 3000 HZ FEW100 28/24 Q1007 NOSIG,M
VABB,2022-03-19 03:00,84.20,75.20,74.44,0.00,0.00,0.00,29.77,M,1.86,M,FEW,M,M,M,10000.00,M,M,M,HZ,M,M,M,M,M,M,92.45,VABB 190300Z 00000KT 3000 HZ FEW100 29/24 Q1008 NOSIG,M
VABB,2022-03-19 03:30,84.20,75.20,74.44,160.00,3.00,0.00,29.77,M,1.86,M,FEW,M,M,M,10000.00,M,M,M,HZ,M,M,M,M,M,M,92.45,VABB 190330Z 16003KT 3000 HZ FEW100 29/24 Q1008 NOSIG,M
VABB,2022-03-19 04:00,86.00,73.40,66.15,220.00,4.00,0.00,29.77,M,1.86,M,FEW,M,M,M,10000.00,M,M,M,HZ,M,M,M,M,M,M,93.45,VABB 190400Z 22004KT 3000 HZ FEW100 30/23 Q1008 NOSIG,M
VABB,2022-03-19 04:30,87.80,73.40,62.47,260.00,4.00,0.00,29.80,M,1.86,M,FEW,M,M,M,10000.00,M,M,M,HZ,M,M,M,M,M,M,95.86,VABB 190430Z 26004KT 3000 HZ FEW100 31/23 Q1009 NOSIG,M
VABB,2022-03-19 05:00,89.60,77.00,66.55,270.00,7.00,0.00,29.77,M,1.86,M,SCT,M,M,M,10000.00,M,M,M,HZ,M,M,M,M,M,M,102.54,VABB 190500Z 27007KT 3000 HZ SCT100 32/25 Q1008 NOSIG,M
VABB,2022-03-19 05:30,87.80,75.20,66.35,230.00,7.00,0.00,29.77,M,1.86,M,SCT,M,M,M,10000.00,M,M,M,HZ,M,M,M,M,M,M,97.76,VABB 190530Z 23007KT 3000 HZ SCT100 31/24 Q1008 NOSIG,M
VABB,2022-03-19 06:00,87.80,77.00,70.45,270.00,8.00,0.00,29.77,M,1.86,M,FEW,M,M,M,10000.00,M,M,M,HZ,M,M,M,M,M,M,99.92,VABB 190600Z 27008KT 3000 HZ FEW100 31/25 Q1008 NOSIG,M
VABB,2022-03-19 06:30,87.80,77.00,70.45,260.00,10.00,0.00,29.77,M,1.86,M,FEW,M,M,M,10000.00,M,M,M,HZ,M,M,M,M,M,M,99.92,VABB 190630Z 26010KT 3000 HZ FEW100 31/25 Q1008 NOSIG,M
VABB,2022-03-19 07:00,87.80,78.80,74.77,280.00,10.00,0.00,29.74,M,1.86,M,NSC,M,M,M,M,M,M,M,HZ,M,M,M,M,M,M,102.37,VABB 190700Z 28010KT 3000 HZ NSC 31/26 Q1007 NOSIG,M
VABB,2022-03-19 07:30,87.80,77.00,70.45,270.00,11.00,0.00,29.74,M,1.86,M,NSC,M,M,M,M,M,M,M,HZ,M,M,M,M,M,M,99.92,VABB 190730Z 27011KT 3000 HZ NSC 31/25 Q1007 NOSIG,M
VABB,2022-03-19 08:00,87.80,77.00,70.45,260.00,11.00,0.00,29.71,M,1.86,M,NSC,M,M,M,M,M,M,M,HZ,M,M,M,M,M,M,99.92,VABB 190800Z 26011KT 3000 HZ NSC 31/25 Q1006 NOSIG,M
VABB,2022-03-19 08:30,87.80,75.20,66.35,260.00,11.00,0.00,29.68,M,1.86,M,FEW,M,M,M,10000.00,M,M,M,HZ,M,M,M,M,M,M,97.76,VABB 190830Z 26011KT 3000 HZ FEW100 31/24 Q1005 NOSIG,M
VABB,2022-03-19 09:00,89.60,77.00,66.55,260.00,12.00,0.00,29.68,M,2.17,M,FEW,M,M,M,10000.00,M,M,M,HZ,M,M,M,M,M,M,102.54,VABB 190900Z 26012KT 3500 HZ FEW100 32/25 Q1005 NOSIG,M
VABB,2022-03-19 09:30,89.60,75.20,62.68,260.00,10.00,0.00,29.65,M,2.49,M,FEW,M,M,M,10000.00,M,M,M,HZ,M,M,M,M,M,M,100.23,VABB 190930Z 26010KT 4000 HZ FEW100 32/24 Q1004 NOSIG,M
VABB,2022-03-19 10:00,89.60,75.20,62.68,260.00,12.00,0.00,29.65,M,2.49,M,FEW,M,M,M,10000.00,M,M,M,FU,M,M,M,M,M,M,100.23,VABB 191000Z 26012KT 4000 FU FEW100 32/24 Q1004 BECMG 5000 FU,M
VABB,2022-03-19 10:30,87.80,71.60,58.78,250.00,16.00,0.00,29.65,M,3.11,M,FEW,M,M,M,10000.00,M,M,M,FU,M,M,M,M,M,M,94.18,VABB 191030Z 25016KT 5000 FU FEW100 31/22 Q1004 NOSIG,M
VABB,2022-03-19 11:00,87.80,73.40,62.47,270.00,13.00,0.00,29.65,M,3.11,M,FEW,M,M,M,10000.00,M,M,M,FU,M,M,M,M,M,M,95.86,VABB 191100Z 27013KT 5000 FU FEW100 31/23 Q1004 NOSIG,M
VABB,2022-03-19 11:30,87.80,71.60,58.78,280.00,12.00,0.00,29.65,M,3.11,M,FEW,M,M,M,10000.00,M,M,M,FU,M,M,M,M,M,M,94.18,VABB 191130Z 28012KT 5000 FU FEW100 31/22 Q1004 NOSIG,M
VABB,2022-03-19 12:00,87.80,68.00,51.98,280.00,8.00,0.00,29.65,M,3.11,18.00,FEW,M,M,M,10000.00,M,M,M,FU,M,M,M,M,M,M,91.43,VABB 191200Z 28008G18KT 5000 FU FEW100 31/20 Q1004 NOSIG,M
VABB,2022-03-19 12:30,87.80,68.00,51.98,290.00,11.00,0.00,29.65,M,3.11,M,FEW,M,M,M,10000.00,M,M,M,FU,M,M,M,M,M,M,91.43,VABB 191230Z 29011KT 5000 FU FEW100 31/20 Q1004 NOSIG,M
VABB,2022-03-19 13:00,86.00,68.00,55.04,290.00,10.00,0.00,29.65,M,3.11,M,SCT,M,M,M,10000.00,M,M,M,FU,M,M,M,M,M,M,89.41,VABB 191300Z 29010KT 5000 FU SCT100 30/20 Q1004 NOSIG,M
VABB,2022-03-19 13:30,84.20,68.00,58.32,280.00,12.00,0.00,29.68,M,2.49,M,SCT,M,M,M,10000.00,M,M,M,FU,M,M,M,M,M,M,87.40,VABB 191330Z 28012KT 4000 FU SCT100 29/20 Q1005 NOSIG,M
VABB,2022-03-19 14:00,84.20,71.60,65.95,290.00,7.00,0.00,29.68,M,2.49,M,SCT,M,M,M,10000.00,M,M,M,FU,M,M,M,M,M,M,89.60,VABB 191400Z 29007KT 4000 FU SCT100 29/22 Q1005 NOSIG,M
VABB,2022-03-19 14:30,84.20,69.80,62.03,280.00,6.00,0.00,29.68,M,2.17,M,SCT,M,M,M,10000.00,M,M,M,FU,M,M,M,M,M,M,88.43,VABB 191430Z 28006KT 3500 FU SCT100 29/21 Q1005 NOSIG,M
VABB,2022-03-19 15:00,84.20,69.80,62.03,270.00,4.00,0.00,29.71,M,2.17,M,SCT,M,M,M,10000.00,M,M,M,FU,M,M,M,M,M,M,88.43,VABB 191500Z 27004KT 3500 FU SCT100 29/21 Q1006 NOSIG,M
VABB,2022-03-19 15:30,84.20,69.80,62.03,280.00,4.00,0.00,29.71,M,2.17,M,SCT,M,M,M,10000.00,M,M,M,HZ,M,M,M,M,M,M,88.43,VABB 191530Z 28004KT 3500 HZ SCT100 29/21 Q1006 NOSIG,M
VABB,2022-03-19 16:00,84.20,69.80,62.03,270.00,4.00,0.00,29.71,M,2.17,M,SCT,M,M,M,10000.00,M,M,M,HZ,M,M,M,M,M,M,88.43,VABB 191600Z 27004KT 3500 HZ SCT100 29/21 Q1006 NOSIG,M
VABB,2022-03-19 16:30,82.40,71.60,69.90,210.00,4.00,0.00,29.74,M,2.17,M,SCT,M,M,M,10000.00,M,M,M,HZ,M,M,M,M,M,M,87.18,VABB 191630Z 21004KT 3500 HZ SCT100 28/22 Q1007 NOSIG,M
VABB,2022-03-19 17:00,82.40,71.60,69.90,0.00,0.00,0.00,29.74,M,2.17,M,SCT,M,M,M,10000.00,M,M,M,HZ,M,M,M,M,M,M,87.18,VABB 191700Z 00000KT 3500 HZ SCT100 28/22 Q1007 NOSIG,M
VABB,2022-03-19 17:30,82.40,69.80,65.74,190.00,3.00,0.00,29.74,M,2.17,M,SCT,M,M,M,10000.00,M,M,M,HZ,M,M,M,M,M,M,86.22,VABB 191730Z 19003KT 3500 HZ SCT100 28/21 Q1007 NOSIG,M
VABB,2022-03-19 18:00,82.40,71.60,69.90,190.00,4.00,0.00,29.74,M,2.17,M,SCT,M,M,M,10000.00,M,M,M,HZ,M,M,M,M,M,M,87.18,VABB 191800Z 19004KT 3500 HZ SCT100 28/22 Q1007 BECMG 3000 HZ,M
VABB,2022-03-19 18:30,82.40,71.60,69.90,0.00,0.00,0.00,29.74,M,1.86,M,SCT,M,M,M,10000.00,M,M,M,HZ,M,M,M,M,M,M,87.18,VABB 191830Z 00000KT 3000 HZ SCT100 28/22 Q1007 NOSIG,M
VABB,2022-03-19 19:00,82.40,71.60,69.90,200.00,4.00,0.00,29.74,M,1.86,M,SCT,M,M,M,10000.00,M,M,M,HZ,M,M,M,M,M,M,87.18,VABB 191900Z 20004KT 3000 HZ SCT100 28/22 Q1007 NOSIG,M
VABB,2022-03-19 19:30,80.60,69.80,69.71,190.00,3.00,0.00,29.74,M,1.86,M,SCT,M,M,M,10000.00,M,M,M,HZ,M,M,M,M,M,M,83.90,VABB 191930Z 19003KT 3000 HZ SCT100 27/21 Q1007 NOSIG,M
VABB,2022-03-19 20:00,82.40,71.60,69.90,0.00,0.00,0.00,29.74,M,1.86,M,FEW,M,M,M,10000.00,M,M,M,HZ,M,M,M,M,M,M,87.18,VABB 192000Z 00000KT 3000 HZ FEW100 28/22 Q1007 NOSIG,M
VABB,2022-03-19 20:30,82.40,69.80,65.74,210.00,3.00,0.00,29.71,M,1.86,M,FEW,M,M,M,10000.00,M,M,M,HZ,M,M,M,M,M,M,86.22,VABB 192030Z 21003KT 3000 HZ FEW100 28/21 Q1006 NOSIG,M
VABB,2022-03-19 21:00,82.40,69.80,65.74,240.00,3.00,0.00,29.71,M,1.86,M,FEW,M,M,M,10000.00,M,M,M,HZ,M,M,M,M,M,M,86.22,VABB 192100Z 24003KT 3000 HZ FEW100 28/21 Q1006 NOSIG,M
VABB,2022-03-19 21:30,82.40,71.60,69.90,210.00,4.00,0.00,29.71,M,1.86,M,FEW,M,M,M,10000.00,M,M,M,HZ,M,M,M,M,M,M,87.18,VABB 192130Z 21004KT 3000 HZ FEW100 28/22 Q1006 NOSIG,M
VABB,2022-03-19 22:00,82.40,69.80,65.74,0.00,0.00,0.00,29.71,M,1.86,M,FEW,SCT,M,M,2000.00,10000.00,M,M,HZ,M,M,M,M,M,M,86.22,VABB 192200Z 00000KT 3000 HZ FEW020 SCT100 28/21 Q1006 NOSIG,M
VABB,2022-03-19 22:30,82.40,71.60,69.90,180.00,3.00,0.00,29.68,M,1.86,M,FEW,SCT,M,M,2000.00,10000.00,M,M,HZ,M,M,M,M,M,M,87.18,VABB 192230Z 18003KT 3000 HZ FEW020 SCT100 28/22 Q1005 NOSIG,M
VABB,2022-03-19 23:00,82.40,73.40,74.28,0.00,0.00,0.00,29.68,M,1.86,M,FEW,SCT,M,M,2000.00,10000.00,M,M,HZ,M,M,M,M,M,M,88.26,VABB 192300Z 00000KT 3000 HZ FEW020 SCT100 28/23 Q1005 NOSIG,M
VABB,2022-03-19 23:30,82.40,75.20,78.90,200.00,6.00,0.00,29.71,M,1.86,M,FEW,SCT,M,M,2000.00,10000.00,M,M,HZ,M,M,M,M,M,M,89.48,VABB 192330Z 20006KT 3000 HZ FEW020 SCT100 28/24 Q1006 NOSIG,M
VABB,2022-03-20 00:00,80.60,75.20,83.66,180.00,3.00,0.00,29.71,M,1.86,M,FEW,SCT,M,M,2000.00,10000.00,M,M,HZ,M,M,M,M,M,M,86.17,VABB 200000Z 18003KT 3000 HZ FEW020 SCT100 27/24 Q1006 NOSIG,M
VABB,2022-03-20 00:30,80.60,75.20,83.66,220.00,3.00,0.00,29.71,M,1.86,M,FEW,SCT,M,M,2000.00,10000.00,M,M,HZ,M,M,M,M,M,M,86.17,VABB 200030Z 22003KT 3000 HZ FEW020 SCT100 27/24 Q1006 NOSIG,M
VABB,2022-03-20 01:00,82.40,73.40,74.28,230.00,4.00,0.00,29.71,M,1.86,M,FEW,SCT,M,M,2000.00,10000.00,M,M,HZ,M,M,M,M,M,M,88.26,VABB 200100Z 23004KT 3000 HZ FEW020 SCT100 28/23 Q1006 NOSIG,M
VABB,2022-03-20 01:30,82.40,73.40,74.28,230.00,5.00,0.00,29.74,M,1.86,M,FEW,SCT,M,M,2000.00,10000.00,M,M,HZ,M,M,M,M,M,M,88.26,VABB 200130Z 23005KT 3000 HZ FEW020 SCT100 28/23 Q1007 NOSIG,M
VABB,2022-03-20 02:00,82.40,71.60,69.90,230.00,5.00,0.00,29.74,M,1.86,M,FEW,SCT,M,M,2000.00,10000.00,M,M,HZ,M,M,M,M,M,M,87.18,VABB 200200Z 23005KT 3000 HZ FEW020 SCT100 28/22 Q1007 NOSIG,M
VABB,2022-03-20 02:30,82.40,71.60,69.90,230.00,5.00,0.00,29.77,M,1.86,M,FEW,SCT,M,M,2000.00,10000.00,M,M,HZ,M,M,M,M,M,M,87.18,VABB 200230Z 23005KT 3000 HZ FEW020 SCT100 28/22 Q1008 NOSIG,M
VABB,2022-03-20 03:00,82.40,73.40,74.28,200.00,4.00,0.00,29.77,M,1.86,M,FEW,SCT,M,M,2000.00,10000.00,M,M,HZ,M,M,M,M,M,M,88.26,VABB 200300Z 20004KT 3000 HZ FEW020 SCT100 28/23 Q1008 NOSIG,M
VABB,2022-03-20 03:30,82.40,73.40,74.28,0.00,0.00,0.00,29.80,M,1.86,M,FEW,BKN,M,M,2000.00,10000.00,M,M,HZ,M,M,M,M,M,M,88.26,VABB 200330Z 00000KT 3000 HZ FEW020 BKN100 28/23 Q1009 NOSIG,M
VABB,2022-03-20 04:00,84.20,73.40,70.08,0.00,0.00,0.00,29.80,M,1.86,M,FEW,BKN,M,M,2000.00,10000.00,M,M,HZ,M,M,M,M,M,M,90.94,VABB 200400Z 00000KT 3000 HZ FEW020 BKN100 29/23 Q1009 NOSIG,M
VABB,2022-03-20 04:30,84.20,73.40,70.08,190.00,4.00,0.00,29.80,M,1.86,M,FEW,BKN,M,M,2000.00,10000.00,M,M,HZ,M,M,M,M,M,M,90.94,VABB 200430Z 19004KT 3000 HZ FEW020 BKN100 29/23 Q1009 NOSIG,M
VABB,2022-03-20 05:00,84.20,73.40,70.08,180.00,6.00,0.00,29.80,M,1.86,M,FEW,BKN,M,M,2000.00,10000.00,M,M,HZ,M,M,M,M,M,M,90.94,VABB 200500Z 18006KT 3000 HZ FEW020 BKN100 29/23 Q1009 NOSIG,M
VABB,2022-03-20 05:30,84.20,73.40,70.08,190.00,4.00,0.00,29.80,M,1.86,M,FEW,BKN,M,M,2000.00,10000.00,M,M,HZ,M,M,M,M,M,M,90.94,VABB 200530Z 19004KT 3000 HZ FEW020 BKN100 29/23 Q1009 NOSIG,M
VABB,2022-03-20 06:00,84.20,75.20,74.44,230.00,6.00,0.00,29.80,M,1.86,M,FEW,BKN,M,M,2000.00,10000.00,M,M,HZ,M,M,M,M,M,M,92.45,VABB 200600Z 23006KT 3000 HZ FEW020 BKN100 29/24 Q1009 NOSIG,M
VABB,2022-03-20 06:30,84.20,75.20,74.44,220.00,5.00,0.00,29.80,M,2.17,M,FEW,BKN,M,M,2000.00,10000.00,M,M,HZ,M,M,M,M,M,M,92.45,VABB 200630Z 22005KT 3500 HZ FEW020 BKN100 29/24 Q1009 NOSIG,M
VABB,2022-03-20 07:00,84.20,75.20,74.44,250.00,4.00,0.00,29.77,M,2.17,M,FEW,BKN,M,M,2000.00,10000.00,M,M,HZ,M,M,M,M,M,M,92.45,VABB 200700Z 25004KT 3500 HZ FEW020 BKN100 29/24 Q1008 NOSIG,M
VABB,2022-03-20 07:30,86.00,75.20,70.27,250.00,7.00,0.00,29.77,M,2.17,M,FEW,BKN,M,M,2000.00,10000.00,M,M,HZ,M,M,M,M,M,M,95.19,VABB 200730Z 25007KT 3500 HZ FEW020 BKN100 30/24 Q1008 NOSIG,M
VABB,2022-03-20 08:00,86.00,75.20,70.27,280.00,7.00,0.00,29.74,M,2.17,M,FEW,BKN,M,M,2000.00,10000.00,M,M,HZ,M,M,M,M,M,M,95.19,VABB 200800Z 28007KT 3500 HZ FEW020 BKN100 30/24 Q1007 NOSIG,M
VABB,2022-03-20 08:30,86.00,75.20,70.27,250.00,9.00,0.00,29.74,M,2.17,M,FEW,SCT,M,M,2000.00,10000.00,M,M,HZ,M,M,M,M,M,M,95.19,VABB 200830Z 25009KT 3500 HZ FEW020 SCT100 30/24 Q1007 NOSIG,M
VABB,2022-03-20 09:00,86.00,75.20,70.27,250.00,8.00,0.00,29.71,M,2.17,M,SCT,M,M,M,10000.00,M,M,M,HZ,M,M,M,M,M,M,95.19,VABB 200900Z 25008KT 3500 HZ SCT100 30/24 Q1006 NOSIG,M
VABB,2022-03-20 09:30,87.80,75.20,66.35,280.00,9.00,0.00,29.71,M,2.49,M,SCT,M,M,M,10000.00,M,M,M,HZ,M,M,M,M,M,M,97.76,VABB 200930Z 28009KT 4000 HZ SCT100 31/24 Q1006 NOSIG,M
VABB,2022-03-20 10:00,86.00,75.20,70.27,270.00,10.00,0.00,29.71,M,2.49,M,SCT,M,M,M,10000.00,M,M,M,HZ,M,M,M,M,M,M,95.19,VABB 201000Z 27010KT 4000 HZ SCT100 30/24 Q1006 NOSIG,M
VABB,2022-03-20 10:30,86.00,75.20,70.27,270.00,10.00,0.00,29.71,M,2.49,M,FEW,M,M,M,2000.00,M,M,M,HZ,M,M,M,M,M,M,95.19,VABB 201030Z 27010KT 4000 HZ FEW020 30/24 Q1006 NOSIG,M
VABB,2022-03-20 11:00,84.20,77.00,79.04,270.00,10.00,0.00,29.71,M,2.49,M,FEW,M,M,M,2000.00,M,M,M,HZ,M,M,M,M,M,M,94.16,VABB 201100Z 27010KT 4000 HZ FEW020 29/25 Q1006 NOSIG,M
VABB,2022-03-20 11:30,84.20,77.00,79.04,290.00,10.00,0.00,29.71,M,2.49,M,SCT,M,M,M,2000.00,M,M,M,HZ,M,M,M,M,M,M,94.16,VABB 201130Z 29010KT 4000 HZ SCT020 29/25 Q1006 NOSIG,M
VABB,2022-03-20 12:00,84.20,75.20,74.44,280.00,11.00,0.00,29.71,M,2.49,M,SCT,M,M,M,2000.00,M,M,M,HZ,M,M,M,M,M,M,92.45,VABB 201200Z 28011KT 4000 HZ SCT020 29/24 Q1006 NOSIG,M
VABB,2022-03-20 12:30,84.20,77.00,79.04,310.00,8.00,0.00,29.71,M,2.49,M,SCT,M,M,M,2000.00,M,M,M,HZ,M,M,M,M,M,M,94.16,VABB 201230Z 31008KT 4000 HZ SCT020 29/25 Q1006 NOSIG,M
VABB,2022-03-20 13:00,82.40,75.20,78.90,290.00,8.00,0.00,29.71,M,2.49,M,FEW,M,M,M,2000.00,M,M,M,HZ,M,M,M,M,M,M,89.48,VABB 201300Z 29008KT 4000 HZ FEW020 28/24 Q1006 NOSIG,M
VABB,2022-03-20 13:30,82.40,75.20,78.90,290.00,9.00,0.00,29.71,M,2.17,M,SCT,M,M,M,2000.00,M,M,M,HZ,M,M,M,M,M,M,89.48,VABB 201330Z 29009KT 3500 HZ SCT020 28/24 Q1006 NOSIG,M
VABB,2022-03-20 14:00,82.40,77.00,83.77,300.00,6.00,0.00,29.74,M,2.17,M,SCT,M,M,M,2000.00,M,M,M,HZ,M,M,M,M,M,M,90.85,VABB 201400Z 30006KT 3500 HZ SCT020 28/25 Q1007 NOSIG,M
VABB,2022-03-20 14:30,82.40,75.20,78.90,280.00,6.00,0.00,29.74,M,2.17,M,SCT,M,M,M,2000.00,M,M,M,HZ,M,M,M,M,M,M,89.48,VABB 201430Z 28006KT 3500 HZ SCT020 28/24 Q1007 NOSIG,M
VABB,2022-03-20 15:00,80.60,77.00,88.83,300.00,4.00,0.00,29.74,M,2.17,M,SCT,M,M,M,2000.00,M,M,M,HZ,M,M,M,M,M,M,87.59,VABB 201500Z 30004KT 3500 HZ SCT020 27/25 Q1007 NOSIG,M
VABB,2022-03-20 15:30,80.60,77.00,88.83,270.00,5.00,0.00,29.77,M,2.17,M,SCT,M,M,M,2000.00,M,M,M,HZ,M,M,M,M,M,M,87.59,VABB 201530Z 27005KT 3500 HZ SCT020 27/25 Q1008 NOSIG,M
VABB,2022-03-20 16:00,80.60,77.00,88.83,290.00,5.00,0.00,29.77,M,1.86,M,SCT,M,M,M,2000.00,M,M,M,HZ,M,M,M,M,M,M,87.59,VABB 201600Z 29005KT 3000 HZ SCT020 27/25 Q1008 NOSIG,M
VABB,2022-03-20 16:30,80.60,77.00,88.83,290.00,4.00,0.00,29.77,M,1.86,M,FEW,M,M,M,2000.00,M,M,M,HZ,M,M,M,M,M,M,87.59,VABB 201630Z 29004KT 3000 HZ FEW020 27/25 Q1008 NOSIG,M
VABB,2022-03-20 17:00,80.60,75.20,83.66,270.00,5.00,0.00,29.77,M,1.86,M,FEW,M,M,M,2000.00,M,M,M,HZ,M,M,M,M,M,M,86.17,VABB 201700Z 27005KT 3000 HZ FEW020 27/24 Q1008 NOSIG,M
VABB,2022-03-20 17:30,80.60,77.00,88.83,260.00,4.00,0.00,29.77,M,1.86,M,FEW,M,M,M,2000.00,M,M,M,HZ,M,M,M,M,M,M,87.59,VABB 201730Z 26004KT 3000 HZ FEW020 27/25 Q1008 NOSIG,M
VABB,2022-03-20 18:00,80.60,77.00,88.83,270.00,5.00,0.00,29.77,M,1.86,M,FEW,M,M,M,2000.00,M,M,M,HZ,M,M,M,M,M,M,87.59,VABB 201800Z 27005KT 3000 HZ FEW020 27/25 Q1008 NOSIG,M
VABB,2022-03-20 18:30,78.80,75.20,88.75,300.00,4.00,0.00,29.77,M,1.86,M,SCT,M,M,M,2000.00,M,M,M,HZ,M,M,M,M,M,M,78.80,VABB 201830Z 30004KT 3000 HZ SCT020 26/24 Q1008 NOSIG,M
VABB,2022-03-20 19:00,80.60,75.20,83.66,340.00,5.00,0.00,29.77,M,1.86,M,SCT,M,M,M,2000.00,M,M,M,HZ,M,M,M,M,M,M,86.17,VABB 201900Z 34005KT 3000 HZ SCT020 27/24 Q1008 NOSIG,M
VABB,2022-03-20 19:30,80.60,75.20,83.66,330.00,5.00,0.00,29.77,M,1.86,M,SCT,M,M,M,2000.00,M,M,M,HZ,M,M,M,M,M,M,86.17,VABB 201930Z 33005KT 3000 HZ SCT020 27/24 Q1008 NOSIG,M
VABB,2022-03-20 20:00,78.80,75.20,88.75,310.00,6.00,0.00,29.77,M,1.86,M,SCT,M,M,M,2000.00,M,M,M,HZ,M,M,M,M,M,M,78.80,VABB 202000Z 31006KT 3000 HZ SCT020 26/24 Q1008 NOSIG,M
VABB,2022-03-20 20:30,78.80,75.20,88.75,320.00,3.00,0.00,29.74,M,1.86,M,SCT,M,M,M,2000.00,M,M,M,HZ,M,M,M,M,M,M,78.80,VABB 202030Z 32003KT 3000 HZ SCT020 26/24 Q1007 NOSIG,M
VABB,2022-03-20 21:00,78.80,75.20,88.75,350.00,4.00,0.00,29.74,M,1.86,M,SCT,M,M,M,2000.00,M,M,M,HZ,M,M,M,M,M,M,78.80,VABB 202100Z 35004KT 3000 HZ SCT020 26/24 Q1007 NOSIG,M
VABB,2022-03-20 21:30,78.80,75.20,88.75,30.00,4.00,0.00,29.74,M,1.86,M,SCT,M,M,M,2000.00,M,M,M,HZ,M,M,M,M,M,M,78.80,VABB 202130Z 03004KT 3000 HZ SCT020 26/24 Q1007 NOSIG,M
VABB,2022-03-20 22:00,78.80,75.20,88.75,0.00,0.00,0.00,29.74,M,1.86,M,FEW,SCT,M,M,2000.00,10000.00,M,M,HZ,M,M,M,M,M,M,78.80,VABB 202200Z 00000KT 3000 HZ FEW020 SCT100 26/24 Q1007 NOSIG,M
VABB,2022-03-20 22:30,78.80,75.20,88.75,0.00,0.00,0.00,29.74,M,1.86,M,FEW,SCT,M,M,2000.00,10000.00,M,M,HZ,M,M,M,M,M,M,78.80,VABB 202230Z 00000KT 3000 HZ FEW020 SCT100 26/24 Q1007 NOSIG,M
VABB,2022-03-20 23:00,77.00,71.60,83.44,0.00,0.00,0.00,29.71,M,1.86,M,FEW,SCT,M,M,2000.00,10000.00,M,M,HZ,M,M,M,M,M,M,77.00,VABB 202300Z 00000KT 3000 HZ FEW020 SCT100 25/22 Q1006 NOSIG,M
VABB,2022-03-20 23:30,78.80,75.20,88.75,100.00,6.00,0.00,29.71,M,1.86,M,FEW,SCT,M,M,2000.00,10000.00,M,M,HZ,M,M,M,M,M,M,78.80,VABB 202330Z 10006KT 3000 HZ FEW020 SCT100 26/24 Q1006 NOSIG,M
VABB,2022-03-21 00:00,78.80,75.20,88.75,100.00,7.00,0.00,29.74,M,1.86,M,FEW,SCT,M,M,2000.00,10000.00,M,M,HZ,M,M,M,M,M,M,78.80,VABB 210000Z 10007KT 3000 HZ FEW020 SCT100 26/24 Q1007 NOSIG,M
VABB,2022-03-21 00:30,78.80,73.40,83.55,90.00,4.00,0.00,29.74,M,1.86,M,FEW,SCT,M,M,2000.00,10000.00,M,M,HZ,M,M,M,M,M,M,78.80,VABB 210030Z 09004KT 3000 HZ FEW020 SCT100 26/23 Q1007 NOSIG,M
VABB,2022-03-21 01:00,78.80,73.40,83.55,100.00,3.00,0.00,29.77,M,1.86,M,FEW,SCT,M,M,2000.00,10000.00,M,M,HZ,M,M,M,M,M,M,78.80,VABB 210100Z 10003KT 3000 HZ FEW020 SCT100 26/23 Q1008 TEMPO 1500 HZ,M
VABB,2022-03-21 01:30,78.80,73.40,83.55,10.00,5.00,0.00,29.77,M,1.86,M,FEW,SCT,M,M,2000.00,10000.00,M,M,HZ,M,M,M,M,M,M,78.80,VABB 210130Z 01005KT 3000 HZ FEW020 SCT100 26/23 Q1008 NOSIG,M
VABB,2022-03-21 02:00,78.80,71.60,78.62,100.00,3.00,0.00,29.77,M,1.86,M,FEW,BKN,M,M,2000.00,10000.00,M,M,HZ,M,M,M,M,M,M,78.80,VABB 210200Z 10003KT 3000 HZ FEW020 BKN100 26/22 Q1008 NOSIG,M
VABB,2022-03-21 02:30,80.60,71.60,74.11,0.00,0.00,0.00,29.80,M,1.86,M,FEW,BKN,M,M,2000.00,10000.00,M,M,HZ,M,M,M,M,M,M,84.57,VABB 210230Z 00000KT 3000 HZ FEW020 BKN100 27/22 Q1009 NOSIG,M
VABB,2022-03-21 03:00,80.60,71.60,74.11,180.00,4.00,0.00,29.80,M,1.86,M,FEW,BKN,M,M,2000.00,10000.00,M,M,HZ,M,M,M,M,M,M,84.57,VABB 210300Z 18004KT 3000 HZ FEW020 BKN100 27/22 Q1009 NOSIG,M
VABB,2022-03-21 03:30,82.40,69.80,65.74,270.00,2.00,0.00,29.80,M,1.86,M,FEW,BKN,M,M,2000.00,10000.00,M,M,HZ,M,M,M,M,M,M,86.22,VABB 210330Z 27002KT 3000 HZ FEW020 BKN100 28/21 Q1009 NOSIG,M
VABB,2022-03-21 04:00,84.20,69.80,62.03,180.00,3.00,0.00,29.83,M,1.86,M,SCT,M,M,M,10000.00,M,M,M,HZ,M,M,M,M,M,M,88.43,VABB 210400Z 18003KT 3000 HZ SCT100 29/21 Q1010 NOSIG,M
VABB,2022-03-21 04:30,86.00,71.60,62.25,190.00,4.00,0.00,29.83,M,1.86,M,SCT,M,M,M,10000.00,M,M,M,HZ,M,M,M,M,M,M,91.92,VABB 210430Z 19004KT 3000 HZ SCT100 30/22 Q1010 NOSIG,M
VABB,2022-03-21 05:00,87.80,69.80,55.29,210.00,3.00,0.00,29.83,M,1.55,M,FEW,SCT,M,M,2000.00,10000.00,M,M,FU,M,M,M,M,M,M,92.71,VABB 210500Z 21003KT 2500 FU FEW020 SCT100 31/21 Q1010 NOSIG,M
VABB,2022-03-21 05:30,87.80,66.20,48.84,100.00,4.00,0.00,29.83,M,1.55,M,FEW,SCT,M,M,2000.00,10000.00,M,M,FU,M,M,M,M,M,M,90.31,VABB 210530Z 10004KT 2500 FU FEW020 SCT100 31/19 Q1010 NOSIG,M
VABB,2022-03-21 06:00,87.80,69.80,55.29,240.00,5.00,0.00,29.83,M,1.55,M,FEW,SCT,M,M,2000.00,10000.00,M,M,FU,M,M,M,M,M,M,92.71,VABB 210600Z 24005KT 2500 FU FEW020 SCT100 31/21 Q1010 NOSIG,M
VABB,2022-03-21 06:30,87.80,69.80,55.29,270.00,7.00,0.00,29.80,M,1.55,M,FEW,SCT,M,M,2000.00,10000.00,M,M,FU,M,M,M,M,M,M,92.71,COR VABB 210630Z 27007KT 2500 FU FEW020 SCT100 31/21 Q1009 BECMG 3000 FU,M
VABB,2022-03-21 07:00,87.80,71.60,58.78,260.00,8.00,0.00,29.80,M,1.86,M,SCT,M,M,M,10000.00,M,M,M,FU,M,M,M,M,M,M,94.18,VABB 210700Z 26008KT 3000 FU SCT100 31/22 Q1009 NOSIG,M
VABB,2022-03-21 07:30,87.80,71.60,58.78,270.00,8.00,0.00,29.77,M,1.86,M,SCT,M,M,M,10000.00,M,M,M,FU,M,M,M,M,M,M,94.18,VABB 210730Z 27008KT 3000 FU SCT100 31/22 Q1008 NOSIG,M
VABB,2022-03-21 08:00,87.80,71.60,58.78,270.00,9.00,0.00,29.77,M,1.86,M,FEW,M,M,M,10000.00,M,M,M,FU,M,M,M,M,M,M,94.18,VABB 210800Z 27009KT 3000 FU FEW100 31/22 Q1008 NOSIG,M
VABB,2022-03-21 08:30,87.80,71.60,58.78,260.00,9.00,0.00,29.74,M,1.86,M,FEW,M,M,M,10000.00,M,M,M,HZ,M,M,M,M,M,M,94.18,VABB 210830Z 26009KT 3000 HZ FEW100 31/22 Q1007 NOSIG,M
VABB,2022-03-21 09:00,86.00,73.40,66.15,230.00,9.00,0.00,29.74,M,1.86,M,FEW,M,M,M,10000.00,M,M,M,HZ,M,M,M,M,M,M,93.45,VABB 210900Z 23009KT 3000 HZ FEW100 30/23 Q1007 NOSIG,M
VABB,2022-03-21 09:30,86.00,71.60,62.25,260.00,8.00,0.00,29.71,M,2.17,18.00,FEW,M,M,M,10000.00,M,M,M,HZ,M,M,M,M,M,M,91.92,VABB 210930Z 26008G18KT 3500 HZ FEW100 30/22 Q1006 NOSIG,M
VABB,2022-03-21 10:00,86.00,73.40,66.15,260.00,13.00,0.00,29.71,M,2.49,M,FEW,SCT,M,M,2000.00,10000.00,M,M,HZ,M,M,M,M,M,M,93.45,VABB 211000Z 26013KT 4000 HZ FEW020 SCT100 30/23 Q1006 NOSIG,M
VABB,2022-03-21 10:30,86.00,73.40,66.15,270.00,8.00,0.00,29.71,M,2.49,18.00,FEW,SCT,M,M,2000.00,10000.00,M,M,HZ,M,M,M,M,M,M,93.45,VABB 211030Z 27008G18KT 4000 HZ FEW020 SCT100 30/23 Q1006 NOSIG,M
VABB,2022-03-21 11:00,86.00,73.40,66.15,260.00,12.00,0.00,29.71,M,2.49,M,FEW,M,M,M,2000.00,M,M,M,HZ,M,M,M,M,M,M,93.45,VABB 211100Z 26012KT 4000 HZ FEW020 30/23 Q1006 NOSIG,M
VABB,2022-03-21 11:30,86.00,75.20,70.27,300.00,8.00,0.00,29.71,M,2.49,M,FEW,M,M,M,2000.00,M,M,M,HZ,M,M,M,M,M,M,95.19,VABB 211130Z 30008KT 4000 HZ FEW020 30/24 Q1006 NOSIG,M
VABB,2022-03-21 12:00,86.00,73.40,66.15,300.00,10.00,0.00,29.71,M,2.49,M,NSC,M,M,M,M,M,M,M,HZ,M,M,M,M,M,M,93.45,VABB 211200Z 30010KT 4000 HZ NSC 30/23 Q1006 NOSIG,M
VABB,2022-03-21 12:30,86.00,71.60,62.25,310.00,7.00,0.00,29.71,M,2.49,M,NSC,M,M,M,M,M,M,M,HZ,M,M,M,M,M,M,91.92,VABB 211230Z 31007KT 4000 HZ NSC 30/22 Q1006 NOSIG,M
VABB,2022-03-21 13:00,86.00,71.60,62.25,290.00,8.00,0.00,29.71,M,2.17,M,NSC,M,M,M,M,M,M,M,HZ,M,M,M,M,M,M,91.92,VABB 211300Z 29008KT 3500 HZ NSC 30/22 Q1006 NOSIG,M
VABB,2022-03-21 13:30,84.20,73.40,70.08,310.00,7.00,0.00,29.71,M,2.17,M,NSC,M,M,M,M,M,M,M,HZ,M,M,M,M,M,M,90.94,VABB 211330Z 31007KT 3500 HZ NSC 29/23 Q1006 BECMG 3000 HZ,M
VABB,2022-03-21 14:00,84.20,73.40,70.08,330.00,6.00,0.00,29.74,M,1.86,M,NSC,M,M,M,M,M,M,M,HZ,M,M,M,M,M,M,90.94,VABB 211400Z 33006KT 3000 HZ NSC 29/23 Q1007 NOSIG,M
VABB,2022-03-21 14:30,84.20,75.20,74.44,320.00,5.00,0.00,29.74,M,1.86,M,NSC,M,M,M,M,M,M,M,HZ,M,M,M,M,M,M,92.45,VABB 211430Z 32005KT 3000 HZ NSC 29/24 Q1007 NOSIG,M
VABB,2022-03-21 15:00,84.20,73.40,70.08,360.00,6.00,0.00,29.74,M,1.86,M,NSC,M,M,M,M,M,M,M,HZ,M,M,M,M,M,M,90.94,VABB 211500Z 36006KT 3000 HZ NSC 29/23 Q1007 NOSIG,M
VABB,2022-03-21 15:30,84.20,73.40,70.08,320.00,6.00,0.00,29.77,M,1.86,M,NSC,M,M,M,M,M,M,M,HZ,M,M,M,M,M,M,90.94,VABB 211530Z 32006KT 3000 HZ NSC 29/23 Q1008 NOSIG,M
VABB,2022-03-21 16:00,84.20,73.40,70.08,10.00,4.00,0.00,29.77,M,1.86,M,NSC,M,M,M,M,M,M,M,HZ,M,M,M,M,M,M,90.94,VABB 211600Z 01004KT 3000 HZ NSC 29/23 Q1008 NOSIG,M
VABB,2022-03-21 16:30,84.20,73.40,70.08,340.00,6.00,0.00,29.77,M,1.86,M,NSC,M,M,M,M,M,M,M,HZ,M,M,M,M,M,M,90.94,VABB 211630Z 34006KT 3000 HZ NSC 29/23 Q1008 NOSIG,M
VABB,2022-03-21 17:00,84.20,71.60,65.95,350.00,3.00,0.00,29.77,M,1.86,M,NSC,M,M,M,M,M,M,M,HZ,M,M,M,M,M,M,89.60,VABB 211700Z 35003KT 3000 HZ NSC 29/22 Q1008 NOSIG,M
VABB,2022-03-21 17:30,84.20,69.80,62.03,330.00,2.00,0.00,29.77,M,1.86,M,NSC,M,M,M,M,M,M,M,HZ,M,M,M,M,M,M,88.43,VABB 211730Z 33002KT 3000 HZ NSC 29/21 Q1008 NOSIG,M
VABB,2022-03-21 18:00,84.20,69.80,62.03,10.00,2.00,0.00,29.77,M,1.86,M,NSC,M,M,M,M,M,M,M,HZ,M,M,M,M,M,M,88.43,VABB 211800Z 01002KT 3000 HZ NSC 29/21 Q1008 NOSIG,M
VABB,2022-03-21 18:30,84.20,69.80,62.03,250.00,2.00,0.00,29.77,M,1.86,M,NSC,M,M,M,M,M,M,M,HZ,M,M,M,M,M,M,88.43,VABB 211830Z 25002KT 3000 HZ NSC 29/21 Q1008 NOSIG,M
VABB,2022-03-21 19:00,84.20,66.20,54.80,300.00,4.00,0.00,29.77,M,1.86,M,NSC,M,M,M,M,M,M,M,FU,M,M,M,M,M,M,86.50,VABB 211900Z 30004KT 3000 FU NSC 29/19 Q1008 NOSIG,M
VABB,2022-03-21 19:30,82.40,66.20,58.08,330.00,4.00,0.00,29.74,M,1.86,M,NSC,M,M,M,M,M,M,M,FU,M,M,M,M,M,M,84.63,VABB 211930Z 33004KT 3000 FU NSC 28/19 Q1007 NOSIG,M
VABB,2022-03-21 20:00,84.20,64.40,51.47,330.00,7.00,0.00,29.74,M,1.86,M,NSC,M,M,M,M,M,M,M,FU,M,M,M,M,M,M,85.71,VABB 212000Z 33007KT 3000 FU NSC 29/18 Q1007 NOSIG,M
VABB,2022-03-21 20:30,82.40,66.20,58.08,340.00,9.00,0.00,29.74,M,1.86,M,NSC,M,M,M,M,M,M,M,FU,M,M,M,M,M,M,84.63,VABB 212030Z 34009KT 3000 FU NSC 28/19 Q1007 NOSIG,M
VABB,2022-03-21 21:00,82.40,66.20,58.08,340.00,7.00,0.00,29.74,M,1.86,M,NSC,M,M,M,M,M,M,M,FU,M,M,M,M,M,M,84.63,VABB 212100Z 34007KT 3000 FU NSC 28/19 Q1007 NOSIG,M
VABB,2022-03-21 21:30,82.40,64.40,54.55,330.00,7.00,0.00,29.71,M,1.86,M,NSC,M,M,M,M,M,M,M,FU,M,M,M,M,M,M,83.98,VABB 212130Z 33007KT 3000 FU NSC 28/18 Q1006 NOSIG,M
VABB,2022-03-21 22:00,82.40,64.40,54.55,330.00,7.00,0.00,29.71,M,1.86,M,NSC,M,M,M,M,M,M,M,FU,M,M,M,M,M,M,83.98,VABB 212200Z 33007KT 3000 FU NSC 28/18 Q1006 NOSIG,M
VABB,2022-03-21 22:30,82.40,64.40,54.55,310.00,6.00,0.00,29.71,M,1.86,M,NSC,M,M,M,M,M,M,M,FU,M,M,M,M,M,M,83.98,VABB 212230Z 31006KT 3000 FU NSC 28/18 Q1006 NOSIG,M
VABB,2022-03-21 23:00,82.40,62.60,51.21,340.00,5.00,0.00,29.71,M,1.86,M,FEW,M,M,M,10000.00,M,M,M,FU,M,M,M,M,M,M,83.41,VABB 212300Z 34005KT 3000 FU FEW100 28/17 Q1006 NOSIG,M
VABB,2022-03-21 23:30,80.60,64.40,57.84,40.00,3.00,0.00,29.71,M,1.86,M,SCT,M,M,M,10000.00,M,M,M,FU,M,M,M,M,M,M,82.27,VABB 212330Z 04003KT 3000 FU SCT100 27/18 Q1006 NOSIG,M
VABB,2022-03-22 00:00,80.60,62.60,54.30,0.00,0.00,0.00,29.71,M,1.86,M,SCT,M,M,M,10000.00,M,M,M,FU,M,M,M,M,M,M,81.84,VABB 220000Z 00000KT 3000 FU SCT100 27/17 Q1006 NOSIG,M
VABB,2022-03-22 00:30,80.60,60.80,50.95,340.00,4.00,0.00,29.74,M,1.86,M,BKN,M,M,M,10000.00,M,M,M,FU,M,M,M,M,M,M,81.46,VABB 220030Z 34004KT 3000 FU BKN100 27/16 Q1007 NOSIG,M
VABB,2022-03-22 01:00,80.60,60.80,50.95,360.00,3.00,0.00,29.74,M,1.86,M,BKN,M,M,M,10000.00,M,M,M,FU,M,M,M,M,M,M,81.46,VABB 220100Z 36003KT 3000 FU BKN100 27/16 Q1007 NOSIG,M
VABB,2022-03-22 01:30,80.60,60.80,50.95,0.00,0.00,0.00,29.77,M,1.86,M,FEW,BKN,M,M,2000.00,10000.00,M,M,FU,M,M,M,M,M,M,81.46,VABB 220130Z 00000KT 3000 FU FEW020 BKN100 27/16 Q1008 NOSIG,M
VABB,2022-03-22 02:00,82.40,59.00,45.07,360.00,5.00,0.00,29.77,M,1.86,M,FEW,BKN,M,M,2000.00,10000.00,M,M,FU,M,M,M,M,M,M,82.46,VABB 220200Z 36005KT 3000 FU FEW020 BKN100 28/15 Q1008 NOSIG,M
VABB,2022-03-22 02:30,82.40,60.80,48.05,150.00,4.00,0.00,29.77,M,1.86,M,FEW,BKN,M,M,2000.00,10000.00,M,M,FU,M,M,M,M,M,M,82.90,VABB 220230Z 15004KT 3000 FU FEW020 BKN100 28/16 Q1008 NOSIG,M
VABB,2022-03-22 03:00,82.40,60.80,48.05,190.00,3.00,0.00,29.80,M,1.86,M,SCT,BKN,M,M,2000.00,10000.00,M,M,FU,M,M,M,M,M,M,82.90,VABB 220300Z 19003KT 3000 FU SCT020 BKN100 28/16 Q1009 NOSIG,M
VABB,2022-03-22 03:30,84.20,59.00,42.52,0.00,0.00,0.00,29.80,M,1.86,M,SCT,BKN,M,M,2000.00,10000.00,M,M,FU,M,M,M,M,M,M,83.92,VABB 220330Z 00000KT 3000 FU SCT020 BKN100 29/15 Q1009 NOSIG,M
VABB,2022-03-22 04:00,86.00,62.60,45.61,0.00,0.00,0.00,29.83,M,1.86,M,FEW,BKN,M,M,2000.00,10000.00,M,M,FU,M,M,M,M,M,M,86.72,VABB 220400Z 00000KT 3000 FU FEW020 BKN100 30/17 Q1010 NOSIG,M
VABB,2022-03-22 04:30,87.80,57.20,35.53,0.00,0.00,0.00,29.83,M,1.86,M,FEW,BKN,M,M,2000.00,10000.00,M,M,FU,M,M,M,M,M,M,86.58,VABB 220430Z 00000KT 3000 FU FEW020 BKN100 31/14 Q1010 NOSIG,M
VABB,2022-03-22 05:00,87.80,55.40,33.29,0.00,0.00,0.00,29.83,M,2.17,M,FEW,BKN,M,M,2000.00,10000.00,M,M,FU,M,M,M,M,M,M,86.11,VABB 220500Z 00000KT 3500 FU FEW020 BKN100 31/13 Q1010 NOSIG,M
VABB,2022-03-22 05:30,87.80,55.40,33.29,0.00,0.00,0.00,29.83,M,2.17,M,FEW,BKN,M,M,2000.00,10000.00,M,M,FU,M,M,M,M,M,M,86.11,VABB 220530Z 00000KT 3500 FU FEW020 BKN100 31/13 Q1010 NOSIG,M
VABB,2022-03-22 06:00,89.60,55.40,31.45,280.00,4.00,0.00,29.80,M,2.17,M,FEW,BKN,M,M,2000.00,10000.00,M,M,FU,M,M,M,M,M,M,87.78,VABB 220600Z 28004KT 3500 FU FEW020 BKN100 32/13 Q1009 NOSIG,M
VABB,2022-03-22 06:30,89.60,55.40,31.45,280.00,5.00,0.00,29.80,M,2.17,M,FEW,BKN,M,M,2000.00,10000.00,M,M,FU,M,M,M,M,M,M,87.78,VABB 220630Z 28005KT 3500 FU FEW020 BKN100 32/13 Q1009 NOSIG,M
VABB,2022-03-22 07:00,91.40,57.20,31.72,290.00,6.00,0.00,29.77,M,2.17,M,FEW,BKN,M,M,2000.00,10000.00,M,M,FU,M,M,M,M,M,M,90.06,VABB 220700Z 29006KT 3500 FU FEW020 BKN100 33/14 Q1008 NOSIG,M
VABB,2022-03-22 07:30,91.40,53.60,27.83,340.00,7.00,0.00,29.77,M,2.17,M,FEW,BKN,M,M,2000.00,10000.00,M,M,FU,M,M,M,M,M,M,89.08,VABB 220730Z 34007KT 3500 FU FEW020 BKN100 33/12 Q1008 NOSIG,M
VABB,2022-03-22 08:00,91.40,59.00,33.84,280.00,7.00,0.00,29.74,M,2.17,M,FEW,BKN,M,M,2000.00,10000.00,M,M,FU,M,M,M,M,M,M,90.68,VABB 220800Z 28007KT 3500 FU FEW020 BKN100 33/15 Q1007 NOSIG,M
VABB,2022-03-22 08:30,91.40,53.60,27.83,290.00,10.00,0.00,29.74,M,2.17,M,FEW,BKN,M,M,2000.00,10000.00,M,M,FU,M,M,M,M,M,M,89.08,VABB 220830Z 29010KT 3500 FU FEW020 BKN100 33/12 Q1007 NOSIG,M
VABB,2022-03-22 09:00,93.20,57.20,29.99,280.00,8.00,0.00,29.71,M,2.17,M,FEW,BKN,M,M,2000.00,10000.00,M,M,FU,M,M,M,M,M,M,91.91,VABB 220900Z 28008KT 3500 FU FEW020 BKN100 34/14 Q1006 NOSIG,M
VABB,2022-03-22 09:30,93.20,62.60,36.35,280.00,10.00,0.00,29.68,M,2.17,M,FEW,BKN,M,M,2000.00,10000.00,M,M,FU,M,M,M,M,M,M,94.20,VABB 220930Z 28010KT 3500 FU FEW020 BKN100 34/17 Q1005 NOSIG,M
VABB,2022-03-22 10:00,91.40,62.60,38.45,310.00,10.00,0.00,29.68,M,2.17,M,FEW,BKN,M,M,2000.00,10000.00,M,M,FU,M,M,M,M,M,M,92.23,VABB 221000Z 31010KT 3500 FU FEW020 BKN100 33/17 Q1005 NOSIG,M
VABB,2022-03-22 10:30,91.40,64.40,40.96,290.00,12.00,0.00,29.68,M,2.17,M,FEW,BKN,M,M,2000.00,10000.00,M,M,FU,M,M,M,M,M,M,93.19,VABB 221030Z 29012KT 3500 FU FEW020 BKN100 33/18 Q1005 NOSIG,M
VABB,2022-03-22 11:00,91.40,62.60,38.45,290.00,8.00,0.00,29.68,M,2.17,M,FEW,BKN,M,M,2000.00,10000.00,M,M,FU,M,M,M,M,M,M,92.23,VABB 221100Z 29008KT 3500 FU FEW020 BKN100 33/17 Q1005 NOSIG,M
VABB,2022-03-22 11:30,91.40,60.80,36.08,290.00,8.00,0.00,29.68,M,2.17,M,FEW,BKN,M,M,2000.00,10000.00,M,M,FU,M,M,M,M,M,M,91.40,VABB 221130Z 29008KT 3500 FU FEW020 BKN100 33/16 Q1005 NOSIG,M
VABB,2022-03-22 12:00,91.40,62.60,38.45,320.00,8.00,0.00,29.68,M,2.17,M,FEW,BKN,M,M,2000.00,10000.00,M,M,FU,M,M,M,M,M,M,92.23,VABB 221200Z 32008KT 3500 FU FEW020 BKN100 33/17 Q1005 NOSIG,M
VABB,2022-03-22 12:30,89.60,62.60,40.69,320.00,6.00,0.00,29.68,M,2.17,M,FEW,BKN,M,M,2000.00,10000.00,M,M,FU,M,M,M,M,M,M,90.32,VABB 221230Z 32006KT 3500 FU FEW020 BKN100 32/17 Q1005 NOSIG,M
VABB,2022-03-22 13:00,89.60,60.80,38.18,330.00,4.00,0.00,29.68,M,2.17,M,FEW,BKN,M,M,2000.00,10000.00,M,M,FU,M,M,M,M,M,M,89.54,VABB 221300Z 33004KT 3500 FU FEW020 BKN100 32/16 Q1005 NOSIG,M
VABB,2022-03-22 13:30,89.60,59.00,35.81,350.00,8.00,0.00,29.71,M,2.17,M,FEW,BKN,M,M,2000.00,10000.00,M,M,FU,M,M,M,M,M,M,88.86,VABB 221330Z 35008KT 3500 FU FEW020 BKN100 32/15 Q1006 BECMG 3000 FU,M
VABB,2022-03-22 14:00,89.60,57.20,33.56,340.00,3.00,0.00,29.71,M,1.86,M,FEW,BKN,M,M,2000.00,10000.00,M,M,FU,M,M,M,M,M,M,88.28,VABB 221400Z 34003KT 3000 FU FEW020 BKN100 32/14 Q1006 NOSIG,M
VABB,2022-03-22 14:30,89.60,57.20,33.56,40.00,5.00,0.00,29.71,M,1.86,M,FEW,BKN,M,M,2000.00,10000.00,M,M,FU,M,M,M,M,M,M,88.28,VABB 221430Z 04005KT 3000 FU FEW020 BKN100 32/14 Q1006 NOSIG,M
VABB,2022-03-22 15:00,89.60,51.80,27.56,10.00,8.00,0.00,29.71,M,1.86,M,FEW,BKN,M,M,2000.00,10000.00,M,M,FU,M,M,M,M,M,M,87.00,VABB 221500Z 01008KT 3000 FU FEW020 BKN100 32/11 Q1006 NOSIG,M
VABB,2022-03-22 15:30,89.60,48.20,24.11,300.00,7.00,0.00,29.74,M,1.86,M,FEW,BKN,M,M,2000.00,10000.00,M,M,FU,M,M,M,M,M,M,86.44,VABB 221530Z 30007KT 3000 FU FEW020 BKN100 32/09 Q1007 NOSIG,M
VABB,2022-03-22 16:00,89.60,48.20,24.11,20.00,5.00,0.00,29.74,M,1.86,M,FEW,SCT,M,M,2000.00,10000.00,M,M,FU,M,M,M,M,M,M,86.44,VABB 221600Z 02005KT 3000 FU FEW020 SCT100 32/09 Q1007 NOSIG,M
VABB,2022-03-22 16:30,89.60,48.20,24.11,0.00,0.00,0.00,29.77,M,1.86,M,FEW,SCT,M,M,2000.00,10000.00,M,M,FU,M,M,M,M,M,M,86.44,VABB 221630Z 00000KT 3000 FU FEW020 SCT100 32/09 Q1008 NOSIG,M
VABB,2022-03-22 17:00,87.80,51.80,29.18,0.00,0.00,0.00,29.77,M,1.86,M,FEW,BKN,M,M,2000.00,10000.00,M,M,FU,M,M,M,M,M,M,85.39,VABB 221700Z 00000KT 3000 FU FEW020 BKN100 31/11 Q1008 NOSIG,M
VABB,2022-03-22 17:30,87.80,51.80,29.18,0.00,0.00,0.00,29.77,M,1.86,M,FEW,BKN,M,M,2000.00,10000.00,M,M,FU,M,M,M,M,M,M,85.39,VABB 221730Z 00000KT 3000 FU FEW020 BKN100 31/11 Q1008 NOSIG,M
VABB,2022-03-22 18:00,86.00,55.40,35.25,330.00,6.00,0.00,29.74,M,1.86,M,FEW,BKN,M,M,2000.00,10000.00,M,M,FU,M,M,M,M,M,M,84.54,VABB 221800Z 33006KT 3000 FU FEW020 BKN100 30/13 Q1007 NOSIG,M
VABB,2022-03-22 18:30,86.00,59.00,40.14,360.00,4.00,0.00,29.74,M,1.86,M,FEW,BKN,M,M,2000.00,10000.00,M,M,FU,M,M,M,M,M,M,85.47,VABB 221830Z 36004KT 3000 FU FEW020 BKN100 30/15 Q1007 NOSIG,M
VABB,2022-03-22 19:00,84.20,60.80,45.34,330.00,4.00,0.00,29.74,M,1.86,M,SCT,M,M,M,10000.00,M,M,M,FU,M,M,M,M,M,M,84.43,VABB 221900Z 33004KT 3000 FU SCT100 29/16 Q1007 NOSIG,M
VABB,2022-03-22 19:30,84.20,64.40,51.47,320.00,4.00,0.00,29.74,M,1.86,M,SCT,M,M,M,10000.00,M,M,M,FU,M,M,M,M,M,M,85.71,VABB 221930Z 32004KT 3000 FU SCT100 29/18 Q1007 NOSIG,M
VABB,2022-03-22 20:00,82.40,64.40,54.55,320.00,5.00,0.00,29.74,M,1.86,M,NSC,M,M,M,M,M,M,M,FU,M,M,M,M,M,M,83.98,VABB 222000Z 32005KT 3000 FU NSC 28/18 Q1007 NOSIG,M
VABB,2022-03-22 20:30,82.40,62.60,51.21,330.00,5.00,0.00,29.71,M,1.86,M,NSC,M,M,M,M,M,M,M,FU,M,M,M,M,M,M,83.41,VABB 222030Z 33005KT 3000 FU NSC 28/17 Q1006 NOSIG,M
VABB,2022-03-22 21:00,82.40,62.60,51.21,0.00,0.00,0.00,29.71,M,1.86,M,NSC,M,M,M,M,M,M,M,FU,M,M,M,M,M,M,83.41,VABB 222100Z 00000KT 3000 FU NSC 28/17 Q1006 NOSIG,M
VABB,2022-03-22 21:30,82.40,60.80,48.05,330.00,4.00,0.00,29.71,M,1.86,M,NSC,M,M,M,M,M,M,M,FU,M,M,M,M,M,M,82.90,VABB 222130Z 33004KT 3000 FU NSC 28/16 Q1006 NOSIG,M
VABB,2022-03-22 22:00,82.40,60.80,48.05,320.00,3.00,0.00,29.71,M,1.86,M,NSC,M,M,M,M,M,M,M,FU,M,M,M,M,M,M,82.90,VABB 222200Z 32003KT 3000 FU NSC 28/16 Q1006 NOSIG,M
VABB,2022-03-22 22:30,82.40,57.20,42.25,330.00,5.00,0.00,29.71,M,1.86,M,NSC,M,M,M,M,M,M,M,FU,M,M,M,M,M,M,82.08,VABB 222230Z 33005KT 3000 FU NSC 28/14 Q1006 NOSIG,M
VABB,2022-03-22 23:00,82.40,57.20,42.25,310.00,3.00,0.00,29.71,M,1.86,M,NSC,M,M,M,M,M,M,M,FU,M,M,M,M,M,M,82.08,VABB 222300Z 31003KT 3000 FU NSC 28/14 Q1006 NOSIG,M
VABB,2022-03-22 23:30,82.40,53.60,37.07,50.00,4.00,0.00,29.71,M,1.86,M,NSC,M,M,M,M,M,M,M,FU,M,M,M,M,M,M,81.46,VABB 222330Z 05004KT 3000 FU NSC 28/12 Q1006 NOSIG,M
VABB,2022-03-23 00:00,82.40,53.60,37.07,0.00,0.00,0.00,29.71,M,1.86,M,NSC,M,M,M,M,M,M,M,FU,M,M,M,M,M,M,81.46,VABB 230000Z 00000KT 3000 FU NSC 28/12 Q1006 NOSIG,M
VABB,2022-03-23 00:30,80.60,53.60,39.30,0.00,0.00,0.00,29.71,M,1.86,M,NSC,M,M,M,M,M,M,M,FU,M,M,M,M,M,M,80.29,VABB 230030Z 00000KT 3000 FU NSC 27/12 Q1006 NOSIG,M
VABB,2022-03-23 01:00,82.40,51.80,34.69,0.00,0.00,0.00,29.74,M,1.86,M,FEW,M,M,M,10000.00,M,M,M,FU,M,M,M,M,M,M,81.20,VABB 230100Z 00000KT 3000 FU FEW100 28/11 Q1007 NOSIG,M
VABB,2022-03-23 01:30,82.40,51.80,34.69,0.00,0.00,0.00,29.74,M,1.86,M,SCT,M,M,M,10000.00,M,M,M,FU,M,M,M,M,M,M,81.20,VABB 230130Z 00000KT 3000 FU SCT100 28/11 Q1007 NOSIG,M
VABB,2022-03-23 02:00,80.60,51.80,36.79,250.00,3.00,0.00,29.74,M,1.86,M,SCT,M,M,M,10000.00,M,M,M,FU,M,M,M,M,M,M,80.08,VABB 230200Z 25003KT 3000 FU SCT100 27/11 Q1007 NOSIG,M
VABB,2022-03-23 02:30,84.20,50.00,30.62,0.00,0.00,0.00,29.77,M,1.86,M,BKN,M,M,M,10000.00,M,M,M,FU,M,M,M,M,M,M,82.24,VABB 230230Z 00000KT 3000 FU BKN100 29/10 Q1008 NOSIG,M
VABB,2022-03-23 03:00,86.00,46.40,25.26,320.00,4.00,0.00,29.77,M,1.86,M,BKN,M,M,M,10000.00,M,M,M,FU,M,M,M,M,M,M,83.22,VABB 230300Z 32004KT 3000 FU BKN100 30/08 Q1008 NOSIG,M
VABB,2022-03-23 03:30,87.80,46.40,23.85,0.00,0.00,0.00,29.80,M,1.86,M,FEW,SCT,M,M,2000.00,10000.00,M,M,FU,M,M,M,M,M,M,84.68,VABB 230330Z 00000KT 3000 FU FEW020 SCT100 31/08 Q1009 NOSIG,M
VABB,2022-03-23 04:00,89.60,44.60,21.04,0.00,0.00,0.00,29.80,M,1.86,M,FEW,SCT,M,M,2000.00,10000.00,M,M,FU,M,M,M,M,M,M,86.07,VABB 230400Z 00000KT 3000 FU FEW020 SCT100 32/07 Q1009 NOSIG,M
VABB,2022-03-23 04:30,93.20,42.80,17.55,M,3.00,0.00,29.80,M,2.17,M,FEW,SCT,M,M,2000.00,10000.00,M,M,FU,M,M,M,M,M,M,89.17,VABB 230430Z VRB03KT 3500 FU FEW020 SCT100 34/06 Q1009 NOSIG,M
VABB,2022-03-23 05:00,93.20,41.00,16.37,0.00,0.00,0.00,29.80,M,2.17,M,FEW,SCT,M,M,2000.00,10000.00,M,M,FU,M,M,M,M,M,M,89.03,VABB 230500Z 00000KT 3500 FU FEW020 SCT100 34/05 Q1009 NOSIG,M
VABB,2022-03-23 05:30,95.00,39.20,14.44,270.00,4.00,0.00,29.80,M,2.17,M,FEW,SCT,M,M,2000.00,10000.00,M,M,FU,M,M,M,M,M,M,90.57,VABB 230530Z 27004KT 3500 FU FEW020 SCT100 35/04 Q1009 NOSIG,M
VABB,2022-03-23 06:00,96.80,37.40,12.73,240.00,3.00,0.00,29.77,M,2.17,M,FEW,SCT,M,M,2000.00,10000.00,M,M,FU,M,M,M,M,M,M,92.04,VABB 230600Z 24003KT 3500 FU FEW020 SCT100 36/03 Q1008 NOSIG,M
VABB,2022-03-23 06:30,98.60,39.20,12.94,310.00,5.00,0.00,29.77,M,2.49,M,FEW,SCT,M,M,2000.00,10000.00,M,M,FU,M,M,M,M,M,M,93.89,VABB 230630Z 31005KT 4000 FU FEW020 SCT100 37/04 Q1008 NOSIG,M
VABB,2022-03-23 07:00,100.40,35.60,10.63,330.00,5.00,0.00,29.74,M,2.49,M,FEW,SCT,M,M,2000.00,10000.00,M,M,FU,M,M,M,M,M,M,94.76,VABB 230700Z 33005KT 4000 FU FEW020 SCT100 38/02 Q1007 NOSIG,M
VABB,2022-03-23 07:30,96.80,53.60,23.55,220.00,7.00,0.00,29.71,M,2.49,M,FEW,SCT,M,M,2000.00,10000.00,M,M,FU,M,M,M,M,M,M,94.59,VABB 230730Z 22007KT 4000 FU FEW020 SCT100 36/12 Q1006 NOSIG,M
VABB,2022-03-23 08:00,96.80,57.20,26.84,250.00,9.00,0.00,29.71,M,2.49,M,FEW,SCT,M,M,2000.00,10000.00,M,M,FU,M,M,M,M,M,M,95.77,VABB 230800Z 25009KT 4000 FU FEW020 SCT100 36/14 Q1006 NOSIG,M
VABB,2022-03-23 08:30,96.80,55.40,25.15,270.00,11.00,0.00,29.68,M,2.49,M,FEW,SCT,M,M,2000.00,10000.00,M,M,FU,M,M,M,M,M,M,95.14,VABB 230830Z 27011KT 4000 FU FEW020 SCT100 36/13 Q1005 NOSIG,M
VABB,2022-03-23 09:00,95.00,57.20,28.37,280.00,15.00,0.00,29.68,M,2.49,M,FEW,SCT,M,M,2000.00,10000.00,M,M,FU,M,M,M,M,M,M,93.82,VABB 230900Z 28015KT 4000 FU FEW020 SCT100 35/14 Q1005 NOSIG,M
VABB,2022-03-23 09:30,95.00,59.00,30.26,280.00,16.00,0.00,29.65,M,2.49,M,FEW,SCT,M,M,2000.00,10000.00,M,M,FU,M,M,M,M,M,M,94.51,VABB 230930Z 28016KT 4000 FU FEW020 SCT100 35/15 Q1004 NOSIG,M
VABB,2022-03-23 10:00,95.00,53.60,24.89,300.00,14.00,0.00,29.65,M,2.49,M,FEW,SCT,M,M,2000.00,10000.00,M,M,FU,M,M,M,M,M,M,92.71,VABB 231000Z 30014KT 4000 FU FEW020 SCT100 35/12 Q1004 NOSIG,M
VABB,2022-03-23 10:30,93.20,57.20,29.99,290.00,14.00,0.00,29.62,M,2.49,M,FEW,SCT,M,M,2000.00,10000.00,M,M,FU,M,M,M,M,M,M,91.91,VABB 231030Z 29014KT 4000 FU FEW020 SCT100 34/14 Q1003 NOSIG,M
VABB,2022-03-23 11:00,91.40,57.20,31.72,300.00,15.00,0.00,29.62,M,2.17,M,FEW,SCT,M,M,2000.00,10000.00,M,M,FU,M,M,M,M,M,M,90.06,VABB 231100Z 30015KT 3500 FU FEW020 SCT100 33/14 Q1003 NOSIG,M
VABB,2022-03-23 11:30,89.60,59.00,35.81,290.00,12.00,0.00,29.62,M,2.17,M,FEW,SCT,M,M,2000.00,10000.00,M,M,FU,M,M,M,M,M,M,88.86,VABB 231130Z 29012KT 3500 FU FEW020 SCT100 32/15 Q1003 NOSIG,M
VABB,2022-03-23 12:00,91.40,55.40,29.72,330.00,10.00,0.00,29.65,M,2.17,M,FEW,SCT,M,M,2000.00,10000.00,M,M,FU,M,M,M,M,M,M,89.53,VABB 231200Z 33010KT 3500 FU FEW020 SCT100 33/13 Q1004 NOSIG,M
VABB,2022-03-23 12:30,91.40,55.40,29.72,320.00,7.00,0.00,29.65,M,2.17,M,FEW,SCT,M,M,2000.00,10000.00,M,M,FU,M,M,M,M,M,M,89.53,VABB 231230Z 32007KT 3500 FU FEW020 SCT100 33/13 Q1004 NOSIG,M
VABB,2022-03-23 13:00,89.60,57.20,33.56,310.00,6.00,0.00,29.65,M,1.86,M,SCT,M,M,M,10000.00,M,M,M,FU,M,M,M,M,M,M,88.28,VABB 231300Z 31006KT 3000 FU SCT100 32/14 Q1004 NOSIG,M
VABB,2022-03-23 13:30,89.60,55.40,31.45,340.00,9.00,0.00,29.68,M,1.86,M,SCT,M,M,M,10000.00,M,M,M,FU,M,M,M,M,M,M,87.78,VABB 231330Z 34009KT 3000 FU SCT100 32/13 Q1005 NOSIG,M
VABB,2022-03-23 14:00,89.60,55.40,31.45,110.00,5.00,0.00,29.68,M,1.86,M,SCT,M,M,M,10000.00,M,M,M,FU,M,M,M,M,M,M,87.78,VABB 231400Z 11005KT 3000 FU SCT100 32/13 Q1005 NOSIG,M
VABB,2022-03-23 14:30,89.60,55.40,31.45,30.00,5.00,0.00,29.68,M,1.86,M,SCT,M,M,M,10000.00,M,M,M,FU,M,M,M,M,M,M,87.78,VABB 231430Z 03005KT 3000 FU SCT100 32/13 Q1005 NOSIG,M
VABB,2022-03-23 15:00,91.40,51.80,26.05,80.00,8.00,0.00,29.71,M,1.86,M,SCT,M,M,M,10000.00,M,M,M,FU,M,M,M,M,M,M,88.69,VABB 231500Z 08008KT 3000 FU SCT100 33/11 Q1006 NOSIG,M
VABB,2022-03-23 15:30,91.40,50.00,24.37,340.00,10.00,0.00,29.71,M,1.86,M,FEW,M,M,M,10000.00,M,M,M,FU,M,M,M,M,M,M,88.36,VABB 231530Z 34010KT 3000 FU FEW100 33/10 Q1006 NOSIG,M
VABB,2022-03-23 16:00,91.40,50.00,24.37,50.00,8.00,0.00,29.71,M,1.86,M,FEW,M,M,M,10000.00,M,M,M,FU,M,M,M,M,M,M,88.36,VABB 231600Z 05008KT 3000 FU FEW100 33/10 Q1006 NOSIG,M
VABB,2022-03-23 16:30,91.40,48.20,22.78,40.00,5.00,0.00,29.74,M,1.86,M,FEW,M,M,M,10000.00,M,M,M,FU,M,M,M,M,M,M,88.09,VABB 231630Z 04005KT 3000 FU FEW100 33/09 Q1007 NOSIG,M
VABB,2022-03-23 17:00,89.60,51.80,27.56,150.00,5.00,0.00,29.74,M,1.86,M,SCT,M,M,M,10000.00,M,M,M,FU,M,M,M,M,M,M,87.00,VABB 231700Z 15005KT 3000 FU SCT100 32/11 Q1007 NOSIG,M
VABB,2022-03-23 17:30,87.80,55.40,33.29,180.00,5.00,0.00,29.74,M,1.86,M,SCT,M,M,M,10000.00,M,M,M,FU,M,M,M,M,M,M,86.11,VABB 231730Z 18005KT 3000 FU SCT100 31/13 Q1007 NOSIG,M
VABB,2022-03-23 18:00,87.80,53.60,31.17,170.00,4.00,0.00,29.74,M,1.86,M,SCT,M,M,M,10000.00,M,M,M,FU,M,M,M,M,M,M,85.72,VABB 231800Z 17004KT 3000 FU SCT100 31/12 Q1007 NOSIG,M
VABB,2022-03-23 18:30,87.80,55.40,33.29,220.00,6.00,0.00,29.74,M,1.86,M,SCT,M,M,M,10000.00,M,M,M,FU,M,M,M,M,M,M,86.11,VABB 231830Z 22006KT 3000 FU SCT100 31/13 Q1007 NOSIG,M
VABB,2022-03-23 19:00,86.00,60.80,42.80,240.00,5.00,0.00,29.74,M,1.86,M,SCT,M,M,M,10000.00,M,M,M,FU,M,M,M,M,M,M,86.05,VABB 231900Z 24005KT 3000 FU SCT100 30/16 Q1007 NOSIG,M
VABB,2022-03-23 19:30,84.20,71.60,65.95,220.00,6.00,0.00,29.74,M,1.86,M,SCT,M,M,M,10000.00,M,M,M,HZ,M,M,M,M,M,M,89.60,VABB 231930Z 22006KT 3000 HZ SCT100 29/22 Q1007 NOSIG,M
VABB,2022-03-23 20:00,84.20,71.60,65.95,250.00,7.00,0.00,29.74,M,1.86,M,SCT,M,M,M,10000.00,M,M,M,HZ,M,M,M,M,M,M,89.60,VABB 232000Z 25007KT 3000 HZ SCT100 29/22 Q1007 NOSIG,M
VABB,2022-03-23 20:30,84.20,68.00,58.32,230.00,4.00,0.00,29.71,M,1.86,M,SCT,M,M,M,10000.00,M,M,M,FU,M,M,M,M,M,M,87.40,VABB 232030Z 23004KT 3000 FU SCT100 29/20 Q1006 NOSIG,M
VABB,2022-03-23 21:00,84.20,69.80,62.03,0.00,0.00,0.00,29.71,M,1.86,M,SCT,M,M,M,10000.00,M,M,M,HZ,M,M,M,M,M,M,88.43,VABB 232100Z 00000KT 3000 HZ SCT100 29/21 Q1006 NOSIG,M
VABB,2022-03-23 21:30,84.20,66.20,54.80,300.00,5.00,0.00,29.68,M,1.86,M,SCT,M,M,M,10000.00,M,M,M,FU,M,M,M,M,M,M,86.50,VABB 232130Z 30005KT 3000 FU SCT100 29/19 Q1005 NOSIG,M
VABB,2022-03-23 22:00,84.20,68.00,58.32,0.00,0.00,0.00,29.68,M,1.86,M,SCT,M,M,M,10000.00,M,M,M,HZ,M,M,M,M,M,M,87.40,VABB 232200Z 00000KT 3000 HZ SCT100 29/20 Q1005 NOSIG,M
VABB,2022-03-23 22:30,82.40,69.80,65.74,260.00,5.00,0.00,29.68,M,1.86,M,SCT,M,M,M,10000.00,M,M,M,HZ,M,M,M,M,M,M,86.22,VABB 232230Z 26005KT 3000 HZ SCT100 28/21 Q1005 NOSIG,M
VABB,2022-03-23 23:00,82.40,69.80,65.74,350.00,3.00,0.00,29.68,M,1.86,M,SCT,M,M,M,10000.00,M,M,M,HZ,M,M,M,M,M,M,86.22,VABB 232300Z 35003KT 3000 HZ SCT100 28/21 Q1005 NOSIG,M
VABB,2022-03-23 23:30,84.20,69.80,62.03,0.00,0.00,0.00,29.68,M,1.86,M,SCT,M,M,M,10000.00,M,M,M,HZ,M,M,M,M,M,M,88.43,VABB 232330Z 00000KT 3000 HZ SCT100 29/21 Q1005 NOSIG,M
VABB,2022-03-24 00:00,82.40,69.80,65.74,360.00,5.00,0.00,29.68,M,1.86,M,SCT,M,M,M,10000.00,M,M,M,HZ,M,M,M,M,M,M,86.22,VABB 240000Z 36005KT 3000 HZ SCT100 28/21 Q1005 NOSIG,M
VABB,2022-03-24 00:30,82.40,69.80,65.74,40.00,4.00,0.00,29.68,M,1.86,M,SCT,M,M,M,10000.00,M,M,M,HZ,M,M,M,M,M,M,86.22,VABB 240030Z 04004KT 3000 HZ SCT100 28/21 Q1005 NOSIG,M
VABB,2022-03-24 01:00,84.20,68.00,58.32,40.00,3.00,0.00,29.71,M,1.86,M,SCT,M,M,M,10000.00,M,M,M,HZ,M,M,M,M,M,M,87.40,VABB 240100Z 04003KT 3000 HZ SCT100 29/20 Q1006 NOSIG,M
VABB,2022-03-24 01:30,84.20,68.00,58.32,0.00,0.00,0.00,29.71,M,1.86,M,BKN,M,M,M,10000.00,M,M,M,HZ,M,M,M,M,M,M,87.40,VABB 240130Z 00000KT 3000 HZ BKN100 29/20 Q1006 NOSIG,M
VABB,2022-03-24 02:00,82.40,71.60,69.90,200.00,4.00,0.00,29.74,M,1.86,M,BKN,M,M,M,10000.00,M,M,M,HZ,M,M,M,M,M,M,87.18,VABB 240200Z 20004KT 3000 HZ BKN100 28/22 Q1007 NOSIG,M
VABB,2022-03-24 02:30,82.40,71.60,69.90,220.00,3.00,0.00,29.74,M,1.86,M,BKN,M,M,M,10000.00,M,M,M,HZ,M,M,M,M,M,M,87.18,VABB 240230Z 22003KT 3000 HZ BKN100 28/22 Q1007 NOSIG,M
VABB,2022-03-24 03:00,84.20,69.80,62.03,0.00,0.00,0.00,29.77,M,1.86,M,BKN,M,M,M,10000.00,M,M,M,HZ,M,M,M,M,M,M,88.43,VABB 240300Z 00000KT 3000 HZ BKN100 29/21 Q1008 NOSIG,M
VABB,2022-03-24 03:30,86.00,62.60,45.61,330.00,3.00,0.00,29.77,M,1.86,M,BKN,M,M,M,10000.00,M,M,M,FU,M,M,M,M,M,M,86.72,VABB 240330Z 33003KT 3000 FU BKN100 30/17 Q1008 NOSIG,M
VABB,2022-03-24 04:00,87.80,66.20,48.84,0.00,0.00,0.00,29.77,M,1.86,M,BKN,M,M,M,10000.00,M,M,M,FU,M,M,M,M,M,M,90.31,VABB 240400Z 00000KT 3000 FU BKN100 31/19 Q1008 NOSIG,M
VABB,2022-03-24 04:30,89.60,62.60,40.69,270.00,3.00,0.00,29.77,M,1.86,M,BKN,M,M,M,10000.00,M,M,M,FU,M,M,M,M,M,M,90.32,VABB 240430Z 27003KT 3000 FU BKN100 32/17 Q1008 NOSIG,M
VABB,2022-03-24 05:00,89.60,64.40,43.34,150.00,3.00,0.00,29.77,M,1.86,M,BKN,M,M,M,10000.00,M,M,M,FU,M,M,M,M,M,M,91.23,VABB 240500Z 15003KT 3000 FU BKN100 32/18 Q1008 NOSIG,M
VABB,2022-03-24 05:30,89.60,60.80,38.18,80.00,4.00,0.00,29.77,M,1.86,M,BKN,M,M,M,10000.00,M,M,M,FU,M,M,M,M,M,M,89.54,VABB 240530Z 08004KT 3000 FU BKN100 32/16 Q1008 NOSIG,M
VABB,2022-03-24 06:00,93.20,60.80,34.11,0.00,0.00,0.00,29.77,M,1.86,M,SCT,M,M,M,10000.00,M,M,M,FU,M,M,M,M,M,M,93.32,VABB 240600Z 00000KT 3000 FU SCT100 34/16 Q1008 NOSIG,M
VABB,2022-03-24 06:30,93.20,59.00,31.99,220.00,3.00,0.00,29.74,M,1.86,M,SCT,M,M,M,10000.00,M,M,M,FU,M,M,M,M,M,M,92.57,VABB 240630Z 22003KT 3000 FU SCT100 34/15 Q1007 NOSIG,M
VABB,2022-03-24 07:00,93.20,64.40,38.73,210.00,5.00,0.00,29.74,M,1.86,M,SCT,M,M,M,10000.00,M,M,M,FU,M,M,M,M,M,M,95.20,VABB 240700Z 21005KT 3000 FU SCT100 34/18 Q1007 NOSIG,M
VABB,2022-03-24 07:30,91.40,66.20,43.61,210.00,9.00,0.00,29.71,M,1.86,M,SCT,M,M,M,10000.00,M,M,M,FU,M,M,M,M,M,M,94.29,VABB 240730Z 21009KT 3000 FU SCT100 33/19 Q1006 NOSIG,M
VABB,2022-03-24 08:00,89.60,71.60,55.53,240.00,11.00,0.00,29.71,M,1.86,M,SCT,M,M,M,10000.00,M,M,M,FU,M,M,M,M,M,M,96.41,VABB 240800Z 24011KT 3000 FU SCT100 32/22 Q1006 NOSIG,M
VABB,2022-03-24 08:30,89.60,69.80,52.23,220.00,11.00,0.00,29.71,M,1.86,M,SCT,M,M,M,10000.00,M,M,M,FU,M,M,M,M,M,M,94.85,VABB 240830Z 22011KT 3000 FU SCT100 32/21 Q1006 NOSIG,M
VABB,2022-03-24 09:00,87.80,71.60,58.78,220.00,10.00,0.00,29.71,M,1.86,M,FEW,SCT,M,M,2000.00,10000.00,M,M,FU,M,M,M,M,M,M,94.18,VABB 240900Z 22010KT 3000 FU FEW020 SCT100 31/22 Q1006 NOSIG,M
VABB,2022-03-24 09:30,87.80,64.40,45.88,210.00,10.00,0.00,29.68,M,1.86,M,FEW,BKN,M,M,2000.00,10000.00,M,M,FU,M,M,M,M,M,M,89.33,VABB 240930Z 21010KT 3000 FU FEW020 BKN100 31/18 Q1005 NOSIG,M
VABB,2022-03-24 10:00,89.60,59.00,35.81,210.00,11.00,0.00,29.68,M,1.86,M,FEW,BKN,M,M,2000.00,10000.00,M,M,FU,M,M,M,M,M,M,88.86,VABB 241000Z 21011KT 3000 FU FEW020 BKN100 32/15 Q1005 NOSIG,M
VABB,2022-03-24 10:30,89.60,59.00,35.81,230.00,8.00,0.00,29.68,M,1.86,M,FEW,BKN,M,M,2000.00,10000.00,M,M,FU,M,M,M,M,M,M,88.86,VABB 241030Z 23008KT 3000 FU FEW020 BKN100 32/15 Q1005 NOSIG,M
VABB,2022-03-24 11:00,87.80,60.80,40.41,250.00,7.00,0.00,29.68,M,1.86,M,FEW,BKN,M,M,2000.00,10000.00,M,M,FU,M,M,M,M,M,M,87.75,VABB 241100Z 25007KT 3000 FU FEW020 BKN100 31/16 Q1005 NOSIG,M
VABB,2022-03-24 11:30,87.80,60.80,40.41,240.00,6.00,0.00,29.68,M,1.86,M,FEW,BKN,M,M,2000.00,10000.00,M,M,FU,M,M,M,M,M,M,87.75,VABB 241130Z 24006KT 3000 FU FEW020 BKN100 31/16 Q1005 NOSIG,M
VABB,2022-03-24 12:00,87.80,60.80,40.41,260.00,6.00,0.00,29.68,M,1.86,M,FEW,BKN,M,M,2000.00,10000.00,M,M,FU,M,M,M,M,M,M,87.75,VABB 241200Z 26006KT 3000 FU FEW020 BKN100 31/16 Q1005 NOSIG,M
VABB,2022-03-24 12:30,87.80,60.80,40.41,260.00,6.00,0.00,29.68,M,1.86,M,FEW,BKN,M,M,2000.00,10000.00,M,M,FU,M,M,M,M,M,M,87.75,VABB 241230Z 26006KT 3000 FU FEW020 BKN100 31/16 Q1005 NOSIG,M
VABB,2022-03-24 13:00,86.00,64.40,48.58,260.00,7.00,0.00,29.71,M,1.86,M,FEW,BKN,M,M,2000.00,10000.00,M,M,FU,M,M,M,M,M,M,87.49,VABB 241300Z 26007KT 3000 FU FEW020 BKN100 30/18 Q1006 NOSIG,M
VABB,2022-03-24 13:30,86.00,64.40,48.58,250.00,6.00,0.00,29.71,M,1.86,M,FEW,BKN,M,M,2000.00,10000.00,M,M,FU,M,M,M,M,M,M,87.49,VABB 241330Z 25006KT 3000 FU FEW020 BKN100 30/18 Q1006 NOSIG,M
VABB,2022-03-24 14:00,86.00,62.60,45.61,270.00,5.00,0.00,29.74,M,1.86,M,FEW,BKN,M,M,2000.00,10000.00,M,M,FU,M,M,M,M,M,M,86.72,VABB 241400Z 27005KT 3000 FU FEW020 BKN100 30/17 Q1007 NOSIG,M
VABB,2022-03-24 14:30,86.00,62.60,45.61,260.00,5.00,0.00,29.74,M,1.86,M,FEW,BKN,M,M,2000.00,10000.00,M,M,FU,M,M,M,M,M,M,86.72,VABB 241430Z 26005KT 3000 FU FEW020 BKN100 30/17 Q1007 NOSIG,M
VABB,2022-03-24 15:00,86.00,60.80,42.80,250.00,5.00,0.00,29.74,M,1.86,M,FEW,BKN,M,M,2000.00,10000.00,M,M,FU,M,M,M,M,M,M,86.05,VABB 241500Z 25005KT 3000 FU FEW020 BKN100 30/16 Q1007 NOSIG,M
VABB,2022-03-24 15:30,86.00,60.80,42.80,270.00,4.00,0.00,29.77,M,1.86,M,FEW,BKN,M,M,2000.00,10000.00,M,M,FU,M,M,M,M,M,M,86.05,VABB 241530Z 27004KT 3000 FU FEW020 BKN100 30/16 Q1008 NOSIG,M
VABB,2022-03-24 16:00,86.00,60.80,42.80,260.00,5.00,0.00,29.77,M,1.86,M,FEW,BKN,M,M,2000.00,10000.00,M,M,FU,M,M,M,M,M,M,86.05,VABB 241600Z 26005KT 3000 FU FEW020 BKN100 30/16 Q1008 NOSIG,M
VABB,2022-03-24 16:30,86.00,60.80,42.80,220.00,5.00,0.00,29.77,M,1.86,M,FEW,BKN,M,M,2000.00,10000.00,M,M,FU,M,M,M,M,M,M,86.05,VABB 241630Z 22005KT 3000 FU FEW020 BKN100 30/16 Q1008 NOSIG,M
VABB,2022-03-24 17:00,86.00,60.80,42.80,270.00,5.00,0.00,29.77,M,1.86,M,FEW,BKN,M,M,2000.00,10000.00,M,M,FU,M,M,M,M,M,M,86.05,VABB 241700Z 27005KT 3000 FU FEW020 BKN100 30/16 Q1008 NOSIG,M
VABB,2022-03-24 17:30,84.20,64.40,51.47,270.00,6.00,0.00,29.80,M,1.86,M,FEW,BKN,M,M,2000.00,10000.00,M,M,FU,M,M,M,M,M,M,85.71,VABB 241730Z 27006KT 3000 FU FEW020 BKN100 29/18 Q1009 NOSIG,M
VABB,2022-03-24 18:00,84.20,66.20,54.80,270.00,6.00,0.00,29.77,M,1.86,M,FEW,BKN,M,M,2000.00,10000.00,M,M,FU,M,M,M,M,M,M,86.50,VABB 241800Z 27006KT 3000 FU FEW020 BKN100 29/19 Q1008 NOSIG,M
VABB,2022-03-24 18:30,82.40,68.00,61.81,260.00,5.00,0.00,29.77,M,1.86,M,FEW,BKN,M,M,2000.00,10000.00,M,M,FU,M,M,M,M,M,M,85.38,VABB 241830Z 26005KT 3000 FU FEW020 BKN100 28/20 Q1008 NOSIG,M
VABB,2022-03-24 19:00,82.40,68.00,61.81,290.00,5.00,0.00,29.77,M,1.86,M,FEW,BKN,M,M,2000.00,10000.00,M,M,HZ,M,M,M,M,M,M,85.38,VABB 241900Z 29005KT 3000 HZ FEW020 BKN100 28/20 Q1008 NOSIG,M
VABB,2022-03-24 19:30,82.40,68.00,61.81,290.00,6.00,0.00,29.77,M,1.86,M,FEW,BKN,M,M,2000.00,10000.00,M,M,HZ,M,M,M,M,M,M,85.38,VABB 241930Z 29006KT 3000 HZ FEW020 BKN100 28/20 Q1008 NOSIG,M
VABB,2022-03-24 20:00,82.40,66.20,58.08,320.00,5.00,0.00,29.74,M,1.86,M,FEW,SCT,M,M,2000.00,10000.00,M,M,HZ,M,M,M,M,M,M,84.63,VABB 242000Z 32005KT 3000 HZ FEW020 SCT100 28/19 Q1007 NOSIG,M
VABB,2022-03-24 20:30,82.40,68.00,61.81,340.00,4.00,0.00,29.74,M,1.86,M,FEW,SCT,M,M,2000.00,10000.00,M,M,HZ,M,M,M,M,M,M,85.38,VABB 242030Z 34004KT 3000 HZ FEW020 SCT100 28/20 Q1007 NOSIG,M
VABB,2022-03-24 21:00,82.40,68.00,61.81,10.00,4.00,0.00,29.74,M,1.86,M,FEW,SCT,M,M,2000.00,10000.00,M,M,HZ,M,M,M,M,M,M,85.38,VABB 242100Z 01004KT 3000 HZ FEW020 SCT100 28/20 Q1007 NOSIG,M
VABB,2022-03-24 21:30,82.40,68.00,61.81,0.00,0.00,0.00,29.74,M,1.86,M,FEW,SCT,M,M,2000.00,10000.00,M,M,HZ,M,M,M,M,M,M,85.38,VABB 242130Z 00000KT 3000 HZ FEW020 SCT100 28/20 Q1007 NOSIG,M
VABB,2022-03-24 22:00,80.60,68.00,65.54,0.00,0.00,0.00,29.74,M,1.86,M,FEW,SCT,M,M,2000.00,10000.00,M,M,HZ,M,M,M,M,M,M,83.29,VABB 242200Z 00000KT 3000 HZ FEW020 SCT100 27/20 Q1007 NOSIG,M
VABB,2022-03-24 22:30,80.60,68.00,65.54,0.00,0.00,0.00,29.74,M,1.86,M,FEW,BKN,M,M,2000.00,10000.00,M,M,HZ,M,M,M,M,M,M,83.29,VABB 242230Z 00000KT 3000 HZ FEW020 BKN100 27/20 Q1007 NOSIG,M
VABB,2022-03-24 23:00,80.60,68.00,65.54,0.00,0.00,0.00,29.74,M,1.86,M,FEW,BKN,M,M,2000.00,10000.00,M,M,HZ,M,M,M,M,M,M,83.29,VABB 242300Z 00000KT 3000 HZ FEW020 BKN100 27/20 Q1007 NOSIG,M
VABB,2022-03-24 23:30,80.60,68.00,65.54,0.00,0.00,0.00,29.74,M,1.86,M,FEW,BKN,M,M,2000.00,10000.00,M,M,HZ,M,M,M,M,M,M,83.29,VABB 242330Z 00000KT 3000 HZ FEW020 BKN100 27/20 Q1007 NOSIG,M
VABB,2022-03-25 00:00,80.60,68.00,65.54,0.00,0.00,0.00,29.74,M,1.86,M,FEW,BKN,M,M,2000.00,10000.00,M,M,HZ,M,M,M,M,M,M,83.29,VABB 250000Z 00000KT 3000 HZ FEW020 BKN100 27/20 Q1007 NOSIG,M
VABB,2022-03-25 00:30,80.60,68.00,65.54,0.00,0.00,0.00,29.74,M,1.86,M,FEW,BKN,M,M,2000.00,10000.00,M,M,HZ,M,M,M,M,M,M,83.29,VABB 250030Z 00000KT 3000 HZ FEW020 BKN100 27/20 Q1007 NOSIG,M
VABB,2022-03-25 01:00,80.60,66.20,61.58,0.00,0.00,0.00,29.74,M,1.86,M,SCT,M,M,M,10000.00,M,M,M,HZ,M,M,M,M,M,M,82.75,VABB 250100Z 00000KT 3000 HZ SCT100 27/19 Q1007 NOSIG,M
VABB,2022-03-25 01:30,82.40,68.00,61.81,0.00,0.00,0.00,29.77,M,1.86,M,SCT,M,M,M,10000.00,M,M,M,HZ,M,M,M,M,M,M,85.38,VABB 250130Z 00000KT 3000 HZ SCT100 28/20 Q1008 NOSIG,M
VABB,2022-03-25 02:00,82.40,68.00,61.81,80.00,3.00,0.00,29.77,M,1.86,M,BKN,M,M,M,10000.00,M,M,M,HZ,M,M,M,M,M,M,85.38,VABB 250200Z 08003KT 3000 HZ BKN100 28/20 Q1008 NOSIG,M
VABB,2022-03-25 02:30,82.40,68.00,61.81,20.00,3.00,0.00,29.77,M,1.86,M,BKN,M,M,M,10000.00,M,M,M,FU,M,M,M,M,M,M,85.38,VABB 250230Z 02003KT 3000 FU BKN100 28/20 Q1008 NOSIG,M
VABB,2022-03-25 03:00,84.20,68.00,58.32,30.00,3.00,0.00,29.80,M,1.86,M,BKN,M,M,M,10000.00,M,M,M,FU,M,M,M,M,M,M,87.40,VABB 250300Z 03003KT 3000 FU BKN100 29/20 Q1009 NOSIG,M
VABB,2022-03-25 03:30,86.00,69.80,58.55,10.00,4.00,0.00,29.80,M,1.86,M,BKN,M,M,M,10000.00,M,M,M,FU,M,M,M,M,M,M,90.58,VABB 250330Z 01004KT 3000 FU BKN100 30/21 Q1009 NOSIG,M
VABB,2022-03-25 04:00,86.00,71.60,62.25,270.00,4.00,0.00,29.80,M,1.86,M,FEW,BKN,M,M,2000.00,10000.00,M,M,FU,M,M,M,M,M,M,91.92,VABB 250400Z 27004KT 3000 FU FEW020 BKN100 30/22 Q1009 NOSIG,M
VABB,2022-03-25 04:30,86.00,73.40,66.15,240.00,3.00,0.00,29.80,M,1.86,M,FEW,SCT,M,M,2000.00,10000.00,M,M,FU,M,M,M,M,M,M,93.45,VABB 250430Z 24003KT 3000 FU FEW020 SCT100 30/23 Q1009 NOSIG,M
VABB,2022-03-25 05:00,87.80,73.40,62.47,260.00,4.00,0.00,29.80,M,1.86,M,SCT,M,M,M,10000.00,M,M,M,FU,M,M,M,M,M,M,95.86,VABB 250500Z 26004KT 3000 FU SCT100 31/23 Q1009 NOSIG,M
VABB,2022-03-25 05:30,89.60,73.40,59.01,250.00,7.00,0.00,29.80,M,1.86,M,SCT,M,M,M,10000.00,M,M,M,FU,M,M,M,M,M,M,98.20,VABB 250530Z 25007KT 3000 FU SCT100 32/23 Q1009 NOSIG,M
VABB,2022-03-25 06:00,87.80,71.60,58.78,270.00,10.00,0.00,29.80,M,1.86,M,SCT,M,M,M,10000.00,M,M,M,FU,M,M,M,M,M,M,94.18,VABB 250600Z 27010KT 3000 FU SCT100 31/22 Q1009 NOSIG,M
VABB,2022-03-25 06:30,89.60,69.80,52.23,270.00,10.00,0.00,29.80,M,1.86,M,SCT,M,M,M,10000.00,M,M,M,FU,M,M,M,M,M,M,94.85,VABB 250630Z 27010KT 3000 FU SCT100 32/21 Q1009 NOSIG,M
VABB,2022-03-25 07:00,87.80,68.00,51.98,280.00,10.00,0.00,29.80,M,1.86,M,SCT,M,M,M,10000.00,M,M,M,FU,M,M,M,M,M,M,91.43,VABB 250700Z 28010KT 3000 FU SCT100 31/20 Q1009 NOSIG,M
VABB,2022-03-25 07:30,87.80,68.00,51.98,280.00,10.00,0.00,29.77,M,1.86,M,SCT,M,M,M,10000.00,M,M,M,FU,M,M,M,M,M,M,91.43,VABB 250730Z 28010KT 3000 FU SCT100 31/20 Q1008 NOSIG,M
VABB,2022-03-25 08:00,87.80,68.00,51.98,260.00,10.00,0.00,29.77,M,1.86,M,SCT,M,M,M,10000.00,M,M,M,FU,M,M,M,M,M,M,91.43,VABB 250800Z 26010KT 3000 FU SCT100 31/20 Q1008 NOSIG,M
VABB,2022-03-25 08:30,87.80,68.00,51.98,270.00,11.00,0.00,29.77,M,2.17,M,SCT,M,M,M,10000.00,M,M,M,FU,M,M,M,M,M,M,91.43,VABB 250830Z 27011KT 3500 FU SCT100 31/20 Q1008 BECMG 4000 FU,M
VABB,2022-03-25 09:00,87.80,64.40,45.88,270.00,11.00,0.00,29.74,M,2.49,M,SCT,M,M,M,10000.00,M,M,M,FU,M,M,M,M,M,M,89.33,VABB 250900Z 27011KT 4000 FU SCT100 31/18 Q1007 NOSIG,M
VABB,2022-03-25 09:30,87.80,66.20,48.84,280.00,9.00,0.00,29.74,M,2.49,M,SCT,M,M,M,10000.00,M,M,M,FU,M,M,M,M,M,M,90.31,VABB 250930Z 28009KT 4000 FU SCT100 31/19 Q1007 NOSIG,M
VABB,2022-03-25 10:00,87.80,64.40,45.88,260.00,11.00,0.00,29.71,M,2.80,M,FEW,M,M,M,10000.00,M,M,M,FU,M,M,M,M,M,M,89.33,VABB 251000Z 26011KT 4500 FU FEW100 31/18 Q1006 BECMG 5000 FU,M
VABB,2022-03-25 10:30,89.60,64.40,43.34,280.00,9.00,0.00,29.71,M,3.11,M,FEW,M,M,M,10000.00,M,M,M,FU,M,M,M,M,M,M,91.23,VABB 251030Z 28009KT 5000 FU FEW100 32/18 Q1006 NOSIG,M
VABB,2022-03-25 11:00,87.80,62.60,43.07,270.00,8.00,0.00,29.71,M,3.11,M,FEW,M,M,M,10000.00,M,M,M,FU,M,M,M,M,M,M,88.48,VABB 251100Z 27008KT 5000 FU FEW100 31/17 Q1006 NOSIG,M
VABB,2022-03-25 11:30,86.00,64.40,48.58,260.00,9.00,0.00,29.74,M,3.11,M,SCT,M,M,M,10000.00,M,M,M,FU,M,M,M,M,M,M,87.49,VABB 251130Z 26009KT 5000 FU SCT100 30/18 Q1007 NOSIG,M
VABB,2022-03-25 12:00,86.00,68.00,55.04,280.00,8.00,0.00,29.74,M,3.11,M,FEW,SCT,M,M,2000.00,10000.00,M,M,FU,M,M,M,M,M,M,89.41,VABB 251200Z 28008KT 5000 FU FEW020 SCT100 30/20 Q1007 BECMG 4000 FU,M
VABB,2022-03-25 12:30,84.20,68.00,58.32,280.00,7.00,0.00,29.74,M,2.49,M,FEW,SCT,M,M,2000.00,10000.00,M,M,FU,M,M,M,M,M,M,87.40,VABB 251230Z 28007KT 4000 FU FEW020 SCT100 29/20 Q1007 NOSIG,M
VABB,2022-03-25 13:00,84.20,66.20,54.80,280.00,7.00,0.00,29.77,M,2.49,M,FEW,SCT,M,M,2000.00,10000.00,M,M,FU,M,M,M,M,M,M,86.50,VABB 251300Z 28007KT 4000 FU FEW020 SCT100 29/19 Q1008 NOSIG,M
VABB,2022-03-25 13:30,84.20,66.20,54.80,280.00,5.00,0.00,29.77,M,2.49,M,SCT,M,M,M,10000.00,M,M,M,FU,M,M,M,M,M,M,86.50,VABB 251330Z 28005KT 4000 FU SCT100 29/19 Q1008 NOSIG,M
VABB,2022-03-25 14:00,84.20,66.20,54.80,260.00,5.00,0.00,29.80,M,2.49,M,FEW,M,M,M,10000.00,M,M,M,FU,M,M,M,M,M,M,86.50,VABB 251400Z 26005KT 4000 FU FEW100 29/19 Q1009 NOSIG,M
VABB,2022-03-25 14:30,84.20,64.40,51.47,260.00,5.00,0.00,29.80,M,2.49,M,FEW,M,M,M,10000.00,M,M,M,FU,M,M,M,M,M,M,85.71,VABB 251430Z 26005KT 4000 FU FEW100 29/18 Q1009 NOSIG,M
VABB,2022-03-25 15:00,84.20,66.20,54.80,230.00,5.00,0.00,29.83,M,2.49,M,FEW,M,M,M,10000.00,M,M,M,FU,M,M,M,M,M,M,86.50,VABB 251500Z 23005KT 4000 FU FEW100 29/19 Q1010 NOSIG,M
VABB,2022-03-25 15:30,84.20,66.20,54.80,240.00,4.00,0.00,29.83,M,2.49,M,FEW,M,M,M,10000.00,M,M,M,FU,M,M,M,M,M,M,86.50,VABB 251530Z 24004KT 4000 FU FEW100 29/19 Q1010 NOSIG,M
VABB,2022-03-25 16:00,84.20,68.00,58.32,240.00,4.00,0.00,29.83,M,2.49,M,FEW,M,M,M,10000.00,M,M,M,FU,M,M,M,M,M,M,87.40,VABB 251600Z 24004KT 4000 FU FEW100 29/20 Q1010 NOSIG,M
VABB,2022-03-25 16:30,84.20,69.80,62.03,200.00,4.00,0.00,29.83,M,2.49,M,FEW,M,M,M,10000.00,M,M,M,FU,M,M,M,M,M,M,88.43,VABB 251630Z 20004KT 4000 FU FEW100 29/21 Q1010 NOSIG,M
VABB,2022-03-25 17:00,84.20,69.80,62.03,240.00,4.00,0.00,29.85,M,2.17,M,FEW,M,M,M,10000.00,M,M,M,FU,M,M,M,M,M,M,88.43,VABB 251700Z 24004KT 3500 FU FEW100 29/21 Q1011 NOSIG,M
VABB,2022-03-25 17:30,84.20,71.60,65.95,220.00,4.00,0.00,29.85,M,2.17,M,FEW,M,M,M,10000.00,M,M,M,FU,M,M,M,M,M,M,89.60,VABB 251730Z 22004KT 3500 FU FEW100 29/22 Q1011 NOSIG,M
VABB,2022-03-25 18:00,84.20,69.80,62.03,220.00,3.00,0.00,29.83,M,2.17,M,FEW,M,M,M,10000.00,M,M,M,HZ,M,M,M,M,M,M,88.43,VABB 251800Z 22003KT 3500 HZ FEW100 29/21 Q1010 NOSIG,M
VABB,2022-03-25 18:30,84.20,71.60,65.95,190.00,4.00,0.00,29.83,M,2.17,M,FEW,M,M,M,10000.00,M,M,M,HZ,M,M,M,M,M,M,89.60,VABB 251830Z 19004KT 3500 HZ FEW100 29/22 Q1010 NOSIG,M
VABB,2022-03-25 19:00,82.40,71.60,69.90,150.00,4.00,0.00,29.83,M,2.17,M,FEW,M,M,M,10000.00,M,M,M,HZ,M,M,M,M,M,M,87.18,VABB 251900Z 15004KT 3500 HZ FEW100 28/22 Q1010 NOSIG,M
VABB,2022-03-25 19:30,82.40,73.40,74.28,240.00,3.00,0.00,29.83,M,2.17,M,FEW,M,M,M,10000.00,M,M,M,HZ,M,M,M,M,M,M,88.26,VABB 251930Z 24003KT 3500 HZ FEW100 28/23 Q1010 NOSIG,M
VABB,2022-03-25 20:00,82.40,73.40,74.28,200.00,4.00,0.00,29.80,M,2.17,M,FEW,M,M,M,10000.00,M,M,M,HZ,M,M,M,M,M,M,88.26,VABB 252000Z 20004KT 3500 HZ FEW100 28/23 Q1009 NOSIG,M
VABB,2022-03-25 20:30,82.40,73.40,74.28,0.00,0.00,0.00,29.80,M,2.17,M,FEW,M,M,M,10000.00,M,M,M,HZ,M,M,M,M,M,M,88.26,VABB 252030Z 00000KT 3500 HZ FEW100 28/23 Q1009 BECMG 3000 HZ,M
VABB,2022-03-25 21:00,82.40,73.40,74.28,240.00,4.00,0.00,29.80,M,1.86,M,FEW,M,M,M,10000.00,M,M,M,HZ,M,M,M,M,M,M,88.26,VABB 252100Z 24004KT 3000 HZ FEW100 28/23 Q1009 NOSIG,M
VABB,2022-03-25 21:30,82.40,75.20,78.90,240.00,3.00,0.00,29.80,M,1.86,M,SCT,M,M,M,10000.00,M,M,M,HZ,M,M,M,M,M,M,89.48,VABB 252130Z 24003KT 3000 HZ SCT100 28/24 Q1009 NOSIG,M
VABB,2022-03-25 22:00,82.40,77.00,83.77,270.00,5.00,0.00,29.80,M,1.86,M,SCT,M,M,M,10000.00,M,M,M,HZ,M,M,M,M,M,M,90.85,VABB 252200Z 27005KT 3000 HZ SCT100 28/25 Q1009 NOSIG,M
VABB,2022-03-25 22:30,82.40,77.00,83.77,290.00,5.00,0.00,29.80,M,1.86,M,SCT,M,M,M,10000.00,M,M,M,HZ,M,M,M,M,M,M,90.85,VABB 252230Z 29005KT 3000 HZ SCT100 28/25 Q1009 NOSIG,M
VABB,2022-03-25 23:00,82.40,77.00,83.77,300.00,3.00,0.00,29.80,M,1.86,M,SCT,M,M,M,10000.00,M,M,M,HZ,M,M,M,M,M,M,90.85,VABB 252300Z 30003KT 3000 HZ SCT100 28/25 Q1009 NOSIG,M
VABB,2022-03-25 23:30,82.40,75.20,78.90,280.00,4.00,0.00,29.80,M,1.86,M,SCT,M,M,M,10000.00,M,M,M,HZ,M,M,M,M,M,M,89.48,VABB 252330Z 28004KT 3000 HZ SCT100 28/24 Q1009 NOSIG,M
VABB,2022-03-26 00:00,82.40,75.20,78.90,290.00,3.00,0.00,29.80,M,1.86,M,SCT,M,M,M,10000.00,M,M,M,HZ,M,M,M,M,M,M,89.48,VABB 260000Z 29003KT 3000 HZ SCT100 28/24 Q1009 NOSIG,M
VABB,2022-03-26 00:30,82.40,75.20,78.90,270.00,4.00,0.00,29.80,M,1.86,M,SCT,M,M,M,10000.00,M,M,M,HZ,M,M,M,M,M,M,89.48,VABB 260030Z 27004KT 3000 HZ SCT100 28/24 Q1009 NOSIG,M
VABB,2022-03-26 01:00,82.40,75.20,78.90,290.00,3.00,0.00,29.83,M,1.86,M,SCT,M,M,M,10000.00,M,M,M,HZ,M,M,M,M,M,M,89.48,VABB 260100Z 29003KT 3000 HZ SCT100 28/24 Q1010 NOSIG,M
VABB,2022-03-26 01:30,82.40,75.20,78.90,360.00,4.00,0.00,29.83,M,1.86,M,SCT,M,M,M,10000.00,M,M,M,HZ,M,M,M,M,M,M,89.48,VABB 260130Z 36004KT 3000 HZ SCT100 28/24 Q1010 NOSIG,M
VABB,2022-03-26 02:00,82.40,75.20,78.90,40.00,5.00,0.00,29.85,M,1.86,M,SCT,M,M,M,10000.00,M,M,M,HZ,M,M,M,M,M,M,89.48,VABB 260200Z 04005KT 3000 HZ SCT100 28/24 Q1011 NOSIG,M
VABB,2022-03-26 02:30,80.60,75.20,83.66,30.00,5.00,0.00,29.85,M,1.86,M,SCT,M,M,M,10000.00,M,M,M,HZ,M,M,M,M,M,M,86.17,VABB 260230Z 03005KT 3000 HZ SCT100 27/24 Q1011 NOSIG,M
VABB,2022-03-26 03:00,82.40,75.20,78.90,190.00,4.00,0.00,29.88,M,1.86,M,SCT,M,M,M,10000.00,M,M,M,HZ,M,M,M,M,M,M,89.48,VABB 260300Z 19004KT 3000 HZ SCT100 28/24 Q1012 NOSIG,M
VABB,2022-03-26 03:30,84.20,75.20,74.44,150.00,3.00,0.00,29.88,M,1.86,M,BKN,M,M,M,10000.00,M,M,M,HZ,M,M,M,M,M,M,92.45,VABB 260330Z 15003KT 3000 HZ BKN100 29/24 Q1012 NOSIG,M
VABB,2022-03-26 04:00,84.20,75.20,74.44,180.00,3.00,0.00,29.88,M,1.86,M,BKN,M,M,M,10000.00,M,M,M,HZ,M,M,M,M,M,M,92.45,VABB 260400Z 18003KT 3000 HZ BKN100 29/24 Q1012 NOSIG,M
VABB,2022-03-26 04:30,86.00,75.20,70.27,0.00,0.00,0.00,29.88,M,1.86,M,BKN,M,M,M,10000.00,M,M,M,HZ,M,M,M,M,M,M,95.19,VABB 260430Z 00000KT 3000 HZ BKN100 30/24 Q1012 NOSIG,M
VABB,2022-03-26 05:00,87.80,75.20,66.35,0.00,0.00,0.00,29.88,M,1.86,M,BKN,M,M,M,10000.00,M,M,M,HZ,M,M,M,M,M,M,97.76,VABB 260500Z 00000KT 3000 HZ BKN100 31/24 Q1012 NOSIG,M
VABB,2022-03-26 05:30,87.80,75.20,66.35,0.00,0.00,0.00,29.88,M,1.86,M,BKN,M,M,M,10000.00,M,M,M,HZ,M,M,M,M,M,M,97.76,VABB 260530Z 00000KT 3000 HZ BKN100 31/24 Q1012 NOSIG,M
VABB,2022-03-26 06:00,87.80,77.00,70.45,260.00,8.00,0.00,29.88,M,1.86,M,SCT,M,M,M,10000.00,M,M,M,HZ,M,M,M,M,M,M,99.92,VABB 260600Z 26008KT 3000 HZ SCT100 31/25 Q1012 NOSIG,M
VABB,2022-03-26 06:30,89.60,77.00,66.55,290.00,5.00,0.00,29.85,M,1.86,M,SCT,M,M,M,10000.00,M,M,M,HZ,M,M,M,M,M,M,102.54,VABB 260630Z 29005KT 3000 HZ SCT100 32/25 Q1011 NOSIG,M
VABB,2022-03-26 07:00,89.60,77.00,66.55,280.00,8.00,0.00,29.85,M,1.86,M,SCT,M,M,M,10000.00,M,M,M,HZ,M,M,M,M,M,M,102.54,VABB 260700Z 28008KT 3000 HZ SCT100 32/25 Q1011 NOSIG,M
VABB,2022-03-26 07:30,89.60,77.00,66.55,250.00,9.00,0.00,29.83,M,1.86,M,SCT,M,M,M,10000.00,M,M,M,HZ,M,M,M,M,M,M,102.54,VABB 260730Z 25009KT 3000 HZ SCT100 32/25 Q1010 NOSIG,M
VABB,2022-03-26 08:00,89.60,77.00,66.55,270.00,12.00,0.00,29.83,M,1.86,M,SCT,M,M,M,10000.00,M,M,M,HZ,M,M,M,M,M,M,102.54,VABB 260800Z 27012KT 3000 HZ SCT100 32/25 Q1010 NOSIG,M
VABB,2022-03-26 08:30,89.60,78.80,70.63,270.00,12.00,0.00,29.80,M,1.86,M,SCT,M,M,M,10000.00,M,M,M,HZ,M,M,M,M,M,M,105.15,VABB 260830Z 27012KT 3000 HZ SCT100 32/26 Q1009 NOSIG,M
VABB,2022-03-26 09:00,89.60,77.00,66.55,280.00,12.00,0.00,29.80,M,2.17,M,FEW,M,M,M,10000.00,M,M,M,HZ,M,M,M,M,M,M,102.54,VABB 260900Z 28012KT 3500 HZ FEW100 32/25 Q1009 NOSIG,M
VABB,2022-03-26 09:30,89.60,75.20,62.68,270.00,10.00,0.00,29.77,M,2.17,M,FEW,M,M,M,10000.00,M,M,M,HZ,M,M,M,M,M,M,100.23,VABB 260930Z 27010KT 3500 HZ FEW100 32/24 Q1008 NOSIG,M
VABB,2022-03-26 10:00,87.80,71.60,58.78,270.00,13.00,0.00,29.77,M,2.17,M,NSC,M,M,M,M,M,M,M,FU,M,M,M,M,M,M,94.18,VABB 261000Z 27013KT 3500 FU NSC 31/22 Q1008 NOSIG,M
VABB,2022-03-26 10:30,86.00,71.60,62.25,280.00,12.00,0.00,29.77,M,2.17,M,NSC,M,M,M,M,M,M,M,HZ,M,M,M,M,M,M,91.92,VABB 261030Z 28012KT 3500 HZ NSC 30/22 Q1008 BECMG 4000 FU,M
VABB,2022-03-26 11:00,87.80,71.60,58.78,280.00,12.00,0.00,29.77,M,2.49,M,NSC,M,M,M,M,M,M,M,HZ,M,M,M,M,M,M,94.18,VABB 261100Z 28012KT 4000 HZ NSC 31/22 Q1008 NOSIG,M
VABB,2022-03-26 11:30,86.00,68.00,55.04,280.00,11.00,0.00,29.80,M,2.49,M,NSC,M,M,M,M,M,M,M,FU,M,M,M,M,M,M,89.41,VABB 261130Z 28011KT 4000 FU NSC 30/20 Q1009 BECMG 5000 FU,M
VABB,2022-03-26 12:00,86.00,64.40,48.58,290.00,12.00,0.00,29.80,M,3.11,M,NSC,M,M,M,M,M,M,M,FU,M,M,M,M,M,M,87.49,VABB 261200Z 29012KT 5000 FU NSC 30/18 Q1009 NOSIG,M
VABB,2022-03-26 12:30,86.00,68.00,55.04,270.00,12.00,0.00,29.80,M,3.11,M,NSC,M,M,M,M,M,M,M,FU,M,M,M,M,M,M,89.41,VABB 261230Z 27012KT 5000 FU NSC 30/20 Q1009 NOSIG,M
VABB,2022-03-26 13:00,84.20,73.40,70.08,260.00,9.00,0.00,29.80,M,3.11,M,NSC,M,M,M,M,M,M,M,HZ,M,M,M,M,M,M,90.94,VABB 261300Z 26009KT 5000 HZ NSC 29/23 Q1009 NOSIG,M
VABB,2022-03-26 13:30,82.40,75.20,78.90,270.00,8.00,0.00,29.83,M,2.49,M,NSC,M,M,M,M,M,M,M,HZ,M,M,M,M,M,M,89.48,VABB 261330Z 27008KT 4000 HZ NSC 28/24 Q1010 NOSIG,M
VABB,2022-03-26 14:00,82.40,77.00,83.77,250.00,8.00,0.00,29.83,M,2.49,M,FEW,M,M,M,2000.00,M,M,M,HZ,M,M,M,M,M,M,90.85,VABB 261400Z 25008KT 4000 HZ FEW020 28/25 Q1010 NOSIG,M
VABB,2022-03-26 14:30,82.40,77.00,83.77,270.00,8.00,0.00,29.85,M,2.49,M,SCT,M,M,M,2000.00,M,M,M,HZ,M,M,M,M,M,M,90.85,VABB 261430Z 27008KT 4000 HZ SCT020 28/25 Q1011 NOSIG,M
VABB,2022-03-26 15:00,82.40,77.00,83.77,260.00,6.00,0.00,29.85,M,2.49,M,SCT,M,M,M,2000.00,M,M,M,HZ,M,M,M,M,M,M,90.85,VABB 261500Z 26006KT 4000 HZ SCT020 28/25 Q1011 NOSIG,M
VABB,2022-03-26 15:30,82.40,77.00,83.77,270.00,5.00,0.00,29.88,M,2.17,M,SCT,M,M,M,2000.00,M,M,M,HZ,M,M,M,M,M,M,90.85,VABB 261530Z 27005KT 3500 HZ SCT020 28/25 Q1012 NOSIG,M
VABB,2022-03-26 16:00,82.40,77.00,83.77,230.00,4.00,0.00,29.88,M,2.17,M,SCT,M,M,M,2000.00,M,M,M,HZ,M,M,M,M,M,M,90.85,VABB 261600Z 23004KT 3500 HZ SCT020 28/25 Q1012 NOSIG,M
VABB,2022-03-26 16:30,82.40,77.00,83.77,240.00,4.00,0.00,29.88,M,2.17,M,SCT,M,M,M,2000.00,M,M,M,HZ,M,M,M,M,M,M,90.85,VABB 261630Z 24004KT 3500 HZ SCT020 28/25 Q1012 NOSIG,M
VABB,2022-03-26 17:00,82.40,77.00,83.77,220.00,4.00,0.00,29.88,M,2.17,M,SCT,M,M,M,2000.00,M,M,M,HZ,M,M,M,M,M,M,90.85,VABB 261700Z 22004KT 3500 HZ SCT020 28/25 Q1012 NOSIG,M
VABB,2022-03-26 17:30,82.40,77.00,83.77,210.00,5.00,0.00,29.88,M,2.17,M,SCT,M,M,M,2000.00,M,M,M,HZ,M,M,M,M,M,M,90.85,VABB 261730Z 21005KT 3500 HZ SCT020 28/25 Q1012 NOSIG,M
VABB,2022-03-26 18:00,82.40,77.00,83.77,220.00,3.00,0.00,29.88,M,2.17,M,SCT,M,M,M,2000.00,M,M,M,HZ,M,M,M,M,M,M,90.85,VABB 261800Z 22003KT 3500 HZ SCT020 28/25 Q1012 NOSIG,M
VABB,2022-03-26 18:30,82.40,77.00,83.77,240.00,6.00,0.00,29.88,M,2.17,M,FEW,M,M,M,2000.00,M,M,M,HZ,M,M,M,M,M,M,90.85,VABB 261830Z 24006KT 3500 HZ FEW020 28/25 Q1012 BECMG 3000 HZ,M
VABB,2022-03-26 19:00,82.40,75.20,78.90,230.00,5.00,0.00,29.85,M,1.86,M,FEW,M,M,M,2000.00,M,M,M,HZ,M,M,M,M,M,M,89.48,VABB 261900Z 23005KT 3000 HZ FEW020 28/24 Q1011 NOSIG,M
VABB,2022-03-26 19:30,80.60,75.20,83.66,210.00,4.00,0.00,29.85,M,1.86,M,FEW,M,M,M,2000.00,M,M,M,HZ,M,M,M,M,M,M,86.17,VABB 261930Z 21004KT 3000 HZ FEW020 27/24 Q1011 NOSIG,M
VABB,2022-03-26 20:00,80.60,75.20,83.66,220.00,3.00,0.00,29.85,M,1.86,M,FEW,M,M,M,2000.00,M,M,M,HZ,M,M,M,M,M,M,86.17,VABB 262000Z 22003KT 3000 HZ FEW020 27/24 Q1011 NOSIG,M
VABB,2022-03-26 20:30,80.60,77.00,88.83,0.00,0.00,0.00,29.83,M,1.86,M,FEW,M,M,M,2000.00,M,M,M,HZ,M,M,M,M,M,M,87.59,VABB 262030Z 00000KT 3000 HZ FEW020 27/25 Q1010 NOSIG,M
VABB,2022-03-26 21:00,80.60,75.20,83.66,240.00,5.00,0.00,29.83,M,1.86,M,FEW,M,M,M,2000.00,M,M,M,HZ,M,M,M,M,M,M,86.17,VABB 262100Z 24005KT 3000 HZ FEW020 27/24 Q1010 NOSIG,M
VABB,2022-03-26 21:30,80.60,75.20,83.66,250.00,5.00,0.00,29.83,M,1.86,M,FEW,M,M,M,2000.00,M,M,M,HZ,M,M,M,M,M,M,86.17,VABB 262130Z 25005KT 3000 HZ FEW020 27/24 Q1010 NOSIG,M
VABB,2022-03-26 22:00,80.60,75.20,83.66,0.00,0.00,0.00,29.83,M,1.86,M,SCT,M,M,M,2000.00,M,M,M,HZ,M,M,M,M,M,M,86.17,VABB 262200Z 00000KT 3000 HZ SCT020 27/24 Q1010 NOSIG,M
VABB,2022-03-26 22:30,80.60,75.20,83.66,0.00,0.00,0.00,29.83,M,1.86,M,SCT,M,M,M,2000.00,M,M,M,HZ,M,M,M,M,M,M,86.17,VABB 262230Z 00000KT 3000 HZ SCT020 27/24 Q1010 NOSIG,M
VABB,2022-03-26 23:00,80.60,75.20,83.66,230.00,3.00,0.00,29.83,M,1.86,M,SCT,M,M,M,2000.00,M,M,M,HZ,M,M,M,M,M,M,86.17,VABB 262300Z 23003KT 3000 HZ SCT020 27/24 Q1010 NOSIG,M
VABB,2022-03-26 23:30,80.60,75.20,83.66,0.00,0.00,0.00,29.83,M,1.86,M,SCT,M,M,M,2000.00,M,M,M,HZ,M,M,M,M,M,M,86.17,VABB 262330Z 00000KT 3000 HZ SCT020 27/24 Q1010 NOSIG,M
VABB,2022-03-27 00:00,80.60,75.20,83.66,0.00,0.00,0.00,29.83,M,1.86,M,SCT,M,M,M,2000.00,M,M,M,HZ,M,M,M,M,M,M,86.17,VABB 270000Z 00000KT 3000 HZ SCT020 27/24 Q1010 NOSIG,M
VABB,2022-03-27 00:30,80.60,77.00,88.83,240.00,3.00,0.00,29.83,M,1.86,M,BKN,M,M,M,2000.00,M,M,M,HZ,M,M,M,M,M,M,87.59,VABB 270030Z 24003KT 3000 HZ BKN020 27/25 Q1010 NOSIG,M
VABB,2022-03-27 01:00,80.60,75.20,83.66,0.00,0.00,0.00,29.85,M,1.86,M,SCT,SCT,M,M,2000.00,10000.00,M,M,HZ,M,M,M,M,M,M,86.17,VABB 270100Z 00000KT 3000 HZ SCT020 SCT100 27/24 Q1011 NOSIG,M
VABB,2022-03-27 01:30,80.60,75.20,83.66,0.00,0.00,0.00,29.85,M,1.86,M,FEW,SCT,M,M,2000.00,10000.00,M,M,HZ,M,M,M,M,M,M,86.17,VABB 270130Z 00000KT 3000 HZ FEW020 SCT100 27/24 Q1011 NOSIG,M
VABB,2022-03-27 02:00,80.60,75.20,83.66,0.00,0.00,0.00,29.88,M,1.86,M,FEW,SCT,M,M,2000.00,10000.00,M,M,HZ,M,M,M,M,M,M,86.17,VABB 270200Z 00000KT 3000 HZ FEW020 SCT100 27/24 Q1012 NOSIG,M
VABB,2022-03-27 02:30,82.40,77.00,83.77,M,3.00,0.00,29.88,M,1.86,M,FEW,SCT,M,M,2000.00,10000.00,M,M,HZ,M,M,M,M,M,M,90.85,VABB 270230Z VRB03KT 3000 HZ FEW020 SCT100 28/25 Q1012 NOSIG,M
VABB,2022-03-27 03:00,82.40,77.00,83.77,20.00,4.00,0.00,29.88,M,1.86,M,FEW,SCT,M,M,2000.00,10000.00,M,M,HZ,M,M,M,M,M,M,90.85,VABB 270300Z 02004KT 3000 HZ FEW020 SCT100 28/25 Q1012 NOSIG,M
VABB,2022-03-27 03:30,82.40,77.00,83.77,M,3.00,0.00,29.91,M,1.86,M,FEW,SCT,M,M,2000.00,10000.00,M,M,HZ,M,M,M,M,M,M,90.85,VABB 270330Z VRB03KT 3000 HZ FEW020 SCT100 28/25 Q1013 NOSIG,M
VABB,2022-03-27 04:00,84.20,75.20,74.44,0.00,0.00,0.00,29.91,M,1.86,M,FEW,SCT,M,M,2000.00,10000.00,M,M,HZ,M,M,M,M,M,M,92.45,VABB 270400Z 00000KT 3000 HZ FEW020 SCT100 29/24 Q1013 NOSIG,M
VABB,2022-03-27 04:30,86.00,73.40,66.15,0.00,0.00,0.00,29.91,M,1.86,M,SCT,M,M,M,10000.00,M,M,M,HZ,M,M,M,M,M,M,93.45,VABB 270430Z 00000KT 3000 HZ SCT100 30/23 Q1013 NOSIG,M
VABB,2022-03-27 05:00,87.80,69.80,55.29,0.00,0.00,0.00,29.91,M,1.86,M,SCT,M,M,M,10000.00,M,M,M,HZ,M,M,M,M,M,M,92.71,VABB 270500Z 00000KT 3000 HZ SCT100 31/21 Q1013 NOSIG,M
VABB,2022-03-27 05:30,89.60,69.80,52.23,10.00,3.00,0.00,29.88,M,1.86,M,FEW,M,M,M,10000.00,M,M,M,FU,M,M,M,M,M,M,94.85,VABB 270530Z 01003KT 3000 FU FEW100 32/21 Q1012 NOSIG,M
VABB,2022-03-27 06:00,89.60,69.80,52.23,360.00,4.00,0.00,29.88,M,1.86,M,FEW,M,M,M,10000.00,M,M,M,FU,M,M,M,M,M,M,94.85,VABB 270600Z 36004KT 3000 FU FEW100 32/21 Q1012 NOSIG,M
VABB,2022-03-27 06:30,89.60,75.20,62.68,240.00,8.00,0.00,29.88,M,2.17,M,FEW,M,M,M,10000.00,M,M,M,FU,M,M,M,M,M,M,100.23,VABB 270630Z 24008KT 3500 FU FEW100 32/24 Q1012 NOSIG,M
VABB,2022-03-27 07:00,89.60,75.20,62.68,280.00,8.00,0.00,29.85,M,2.17,M,NSC,M,M,M,M,M,M,M,FU,M,M,M,M,M,M,100.23,VABB 270700Z 28008KT 3500 FU NSC 32/24 Q1011 NOSIG,M
VABB,2022-03-27 07:30,89.60,71.60,55.53,270.00,10.00,0.00,29.85,M,2.49,M,NSC,M,M,M,M,M,M,M,FU,M,M,M,M,M,M,96.41,VABB 270730Z 27010KT 4000 FU NSC 32/22 Q1011 NOSIG,M
VABB,2022-03-27 08:00,89.60,69.80,52.23,270.00,11.00,0.00,29.83,M,2.49,M,NSC,M,M,M,M,M,M,M,FU,M,M,M,M,M,M,94.85,VABB 270800Z 27011KT 4000 FU NSC 32/21 Q1010 NOSIG,M
VABB,2022-03-27 08:30,89.60,69.80,52.23,280.00,12.00,0.00,29.80,M,2.80,M,NSC,M,M,M,M,M,M,M,FU,M,M,M,M,M,M,94.85,VABB 270830Z 28012KT 4500 FU NSC 32/21 Q1009 BECMG 5000 FU,M
VABB,2022-03-27 09:00,89.60,71.60,55.53,270.00,12.00,0.00,29.80,M,3.11,M,NSC,M,M,M,M,M,M,M,FU,M,M,M,M,M,M,96.41,VABB 270900Z 27012KT 5000 FU NSC 32/22 Q1009 NOSIG,M
VABB,2022-03-27 09:30,87.80,71.60,58.78,260.00,14.00,0.00,29.80,M,3.11,M,NSC,M,M,M,M,M,M,M,FU,M,M,M,M,M,M,94.18,VABB 270930Z 26014KT 5000 FU NSC 31/22 Q1009 NOSIG,M
VABB,2022-03-27 10:00,87.80,73.40,62.47,270.00,14.00,0.00,29.77,M,3.11,M,NSC,M,M,M,M,M,M,M,FU,M,M,M,M,M,M,95.86,VABB 271000Z 27014KT 5000 FU NSC 31/23 Q1008 NOSIG,M
VABB,2022-03-27 10:30,87.80,71.60,58.78,260.00,14.00,0.00,29.77,M,3.11,M,NSC,M,M,M,M,M,M,M,FU,M,M,M,M,M,M,94.18,VABB 271030Z 26014KT 5000 FU NSC 31/22 Q1008 NOSIG,M
VABB,2022-03-27 11:00,87.80,71.60,58.78,280.00,12.00,0.00,29.77,M,3.11,M,FEW,M,M,M,10000.00,M,M,M,FU,M,M,M,M,M,M,94.18,VABB 271100Z 28012KT 5000 FU FEW100 31/22 Q1008 NOSIG,M
VABB,2022-03-27 11:30,87.80,73.40,62.47,290.00,11.00,0.00,29.77,M,3.11,M,FEW,M,M,M,10000.00,M,M,M,FU,M,M,M,M,M,M,95.86,VABB 271130Z 29011KT 5000 FU FEW100 31/23 Q1008 NOSIG,M
VABB,2022-03-27 12:00,86.00,73.40,66.15,280.00,13.00,0.00,29.77,M,3.11,M,FEW,M,M,M,10000.00,M,M,M,FU,M,M,M,M,M,M,93.45,VABB 271200Z 28013KT 5000 FU FEW100 30/23 Q1008 NOSIG,M
VABB,2022-03-27 12:30,86.00,73.40,66.15,280.00,12.00,0.00,29.80,M,2.80,M,FEW,M,M,M,10000.00,M,M,M,FU,M,M,M,M,M,M,93.45,VABB 271230Z 28012KT 4500 FU FEW100 30/23 Q1009 NOSIG,M
VABB,2022-03-27 13:00,86.00,73.40,66.15,280.00,12.00,0.00,29.80,M,2.49,M,FEW,M,M,M,10000.00,M,M,M,HZ,M,M,M,M,M,M,93.45,VABB 271300Z 28012KT 4000 HZ FEW100 30/23 Q1009 NOSIG,M
VABB,2022-03-27 13:30,84.20,75.20,74.44,300.00,6.00,0.00,29.80,M,2.17,M,FEW,M,M,M,10000.00,M,M,M,HZ,M,M,M,M,M,M,92.45,VABB 271330Z 30006KT 3500 HZ FEW100 29/24 Q1009 NOSIG,M
VABB,2022-03-27 14:00,84.20,77.00,79.04,290.00,6.00,0.00,29.80,M,2.17,M,FEW,M,M,M,10000.00,M,M,M,HZ,M,M,M,M,M,M,94.16,VABB 271400Z 29006KT 3500 HZ FEW100 29/25 Q1009 NOSIG,M
VABB,2022-03-27 14:30,84.20,78.80,83.88,280.00,7.00,0.00,29.83,M,2.17,M,FEW,M,M,M,10000.00,M,M,M,HZ,M,M,M,M,M,M,96.10,VABB 271430Z 28007KT 3500 HZ FEW100 29/26 Q1010 NOSIG,M
VABB,2022-03-27 15:00,82.40,78.80,88.90,290.00,6.00,0.00,29.83,M,2.17,M,FEW,M,M,M,10000.00,M,M,M,HZ,M,M,M,M,M,M,92.76,VABB 271500Z 29006KT 3500 HZ FEW100 28/26 Q1010 NOSIG,M
VABB,2022-03-27 15:30,82.40,78.80,88.90,290.00,5.00,0.00,29.85,M,2.17,M,FEW,M,M,M,2000.00,M,M,M,HZ,M,M,M,M,M,M,92.76,VABB 271530Z 29005KT 3500 HZ FEW020 28/26 Q1011 NOSIG,M
VABB,2022-03-27 16:00,82.40,78.80,88.90,280.00,4.00,0.00,29.85,M,2.17,M,FEW,M,M,M,2000.00,M,M,M,HZ,M,M,M,M,M,M,92.76,VABB 271600Z 28004KT 3500 HZ FEW020 28/26 Q1011 NOSIG,M
VABB,2022-03-27 16:30,82.40,78.80,88.90,250.00,4.00,0.00,29.85,M,2.17,M,FEW,M,M,M,2000.00,M,M,M,HZ,M,M,M,M,M,M,92.76,VABB 271630Z 25004KT 3500 HZ FEW020 28/26 Q1011 NOSIG,M
VABB,2022-03-27 17:00,82.40,78.80,88.90,240.00,6.00,0.00,29.88,M,2.17,M,FEW,M,M,M,2000.00,M,M,M,HZ,M,M,M,M,M,M,92.76,VABB 271700Z 24006KT 3500 HZ FEW020 28/26 Q1012 NOSIG,M
VABB,2022-03-27 17:30,82.40,78.80,88.90,230.00,5.00,0.00,29.88,M,2.17,M,FEW,M,M,M,2000.00,M,M,M,HZ,M,M,M,M,M,M,92.76,VABB 271730Z 23005KT 3500 HZ FEW020 28/26 Q1012 NOSIG,M
VABB,2022-03-27 18:00,82.40,78.80,88.90,240.00,6.00,0.00,29.88,M,2.17,M,SCT,M,M,M,2000.00,M,M,M,HZ,M,M,M,M,M,M,92.76,VABB 271800Z 24006KT 3500 HZ SCT020 28/26 Q1012 NOSIG,M
VABB,2022-03-27 18:30,82.40,78.80,88.90,250.00,5.00,0.00,29.88,M,2.17,M,SCT,M,M,M,2000.00,M,M,M,HZ,M,M,M,M,M,M,92.76,VABB 271830Z 25005KT 3500 HZ SCT020 28/26 Q1012 NOSIG,M
VABB,2022-03-27 19:00,82.40,78.80,88.90,260.00,5.00,0.00,29.85,M,2.17,M,SCT,M,M,M,2000.00,M,M,M,HZ,M,M,M,M,M,M,92.76,VABB 271900Z 26005KT 3500 HZ SCT020 28/26 Q1011 NOSIG,M
VABB,2022-03-27 19:30,82.40,78.80,88.90,270.00,3.00,0.00,29.85,M,2.17,M,SCT,M,M,M,2000.00,M,M,M,HZ,M,M,M,M,M,M,92.76,VABB 271930Z 27003KT 3500 HZ SCT020 28/26 Q1011 NOSIG,M
VABB,2022-03-27 20:00,82.40,78.80,88.90,250.00,6.00,0.00,29.83,M,2.17,M,SCT,M,M,M,2000.00,M,M,M,HZ,M,M,M,M,M,M,92.76,VABB 272000Z 25006KT 3500 HZ SCT020 28/26 Q1010 NOSIG,M
VABB,2022-03-27 20:30,80.60,78.80,94.27,280.00,4.00,0.00,29.83,M,2.17,M,SCT,M,M,M,2000.00,M,M,M,HZ,M,M,M,M,M,M,89.33,VABB 272030Z 28004KT 3500 HZ SCT020 27/26 Q1010 BECMG 3000 HZ,M
VABB,2022-03-27 21:00,80.60,78.80,94.27,240.00,6.00,0.00,29.83,M,1.86,M,SCT,M,M,M,2000.00,M,M,M,HZ,M,M,M,M,M,M,89.33,VABB 272100Z 24006KT 3000 HZ SCT020 27/26 Q1010 NOSIG,M
VABB,2022-03-27 21:30,80.60,77.00,88.83,270.00,4.00,0.00,29.80,M,1.86,M,SCT,M,M,M,2000.00,M,M,M,HZ,M,M,M,M,M,M,87.59,VABB 272130Z 27004KT 3000 HZ SCT020 27/25 Q1009 NOSIG,M
VABB,2022-03-27 22:00,80.60,77.00,88.83,270.00,3.00,0.00,29.80,M,1.86,M,SCT,M,M,M,2000.00,M,M,M,HZ,M,M,M,M,M,M,87.59,VABB 272200Z 27003KT 3000 HZ SCT020 27/25 Q1009 NOSIG,M
VABB,2022-03-27 22:30,80.60,77.00,88.83,0.00,0.00,0.00,29.80,M,1.86,M,SCT,M,M,M,2000.00,M,M,M,HZ,M,M,M,M,M,M,87.59,VABB 272230Z 00000KT 3000 HZ SCT020 27/25 Q1009 NOSIG,M
VABB,2022-03-27 23:00,80.60,77.00,88.83,210.00,4.00,0.00,29.80,M,1.86,M,SCT,M,M,M,2000.00,M,M,M,HZ,M,M,M,M,M,M,87.59,VABB 272300Z 21004KT 3000 HZ SCT020 27/25 Q1009 NOSIG,M
VABB,2022-03-27 23:30,80.60,77.00,88.83,0.00,0.00,0.00,29.80,M,1.86,M,SCT,M,M,M,2000.00,M,M,M,HZ,M,M,M,M,M,M,87.59,VABB 272330Z 00000KT 3000 HZ SCT020 27/25 Q1009 NOSIG,M
VABB,2022-03-28 00:00,80.60,77.00,88.83,0.00,0.00,0.00,29.83,M,1.86,M,SCT,M,M,M,2000.00,M,M,M,HZ,M,M,M,M,M,M,87.59,VABB 280000Z 00000KT 3000 HZ SCT020 27/25 Q1010 NOSIG,M
VABB,2022-03-28 00:30,80.60,77.00,88.83,220.00,3.00,0.00,29.83,M,1.86,M,SCT,M,M,M,2000.00,M,M,M,HZ,M,M,M,M,M,M,87.59,VABB 280030Z 22003KT 3000 HZ SCT020 27/25 Q1010 NOSIG,M
VABB,2022-03-28 01:00,80.60,77.00,88.83,120.00,3.00,0.00,29.83,M,1.86,M,FEW,M,M,M,2000.00,M,M,M,HZ,M,M,M,M,M,M,87.59,VABB 280100Z 12003KT 3000 HZ FEW020 27/25 Q1010 NOSIG,M
VABB,2022-03-28 01:30,80.60,77.00,88.83,110.00,4.00,0.00,29.85,M,1.55,M,NSC,M,M,M,M,M,M,M,HZ,M,M,M,M,M,M,87.59,VABB 280130Z 11004KT 2500 HZ NSC 27/25 Q1011 NOSIG,M
VABB,2022-03-28 02:00,80.60,77.00,88.83,0.00,0.00,0.00,29.85,M,1.55,M,NSC,M,M,M,M,M,M,M,HZ,M,M,M,M,M,M,87.59,VABB 280200Z 00000KT 2500 HZ NSC 27/25 Q1011 NOSIG,M
VABB,2022-03-28 02:30,82.40,78.80,88.90,100.00,5.00,0.00,29.85,M,1.30,M,FEW,M,M,M,10000.00,M,M,M,HZ,M,M,M,M,M,M,92.76,VABB 280230Z 10005KT 2100 HZ FEW100 28/26 Q1011 NOSIG,M
VABB,2022-03-28 03:00,82.40,78.80,88.90,0.00,0.00,0.00,29.88,M,1.30,M,FEW,M,M,M,2000.00,M,M,M,HZ,M,M,M,M,M,M,92.76,VABB 280300Z 00000KT 2100 HZ FEW020 28/26 Q1012 NOSIG,M
VABB,2022-03-28 03:30,84.20,77.00,79.04,0.00,0.00,0.00,29.88,M,1.55,M,FEW,M,M,M,2000.00,M,M,M,HZ,M,M,M,M,M,M,94.16,VABB 280330Z 00000KT 2500 HZ FEW020 29/25 Q1012 NOSIG,M
VABB,2022-03-28 04:00,86.00,77.00,74.61,0.00,0.00,0.00,29.88,M,1.55,M,FEW,M,M,M,2000.00,M,M,M,HZ,M,M,M,M,M,M,97.15,VABB 280400Z 00000KT 2500 HZ FEW020 30/25 Q1012 NOSIG,M
VABB,2022-03-28 04:30,87.80,75.20,66.35,180.00,4.00,0.00,29.88,M,1.55,M,NSC,M,M,M,M,M,M,M,HZ,M,M,M,M,M,M,97.76,VABB 280430Z 18004KT 2500 HZ NSC 31/24 Q1012 BECMG 3000 HZ,M
VABB,2022-03-28 05:00,89.60,75.20,62.68,10.00,4.00,0.00,29.88,M,1.55,M,NSC,M,M,M,M,M,M,M,HZ,M,M,M,M,M,M,100.23,VABB 280500Z 01004KT 2500 HZ NSC 32/24 Q1012 BECMG 3000 HZ,M
VABB,2022-03-28 05:30,91.40,75.20,59.24,M,3.00,0.00,29.88,M,1.86,M,NSC,M,M,M,M,M,M,M,FU,M,M,M,M,M,M,102.65,VABB 280530Z VRB03KT 3000 FU NSC 33/24 Q1012 NOSIG,M
VABB,2022-03-28 06:00,89.60,77.00,66.55,280.00,8.00,0.00,29.85,M,1.86,M,NSC,M,M,M,M,M,M,M,FU,M,M,M,M,M,M,102.54,VABB 280600Z 28008KT 3000 FU NSC 32/25 Q1011 NOSIG,M
VABB,2022-03-28 06:30,89.60,78.80,70.63,280.00,9.00,0.00,29.85,M,1.86,M,NSC,M,M,M,M,M,M,M,FU,M,M,M,M,M,M,105.15,VABB 280630Z 28009KT 3000 FU NSC 32/26 Q1011 NOSIG,M
VABB,2022-03-28 07:00,89.60,78.80,70.63,250.00,10.00,0.00,29.83,M,1.86,M,NSC,M,M,M,M,M,M,M,HZ,M,M,M,M,M,M,105.15,VABB 280700Z 25010KT 3000 HZ NSC 32/26 Q1010 NOSIG,M
VABB,2022-03-28 07:30,89.60,78.80,70.63,250.00,10.00,0.00,29.80,M,1.86,M,NSC,M,M,M,M,M,M,M,HZ,M,M,M,M,M,M,105.15,VABB 280730Z 25010KT 3000 HZ NSC 32/26 Q1009 NOSIG,M
VABB,2022-03-28 08:00,91.40,77.00,62.90,290.00,11.00,0.00,29.80,M,2.17,M,NSC,M,M,M,M,M,M,M,HZ,M,M,M,M,M,M,105.06,VABB 280800Z 29011KT 3500 HZ NSC 33/25 Q1009 NOSIG,M
VABB,2022-03-28 08:30,89.60,78.80,70.63,270.00,13.00,0.00,29.80,M,2.17,M,NSC,M,M,M,M,M,M,M,HZ,M,M,M,M,M,M,105.15,VABB 280830Z 27013KT 3500 HZ NSC 32/26 Q1009 NOSIG,M
VABB,2022-03-28 09:00,87.80,77.00,70.45,280.00,8.00,0.00,29.77,M,2.17,18.00,NSC,M,M,M,M,M,M,M,HZ,M,M,M,M,M,M,99.92,VABB 280900Z 28008G18KT 3500 HZ NSC 31/25 Q1008 NOSIG,M
VABB,2022-03-28 09:30,87.80,77.00,70.45,270.00,7.00,0.00,29.77,M,2.49,17.00,NSC,M,M,M,M,M,M,M,HZ,M,M,M,M,M,M,99.92,VABB 280930Z 27007G17KT 4000 HZ NSC 31/25 Q1008 NOSIG,M
VABB,2022-03-28 10:00,87.80,75.20,66.35,250.00,8.00,0.00,29.74,M,2.49,18.00,NSC,M,M,M,M,M,M,M,HZ,M,M,M,M,M,M,97.76,VABB 281000Z 25008G18KT 4000 HZ NSC 31/24 Q1007 NOSIG,M
VABB,2022-03-28 10:30,89.60,77.00,66.55,280.00,11.00,0.00,29.74,M,2.49,M,NSC,M,M,M,M,M,M,M,HZ,M,M,M,M,M,M,102.54,VABB 281030Z 28011KT 4000 HZ NSC 32/25 Q1007 NOSIG,M
VABB,2022-03-28 11:00,89.60,75.20,62.68,290.00,12.00,0.00,29.74,M,2.49,M,NSC,M,M,M,M,M,M,M,HZ,M,M,M,M,M,M,100.23,VABB 281100Z 29012KT 4000 HZ NSC 32/24 Q1007 BECMG 5000 FU,M
VABB,2022-03-28 11:30,89.60,75.20,62.68,290.00,10.00,0.00,29.74,M,3.11,M,NSC,M,M,M,M,M,M,M,HZ,M,M,M,M,M,M,100.23,VABB 281130Z 29010KT 5000 HZ NSC 32/24 Q1007 NOSIG,M
VABB,2022-03-28 12:00,89.60,71.60,55.53,280.00,12.00,0.00,29.74,M,3.11,M,NSC,M,M,M,M,M,M,M,FU,M,M,M,M,M,M,96.41,VABB 281200Z 28012KT 5000 FU NSC 32/22 Q1007 NOSIG,M
VABB,2022-03-28 12:30,89.60,71.60,55.53,300.00,9.00,0.00,29.74,M,3.11,M,NSC,M,M,M,M,M,M,M,FU,M,M,M,M,M,M,96.41,VABB 281230Z 30009KT 5000 FU NSC 32/22 Q1007 NOSIG,M
VABB,2022-03-28 13:00,87.80,73.40,62.47,310.00,7.00,0.00,29.77,M,2.49,M,NSC,M,M,M,M,M,M,M,FU,M,M,M,M,M,M,95.86,VABB 281300Z 31007KT 4000 FU NSC 31/23 Q1008 NOSIG,M
VABB,2022-03-28 13:30,86.00,73.40,66.15,300.00,6.00,0.00,29.77,M,2.49,M,NSC,M,M,M,M,M,M,M,HZ,M,M,M,M,M,M,93.45,VABB 281330Z 30006KT 4000 HZ NSC 30/23 Q1008 NOSIG,M
VABB,2022-03-28 14:00,86.00,75.20,70.27,300.00,7.00,0.00,29.77,M,2.49,M,NSC,M,M,M,M,M,M,M,HZ,M,M,M,M,M,M,95.19,VABB 281400Z 30007KT 4000 HZ NSC 30/24 Q1008 NOSIG,M
VABB,2022-03-28 14:30,86.00,75.20,70.27,290.00,6.00,0.00,29.80,M,2.49,M,NSC,M,M,M,M,M,M,M,HZ,M,M,M,M,M,M,95.19,VABB 281430Z 29006KT 4000 HZ NSC 30/24 Q1009 NOSIG,M
VABB,2022-03-28 15:00,86.00,75.20,70.27,290.00,6.00,0.00,29.80,M,2.49,M,NSC,M,M,M,M,M,M,M,HZ,M,M,M,M,M,M,95.19,VABB 281500Z 29006KT 4000 HZ NSC 30/24 Q1009 NOSIG,M
VABB,2022-03-28 15:30,84.20,77.00,79.04,300.00,5.00,0.00,29.80,M,2.17,M,NSC,M,M,M,M,M,M,M,HZ,M,M,M,M,M,M,94.16,VABB 281530Z 30005KT 3500 HZ NSC 29/25 Q1009 NOSIG,M
VABB,2022-03-28 16:00,84.20,77.00,79.04,260.00,5.00,0.00,29.80,M,2.17,M,NSC,M,M,M,M,M,M,M,HZ,M,M,M,M,M,M,94.16,VABB 281600Z 26005KT 3500 HZ NSC 29/25 Q1009 NOSIG,M
VABB,2022-03-28 16:30,84.20,77.00,79.04,270.00,4.00,0.00,29.83,M,2.17,M,NSC,M,M,M,M,M,M,M,HZ,M,M,M,M,M,M,94.16,VABB 281630Z 27004KT 3500 HZ NSC 29/25 Q1010 NOSIG,M
VABB,2022-03-28 17:00,84.20,78.80,83.88,280.00,6.00,0.00,29.83,M,1.86,M,NSC,M,M,M,M,M,M,M,HZ,M,M,M,M,M,M,96.10,VABB 281700Z 28006KT 3000 HZ NSC 29/26 Q1010 NOSIG,M
VABB,2022-03-28 17:30,84.20,78.80,83.88,310.00,4.00,0.00,29.83,M,1.86,M,NSC,M,M,M,M,M,M,M,HZ,M,M,M,M,M,M,96.10,VABB 281730Z 31004KT 3000 HZ NSC 29/26 Q1010 NOSIG,M
VABB,2022-03-28 18:00,84.20,78.80,83.88,300.00,4.00,0.00,29.83,M,1.86,M,NSC,M,M,M,M,M,M,M,HZ,M,M,M,M,M,M,96.10,VABB 281800Z 30004KT 3000 HZ NSC 29/26 Q1010 NOSIG,M
VABB,2022-03-28 18:30,84.20,78.80,83.88,290.00,5.00,0.00,29.80,M,1.86,M,NSC,M,M,M,M,M,M,M,HZ,M,M,M,M,M,M,96.10,VABB 281830Z 29005KT 3000 HZ NSC 29/26 Q1009 NOSIG,M
VABB,2022-03-28 19:00,82.40,77.00,83.77,280.00,3.00,0.00,29.80,M,1.86,M,NSC,M,M,M,M,M,M,M,HZ,M,M,M,M,M,M,90.85,VABB 281900Z 28003KT 3000 HZ NSC 28/25 Q1009 NOSIG,M
VABB,2022-03-28 19:30,82.40,77.00,83.77,310.00,3.00,0.00,29.80,M,1.86,M,NSC,M,M,M,M,M,M,M,HZ,M,M,M,M,M,M,90.85,VABB 281930Z 31003KT 3000 HZ NSC 28/25 Q1009 NOSIG,M
VABB,2022-03-28 20:00,82.40,77.00,83.77,300.00,4.00,0.00,29.80,M,1.86,M,NSC,M,M,M,M,M,M,M,HZ,M,M,M,M,M,M,90.85,VABB 282000Z 30004KT 3000 HZ NSC 28/25 Q1009 NOSIG,M
VABB,2022-03-28 20:30,82.40,75.20,78.90,340.00,3.00,0.00,29.77,M,1.86,M,NSC,M,M,M,M,M,M,M,HZ,M,M,M,M,M,M,89.48,VABB 282030Z 34003KT 3000 HZ NSC 28/24 Q1008 NOSIG,M
VABB,2022-03-28 21:00,82.40,75.20,78.90,0.00,0.00,0.00,29.77,M,1.86,M,NSC,M,M,M,M,M,M,M,HZ,M,M,M,M,M,M,89.48,VABB 282100Z 00000KT 3000 HZ NSC 28/24 Q1008 NOSIG,M
VABB,2022-03-28 21:30,82.40,73.40,74.28,0.00,0.00,0.00,29.77,M,1.86,M,NSC,M,M,M,M,M,M,M,HZ,M,M,M,M,M,M,88.26,VABB 282130Z 00000KT 3000 HZ NSC 28/23 Q1008 NOSIG,M
VABB,2022-03-28 22:00,82.40,71.60,69.90,340.00,3.00,0.00,29.77,M,1.86,M,NSC,M,M,M,M,M,M,M,HZ,M,M,M,M,M,M,87.18,VABB 282200Z 34003KT 3000 HZ NSC 28/22 Q1008 NOSIG,M
VABB,2022-03-28 22:30,80.60,73.40,78.76,0.00,0.00,0.00,29.77,M,1.86,M,NSC,M,M,M,M,M,M,M,HZ,M,M,M,M,M,M,85.32,VABB 282230Z 00000KT 3000 HZ NSC 27/23 Q1008 NOSIG,M
VABB,2022-03-28 23:00,82.40,71.60,69.90,0.00,0.00,0.00,29.77,M,1.86,M,NSC,M,M,M,M,M,M,M,HZ,M,M,M,M,M,M,87.18,VABB 282300Z 00000KT 3000 HZ NSC 28/22 Q1008 NOSIG,M
VABB,2022-03-28 23:30,82.40,71.60,69.90,0.00,0.00,0.00,29.77,M,1.86,M,NSC,M,M,M,M,M,M,M,HZ,M,M,M,M,M,M,87.18,VABB 282330Z 00000KT 3000 HZ NSC 28/22 Q1008 NOSIG,M
VABB,2022-03-29 00:00,80.60,73.40,78.76,0.00,0.00,0.00,29.77,M,1.86,M,NSC,M,M,M,M,M,M,M,HZ,M,M,M,M,M,M,85.32,VABB 290000Z 00000KT 3000 HZ NSC 27/23 Q1008 NOSIG,M
VABB,2022-03-29 00:30,80.60,75.20,83.66,0.00,0.00,0.00,29.77,M,1.86,M,NSC,M,M,M,M,M,M,M,HZ,M,M,M,M,M,M,86.17,VABB 290030Z 00000KT 3000 HZ NSC 27/24 Q1008 NOSIG,M
VABB,2022-03-29 01:00,80.60,75.20,83.66,0.00,0.00,0.00,29.80,M,1.86,M,NSC,M,M,M,M,M,M,M,HZ,M,M,M,M,M,M,86.17,VABB 290100Z 00000KT 3000 HZ NSC 27/24 Q1009 NOSIG,M
VABB,2022-03-29 01:30,80.60,75.20,83.66,0.00,0.00,0.00,29.80,M,1.86,M,NSC,M,M,M,M,M,M,M,HZ,M,M,M,M,M,M,86.17,VABB 290130Z 00000KT 3000 HZ NSC 27/24 Q1009 TEMPO 1500 HZ,M
VABB,2022-03-29 02:00,80.60,77.00,88.83,0.00,0.00,0.00,29.80,M,1.55,M,NSC,M,M,M,M,M,M,M,HZ,M,M,M,M,M,M,87.59,VABB 290200Z 00000KT 2500 HZ NSC 27/25 Q1009 NOSIG,M
VABB,2022-03-29 02:30,82.40,77.00,83.77,0.00,0.00,0.00,29.83,M,1.30,M,NSC,M,M,M,M,M,M,M,HZ,M,M,M,M,M,M,90.85,VABB 290230Z 00000KT 2100 HZ NSC 28/25 Q1010 NOSIG,M
VABB,2022-03-29 03:00,84.20,75.20,74.44,0.00,0.00,0.00,29.83,M,1.30,M,NSC,M,M,M,M,M,M,M,HZ,M,M,M,M,M,M,92.45,VABB 290300Z 00000KT 2100 HZ NSC 29/24 Q1010 NOSIG,M
VABB,2022-03-29 03:30,86.00,75.20,70.27,0.00,0.00,0.00,29.83,M,1.30,M,NSC,M,M,M,M,M,M,M,HZ,M,M,M,M,M,M,95.19,VABB 290330Z 00000KT 2100 HZ NSC 30/24 Q1010 NOSIG,M
VABB,2022-03-29 04:00,86.00,75.20,70.27,200.00,4.00,0.00,29.83,M,1.30,M,NSC,M,M,M,M,M,M,M,HZ,M,M,M,M,M,M,95.19,VABB 290400Z 20004KT 2100 HZ NSC 30/24 Q1010 NOSIG,M
VABB,2022-03-29 04:30,87.80,73.40,62.47,230.00,5.00,0.00,29.85,M,1.55,M,NSC,M,M,M,M,M,M,M,HZ,M,M,M,M,M,M,95.86,VABB 290430Z 23005KT 2500 HZ NSC 31/23 Q1011 NOSIG,M
VABB,2022-03-29 05:00,89.60,73.40,59.01,260.00,6.00,0.00,29.85,M,1.55,M,NSC,M,M,M,M,M,M,M,HZ,M,M,M,M,M,M,98.20,VABB 290500Z 26006KT 2500 HZ NSC 32/23 Q1011 NOSIG,M
VABB,2022-03-29 05:30,89.60,75.20,62.68,270.00,7.00,0.00,29.85,M,1.55,M,NSC,M,M,M,M,M,M,M,HZ,M,M,M,M,M,M,100.23,VABB 290530Z 27007KT 2500 HZ NSC 32/24 Q1011 NOSIG,M
VABB,2022-03-29 06:00,89.60,77.00,66.55,260.00,10.00,0.00,29.83,M,1.55,M,NSC,M,M,M,M,M,M,M,HZ,M,M,M,M,M,M,102.54,VABB 290600Z 26010KT 2500 HZ NSC 32/25 Q1010 BECMG 3000 HZ,M
VABB,2022-03-29 06:30,89.60,77.00,66.55,280.00,9.00,0.00,29.83,M,1.86,M,NSC,M,M,M,M,M,M,M,HZ,M,M,M,M,M,M,102.54,VABB 290630Z 28009KT 3000 HZ NSC 32/25 Q1010 NOSIG,M
VABB,2022-03-29 07:00,89.60,77.00,66.55,260.00,11.00,0.00,29.83,M,1.86,M,NSC,M,M,M,M,M,M,M,HZ,M,M,M,M,M,M,102.54,VABB 290700Z 26011KT 3000 HZ NSC 32/25 Q1010 NOSIG,M
VABB,2022-03-29 07:30,91.40,71.60,52.48,290.00,9.00,0.00,29.80,M,1.86,M,NSC,M,M,M,M,M,M,M,FU,M,M,M,M,M,M,98.64,VABB 290730Z 29009KT 3000 FU NSC 33/22 Q1009 NOSIG,M
VABB,2022-03-29 08:00,91.40,69.80,49.36,280.00,8.00,0.00,29.80,M,1.86,M,NSC,M,M,M,M,M,M,M,FU,M,M,M,M,M,M,96.99,VABB 290800Z 28008KT 3000 FU NSC 33/21 Q1009 NOSIG,M
VABB,2022-03-29 08:30,93.20,73.40,52.73,250.00,10.00,0.00,29.77,M,2.17,M,NSC,M,M,M,M,M,M,M,FU,M,M,M,M,M,M,102.82,VABB 290830Z 25010KT 3500 FU NSC 34/23 Q1008 NOSIG,M
VABB,2022-03-29 09:00,93.20,73.40,52.73,270.00,11.00,0.00,29.77,M,2.17,M,NSC,M,M,M,M,M,M,M,FU,M,M,M,M,M,M,102.82,VABB 290900Z 27011KT 3500 FU NSC 34/23 Q1008 BECMG 4000 FU,M
VABB,2022-03-29 09:30,93.20,73.40,52.73,260.00,8.00,0.00,29.74,M,2.49,18.00,NSC,M,M,M,M,M,M,M,FU,M,M,M,M,M,M,102.82,VABB 290930Z 26008G18KT 4000 FU NSC 34/23 Q1007 NOSIG,M
VABB,2022-03-29 10:00,96.80,60.80,30.53,300.00,8.00,0.00,29.74,M,2.49,M,NSC,M,M,M,M,M,M,M,FU,M,M,M,M,M,M,97.33,VABB 291000Z 30008KT 4000 FU NSC 36/16 Q1007 BECMG 5000,M
VABB,2022-03-29 10:30,96.80,59.00,28.63,290.00,9.00,0.00,29.71,M,3.11,M,NSC,M,M,M,M,M,M,M,FU,M,M,M,M,M,M,96.50,VABB 291030Z 29009KT 5000 FU NSC 36/15 Q1006 NOSIG,M
VABB,2022-03-29 11:00,96.80,55.40,25.15,310.00,9.00,0.00,29.71,M,3.11,M,NSC,M,M,M,M,M,M,M,FU,M,M,M,M,M,M,95.14,VABB 291100Z 31009KT 5000 FU NSC 36/13 Q1006 NOSIG,M
VABB,2022-03-29 11:30,96.80,51.80,22.04,320.00,7.00,0.00,29.71,M,3.11,M,NSC,M,M,M,M,M,M,M,FU,M,M,M,M,M,M,94.12,VABB 291130Z 32007KT 5000 FU NSC 36/11 Q1006 NOSIG,M
VABB,2022-03-29 12:00,95.00,62.60,34.39,280.00,8.00,0.00,29.71,M,3.11,M,NSC,M,M,M,M,M,M,M,FU,M,M,M,M,M,M,96.22,VABB 291200Z 28008KT 5000 FU NSC 35/17 Q1006 NOSIG,M
VABB,2022-03-29 12:30,91.40,62.60,38.45,270.00,9.00,0.00,29.71,M,3.11,M,NSC,M,M,M,M,M,M,M,FU,M,M,M,M,M,M,92.23,VABB 291230Z 27009KT 5000 FU NSC 33/17 Q1006 NOSIG,M
VABB,2022-03-29 13:00,91.40,60.80,36.08,300.00,9.00,0.00,29.74,M,3.11,M,NSC,M,M,M,M,M,M,M,FU,M,M,M,M,M,M,91.40,VABB 291300Z 30009KT 5000 FU NSC 33/16 Q1007 BECMG 4000 FU,M
VABB,2022-03-29 13:30,89.60,64.40,43.34,290.00,8.00,0.00,29.74,M,2.49,M,NSC,M,M,M,M,M,M,M,FU,M,M,M,M,M,M,91.23,VABB 291330Z 29008KT 4000 FU NSC 32/18 Q1007 NOSIG,M
VABB,2022-03-29 14:00,89.60,66.20,46.14,290.00,5.00,0.00,29.74,M,2.49,M,NSC,M,M,M,M,M,M,M,FU,M,M,M,M,M,M,92.27,VABB 291400Z 29005KT 4000 FU NSC 32/19 Q1007 NOSIG,M
VABB,2022-03-29 14:30,87.80,66.20,48.84,290.00,5.00,0.00,29.74,M,2.49,M,NSC,M,M,M,M,M,M,M,FU,M,M,M,M,M,M,90.31,VABB 291430Z 29005KT 4000 FU NSC 31/19 Q1007 BECMG 3000 FU,M
VABB,2022-03-29 15:00,86.00,73.40,66.15,270.00,7.00,0.00,29.77,M,1.86,M,NSC,M,M,M,M,M,M,M,HZ,M,M,M,M,M,M,93.45,VABB 291500Z 27007KT 3000 HZ NSC 30/23 Q1008 NOSIG,M
VABB,2022-03-29 15:30,86.00,77.00,74.61,290.00,6.00,0.00,29.77,M,1.86,M,NSC,M,M,M,M,M,M,M,HZ,M,M,M,M,M,M,97.15,VABB 291530Z 29006KT 3000 HZ NSC 30/25 Q1008 NOSIG,M
VABB,2022-03-29 16:00,84.20,77.00,79.04,280.00,7.00,0.00,29.80,M,1.86,M,NSC,M,M,M,M,M,M,M,HZ,M,M,M,M,M,M,94.16,VABB 291600Z 28007KT 3000 HZ NSC 29/25 Q1009 NOSIG,M
VABB,2022-03-29 16:30,84.20,78.80,83.88,310.00,6.00,0.00,29.80,M,1.86,M,NSC,M,M,M,M,M,M,M,HZ,M,M,M,M,M,M,96.10,VABB 291630Z 31006KT 3000 HZ NSC 29/26 Q1009 NOSIG,M
VABB,2022-03-29 17:00,84.20,78.80,83.88,300.00,5.00,0.00,29.80,M,1.86,M,NSC,M,M,M,M,M,M,M,HZ,M,M,M,M,M,M,96.10,VABB 291700Z 30005KT 3000 HZ NSC 29/26 Q1009 NOSIG,M
VABB,2022-03-29 17:30,84.20,78.80,83.88,300.00,5.00,0.00,29.80,M,1.86,M,NSC,M,M,M,M,M,M,M,HZ,M,M,M,M,M,M,96.10,VABB 291730Z 30005KT 3000 HZ NSC 29/26 Q1009 NOSIG,M
VABB,2022-03-29 18:00,82.40,78.80,88.90,300.00,8.00,0.00,29.80,M,1.86,M,NSC,M,M,M,M,M,M,M,HZ,M,M,M,M,M,M,92.76,VABB 291800Z 30008KT 3000 HZ NSC 28/26 Q1009 NOSIG,M
VABB,2022-03-29 18:30,84.20,77.00,79.04,300.00,6.00,0.00,29.80,M,1.86,M,NSC,M,M,M,M,M,M,M,HZ,M,M,M,M,M,M,94.16,VABB 291830Z 30006KT 3000 HZ NSC 29/25 Q1009 NOSIG,M
VABB,2022-03-29 19:00,82.40,77.00,83.77,300.00,3.00,0.00,29.77,M,1.86,M,NSC,M,M,M,M,M,M,M,HZ,M,M,M,M,M,M,90.85,VABB 291900Z 30003KT 3000 HZ NSC 28/25 Q1008 NOSIG,M
VABB,2022-03-29 19:30,82.40,77.00,83.77,310.00,4.00,0.00,29.77,M,1.86,M,NSC,M,M,M,M,M,M,M,HZ,M,M,M,M,M,M,90.85,VABB 291930Z 31004KT 3000 HZ NSC 28/25 Q1008 NOSIG,M
VABB,2022-03-29 20:00,82.40,75.20,78.90,0.00,0.00,0.00,29.77,M,1.86,M,NSC,M,M,M,M,M,M,M,HZ,M,M,M,M,M,M,89.48,VABB 292000Z 00000KT 3000 HZ NSC 28/24 Q1008 NOSIG,M
VABB,2022-03-29 20:30,82.40,77.00,83.77,0.00,0.00,0.00,29.77,M,1.86,M,NSC,M,M,M,M,M,M,M,HZ,M,M,M,M,M,M,90.85,VABB 292030Z 00000KT 3000 HZ NSC 28/25 Q1008 NOSIG,M
VABB,2022-03-29 21:00,82.40,73.40,74.28,0.00,0.00,0.00,29.77,M,1.86,M,NSC,M,M,M,M,M,M,M,HZ,M,M,M,M,M,M,88.26,VABB 292100Z 00000KT 3000 HZ NSC 28/23 Q1008 NOSIG,M
VABB,2022-03-29 21:30,82.40,73.40,74.28,0.00,0.00,0.00,29.74,M,1.86,M,NSC,M,M,M,M,M,M,M,HZ,M,M,M,M,M,M,88.26,VABB 292130Z 00000KT 3000 HZ NSC 28/23 Q1007 NOSIG,M
VABB,2022-03-29 22:00,82.40,73.40,74.28,0.00,0.00,0.00,29.74,M,1.86,M,NSC,M,M,M,M,M,M,M,HZ,M,M,M,M,M,M,88.26,VABB 292200Z 00000KT 3000 HZ NSC 28/23 Q1007 NOSIG,M
VABB,2022-03-29 22:30,80.60,73.40,78.76,100.00,3.00,0.00,29.74,M,1.86,M,NSC,M,M,M,M,M,M,M,HZ,M,M,M,M,M,M,85.32,VABB 292230Z 10003KT 3000 HZ NSC 27/23 Q1007 NOSIG,M
VABB,2022-03-29 23:00,82.40,73.40,74.28,0.00,0.00,0.00,29.74,M,1.86,M,NSC,M,M,M,M,M,M,M,HZ,M,M,M,M,M,M,88.26,VABB 292300Z 00000KT 3000 HZ NSC 28/23 Q1007 NOSIG,M
VABB,2022-03-29 23:30,80.60,73.40,78.76,150.00,3.00,0.00,29.74,M,1.86,M,NSC,M,M,M,M,M,M,M,HZ,M,M,M,M,M,M,85.32,VABB 292330Z 15003KT 3000 HZ NSC 27/23 Q1007 NOSIG,M
VABB,2022-03-30 00:00,80.60,75.20,83.66,0.00,0.00,0.00,29.74,M,1.86,M,NSC,M,M,M,M,M,M,M,HZ,M,M,M,M,M,M,86.17,VABB 300000Z 00000KT 3000 HZ NSC 27/24 Q1007 NOSIG,M
VABB,2022-03-30 00:30,80.60,73.40,78.76,0.00,0.00,0.00,29.77,M,1.86,M,NSC,M,M,M,M,M,M,M,HZ,M,M,M,M,M,M,85.32,VABB 300030Z 00000KT 3000 HZ NSC 27/23 Q1008 NOSIG,M
VABB,2022-03-30 01:00,80.60,75.20,83.66,0.00,0.00,0.00,29.77,M,1.86,M,NSC,M,M,M,M,M,M,M,HZ,M,M,M,M,M,M,86.17,VABB 300100Z 00000KT 3000 HZ NSC 27/24 Q1008 NOSIG,M
VABB,2022-03-30 01:30,80.60,73.40,78.76,0.00,0.00,0.00,29.77,M,1.86,M,NSC,M,M,M,M,M,M,M,HZ,M,M,M,M,M,M,85.32,VABB 300130Z 00000KT 3000 HZ NSC 27/23 Q1008 NOSIG,M
VABB,2022-03-30 02:00,82.40,69.80,65.74,0.00,0.00,0.00,29.80,M,1.86,M,NSC,M,M,M,M,M,M,M,HZ,M,M,M,M,M,M,86.22,VABB 300200Z 00000KT 3000 HZ NSC 28/21 Q1009 NOSIG,M
VABB,2022-03-30 02:30,84.20,69.80,62.03,0.00,0.00,0.00,29.80,M,1.86,M,NSC,M,M,M,M,M,M,M,HZ,M,M,M,M,M,M,88.43,VABB 300230Z 00000KT 3000 HZ NSC 29/21 Q1009 NOSIG,M
VABB,2022-03-30 03:00,84.20,69.80,62.03,0.00,0.00,0.00,29.83,M,1.86,M,NSC,M,M,M,M,M,M,M,HZ,M,M,M,M,M,M,88.43,VABB 300300Z 00000KT 3000 HZ NSC 29/21 Q1010 NOSIG,M
VABB,2022-03-30 03:30,86.00,69.80,58.55,0.00,0.00,0.00,29.83,M,1.86,M,NSC,M,M,M,M,M,M,M,HZ,M,M,M,M,M,M,90.58,VABB 300330Z 00000KT 3000 HZ NSC 30/21 Q1010 NOSIG,M
VABB,2022-03-30 04:00,87.80,71.60,58.78,110.00,4.00,0.00,29.83,M,1.86,M,NSC,M,M,M,M,M,M,M,FU,M,M,M,M,M,M,94.18,VABB 300400Z 11004KT 3000 FU NSC 31/22 Q1010 NOSIG,M
VABB,2022-03-30 04:30,89.60,69.80,52.23,150.00,4.00,0.00,29.83,M,1.86,M,NSC,M,M,M,M,M,M,M,FU,M,M,M,M,M,M,94.85,VABB 300430Z 15004KT 3000 FU NSC 32/21 Q1010 NOSIG,M
VABB,2022-03-30 05:00,93.20,68.00,43.88,240.00,5.00,0.00,29.83,M,1.86,M,NSC,M,M,M,M,M,M,M,FU,M,M,M,M,M,M,97.67,VABB 300500Z 24005KT 3000 FU NSC 34/20 Q1010 NOSIG,M
VABB,2022-03-30 05:30,91.40,69.80,49.36,270.00,10.00,0.00,29.83,M,2.17,M,NSC,M,M,M,M,M,M,M,FU,M,M,M,M,M,M,96.99,VABB 300530Z 27010KT 3500 FU NSC 33/21 Q1010 NOSIG,M
VABB,2022-03-30 06:00,91.40,71.60,52.48,270.00,10.00,0.00,29.83,M,2.49,M,NSC,M,M,M,M,M,M,M,FU,M,M,M,M,M,M,98.64,VABB 300600Z 27010KT 4000 FU NSC 33/22 Q1010 NOSIG,M
VABB,2022-03-30 06:30,89.60,73.40,59.01,270.00,12.00,0.00,29.83,M,2.49,M,NSC,M,M,M,M,M,M,M,FU,M,M,M,M,M,M,98.20,VABB 300630Z 27012KT 4000 FU NSC 32/23 Q1010 NOSIG,M
VABB,2022-03-30 07:00,89.60,73.40,59.01,270.00,11.00,0.00,29.80,M,2.49,M,NSC,M,M,M,M,M,M,M,FU,M,M,M,M,M,M,98.20,VABB 300700Z 27011KT 4000 FU NSC 32/23 Q1009 NOSIG,M
VABB,2022-03-30 07:30,89.60,73.40,59.01,260.00,10.00,0.00,29.80,M,2.49,M,NSC,M,M,M,M,M,M,M,FU,M,M,M,M,M,M,98.20,VABB 300730Z 26010KT 4000 FU NSC 32/23 Q1009 NOSIG,M
VABB,2022-03-30 08:00,89.60,75.20,62.68,250.00,10.00,0.00,29.77,M,2.80,M,NSC,M,M,M,M,M,M,M,FU,M,M,M,M,M,M,100.23,VABB 300800Z 25010KT 4500 FU NSC 32/24 Q1008 BECMG 5000 FU,M
VABB,2022-03-30 08:30,89.60,73.40,59.01,250.00,12.00,0.00,29.77,M,3.11,M,NSC,M,M,M,M,M,M,M,FU,M,M,M,M,M,M,98.20,VABB 300830Z 25012KT 5000 FU NSC 32/23 Q1008 NOSIG,M
VABB,2022-03-30 09:00,91.40,73.40,55.77,260.00,12.00,0.00,29.77,M,3.11,M,NSC,M,M,M,M,M,M,M,FU,M,M,M,M,M,M,100.52,VABB 300900Z 26012KT 5000 FU NSC 33/23 Q1008 NOSIG,M
VABB,2022-03-30 09:30,91.40,71.60,52.48,270.00,11.00,0.00,29.74,M,3.11,M,NSC,M,M,M,M,M,M,M,FU,M,M,M,M,M,M,98.64,VABB 300930Z 27011KT 5000 FU NSC 33/22 Q1007 NOSIG,M
VABB,2022-03-30 10:00,91.40,69.80,49.36,270.00,10.00,0.00,29.74,M,3.11,M,NSC,M,M,M,M,M,M,M,FU,M,M,M,M,M,M,96.99,VABB 301000Z 27010KT 5000 FU NSC 33/21 Q1007 NOSIG,M
VABB,2022-03-30 10:30,89.60,71.60,55.53,250.00,10.00,0.00,29.71,M,3.11,M,NSC,M,M,M,M,M,M,M,FU,M,M,M,M,M,M,96.41,VABB 301030Z 25010KT 5000 FU NSC 32/22 Q1006 NOSIG,M
VABB,2022-03-30 11:00,89.60,73.40,59.01,260.00,11.00,0.00,29.74,M,3.11,M,NSC,M,M,M,M,M,M,M,FU,M,M,M,M,M,M,98.20,VABB 301100Z 26011KT 5000 FU NSC 32/23 Q1007 NOSIG,M
VABB,2022-03-30 11:30,89.60,75.20,62.68,250.00,11.00,0.00,29.74,M,3.11,M,NSC,M,M,M,M,M,M,M,FU,M,M,M,M,M,M,100.23,VABB 301130Z 25011KT 5000 FU NSC 32/24 Q1007 NOSIG,M
VABB,2022-03-30 12:00,87.80,75.20,66.35,260.00,12.00,0.00,29.74,M,3.11,M,NSC,M,M,M,M,M,M,M,FU,M,M,M,M,M,M,97.76,VABB 301200Z 26012KT 5000 FU NSC 31/24 Q1007 NOSIG,M
VABB,2022-03-30 12:30,87.80,73.40,62.47,280.00,7.00,0.00,29.74,M,3.11,M,NSC,M,M,M,M,M,M,M,FU,M,M,M,M,M,M,95.86,VABB 301230Z 28007KT 5000 FU NSC 31/23 Q1007 NOSIG,M
VABB,2022-03-30 13:00,86.00,75.20,70.27,270.00,8.00,0.00,29.74,M,3.11,M,NSC,M,M,M,M,M,M,M,FU,M,M,M,M,M,M,95.19,VABB 301300Z 27008KT 5000 FU NSC 30/24 Q1007 BECMG 4000 FU,M
VABB,2022-03-30 13:30,86.00,69.80,58.55,280.00,8.00,0.00,29.74,M,2.49,M,NSC,M,M,M,M,M,M,M,FU,M,M,M,M,M,M,90.58,VABB 301330Z 28008KT 4000 FU NSC 30/21 Q1007 NOSIG,M
VABB,2022-03-30 14:00,86.00,75.20,70.27,280.00,6.00,0.00,29.77,M,2.49,M,NSC,M,M,M,M,M,M,M,FU,M,M,M,M,M,M,95.19,VABB 301400Z 28006KT 4000 FU NSC 30/24 Q1008 NOSIG,M
VABB,2022-03-30 14:30,84.20,75.20,74.44,290.00,6.00,0.00,29.77,M,2.49,M,NSC,M,M,M,M,M,M,M,FU,M,M,M,M,M,M,92.45,VABB 301430Z 29006KT 4000 FU NSC 29/24 Q1008 NOSIG,M
VABB,2022-03-30 15:00,84.20,77.00,79.04,280.00,7.00,0.00,29.77,M,1.86,M,NSC,M,M,M,M,M,M,M,HZ,M,M,M,M,M,M,94.16,VABB 301500Z 28007KT 3000 HZ NSC 29/25 Q1008 NOSIG,M
VABB,2022-03-30 15:30,84.20,77.00,79.04,280.00,8.00,0.00,29.77,M,1.86,M,NSC,M,M,M,M,M,M,M,FU,M,M,M,M,M,M,94.16,VABB 301530Z 28008KT 3000 FU NSC 29/25 Q1008 NOSIG,M
VABB,2022-03-30 16:00,82.40,78.80,88.90,280.00,8.00,0.00,29.80,M,1.86,M,NSC,M,M,M,M,M,M,M,HZ,M,M,M,M,M,M,92.76,VABB 301600Z 28008KT 3000 HZ NSC 28/26 Q1009 NOSIG,M
VABB,2022-03-30 16:30,82.40,78.80,88.90,290.00,5.00,0.00,29.80,M,1.86,M,NSC,M,M,M,M,M,M,M,HZ,M,M,M,M,M,M,92.76,VABB 301630Z 29005KT 3000 HZ NSC 28/26 Q1009 NOSIG,M
VABB,2022-03-30 17:00,82.40,78.80,88.90,280.00,5.00,0.00,29.80,M,1.86,M,NSC,M,M,M,M,M,M,M,HZ,M,M,M,M,M,M,92.76,VABB 301700Z 28005KT 3000 HZ NSC 28/26 Q1009 NOSIG,M
VABB,2022-03-30 17:30,82.40,78.80,88.90,250.00,5.00,0.00,29.80,M,1.86,M,NSC,M,M,M,M,M,M,M,HZ,M,M,M,M,M,M,92.76,VABB 301730Z 25005KT 3000 HZ NSC 28/26 Q1009 NOSIG,M
VABB,2022-03-30 18:00,82.40,78.80,88.90,180.00,5.00,0.00,29.80,M,1.86,M,NSC,M,M,M,M,M,M,M,HZ,M,M,M,M,M,M,92.76,VABB 301800Z 18005KT 3000 HZ NSC 28/26 Q1009 NOSIG,M
VABB,2022-03-30 18:30,82.40,78.80,88.90,170.00,4.00,0.00,29.80,M,1.86,M,NSC,M,M,M,M,M,M,M,HZ,M,M,M,M,M,M,92.76,VABB 301830Z 17004KT 3000 HZ NSC 28/26 Q1009 NOSIG,M
VABB,2022-03-30 19:00,82.40,77.00,83.77,120.00,4.00,0.00,29.80,M,1.86,M,NSC,M,M,M,M,M,M,M,HZ,M,M,M,M,M,M,90.85,VABB 301900Z 12004KT 3000 HZ NSC 28/25 Q1009 NOSIG,M
VABB,2022-03-30 19:30,82.40,77.00,83.77,110.00,4.00,0.00,29.80,M,1.86,M,NSC,M,M,M,M,M,M,M,HZ,M,M,M,M,M,M,90.85,VABB 301930Z 11004KT 3000 HZ NSC 28/25 Q1009 NOSIG,M
VABB,2022-03-30 20:00,82.40,77.00,83.77,120.00,4.00,0.00,29.77,M,1.86,M,NSC,M,M,M,M,M,M,M,HZ,M,M,M,M,M,M,90.85,VABB 302000Z 12004KT 3000 HZ NSC 28/25 Q1008 NOSIG,M
VABB,2022-03-30 20:30,80.60,77.00,88.83,130.00,4.00,0.00,29.77,M,1.86,M,NSC,M,M,M,M,M,M,M,HZ,M,M,M,M,M,M,87.59,VABB 302030Z 13004KT 3000 HZ NSC 27/25 Q1008 NOSIG,M
VABB,2022-03-30 21:00,80.60,77.00,88.83,0.00,0.00,0.00,29.77,M,1.86,M,NSC,M,M,M,M,M,M,M,HZ,M,M,M,M,M,M,87.59,VABB 302100Z 00000KT 3000 HZ NSC 27/25 Q1008 NOSIG,M
VABB,2022-03-30 21:30,80.60,75.20,83.66,0.00,0.00,0.00,29.77,M,1.86,M,NSC,M,M,M,M,M,M,M,HZ,M,M,M,M,M,M,86.17,VABB 302130Z 00000KT 3000 HZ NSC 27/24 Q1008 NOSIG,M
VABB,2022-03-30 22:00,78.80,75.20,88.75,0.00,0.00,0.00,29.77,M,1.86,M,NSC,M,M,M,M,M,M,M,HZ,M,M,M,M,M,M,78.80,VABB 302200Z 00000KT 3000 HZ NSC 26/24 Q1008 NOSIG,M
VABB,2022-03-30 22:30,78.80,73.40,83.55,0.00,0.00,0.00,29.77,M,1.86,M,NSC,M,M,M,M,M,M,M,HZ,M,M,M,M,M,M,78.80,VABB 302230Z 00000KT 3000 HZ NSC 26/23 Q1008 NOSIG,M
VABB,2022-03-30 23:00,78.80,75.20,88.75,0.00,0.00,0.00,29.77,M,1.86,M,NSC,M,M,M,M,M,M,M,HZ,M,M,M,M,M,M,78.80,VABB 302300Z 00000KT 3000 HZ NSC 26/24 Q1008 NOSIG,M
VABB,2022-03-30 23:30,80.60,75.20,83.66,320.00,3.00,0.00,29.77,M,1.86,M,NSC,M,M,M,M,M,M,M,HZ,M,M,M,M,M,M,86.17,VABB 302330Z 32003KT 3000 HZ NSC 27/24 Q1008 NOSIG,M
VABB,2022-03-31 00:00,78.80,73.40,83.55,0.00,0.00,0.00,29.77,M,1.86,M,NSC,M,M,M,M,M,M,M,HZ,M,M,M,M,M,M,78.80,VABB 310000Z 00000KT 3000 HZ NSC 26/23 Q1008 NOSIG,M
VABB,2022-03-31 00:30,80.60,73.40,78.76,10.00,3.00,0.00,29.77,M,1.86,M,NSC,M,M,M,M,M,M,M,HZ,M,M,M,M,M,M,85.32,VABB 310030Z 01003KT 3000 HZ NSC 27/23 Q1008 NOSIG,M
VABB,2022-03-31 01:00,80.60,73.40,78.76,360.00,3.00,0.00,29.80,M,1.86,M,NSC,M,M,M,M,M,M,M,HZ,M,M,M,M,M,M,85.32,VABB 310100Z 36003KT 3000 HZ NSC 27/23 Q1009 NOSIG,M
VABB,2022-03-31 01:30,80.60,73.40,78.76,70.00,3.00,0.00,29.80,M,1.86,M,FEW,M,M,M,2000.00,M,M,M,HZ,M,M,M,M,M,M,85.32,VABB 310130Z 07003KT 3000 HZ FEW020 27/23 Q1009 NOSIG,M
VABB,2022-03-31 02:00,80.60,75.20,83.66,190.00,3.00,0.00,29.80,M,1.86,M,FEW,M,M,M,2000.00,M,M,M,HZ,M,M,M,M,M,M,86.17,VABB 310200Z 19003KT 3000 HZ FEW020 27/24 Q1009 NOSIG,M
VABB,2022-03-31 02:30,82.40,75.20,78.90,200.00,3.00,0.00,29.83,M,1.86,M,NSC,M,M,M,M,M,M,M,HZ,M,M,M,M,M,M,89.48,VABB 310230Z 20003KT 3000 HZ NSC 28/24 Q1010 NOSIG,M
VABB,2022-03-31 03:00,82.40,77.00,83.77,0.00,0.00,0.00,29.83,M,1.86,M,NSC,M,M,M,M,M,M,M,HZ,M,M,M,M,M,M,90.85,VABB 310300Z 00000KT 3000 HZ NSC 28/25 Q1010 NOSIG,M
VABB,2022-03-31 03:30,84.20,77.00,79.04,190.00,5.00,0.00,29.83,M,1.86,M,NSC,M,M,M,M,M,M,M,HZ,M,M,M,M,M,M,94.16,VABB 310330Z 19005KT 3000 HZ NSC 29/25 Q1010 NOSIG,M
VABB,2022-03-31 04:00,86.00,75.20,70.27,200.00,5.00,0.00,29.85,M,1.55,M,NSC,M,M,M,M,M,M,M,HZ,M,M,M,M,M,M,95.19,VABB 310400Z 20005KT 2500 HZ NSC 30/24 Q1011 NOSIG,M
VABB,2022-03-31 04:30,87.80,75.20,66.35,0.00,0.00,0.00,29.85,M,1.55,M,NSC,M,M,M,M,M,M,M,HZ,M,M,M,M,M,M,97.76,VABB 310430Z 00000KT 2500 HZ NSC 31/24 Q1011 NOSIG,M
VABB,2022-03-31 05:00,87.80,77.00,70.45,270.00,8.00,0.00,29.85,M,1.55,M,NSC,M,M,M,M,M,M,M,HZ,M,M,M,M,M,M,99.92,VABB 310500Z 27008KT 2500 HZ NSC 31/25 Q1011 NOSIG,M
VABB,2022-03-31 05:30,87.80,77.00,70.45,260.00,9.00,0.00,29.85,M,1.55,M,NSC,M,M,M,M,M,M,M,HZ,M,M,M,M,M,M,99.92,VABB 310530Z 26009KT 2500 HZ NSC 31/25 Q1011 BECMG 3000 HZ,M
VABB,2022-03-31 06:00,87.80,77.00,70.45,270.00,9.00,0.00,29.85,M,1.86,M,NSC,M,M,M,M,M,M,M,HZ,M,M,M,M,M,M,99.92,VABB 310600Z 27009KT 3000 HZ NSC 31/25 Q1011 NOSIG,M
VABB,2022-03-31 06:30,87.80,77.00,70.45,270.00,8.00,0.00,29.85,M,1.86,M,NSC,M,M,M,M,M,M,M,HZ,M,M,M,M,M,M,99.92,VABB 310630Z 27008KT 3000 HZ NSC 31/25 Q1011 NOSIG,M
VABB,2022-03-31 07:00,87.80,77.00,70.45,260.00,8.00,0.00,29.83,M,1.86,M,NSC,M,M,M,M,M,M,M,HZ,M,M,M,M,M,M,99.92,VABB 310700Z 26008KT 3000 HZ NSC 31/25 Q1010 NOSIG,M
VABB,2022-03-31 07:30,87.80,77.00,70.45,260.00,11.00,0.00,29.83,M,1.86,M,NSC,M,M,M,M,M,M,M,HZ,M,M,M,M,M,M,99.92,VABB 310730Z 26011KT 3000 HZ NSC 31/25 Q1010 NOSIG,M
VABB,2022-03-31 08:00,87.80,73.40,62.47,270.00,11.00,0.00,29.80,M,2.17,M,NSC,M,M,M,M,M,M,M,HZ,M,M,M,M,M,M,95.86,VABB 310800Z 27011KT 3500 HZ NSC 31/23 Q1009 NOSIG,M
VABB,2022-03-31 08:30,87.80,68.00,51.98,250.00,8.00,0.00,29.80,M,2.49,M,NSC,M,M,M,M,M,M,M,HZ,M,M,M,M,M,M,91.43,VABB 310830Z 25008KT 4000 HZ NSC 31/20 Q1009 NOSIG,M
VABB,2022-03-31 09:00,89.60,68.00,49.10,250.00,9.00,0.00,29.77,M,2.49,M,NSC,M,M,M,M,M,M,M,FU,M,M,M,M,M,M,93.47,VABB 310900Z 25009KT 4000 FU NSC 32/20 Q1008 NOSIG,M
VABB,2022-03-31 09:30,89.60,68.00,49.10,250.00,8.00,0.00,29.77,M,2.49,M,NSC,M,M,M,M,M,M,M,FU,M,M,M,M,M,M,93.47,VABB 310930Z 25008KT 4000 FU NSC 32/20 Q1008 NOSIG,M
VABB,2022-03-31 10:00,89.60,64.40,43.34,260.00,10.00,0.00,29.77,M,2.49,M,NSC,M,M,M,M,M,M,M,FU,M,M,M,M,M,M,91.23,VABB 311000Z 26010KT 4000 FU NSC 32/18 Q1008 NOSIG,M
VABB,2022-03-31 10:30,87.80,66.20,48.84,270.00,11.00,0.00,29.77,M,2.49,M,NSC,M,M,M,M,M,M,M,FU,M,M,M,M,M,M,90.31,VABB 311030Z 27011KT 4000 FU NSC 31/19 Q1008 NOSIG,M
VABB,2022-03-31 11:00,89.60,68.00,49.10,260.00,11.00,0.00,29.77,M,2.49,M,NSC,M,M,M,M,M,M,M,FU,M,M,M,M,M,M,93.47,VABB 311100Z 26011KT 4000 FU NSC 32/20 Q1008 NOSIG,M
VABB,2022-03-31 11:30,87.80,69.80,55.29,270.00,10.00,0.00,29.77,M,2.49,M,NSC,M,M,M,M,M,M,M,FU,M,M,M,M,M,M,92.71,VABB 311130Z 27010KT 4000 FU NSC 31/21 Q1008 NOSIG,M
VABB,2022-03-31 12:00,87.80,71.60,58.78,270.00,9.00,0.00,29.77,M,2.49,M,NSC,M,M,M,M,M,M,M,FU,M,M,M,M,M,M,94.18,VABB 311200Z 27009KT 4000 FU NSC 31/22 Q1008 NOSIG,M
VABB,2022-03-31 12:30,86.00,71.60,62.25,290.00,7.00,0.00,29.77,M,2.49,M,NSC,M,M,M,M,M,M,M,FU,M,M,M,M,M,M,91.92,VABB 311230Z 29007KT 4000 FU NSC 30/22 Q1008 NOSIG,M
VABB,2022-03-31 13:00,84.20,71.60,65.95,270.00,8.00,0.00,29.77,M,2.17,M,NSC,M,M,M,M,M,M,M,HZ,M,M,M,M,M,M,89.60,VABB 311300Z 27008KT 3500 HZ NSC 29/22 Q1008 NOSIG,M
VABB,2022-03-31 13:30,84.20,71.60,65.95,270.00,5.00,0.00,29.77,M,2.17,M,NSC,M,M,M,M,M,M,M,HZ,M,M,M,M,M,M,89.60,VABB 311330Z 27005KT 3500 HZ NSC 29/22 Q1008 NOSIG,M
VABB,2022-03-31 14:00,84.20,73.40,70.08,270.00,5.00,0.00,29.80,M,2.17,M,NSC,M,M,M,M,M,M,M,HZ,M,M,M,M,M,M,90.94,VABB 311400Z 27005KT 3500 HZ NSC 29/23 Q1009 NOSIG,M
VABB,2022-03-31 14:30,82.40,73.40,74.28,270.00,4.00,0.00,29.80,M,2.17,M,NSC,M,M,M,M,M,M,M,HZ,M,M,M,M,M,M,88.26,VABB 311430Z 27004KT 3500 HZ NSC 28/23 Q1009 NOSIG,M
VABB,2022-03-31 15:00,82.40,73.40,74.28,270.00,5.00,0.00,29.80,M,2.17,M,NSC,M,M,M,M,M,M,M,HZ,M,M,M,M,M,M,88.26,VABB 311500Z 27005KT 3500 HZ NSC 28/23 Q1009 BECMG 3000 HZ,M
VABB,2022-03-31 15:30,82.40,75.20,78.90,310.00,3.00,0.00,29.80,M,1.86,M,NSC,M,M,M,M,M,M,M,HZ,M,M,M,M,M,M,89.48,VABB 311530Z 31003KT 3000 HZ NSC 28/24 Q1009 NOSIG,M
VABB,2022-03-31 16:00,82.40,75.20,78.90,290.00,4.00,0.00,29.83,M,1.86,M,NSC,M,M,M,M,M,M,M,HZ,M,M,M,M,M,M,89.48,VABB 311600Z 29004KT 3000 HZ NSC 28/24 Q1010 NOSIG,M
VABB,2022-03-31 16:30,82.40,75.20,78.90,260.00,4.00,0.00,29.83,M,1.86,M,NSC,M,M,M,M,M,M,M,HZ,M,M,M,M,M,M,89.48,VABB 311630Z 26004KT 3000 HZ NSC 28/24 Q1010 NOSIG,M
VABB,2022-03-31 17:00,82.40,75.20,78.90,290.00,6.00,0.00,29.83,M,1.86,M,NSC,M,M,M,M,M,M,M,HZ,M,M,M,M,M,M,89.48,VABB 311700Z 29006KT 3000 HZ NSC 28/24 Q1010 NOSIG,M
VABB,2022-03-31 17:30,82.40,75.20,78.90,310.00,4.00,0.00,29.83,M,1.86,M,NSC,M,M,M,M,M,M,M,HZ,M,M,M,M,M,M,89.48,VABB 311730Z 31004KT 3000 HZ NSC 28/24 Q1010 NOSIG,M
VABB,2022-03-31 18:00,80.60,75.20,83.66,300.00,3.00,0.00,29.83,M,1.86,M,NSC,M,M,M,M,M,M,M,HZ,M,M,M,M,M,M,86.17,VABB 311800Z 30003KT 3000 HZ NSC 27/24 Q1010 NOSIG,M
VABB,2022-03-31 18:30,80.60,75.20,83.66,0.00,0.00,0.00,29.83,M,1.86,M,NSC,M,M,M,M,M,M,M,HZ,M,M,M,M,M,M,86.17,VABB 311830Z 00000KT 3000 HZ NSC 27/24 Q1010 NOSIG,M
VABB,2022-03-31 19:00,80.60,75.20,83.66,90.00,4.00,0.00,29.83,M,1.86,M,NSC,M,M,M,M,M,M,M,HZ,M,M,M,M,M,M,86.17,VABB 311900Z 09004KT 3000 HZ NSC 27/24 Q1010 NOSIG,M
VABB,2022-03-31 19:30,80.60,75.20,83.66,10.00,5.00,0.00,29.80,M,1.86,M,NSC,M,M,M,M,M,M,M,HZ,M,M,M,M,M,M,86.17,VABB 311930Z 01005KT 3000 HZ NSC 27/24 Q1009 NOSIG,M
VABB,2022-03-31 20:00,80.60,75.20,83.66,360.00,5.00,0.00,29.80,M,1.86,M,NSC,M,M,M,M,M,M,M,HZ,M,M,M,M,M,M,86.17,VABB 312000Z 36005KT 3000 HZ NSC 27/24 Q1009 NOSIG,M
VABB,2022-03-31 20:30,78.80,73.40,83.55,0.00,0.00,0.00,29.77,M,1.86,M,NSC,M,M,M,M,M,M,M,HZ,M,M,M,M,M,M,78.80,VABB 312030Z 00000KT 3000 HZ NSC 26/23 Q1008 NOSIG,M
VABB,2022-03-31 21:00,78.80,73.40,83.55,M,3.00,0.00,29.77,M,1.86,M,NSC,M,M,M,M,M,M,M,HZ,M,M,M,M,M,M,78.80,VABB 312100Z VRB03KT 3000 HZ NSC 26/23 Q1008 NOSIG,M
VABB,2022-03-31 21:30,78.80,73.40,83.55,20.00,4.00,0.00,29.77,M,1.86,M,NSC,M,M,M,M,M,M,M,HZ,M,M,M,M,M,M,78.80,VABB 312130Z 02004KT 3000 HZ NSC 26/23 Q1008 NOSIG,M
VABB,2022-03-31 22:00,78.80,73.40,83.55,0.00,0.00,0.00,29.77,M,1.86,M,NSC,M,M,M,M,M,M,M,HZ,M,M,M,M,M,M,78.80,VABB 312200Z 00000KT 3000 HZ NSC 26/23 Q1008 NOSIG,M
VABB,2022-03-31 22:30,77.00,69.80,78.48,0.00,0.00,0.00,29.77,M,1.86,M,NSC,M,M,M,M,M,M,M,HZ,M,M,M,M,M,M,77.00,VABB 312230Z 00000KT 3000 HZ NSC 25/21 Q1008 NOSIG,M
VABB,2022-03-31 23:00,77.00,71.60,83.44,0.00,0.00,0.00,29.77,M,1.86,M,NSC,M,M,M,M,M,M,M,HZ,M,M,M,M,M,M,77.00,VABB 312300Z 00000KT 3000 HZ NSC 25/22 Q1008 NOSIG,M
VABB,2022-03-31 23:30,77.00,71.60,83.44,80.00,5.00,0.00,29.77,M,1.86,M,NSC,M,M,M,M,M,M,M,HZ,M,M,M,M,M,M,77.00,VABB 312330Z 08005KT 3000 HZ NSC 25/22 Q1008 NOSIG,M
VABB,2022-04-01 00:00,77.00,71.60,83.44,0.00,0.00,0.00,29.77,M,1.86,M,NSC,M,M,M,M,M,M,M,HZ,M,M,M,M,M,M,77.00,VABB 010000Z 00000KT 3000 HZ NSC 25/22 Q1008 NOSIG,M
VABB,2022-04-01 00:30,77.00,71.60,83.44,0.00,0.00,0.00,29.77,M,1.86,M,NSC,M,M,M,M,M,M,M,HZ,M,M,M,M,M,M,77.00,VABB 010030Z 00000KT 3000 HZ NSC 25/22 Q1008 NOSIG,M
VABB,2022-04-01 01:00,75.20,69.80,83.32,0.00,0.00,0.00,29.80,M,1.55,M,NSC,M,M,M,M,M,M,M,HZ,M,M,M,M,M,M,75.20,VABB 010100Z 00000KT 2500 HZ NSC 24/21 Q1009 NOSIG,M
VABB,2022-04-01 01:30,77.00,69.80,78.48,0.00,0.00,0.00,29.80,M,1.55,M,NSC,M,M,M,M,M,M,M,HZ,M,M,M,M,M,M,77.00,VABB 010130Z 00000KT 2500 HZ NSC 25/21 Q1009 NOSIG,M
VABB,2022-04-01 02:00,77.00,69.80,78.48,190.00,3.00,0.00,29.80,M,1.55,M,NSC,M,M,M,M,M,M,M,HZ,M,M,M,M,M,M,77.00,VABB 010200Z 19003KT 2500 HZ NSC 25/21 Q1009 NOSIG,M
VABB,2022-04-01 02:30,78.80,71.60,78.62,0.00,0.00,0.00,29.83,M,1.30,M,NSC,M,M,M,M,M,M,M,HZ,M,M,M,M,M,M,78.80,VABB 010230Z 00000KT 2100 HZ NSC 26/22 Q1010 NOSIG,M
VABB,2022-04-01 03:00,80.60,69.80,69.71,0.00,0.00,0.00,29.83,M,1.30,M,NSC,M,M,M,M,M,M,M,HZ,M,M,M,M,M,M,83.90,VABB 010300Z 00000KT 2100 HZ NSC 27/21 Q1010 NOSIG,M
VABB,2022-04-01 03:30,82.40,68.00,61.81,0.00,0.00,0.00,29.85,M,1.37,M,NSC,M,M,M,M,M,M,M,HZ,M,M,M,M,M,M,85.38,VABB 010330Z 00000KT 2200 HZ NSC 28/20 Q1011 NOSIG,M
VABB,2022-04-01 04:00,86.00,68.00,55.04,0.00,0.00,0.00,29.85,M,1.37,M,NSC,M,M,M,M,M,M,M,HZ,M,M,M,M,M,M,89.41,VABB 010400Z 00000KT 2200 HZ NSC 30/20 Q1011 NOSIG,M
VABB,2022-04-01 04:30,87.80,64.40,45.88,0.00,0.00,0.00,29.85,M,1.37,M,NSC,M,M,M,M,M,M,M,FU,M,M,M,M,M,M,89.33,VABB 010430Z 00000KT 2200 FU NSC 31/18 Q1011 NOSIG,M
VABB,2022-04-01 05:00,89.60,62.60,40.69,310.00,5.00,0.00,29.85,M,1.55,M,NSC,M,M,M,M,M,M,M,FU,M,M,M,M,M,M,90.32,VABB 010500Z 31005KT 2500 FU NSC 32/17 Q1011 NOSIG,M
VABB,2022-04-01 05:30,89.60,68.00,49.10,270.00,8.00,0.00,29.85,M,1.55,M,NSC,M,M,M,M,M,M,M,FU,M,M,M,M,M,M,93.47,VABB 010530Z 27008KT 2500 FU NSC 32/20 Q1011 NOSIG,M
VABB,2022-04-01 06:00,89.60,69.80,52.23,260.00,12.00,0.00,29.83,M,1.55,M,NSC,M,M,M,M,M,M,M,FU,M,M,M,M,M,M,94.85,VABB 010600Z 26012KT 2500 FU NSC 32/21 Q1010 NOSIG,M
VABB,2022-04-01 06:30,89.60,69.80,52.23,250.00,12.00,0.00,29.83,M,1.86,M,NSC,M,M,M,M,M,M,M,FU,M,M,M,M,M,M,94.85,VABB 010630Z 25012KT 3000 FU NSC 32/21 Q1010 NOSIG,M
VABB,2022-04-01 07:00,89.60,68.00,49.10,250.00,13.00,0.00,29.83,M,1.86,M,NSC,M,M,M,M,M,M,M,FU,M,M,M,M,M,M,93.47,VABB 010700Z 25013KT 3000 FU NSC 32/20 Q1010 NOSIG,M
VABB,2022-04-01 07:30,89.60,68.00,49.10,260.00,14.00,0.00,29.80,M,1.86,M,NSC,M,M,M,M,M,M,M,FU,M,M,M,M,M,M,93.47,VABB 010730Z 26014KT 3000 FU NSC 32/20 Q1009 NOSIG,M
VABB,2022-04-01 08:00,89.60,69.80,52.23,260.00,14.00,0.00,29.80,M,1.86,M,NSC,M,M,M,M,M,M,M,FU,M,M,M,M,M,M,94.85,VABB 010800Z 26014KT 3000 FU NSC 32/21 Q1009 NOSIG,M
VABB,2022-04-01 08:30,89.60,68.00,49.10,260.00,13.00,0.00,29.77,M,2.17,M,NSC,M,M,M,M,M,M,M,FU,M,M,M,M,M,M,93.47,VABB 010830Z 26013KT 3500 FU NSC 32/20 Q1008 NOSIG,M
VABB,2022-04-01 09:00,87.80,68.00,51.98,260.00,12.00,0.00,29.77,M,2.17,M,NSC,M,M,M,M,M,M,M,FU,M,M,M,M,M,M,91.43,VABB 010900Z 26012KT 3500 FU NSC 31/20 Q1008 NOSIG,M
VABB,2022-04-01 09:30,89.60,68.00,49.10,280.00,8.00,0.00,29.74,M,2.17,M,NSC,M,M,M,M,M,M,M,FU,M,M,M,M,M,M,93.47,VABB 010930Z 28008KT 3500 FU NSC 32/20 Q1007 NOSIG,M
VABB,2022-04-01 10:00,91.40,68.00,46.41,270.00,8.00,0.00,29.74,M,2.17,M,NSC,M,M,M,M,M,M,M,FU,M,M,M,M,M,M,95.55,VABB 011000Z 27008KT 3500 FU NSC 33/20 Q1007 NOSIG,M
VABB,2022-04-01 10:30,89.60,71.60,55.53,260.00,12.00,0.00,29.74,M,2.17,M,NSC,M,M,M,M,M,M,M,FU,M,M,M,M,M,M,96.41,VABB 011030Z 26012KT 3500 FU NSC 32/22 Q1007 NOSIG,M
VABB,2022-04-01 11:00,87.80,71.60,58.78,270.00,12.00,0.00,29.74,M,2.17,M,NSC,M,M,M,M,M,M,M,FU,M,M,M,M,M,M,94.18,VABB 011100Z 27012KT 3500 FU NSC 31/22 Q1007 NOSIG,M
VABB,2022-04-01 11:30,87.80,71.60,58.78,280.00,11.00,0.00,29.74,M,2.49,M,NSC,M,M,M,M,M,M,M,FU,M,M,M,M,M,M,94.18,VABB 011130Z 28011KT 4000 FU NSC 31/22 Q1007 NOSIG,M
VABB,2022-04-01 12:00,86.00,71.60,62.25,280.00,11.00,0.00,29.74,M,2.49,M,NSC,M,M,M,M,M,M,M,FU,M,M,M,M,M,M,91.92,VABB 011200Z 28011KT 4000 FU NSC 30/22 Q1007 NOSIG,M
VABB,2022-04-01 12:30,86.00,73.40,66.15,270.00,11.00,0.00,29.74,M,2.49,M,NSC,M,M,M,M,M,M,M,FU,M,M,M,M,M,M,93.45,VABB 011230Z 27011KT 4000 FU NSC 30/23 Q1007 NOSIG,M
VABB,2022-04-01 13:00,84.20,75.20,74.44,290.00,9.00,0.00,29.74,M,2.17,M,NSC,M,M,M,M,M,M,M,FU,M,M,M,M,M,M,92.45,VABB 011300Z 29009KT 3500 FU NSC 29/24 Q1007 NOSIG,M
VABB,2022-04-01 13:30,84.20,75.20,74.44,290.00,8.00,0.00,29.77,M,2.17,M,NSC,M,M,M,M,M,M,M,HZ,M,M,M,M,M,M,92.45,VABB 011330Z 29008KT 3500 HZ NSC 29/24 Q1008 NOSIG,M
VABB,2022-04-01 14:00,82.40,75.20,78.90,280.00,7.00,0.00,29.77,M,2.17,M,NSC,M,M,M,M,M,M,M,HZ,M,M,M,M,M,M,89.48,VABB 011400Z 28007KT 3500 HZ NSC 28/24 Q1008 NOSIG,M
VABB,2022-04-01 14:30,82.40,75.20,78.90,280.00,7.00,0.00,29.80,M,2.17,M,NSC,M,M,M,M,M,M,M,HZ,M,M,M,M,M,M,89.48,VABB 011430Z 28007KT 3500 HZ NSC 28/24 Q1009 NOSIG,M
VABB,2022-04-01 15:00,82.40,75.20,78.90,290.00,6.00,0.00,29.80,M,2.17,M,NSC,M,M,M,M,M,M,M,HZ,M,M,M,M,M,M,89.48,VABB 011500Z 29006KT 3500 HZ NSC 28/24 Q1009 NOSIG,M
VABB,2022-04-01 15:30,82.40,75.20,78.90,270.00,7.00,0.00,29.80,M,2.17,M,NSC,M,M,M,M,M,M,M,HZ,M,M,M,M,M,M,89.48,VABB 011530Z 27007KT 3500 HZ NSC 28/24 Q1009 BECMG 3000 HZ,M
VABB,2022-04-01 16:00,82.40,75.20,78.90,290.00,5.00,0.00,29.83,M,1.86,M,NSC,M,M,M,M,M,M,M,HZ,M,M,M,M,M,M,89.48,VABB 011600Z 29005KT 3000 HZ NSC 28/24 Q1010 NOSIG,M
VABB,2022-04-01 16:30,82.40,75.20,78.90,260.00,4.00,0.00,29.83,M,1.86,M,NSC,M,M,M,M,M,M,M,HZ,M,M,M,M,M,M,89.48,VABB 011630Z 26004KT 3000 HZ NSC 28/24 Q1010 NOSIG,M
VABB,2022-04-01 17:00,80.60,75.20,83.66,230.00,3.00,0.00,29.83,M,1.86,M,NSC,M,M,M,M,M,M,M,HZ,M,M,M,M,M,M,86.17,VABB 011700Z 23003KT 3000 HZ NSC 27/24 Q1010 NOSIG,M
VABB,2022-04-01 17:30,80.60,77.00,88.83,240.00,4.00,0.00,29.83,M,1.86,M,NSC,M,M,M,M,M,M,M,HZ,M,M,M,M,M,M,87.59,VABB 011730Z 24004KT 3000 HZ NSC 27/25 Q1010 NOSIG,M
VABB,2022-04-01 18:00,80.60,77.00,88.83,0.00,0.00,0.00,29.83,M,1.86,M,NSC,M,M,M,M,M,M,M,HZ,M,M,M,M,M,M,87.59,VABB 011800Z 00000KT 3000 HZ NSC 27/25 Q1010 NOSIG,M
VABB,2022-04-01 18:30,80.60,77.00,88.83,260.00,5.00,0.00,29.83,M,1.86,M,NSC,M,M,M,M,M,M,M,HZ,M,M,M,M,M,M,87.59,VABB 011830Z 26005KT 3000 HZ NSC 27/25 Q1010 NOSIG,M
VABB,2022-04-01 19:00,80.60,77.00,88.83,240.00,6.00,0.00,29.83,M,1.86,M,NSC,M,M,M,M,M,M,M,HZ,M,M,M,M,M,M,87.59,VABB 011900Z 24006KT 3000 HZ NSC 27/25 Q1010 NOSIG,M
VABB,2022-04-01 19:30,80.60,77.00,88.83,250.00,6.00,0.00,29.83,M,1.86,M,NSC,M,M,M,M,M,M,M,HZ,M,M,M,M,M,M,87.59,VABB 011930Z 25006KT 3000 HZ NSC 27/25 Q1010 NOSIG,M
VABB,2022-04-01 20:00,80.60,77.00,88.83,230.00,5.00,0.00,29.80,M,1.86,M,NSC,M,M,M,M,M,M,M,HZ,M,M,M,M,M,M,87.59,VABB 012000Z 23005KT 3000 HZ NSC 27/25 Q1009 NOSIG,M
VABB,2022-04-01 20:30,80.60,77.00,88.83,250.00,4.00,0.00,29.80,M,1.86,M,NSC,M,M,M,M,M,M,M,HZ,M,M,M,M,M,M,87.59,VABB 012030Z 25004KT 3000 HZ NSC 27/25 Q1009 NOSIG,M
VABB,2022-04-01 21:00,80.60,77.00,88.83,200.00,4.00,0.00,29.80,M,1.86,M,NSC,M,M,M,M,M,M,M,HZ,M,M,M,M,M,M,87.59,VABB 012100Z 20004KT 3000 HZ NSC 27/25 Q1009 NOSIG,M
VABB,2022-04-01 21:30,78.80,75.20,88.75,240.00,3.00,0.00,29.77,M,1.86,M,NSC,M,M,M,M,M,M,M,HZ,M,M,M,M,M,M,78.80,VABB 012130Z 24003KT 3000 HZ NSC 26/24 Q1008 NOSIG,M
VABB,2022-04-01 22:00,78.80,75.20,88.75,260.00,5.00,0.00,29.77,M,1.86,M,NSC,M,M,M,M,M,M,M,HZ,M,M,M,M,M,M,78.80,VABB 012200Z 26005KT 3000 HZ NSC 26/24 Q1008 NOSIG,M
VABB,2022-04-01 22:30,80.60,75.20,83.66,290.00,5.00,0.00,29.77,M,1.86,M,NSC,M,M,M,M,M,M,M,HZ,M,M,M,M,M,M,86.17,VABB 012230Z 29005KT 3000 HZ NSC 27/24 Q1008 NOSIG,M
VABB,2022-04-01 23:00,80.60,75.20,83.66,300.00,3.00,0.00,29.77,M,1.86,M,NSC,M,M,M,M,M,M,M,HZ,M,M,M,M,M,M,86.17,VABB 012300Z 30003KT 3000 HZ NSC 27/24 Q1008 NOSIG,M
VABB,2022-04-01 23:30,80.60,75.20,83.66,300.00,4.00,0.00,29.77,M,1.86,M,NSC,M,M,M,M,M,M,M,HZ,M,M,M,M,M,M,86.17,VABB 012330Z 30004KT 3000 HZ NSC 27/24 Q1008 NOSIG,M
VABB,2022-04-02 00:00,80.60,75.20,83.66,320.00,3.00,0.00,29.80,M,1.86,M,NSC,M,M,M,M,M,M,M,HZ,M,M,M,M,M,M,86.17,VABB 020000Z 32003KT 3000 HZ NSC 27/24 Q1009 NOSIG,M
VABB,2022-04-02 00:30,80.60,73.40,78.76,300.00,4.00,0.00,29.80,M,1.86,M,NSC,M,M,M,M,M,M,M,HZ,M,M,M,M,M,M,85.32,VABB 020030Z 30004KT 3000 HZ NSC 27/23 Q1009 NOSIG,M
VABB,2022-04-02 01:00,80.60,73.40,78.76,300.00,3.00,0.00,29.80,M,1.86,M,SCT,M,M,M,2000.00,M,M,M,HZ,M,M,M,M,M,M,85.32,VABB 020100Z 30003KT 3000 HZ SCT020 27/23 Q1009 NOSIG,M
VABB,2022-04-02 01:30,80.60,73.40,78.76,30.00,5.00,0.00,29.83,M,1.55,M,SCT,M,M,M,2000.00,M,M,M,HZ,M,M,M,M,M,M,85.32,VABB 020130Z 03005KT 2500 HZ SCT020 27/23 Q1010 NOSIG,M
VABB,2022-04-02 02:00,80.60,73.40,78.76,30.00,4.00,0.00,29.83,M,1.55,M,SCT,M,M,M,2000.00,M,M,M,HZ,M,M,M,M,M,M,85.32,VABB 020200Z 03004KT 2500 HZ SCT020 27/23 Q1010 NOSIG,M
VABB,2022-04-02 02:30,82.40,73.40,74.28,40.00,5.00,0.00,29.85,M,1.55,M,SCT,M,M,M,2000.00,M,M,M,HZ,M,M,M,M,M,M,88.26,VABB 020230Z 04005KT 2500 HZ SCT020 28/23 Q1011 NOSIG,M
VABB,2022-04-02 03:00,82.40,73.40,74.28,100.00,4.00,0.00,29.85,M,1.55,M,SCT,M,M,M,2000.00,M,M,M,HZ,M,M,M,M,M,M,88.26,VABB 020300Z 10004KT 2500 HZ SCT020 28/23 Q1011 NOSIG,M
VABB,2022-04-02 03:30,82.40,73.40,74.28,0.00,0.00,0.00,29.88,M,1.55,M,SCT,M,M,M,2000.00,M,M,M,HZ,M,M,M,M,M,M,88.26,VABB 020330Z 00000KT 2500 HZ SCT020 28/23 Q1012 NOSIG,M
VABB,2022-04-02 04:00,84.20,73.40,70.08,250.00,3.00,0.00,29.88,M,1.55,M,SCT,M,M,M,2000.00,M,M,M,HZ,M,M,M,M,M,M,90.94,VABB 020400Z 25003KT 2500 HZ SCT020 29/23 Q1012 NOSIG,M
VABB,2022-04-02 04:30,84.20,73.40,70.08,160.00,6.00,0.00,29.88,M,1.55,M,SCT,M,M,M,2000.00,M,M,M,HZ,M,M,M,M,M,M,90.94,VABB 020430Z 16006KT 2500 HZ SCT020 29/23 Q1012 BECMG 3000 FU,M
VABB,2022-04-02 05:00,86.00,71.60,62.25,240.00,4.00,0.00,29.88,M,1.86,M,FEW,M,M,M,2000.00,M,M,M,FU,M,M,M,M,M,M,91.92,VABB 020500Z 24004KT 3000 FU FEW020 30/22 Q1012 NOSIG,M
VABB,2022-04-02 05:30,86.00,73.40,66.15,280.00,5.00,0.00,29.88,M,1.86,M,FEW,M,M,M,2000.00,M,M,M,FU,M,M,M,M,M,M,93.45,VABB 020530Z 28005KT 3000 FU FEW020 30/23 Q1012 NOSIG,M
VABB,2022-04-02 06:00,87.80,73.40,62.47,240.00,9.00,0.00,29.85,M,1.86,M,FEW,M,M,M,2000.00,M,M,M,FU,M,M,M,M,M,M,95.86,VABB 020600Z 24009KT 3000 FU FEW020 31/23 Q1011 NOSIG,M
VABB,2022-04-02 06:30,87.80,73.40,62.47,290.00,8.00,0.00,29.85,M,1.86,M,FEW,M,M,M,2000.00,M,M,M,FU,M,M,M,M,M,M,95.86,VABB 020630Z 29008KT 3000 FU FEW020 31/23 Q1011 NOSIG,M
VABB,2022-04-02 07:00,86.00,73.40,66.15,270.00,7.00,0.00,29.85,M,1.86,M,FEW,M,M,M,2000.00,M,M,M,FU,M,M,M,M,M,M,93.45,VABB 020700Z 27007KT 3000 FU FEW020 30/23 Q1011 NOSIG,M
VABB,2022-04-02 07:30,87.80,75.20,66.35,270.00,10.00,0.00,29.85,M,1.86,M,FEW,M,M,M,2000.00,M,M,M,FU,M,M,M,M,M,M,97.76,VABB 020730Z 27010KT 3000 FU FEW020 31/24 Q1011 NOSIG,M
VABB,2022-04-02 08:00,87.80,75.20,66.35,270.00,9.00,0.00,29.83,M,1.86,M,NSC,M,M,M,M,M,M,M,FU,M,M,M,M,M,M,97.76,VABB 020800Z 27009KT 3000 FU NSC 31/24 Q1010 NOSIG,M
VABB,2022-04-02 08:30,87.80,75.20,66.35,250.00,9.00,0.00,29.83,M,1.86,M,NSC,M,M,M,M,M,M,M,HZ,M,M,M,M,M,M,97.76,VABB 020830Z 25009KT 3000 HZ NSC 31/24 Q1010 NOSIG,M
VABB,2022-04-02 09:00,87.80,75.20,66.35,260.00,10.00,0.00,29.83,M,2.49,M,NSC,M,M,M,M,M,M,M,HZ,M,M,M,M,M,M,97.76,VABB 020900Z 26010KT 4000 HZ NSC 31/24 Q1010 NOSIG,M
VABB,2022-04-02 09:30,87.80,73.40,62.47,270.00,10.00,0.00,29.80,M,2.49,M,NSC,M,M,M,M,M,M,M,HZ,M,M,M,M,M,M,95.86,VABB 020930Z 27010KT 4000 HZ NSC 31/23 Q1009 NOSIG,M
VABB,2022-04-02 10:00,87.80,69.80,55.29,260.00,11.00,0.00,29.80,M,2.49,M,NSC,M,M,M,M,M,M,M,HZ,M,M,M,M,M,M,92.71,VABB 021000Z 26011KT 4000 HZ NSC 31/21 Q1009 NOSIG,M
VABB,2022-04-02 10:30,87.80,64.40,45.88,260.00,11.00,0.00,29.80,M,2.49,M,NSC,M,M,M,M,M,M,M,FU,M,M,M,M,M,M,89.33,VABB 021030Z 26011KT 4000 FU NSC 31/18 Q1009 NOSIG,M
VABB,2022-04-02 11:00,86.00,66.20,51.72,280.00,10.00,0.00,29.77,M,2.49,M,NSC,M,M,M,M,M,M,M,FU,M,M,M,M,M,M,88.39,VABB 021100Z 28010KT 4000 FU NSC 30/19 Q1008 NOSIG,M
VABB,2022-04-02 11:30,86.00,68.00,55.04,260.00,11.00,0.00,29.77,M,2.49,M,NSC,M,M,M,M,M,M,M,FU,M,M,M,M,M,M,89.41,VABB 021130Z 26011KT 4000 FU NSC 30/20 Q1008 NOSIG,M
VABB,2022-04-02 12:00,86.00,68.00,55.04,260.00,12.00,0.00,29.77,M,2.49,M,NSC,M,M,M,M,M,M,M,FU,M,M,M,M,M,M,89.41,VABB 021200Z 26012KT 4000 FU NSC 30/20 Q1008 NOSIG,M
VABB,2022-04-02 12:30,86.00,68.00,55.04,260.00,10.00,0.00,29.80,M,2.49,M,NSC,M,M,M,M,M,M,M,FU,M,M,M,M,M,M,89.41,VABB 021230Z 26010KT 4000 FU NSC 30/20 Q1009 NOSIG,M
VABB,2022-04-02 13:00,84.20,69.80,62.03,250.00,10.00,0.00,29.80,M,2.80,M,NSC,M,M,M,M,M,M,M,FU,M,M,M,M,M,M,88.43,VABB 021300Z 25010KT 4500 FU NSC 29/21 Q1009 NOSIG,M
VABB,2022-04-02 13:30,84.20,69.80,62.03,260.00,7.00,0.00,29.80,M,2.80,M,NSC,M,M,M,M,M,M,M,FU,M,M,M,M,M,M,88.43,VABB 021330Z 26007KT 4500 FU NSC 29/21 Q1009 NOSIG,M
VABB,2022-04-02 14:00,84.20,69.80,62.03,270.00,7.00,0.00,29.83,M,2.49,M,NSC,M,M,M,M,M,M,M,HZ,M,M,M,M,M,M,88.43,VABB 021400Z 27007KT 4000 HZ NSC 29/21 Q1010 NOSIG,M
VABB,2022-04-02 14:30,84.20,69.80,62.03,260.00,8.00,0.00,29.83,M,2.49,M,NSC,M,M,M,M,M,M,M,HZ,M,M,M,M,M,M,88.43,VABB 021430Z 26008KT 4000 HZ NSC 29/21 Q1010 NOSIG,M
VABB,2022-04-02 15:00,84.20,69.80,62.03,240.00,7.00,0.00,29.83,M,2.49,M,NSC,M,M,M,M,M,M,M,HZ,M,M,M,M,M,M,88.43,VABB 021500Z 24007KT 4000 HZ NSC 29/21 Q1010 NOSIG,M
VABB,2022-04-02 15:30,82.40,69.80,65.74,240.00,5.00,0.00,29.85,M,2.49,M,NSC,M,M,M,M,M,M,M,HZ,M,M,M,M,M,M,86.22,VABB 021530Z 24005KT 4000 HZ NSC 28/21 Q1011 NOSIG,M
VABB,2022-04-02 16:00,82.40,71.60,69.90,250.00,5.00,0.00,29.85,M,2.49,M,NSC,M,M,M,M,M,M,M,HZ,M,M,M,M,M,M,87.18,VABB 021600Z 25005KT 4000 HZ NSC 28/22 Q1011 NOSIG,M
VABB,2022-04-02 16:30,82.40,71.60,69.90,220.00,5.00,0.00,29.85,M,2.17,M,NSC,M,M,M,M,M,M,M,HZ,M,M,M,M,M,M,87.18,VABB 021630Z 22005KT 3500 HZ NSC 28/22 Q1011 NOSIG,M
VABB,2022-04-02 17:00,82.40,71.60,69.90,210.00,4.00,0.00,29.85,M,2.17,M,NSC,M,M,M,M,M,M,M,HZ,M,M,M,M,M,M,87.18,VABB 021700Z 21004KT 3500 HZ NSC 28/22 Q1011 NOSIG,M
VABB,2022-04-02 17:30,82.40,73.40,74.28,M,3.00,0.00,29.85,M,2.17,M,NSC,M,M,M,M,M,M,M,HZ,M,M,M,M,M,M,88.26,VABB 021730Z VRB03KT 3500 HZ NSC 28/23 Q1011 NOSIG,M
VABB,2022-04-02 18:00,82.40,73.40,74.28,230.00,5.00,0.00,29.85,M,2.17,M,NSC,M,M,M,M,M,M,M,HZ,M,M,M,M,M,M,88.26,VABB 021800Z 23005KT 3500 HZ NSC 28/23 Q1011 NOSIG,M
VABB,2022-04-02 18:30,82.40,73.40,74.28,220.00,6.00,0.00,29.85,M,2.17,M,NSC,M,M,M,M,M,M,M,HZ,M,M,M,M,M,M,88.26,VABB 021830Z 22006KT 3500 HZ NSC 28/23 Q1011 NOSIG,M
VABB,2022-04-02 19:00,82.40,73.40,74.28,250.00,6.00,0.00,29.83,M,2.17,M,NSC,M,M,M,M,M,M,M,HZ,M,M,M,M,M,M,88.26,VABB 021900Z 25006KT 3500 HZ NSC 28/23 Q1010 NOSIG,M
VABB,2022-04-02 19:30,80.60,73.40,78.76,250.00,5.00,0.00,29.83,M,2.17,M,NSC,M,M,M,M,M,M,M,HZ,M,M,M,M,M,M,85.32,VABB 021930Z 25005KT 3500 HZ NSC 27/23 Q1010 NOSIG,M
VABB,2022-04-02 20:00,80.60,73.40,78.76,290.00,4.00,0.00,29.80,M,2.17,M,NSC,M,M,M,M,M,M,M,HZ,M,M,M,M,M,M,85.32,VABB 022000Z 29004KT 3500 HZ NSC 27/23 Q1009 NOSIG,M
VABB,2022-04-02 20:30,80.60,73.40,78.76,320.00,4.00,0.00,29.80,M,2.17,M,NSC,M,M,M,M,M,M,M,HZ,M,M,M,M,M,M,85.32,VABB 022030Z 32004KT 3500 HZ NSC 27/23 Q1009 BECMG 3000 HZ,M
VABB,2022-04-02 21:00,80.60,75.20,83.66,310.00,3.00,0.00,29.80,M,1.86,M,NSC,M,M,M,M,M,M,M,HZ,M,M,M,M,M,M,86.17,VABB 022100Z 31003KT 3000 HZ NSC 27/24 Q1009 NOSIG,M
VABB,2022-04-02 21:30,80.60,75.20,83.66,0.00,0.00,0.00,29.80,M,1.86,M,NSC,M,M,M,M,M,M,M,HZ,M,M,M,M,M,M,86.17,VABB 022130Z 00000KT 3000 HZ NSC 27/24 Q1009 NOSIG,M
VABB,2022-04-02 22:00,80.60,75.20,83.66,20.00,4.00,0.00,29.80,M,1.86,M,NSC,M,M,M,M,M,M,M,HZ,M,M,M,M,M,M,86.17,VABB 022200Z 02004KT 3000 HZ NSC 27/24 Q1009 NOSIG,M
VABB,2022-04-02 22:30,80.60,75.20,83.66,10.00,4.00,0.00,29.80,M,1.86,M,SCT,M,M,M,2000.00,M,M,M,HZ,M,M,M,M,M,M,86.17,VABB 022230Z 01004KT 3000 HZ SCT020 27/24 Q1009 NOSIG,M
VABB,2022-04-02 23:00,80.60,75.20,83.66,20.00,4.00,0.00,29.80,M,1.86,M,SCT,M,M,M,2000.00,M,M,M,HZ,M,M,M,M,M,M,86.17,VABB 022300Z 02004KT 3000 HZ SCT020 27/24 Q1009 NOSIG,M
VABB,2022-04-02 23:30,80.60,73.40,78.76,20.00,3.00,0.00,29.80,M,1.86,M,SCT,M,M,M,2000.00,M,M,M,HZ,M,M,M,M,M,M,85.32,VABB 022330Z 02003KT 3000 HZ SCT020 27/23 Q1009 NOSIG,M
VABB,2022-04-03 00:00,80.60,73.40,78.76,359.00,94.00,0.00,29.80,M,1.86,M,SCT,M,M,M,2000.00,M,M,M,HZ,M,M,M,M,M,M,85.32,VABB 030000Z 35994KT 3000 HZ SCT020 27/23 Q1009 NOSIG,M
VABB,2022-04-03 00:30,80.60,73.40,78.76,60.00,5.00,0.00,29.80,M,1.86,M,FEW,M,M,M,2000.00,M,M,M,HZ,M,M,M,M,M,M,85.32,VABB 030030Z 06005KT 3000 HZ FEW020 27/23 Q1009 NOSIG,M
VABB,2022-04-03 01:00,78.80,73.40,83.55,80.00,4.00,0.00,29.80,M,1.86,M,FEW,M,M,M,2000.00,M,M,M,HZ,M,M,M,M,M,M,78.80,VABB 030100Z 08004KT 3000 HZ FEW020 26/23 Q1009 NOSIG,M
VABB,2022-04-03 01:30,78.80,73.40,83.55,0.00,0.00,0.00,29.83,M,1.86,M,NSC,M,M,M,M,M,M,M,HZ,M,M,M,M,M,M,78.80,VABB 030130Z 00000KT 3000 HZ NSC 26/23 Q1010 NOSIG,M
VABB,2022-04-03 02:00,78.80,73.40,83.55,120.00,4.00,0.00,29.83,M,1.86,M,NSC,M,M,M,M,M,M,M,HZ,M,M,M,M,M,M,78.80,VABB 030200Z 12004KT 3000 HZ NSC 26/23 Q1010 NOSIG,M
VABB,2022-04-03 02:30,80.60,73.40,78.76,140.00,4.00,0.00,29.85,M,1.86,M,FEW,M,M,M,2000.00,M,M,M,HZ,M,M,M,M,M,M,85.32,VABB 030230Z 14004KT 3000 HZ FEW020 27/23 Q1011 NOSIG,M
VABB,2022-04-03 03:00,80.60,73.40,78.76,120.00,4.00,0.00,29.85,M,1.86,M,FEW,M,M,M,2000.00,M,M,M,HZ,M,M,M,M,M,M,85.32,VABB 030300Z 12004KT 3000 HZ FEW020 27/23 Q1011 NOSIG,M
VABB,2022-04-03 03:30,82.40,73.40,74.28,130.00,4.00,0.00,29.85,M,1.86,M,FEW,M,M,M,2000.00,M,M,M,HZ,M,M,M,M,M,M,88.26,VABB 030330Z 13004KT 3000 HZ FEW020 28/23 Q1011 NOSIG,M
VABB,2022-04-03 04:00,84.20,73.40,70.08,110.00,4.00,0.00,29.88,M,2.17,M,FEW,M,M,M,2000.00,M,M,M,HZ,M,M,M,M,M,M,90.94,VABB 030400Z 11004KT 3500 HZ FEW020 29/23 Q1012 NOSIG,M
VABB,2022-04-03 04:30,86.00,73.40,66.15,0.00,0.00,0.00,29.88,M,2.17,M,NSC,M,M,M,M,M,M,M,HZ,M,M,M,M,M,M,93.45,VABB 030430Z 00000KT 3500 HZ NSC 30/23 Q1012 NOSIG,M
VABB,2022-04-03 05:00,87.80,69.80,55.29,340.00,4.00,0.00,29.88,M,2.17,M,NSC,M,M,M,M,M,M,M,HZ,M,M,M,M,M,M,92.71,VABB 030500Z 34004KT 3500 HZ NSC 31/21 Q1012 NOSIG,M
VABB,2022-04-03 05:30,87.80,69.80,55.29,270.00,4.00,0.00,29.85,M,2.17,M,NSC,M,M,M,M,M,M,M,HZ,M,M,M,M,M,M,92.71,VABB 030530Z 27004KT 3500 HZ NSC 31/21 Q1011 NOSIG,M
VABB,2022-04-03 06:00,87.80,73.40,62.47,260.00,6.00,0.00,29.85,M,2.17,M,NSC,M,M,M,M,M,M,M,HZ,M,M,M,M,M,M,95.86,VABB 030600Z 26006KT 3500 HZ NSC 31/23 Q1011 NOSIG,M
VABB,2022-04-03 06:30,89.60,71.60,55.53,290.00,5.00,0.00,29.85,M,2.17,M,NSC,M,M,M,M,M,M,M,HZ,M,M,M,M,M,M,96.41,VABB 030630Z 29005KT 3500 HZ NSC 32/22 Q1011 NOSIG,M
VABB,2022-04-03 07:00,89.60,73.40,59.01,270.00,10.00,0.00,29.83,M,2.17,M,NSC,M,M,M,M,M,M,M,FU,M,M,M,M,M,M,98.20,VABB 030700Z 27010KT 3500 FU NSC 32/23 Q1010 NOSIG,M
VABB,2022-04-03 07:30,89.60,71.60,55.53,260.00,10.00,0.00,29.83,M,2.17,M,NSC,M,M,M,M,M,M,M,FU,M,M,M,M,M,M,96.41,VABB 030730Z 26010KT 3500 FU NSC 32/22 Q1010 NOSIG,M
VABB,2022-04-03 08:00,89.60,62.60,40.69,260.00,10.00,0.00,29.80,M,2.49,M,NSC,M,M,M,M,M,M,M,FU,M,M,M,M,M,M,90.32,VABB 030800Z 26010KT 4000 FU NSC 32/17 Q1009 NOSIG,M
VABB,2022-04-03 08:30,91.40,62.60,38.45,260.00,12.00,0.00,29.77,M,2.49,M,NSC,M,M,M,M,M,M,M,FU,M,M,M,M,M,M,92.23,VABB 030830Z 26012KT 4000 FU NSC 33/17 Q1008 NOSIG,M
VABB,2022-04-03 09:00,91.40,57.20,31.72,290.00,10.00,0.00,29.77,M,2.49,M,NSC,M,M,M,M,M,M,M,FU,M,M,M,M,M,M,90.06,VABB 030900Z 29010KT 4000 FU NSC 33/14 Q1008 BECMG 5000 FU,M
VABB,2022-04-03 09:30,89.60,66.20,46.14,280.00,13.00,0.00,29.74,M,3.11,M,NSC,M,M,M,M,M,M,M,FU,M,M,M,M,M,M,92.27,VABB 030930Z 28013KT 5000 FU NSC 32/19 Q1007 NOSIG,M
VABB,2022-04-03 10:00,89.60,66.20,46.14,270.00,13.00,0.00,29.74,M,3.11,M,NSC,M,M,M,M,M,M,M,FU,M,M,M,M,M,M,92.27,VABB 031000Z 27013KT 5000 FU NSC 32/19 Q1007 NOSIG,M
VABB,2022-04-03 10:30,89.60,62.60,40.69,290.00,12.00,0.00,29.74,M,3.11,M,NSC,M,M,M,M,M,M,M,FU,M,M,M,M,M,M,90.32,VABB 031030Z 29012KT 5000 FU NSC 32/17 Q1007 NOSIG,M
VABB,2022-04-03 11:00,89.60,64.40,43.34,310.00,8.00,0.00,29.74,M,3.11,M,NSC,M,M,M,M,M,M,M,FU,M,M,M,M,M,M,91.23,VABB 031100Z 31008KT 5000 FU NSC 32/18 Q1007 NOSIG,M
VABB,2022-04-03 11:30,89.60,66.20,46.14,300.00,10.00,0.00,29.74,M,3.11,M,NSC,M,M,M,M,M,M,M,FU,M,M,M,M,M,M,92.27,VABB 031130Z 30010KT 5000 FU NSC 32/19 Q1007 NOSIG,M
VABB,2022-04-03 12:00,87.80,66.20,48.84,300.00,11.00,0.00,29.74,M,3.11,M,NSC,M,M,M,M,M,M,M,FU,M,M,M,M,M,M,90.31,VABB 031200Z 30011KT 5000 FU NSC 31/19 Q1007 NOSIG,M
VABB,2022-04-03 12:30,87.80,69.80,55.29,290.00,11.00,0.00,29.74,M,3.11,M,NSC,M,M,M,M,M,M,M,FU,M,M,M,M,M,M,92.71,VABB 031230Z 29011KT 5000 FU NSC 31/21 Q1007 NOSIG,M
VABB,2022-04-03 13:00,86.00,69.80,58.55,300.00,9.00,0.00,29.74,M,3.11,M,NSC,M,M,M,M,M,M,M,FU,M,M,M,M,M,M,90.58,VABB 031300Z 30009KT 5000 FU NSC 30/21 Q1007 NOSIG,M
VABB,2022-04-03 13:30,84.20,71.60,65.95,290.00,11.00,0.00,29.74,M,2.49,M,NSC,M,M,M,M,M,M,M,HZ,M,M,M,M,M,M,89.60,VABB 031330Z 29011KT 4000 HZ NSC 29/22 Q1007 NOSIG,M
VABB,2022-04-03 14:00,84.20,73.40,70.08,280.00,9.00,0.00,29.77,M,2.49,M,NSC,M,M,M,M,M,M,M,HZ,M,M,M,M,M,M,90.94,VABB 031400Z 28009KT 4000 HZ NSC 29/23 Q1008 NOSIG,M
VABB,2022-04-03 14:30,84.20,73.40,70.08,290.00,6.00,0.00,29.77,M,2.17,M,NSC,M,M,M,M,M,M,M,HZ,M,M,M,M,M,M,90.94,VABB 031430Z 29006KT 3500 HZ NSC 29/23 Q1008 NOSIG,M
VABB,2022-04-03 15:00,84.20,75.20,74.44,280.00,7.00,0.00,29.77,M,2.17,M,NSC,M,M,M,M,M,M,M,HZ,M,M,M,M,M,M,92.45,VABB 031500Z 28007KT 3500 HZ NSC 29/24 Q1008 NOSIG,M
VABB,2022-04-03 15:30,84.20,75.20,74.44,280.00,7.00,0.00,29.80,M,2.17,M,NSC,M,M,M,M,M,M,M,HZ,M,M,M,M,M,M,92.45,VABB 031530Z 28007KT 3500 HZ NSC 29/24 Q1009 NOSIG,M
VABB,2022-04-03 16:00,82.40,75.20,78.90,280.00,8.00,0.00,29.80,M,2.17,M,NSC,M,M,M,M,M,M,M,HZ,M,M,M,M,M,M,89.48,VABB 031600Z 28008KT 3500 HZ NSC 28/24 Q1009 NOSIG,M
VABB,2022-04-03 16:30,82.40,75.20,78.90,270.00,6.00,0.00,29.80,M,2.17,M,NSC,M,M,M,M,M,M,M,HZ,M,M,M,M,M,M,89.48,VABB 031630Z 27006KT 3500 HZ NSC 28/24 Q1009 NOSIG,M
VABB,2022-04-03 17:00,82.40,75.20,78.90,270.00,5.00,0.00,29.80,M,2.17,M,NSC,M,M,M,M,M,M,M,HZ,M,M,M,M,M,M,89.48,VABB 031700Z 27005KT 3500 HZ NSC 28/24 Q1009 NOSIG,M
VABB,2022-04-03 17:30,82.40,75.20,78.90,260.00,5.00,0.00,29.80,M,2.17,M,NSC,M,M,M,M,M,M,M,HZ,M,M,M,M,M,M,89.48,VABB 031730Z 26005KT 3500 HZ NSC 28/24 Q1009 NOSIG,M
VABB,2022-04-03 18:00,82.40,75.20,78.90,280.00,6.00,0.00,29.80,M,2.17,M,NSC,M,M,M,M,M,M,M,HZ,M,M,M,M,M,M,89.48,VABB 031800Z 28006KT 3500 HZ NSC 28/24 Q1009 NOSIG,M
VABB,2022-04-03 18:30,82.40,75.20,78.90,260.00,5.00,0.00,29.80,M,2.17,M,NSC,M,M,M,M,M,M,M,HZ,M,M,M,M,M,M,89.48,VABB 031830Z 26005KT 3500 HZ NSC 28/24 Q1009 NOSIG,M
VABB,2022-04-03 19:00,82.40,75.20,78.90,290.00,5.00,0.00,29.80,M,2.17,M,NSC,M,M,M,M,M,M,M,HZ,M,M,M,M,M,M,89.48,VABB 031900Z 29005KT 3500 HZ NSC 28/24 Q1009 NOSIG,M
VABB,2022-04-03 19:30,82.40,77.00,83.77,0.00,0.00,0.00,29.80,M,2.17,M,NSC,M,M,M,M,M,M,M,HZ,M,M,M,M,M,M,90.85,VABB 031930Z 00000KT 3500 HZ NSC 28/25 Q1009 NOSIG,M
VABB,2022-04-03 20:00,82.40,77.00,83.77,250.00,5.00,0.00,29.80,M,2.17,M,NSC,M,M,M,M,M,M,M,HZ,M,M,M,M,M,M,90.85,VABB 032000Z 25005KT 3500 HZ NSC 28/25 Q1009 BECMG 3000 HZ,M
VABB,2022-04-03 20:30,82.40,77.00,83.77,250.00,3.00,0.00,29.77,M,1.86,M,NSC,M,M,M,M,M,M,M,HZ,M,M,M,M,M,M,90.85,VABB 032030Z 25003KT 3000 HZ NSC 28/25 Q1008 NOSIG,M
VABB,2022-04-03 21:00,82.40,75.20,78.90,240.00,4.00,0.00,29.77,M,1.86,M,NSC,M,M,M,M,M,M,M,HZ,M,M,M,M,M,M,89.48,VABB 032100Z 24004KT 3000 HZ NSC 28/24 Q1008 NOSIG,M
VABB,2022-04-03 21:30,82.40,75.20,78.90,280.00,5.00,0.00,29.77,M,1.86,M,NSC,M,M,M,M,M,M,M,HZ,M,M,M,M,M,M,89.48,VABB 032130Z 28005KT 3000 HZ NSC 28/24 Q1008 NOSIG,M
VABB,2022-04-03 22:00,82.40,75.20,78.90,280.00,4.00,0.00,29.77,M,1.86,M,NSC,M,M,M,M,M,M,M,HZ,M,M,M,M,M,M,89.48,VABB 032200Z 28004KT 3000 HZ NSC 28/24 Q1008 NOSIG,M
VABB,2022-04-03 22:30,80.60,75.20,83.66,310.00,4.00,0.00,29.77,M,1.86,M,SCT,M,M,M,2000.00,M,M,M,HZ,M,M,M,M,M,M,86.17,VABB 032230Z 31004KT 3000 HZ SCT020 27/24 Q1008 NOSIG,M
VABB,2022-04-03 23:00,80.60,75.20,83.66,0.00,0.00,0.00,29.77,M,1.86,M,SCT,M,M,M,2000.00,M,M,M,HZ,M,M,M,M,M,M,86.17,VABB 032300Z 00000KT 3000 HZ SCT020 27/24 Q1008 NOSIG,M
VABB,2022-04-03 23:30,80.60,75.20,83.66,310.00,3.00,0.00,29.77,M,1.86,M,SCT,M,M,M,2000.00,M,M,M,HZ,M,M,M,M,M,M,86.17,VABB 032330Z 31003KT 3000 HZ SCT020 27/24 Q1008 NOSIG,M
VABB,2022-04-04 00:00,80.60,75.20,83.66,0.00,0.00,0.00,29.80,M,1.86,M,SCT,M,M,M,2000.00,M,M,M,HZ,M,M,M,M,M,M,86.17,VABB 040000Z 00000KT 3000 HZ SCT020 27/24 Q1009 NOSIG,M
VABB,2022-04-04 00:30,80.60,75.20,83.66,190.00,3.00,0.00,29.80,M,1.86,M,SCT,M,M,M,2000.00,M,M,M,HZ,M,M,M,M,M,M,86.17,VABB 040030Z 19003KT 3000 HZ SCT020 27/24 Q1009 NOSIG,M
VABB,2022-04-04 01:00,80.60,77.00,88.83,120.00,4.00,0.00,29.80,M,1.86,M,SCT,M,M,M,2000.00,M,M,M,HZ,M,M,M,M,M,M,87.59,VABB 040100Z 12004KT 3000 HZ SCT020 27/25 Q1009 NOSIG,M
VABB,2022-04-04 01:30,80.60,75.20,83.66,130.00,5.00,0.00,29.80,M,1.86,M,SCT,M,M,M,2000.00,M,M,M,HZ,M,M,M,M,M,M,86.17,VABB 040130Z 13005KT 3000 HZ SCT020 27/24 Q1009 NOSIG,M
VABB,2022-04-04 02:00,80.60,75.20,83.66,120.00,4.00,0.00,29.83,M,1.86,M,FEW,M,M,M,2000.00,M,M,M,HZ,M,M,M,M,M,M,86.17,VABB 040200Z 12004KT 3000 HZ FEW020 27/24 Q1010 NOSIG,M
VABB,2022-04-04 02:30,82.40,75.20,78.90,120.00,5.00,0.00,29.83,M,1.86,M,FEW,M,M,M,10000.00,M,M,M,HZ,M,M,M,M,M,M,89.48,VABB 040230Z 12005KT 3000 HZ FEW100 28/24 Q1010 NOSIG,M
VABB,2022-04-04 03:00,84.20,75.20,74.44,110.00,3.00,0.00,29.83,M,1.86,M,NSC,M,M,M,M,M,M,M,HZ,M,M,M,M,M,M,92.45,VABB 040300Z 11003KT 3000 HZ NSC 29/24 Q1010 NOSIG,M
VABB,2022-04-04 03:30,84.20,77.00,79.04,110.00,5.00,0.00,29.83,M,1.86,M,NSC,M,M,M,M,M,M,M,HZ,M,M,M,M,M,M,94.16,VABB 040330Z 11005KT 3000 HZ NSC 29/25 Q1010 NOSIG,M
VABB,2022-04-04 04:00,86.00,75.20,70.27,0.00,0.00,0.00,29.85,M,1.86,M,NSC,M,M,M,M,M,M,M,HZ,M,M,M,M,M,M,95.19,VABB 040400Z 00000KT 3000 HZ NSC 30/24 Q1011 NOSIG,M
VABB,2022-04-04 04:30,87.80,75.20,66.35,110.00,5.00,0.00,29.85,M,1.86,M,NSC,M,M,M,M,M,M,M,HZ,M,M,M,M,M,M,97.76,VABB 040430Z 11005KT 3000 HZ NSC 31/24 Q1011 NOSIG,M
VABB,2022-04-04 05:00,89.60,75.20,62.68,150.00,4.00,0.00,29.85,M,1.86,M,NSC,M,M,M,M,M,M,M,HZ,M,M,M,M,M,M,100.23,VABB 040500Z 15004KT 3000 HZ NSC 32/24 Q1011 NOSIG,M
VABB,2022-04-04 05:30,89.60,73.40,59.01,220.00,5.00,0.00,29.85,M,1.86,M,NSC,M,M,M,M,M,M,M,FU,M,M,M,M,M,M,98.20,VABB 040530Z 22005KT 3000 FU NSC 32/23 Q1011 NOSIG,M
VABB,2022-04-04 06:00,89.60,77.00,66.55,270.00,8.00,0.00,29.83,M,1.86,M,NSC,M,M,M,M,M,M,M,FU,M,M,M,M,M,M,102.54,VABB 040600Z 27008KT 3000 FU NSC 32/25 Q1010 NOSIG,M
VABB,2022-04-04 06:30,89.60,77.00,66.55,260.00,9.00,0.00,29.83,M,1.86,M,NSC,M,M,M,M,M,M,M,FU,M,M,M,M,M,M,102.54,VABB 040630Z 26009KT 3000 FU NSC 32/25 Q1010 NOSIG,M
VABB,2022-04-04 07:00,89.60,77.00,66.55,250.00,8.00,0.00,29.83,M,1.86,M,NSC,M,M,M,M,M,M,M,HZ,M,M,M,M,M,M,102.54,VABB 040700Z 25008KT 3000 HZ NSC 32/25 Q1010 NOSIG,M
VABB,2022-04-04 07:30,89.60,77.00,66.55,260.00,10.00,0.00,29.80,M,1.86,M,NSC,M,M,M,M,M,M,M,HZ,M,M,M,M,M,M,102.54,VABB 040730Z 26010KT 3000 HZ NSC 32/25 Q1009 NOSIG,M
VABB,2022-04-04 08:00,87.80,75.20,66.35,270.00,10.00,0.00,29.80,M,2.17,M,NSC,M,M,M,M,M,M,M,HZ,M,M,M,M,M,M,97.76,VABB 040800Z 27010KT 3500 HZ NSC 31/24 Q1009 NOSIG,M
VABB,2022-04-04 08:30,87.80,75.20,66.35,270.00,12.00,0.00,29.80,M,2.49,M,NSC,M,M,M,M,M,M,M,HZ,M,M,M,M,M,M,97.76,VABB 040830Z 27012KT 4000 HZ NSC 31/24 Q1009 NOSIG,M
VABB,2022-04-04 09:00,87.80,73.40,62.47,230.00,10.00,0.00,29.77,M,2.49,M,NSC,M,M,M,M,M,M,M,HZ,M,M,M,M,M,M,95.86,VABB 040900Z 23010KT 4000 HZ NSC 31/23 Q1008 BECMG 5000 HZ,M
VABB,2022-04-04 09:30,87.80,75.20,66.35,240.00,12.00,0.00,29.77,M,3.11,M,NSC,M,M,M,M,M,M,M,HZ,M,M,M,M,M,M,97.76,VABB 040930Z 24012KT 5000 HZ NSC 31/24 Q1008 NOSIG,M
VABB,2022-04-04 10:00,87.80,77.00,70.45,240.00,9.00,0.00,29.77,M,3.11,M,NSC,M,M,M,M,M,M,M,HZ,M,M,M,M,M,M,99.92,VABB 041000Z 24009KT 5000 HZ NSC 31/25 Q1008 NOSIG,M
VABB,2022-04-04 10:30,87.80,77.00,70.45,260.00,10.00,0.00,29.77,M,3.11,M,NSC,M,M,M,M,M,M,M,HZ,M,M,M,M,M,M,99.92,VABB 041030Z 26010KT 5000 HZ NSC 31/25 Q1008 NOSIG,M
VABB,2022-04-04 11:00,86.00,77.00,74.61,270.00,10.00,0.00,29.77,M,3.11,M,FEW,M,M,M,2000.00,M,M,M,HZ,M,M,M,M,M,M,97.15,VABB 041100Z 27010KT 5000 HZ FEW020 30/25 Q1008 NOSIG,M
VABB,2022-04-04 11:30,86.00,77.00,74.61,280.00,9.00,0.00,29.77,M,3.11,M,FEW,M,M,M,2000.00,M,M,M,HZ,M,M,M,M,M,M,97.15,VABB 041130Z 28009KT 5000 HZ FEW020 30/25 Q1008 NOSIG,M
VABB,2022-04-04 12:00,86.00,77.00,74.61,250.00,10.00,0.00,29.77,M,3.11,M,FEW,M,M,M,2000.00,M,M,M,HZ,M,M,M,M,M,M,97.15,VABB 041200Z 25010KT 5000 HZ FEW020 30/25 Q1008 NOSIG,M
VABB,2022-04-04 12:30,86.00,77.00,74.61,260.00,10.00,0.00,29.77,M,3.11,M,FEW,M,M,M,2000.00,M,M,M,HZ,M,M,M,M,M,M,97.15,VABB 041230Z 26010KT 5000 HZ FEW020 30/25 Q1008 NOSIG,M
VABB,2022-04-04 13:00,84.20,77.00,79.04,270.00,11.00,0.00,29.80,M,3.11,M,SCT,M,M,M,2000.00,M,M,M,HZ,M,M,M,M,M,M,94.16,VABB 041300Z 27011KT 5000 HZ SCT020 29/25 Q1009 NOSIG,M
VABB,2022-04-04 13:30,84.20,77.00,79.04,260.00,8.00,0.00,29.80,M,2.80,M,SCT,M,M,M,2000.00,M,M,M,HZ,M,M,M,M,M,M,94.16,VABB 041330Z 26008KT 4500 HZ SCT020 29/25 Q1009 NOSIG,M
VABB,2022-04-04 14:00,84.20,77.00,79.04,260.00,7.00,0.00,29.80,M,2.49,M,SCT,M,M,M,2000.00,M,M,M,HZ,M,M,M,M,M,M,94.16,VABB 041400Z 26007KT 4000 HZ SCT020 29/25 Q1009 NOSIG,M
VABB,2022-04-04 14:30,84.20,77.00,79.04,270.00,7.00,0.00,29.83,M,2.49,M,SCT,M,M,M,2000.00,M,M,M,HZ,M,M,M,M,M,M,94.16,VABB 041430Z 27007KT 4000 HZ SCT020 29/25 Q1010 NOSIG,M
VABB,2022-04-04 15:00,84.20,78.80,83.88,220.00,6.00,0.00,29.83,M,2.17,M,SCT,M,M,M,2000.00,M,M,M,HZ,M,M,M,M,M,M,96.10,VABB 041500Z 22006KT 3500 HZ SCT020 29/26 Q1010 NOSIG,M
VABB,2022-04-04 15:30,84.20,78.80,83.88,230.00,6.00,0.00,29.83,M,2.17,M,SCT,M,M,M,2000.00,M,M,M,HZ,M,M,M,M,M,M,96.10,VABB 041530Z 23006KT 3500 HZ SCT020 29/26 Q1010 NOSIG,M
VABB,2022-04-04 16:00,84.20,77.00,79.04,240.00,4.00,0.00,29.85,M,2.17,M,SCT,M,M,M,2000.00,M,M,M,HZ,M,M,M,M,M,M,94.16,VABB 041600Z 24004KT 3500 HZ SCT020 29/25 Q1011 NOSIG,M
VABB,2022-04-04 16:30,84.20,77.00,79.04,230.00,5.00,0.00,29.85,M,2.17,M,SCT,M,M,M,2000.00,M,M,M,HZ,M,M,M,M,M,M,94.16,VABB 041630Z 23005KT 3500 HZ SCT020 29/25 Q1011 NOSIG,M
VABB,2022-04-04 17:00,84.20,77.00,79.04,220.00,5.00,0.00,29.85,M,2.17,M,SCT,M,M,M,2000.00,M,M,M,HZ,M,M,M,M,M,M,94.16,VABB 041700Z 22005KT 3500 HZ SCT020 29/25 Q1011 NOSIG,M
VABB,2022-04-04 17:30,84.20,77.00,79.04,240.00,5.00,0.00,29.85,M,2.17,M,SCT,M,M,M,2000.00,M,M,M,HZ,M,M,M,M,M,M,94.16,VABB 041730Z 24005KT 3500 HZ SCT020 29/25 Q1011 NOSIG,M
VABB,2022-04-04 18:00,84.20,77.00,79.04,240.00,6.00,0.00,29.85,M,2.17,M,SCT,M,M,M,2000.00,M,M,M,HZ,M,M,M,M,M,M,94.16,VABB 041800Z 24006KT 3500 HZ SCT020 29/25 Q1011 NOSIG,M
VABB,2022-04-04 18:30,84.20,78.80,83.88,210.00,6.00,0.00,29.85,M,2.17,M,SCT,M,M,M,2000.00,M,M,M,HZ,M,M,M,M,M,M,96.10,VABB 041830Z 21006KT 3500 HZ SCT020 29/26 Q1011 NOSIG,M
VABB,2022-04-04 19:00,84.20,78.80,83.88,200.00,4.00,0.00,29.85,M,2.17,M,SCT,M,M,M,2000.00,M,M,M,HZ,M,M,M,M,M,M,96.10,VABB 041900Z 20004KT 3500 HZ SCT020 29/26 Q1011 NOSIG,M
VABB,2022-04-04 19:30,82.40,77.00,83.77,210.00,3.00,0.00,29.85,M,2.17,M,SCT,M,M,M,2000.00,M,M,M,HZ,M,M,M,M,M,M,90.85,VABB 041930Z 21003KT 3500 HZ SCT020 28/25 Q1011 NOSIG,M
VABB,2022-04-04 20:00,82.40,77.00,83.77,240.00,3.00,0.00,29.85,M,2.17,M,SCT,M,M,M,2000.00,M,M,M,HZ,M,M,M,M,M,M,90.85,VABB 042000Z 24003KT 3500 HZ SCT020 28/25 Q1011 NOSIG,M
VABB,2022-04-04 20:30,82.40,78.80,88.90,230.00,4.00,0.00,29.83,M,2.17,M,SCT,M,M,M,2000.00,M,M,M,HZ,M,M,M,M,M,M,92.76,VABB 042030Z 23004KT 3500 HZ SCT020 28/26 Q1010 BECMG 3000 HZ,M
VABB,2022-04-04 21:00,82.40,78.80,88.90,220.00,4.00,0.00,29.83,M,1.86,M,SCT,M,M,M,2000.00,M,M,M,HZ,M,M,M,M,M,M,92.76,VABB 042100Z 22004KT 3000 HZ SCT020 28/26 Q1010 NOSIG,M
VABB,2022-04-04 21:30,82.40,77.00,83.77,250.00,4.00,0.00,29.83,M,1.86,M,SCT,M,M,M,2000.00,M,M,M,HZ,M,M,M,M,M,M,90.85,VABB 042130Z 25004KT 3000 HZ SCT020 28/25 Q1010 NOSIG,M
VABB,2022-04-04 22:00,82.40,77.00,83.77,210.00,3.00,0.00,29.83,M,1.86,M,SCT,M,M,M,2000.00,M,M,M,HZ,M,M,M,M,M,M,90.85,VABB 042200Z 21003KT 3000 HZ SCT020 28/25 Q1010 NOSIG,M
VABB,2022-04-04 22:30,82.40,78.80,88.90,0.00,0.00,0.00,29.83,M,1.86,M,SCT,M,M,M,2000.00,M,M,M,HZ,M,M,M,M,M,M,92.76,VABB 042230Z 00000KT 3000 HZ SCT020 28/26 Q1010 NOSIG,M
VABB,2022-04-04 23:00,82.40,78.80,88.90,210.00,3.00,0.00,29.83,M,1.86,M,SCT,M,M,M,2000.00,M,M,M,HZ,M,M,M,M,M,M,92.76,VABB 042300Z 21003KT 3000 HZ SCT020 28/26 Q1010 NOSIG,M
VABB,2022-04-04 23:30,82.40,78.80,88.90,0.00,0.00,0.00,29.83,M,1.86,M,SCT,M,M,M,2000.00,M,M,M,HZ,M,M,M,M,M,M,92.76,VABB 042330Z 00000KT 3000 HZ SCT020 28/26 Q1010 NOSIG,M
VABB,2022-04-05 00:00,82.40,77.00,83.77,0.00,0.00,0.00,29.83,M,1.86,M,SCT,M,M,M,2000.00,M,M,M,HZ,M,M,M,M,M,M,90.85,VABB 050000Z 00000KT 3000 HZ SCT020 28/25 Q1010 NOSIG,M
VABB,2022-04-05 00:30,82.40,77.00,83.77,120.00,4.00,0.00,29.83,M,1.86,M,SCT,M,M,M,2000.00,M,M,M,HZ,M,M,M,M,M,M,90.85,VABB 050030Z 12004KT 3000 HZ SCT020 28/25 Q1010 NOSIG,M
VABB,2022-04-05 01:00,82.40,77.00,83.77,130.00,4.00,0.00,29.85,M,1.55,M,SCT,M,M,M,2000.00,M,M,M,HZ,M,M,M,M,M,M,90.85,VABB 050100Z 13004KT 2500 HZ SCT020 28/25 Q1011 NOSIG,M
VABB,2022-04-05 01:30,82.40,78.80,88.90,160.00,5.00,0.00,29.88,M,1.55,M,FEW,SCT,M,M,2000.00,10000.00,M,M,HZ,M,M,M,M,M,M,92.76,VABB 050130Z 16005KT 2500 HZ FEW020 SCT100 28/26 Q1012 NOSIG,M
VABB,2022-04-05 02:00,82.40,78.80,88.90,150.00,6.00,0.00,29.88,M,1.55,M,FEW,SCT,M,M,2000.00,10000.00,M,M,HZ,M,M,M,M,M,M,92.76,VABB 050200Z 15006KT 2500 HZ FEW020 SCT100 28/26 Q1012 NOSIG,M
VABB,2022-04-05 02:30,84.20,78.80,83.88,120.00,4.00,0.00,29.88,M,1.55,M,FEW,BKN,M,M,2000.00,10000.00,M,M,HZ,M,M,M,M,M,M,96.10,VABB 050230Z 12004KT 2500 HZ FEW020 BKN100 29/26 Q1012 NOSIG,M
VABB,2022-04-05 03:00,84.20,78.80,83.88,190.00,6.00,0.00,29.91,M,1.55,M,FEW,BKN,M,M,2000.00,10000.00,M,M,HZ,M,M,M,M,M,M,96.10,VABB 050300Z 19006KT 2500 HZ FEW020 BKN100 29/26 Q1013 NOSIG,M
VABB,2022-04-05 03:30,86.00,77.00,74.61,200.00,9.00,0.00,29.91,M,1.55,M,FEW,SCT,M,M,2000.00,10000.00,M,M,HZ,M,M,M,M,M,M,97.15,VABB 050330Z 20009KT 2500 HZ FEW020 SCT100 30/25 Q1013 NOSIG,M
VABB,2022-04-05 04:00,86.00,77.00,74.61,170.00,6.00,0.00,29.91,M,1.55,M,FEW,SCT,M,M,2000.00,10000.00,M,M,HZ,M,M,M,M,M,M,97.15,VABB 050400Z 17006KT 2500 HZ FEW020 SCT100 30/25 Q1013 BECMG 3000,M
VABB,2022-04-05 04:30,86.00,78.80,79.18,170.00,5.00,0.00,29.91,M,1.86,M,FEW,SCT,M,M,2000.00,10000.00,M,M,HZ,M,M,M,M,M,M,99.38,VABB 050430Z 17005KT 3000 HZ FEW020 SCT100 30/26 Q1013 NOSIG,M
VABB,2022-04-05 05:00,87.80,78.80,74.77,180.00,5.00,0.00,29.91,M,1.86,M,FEW,SCT,M,M,2000.00,10000.00,M,M,HZ,M,M,M,M,M,M,102.37,VABB 050500Z 18005KT 3000 HZ FEW020 SCT100 31/26 Q1013 NOSIG,M
VABB,2022-04-05 05:30,87.80,78.80,74.77,260.00,7.00,0.00,29.91,M,1.86,M,FEW,SCT,M,M,2000.00,10000.00,M,M,HZ,M,M,M,M,M,M,102.37,VABB 050530Z 26007KT 3000 HZ FEW020 SCT100 31/26 Q1013 NOSIG,M
VABB,2022-04-05 06:00,87.80,78.80,74.77,270.00,8.00,0.00,29.91,M,1.86,M,FEW,SCT,M,M,2000.00,10000.00,M,M,HZ,M,M,M,M,M,M,102.37,VABB 050600Z 27008KT 3000 HZ FEW020 SCT100 31/26 Q1013 NOSIG,M
VABB,2022-04-05 06:30,89.60,78.80,70.63,270.00,8.00,0.00,29.88,M,1.86,M,FEW,M,M,M,2000.00,M,M,M,HZ,M,M,M,M,M,M,105.15,VABB 050630Z 27008KT 3000 HZ FEW020 32/26 Q1012 NOSIG,M
VABB,2022-04-05 07:00,89.60,78.80,70.63,280.00,9.00,0.00,29.88,M,1.86,M,FEW,M,M,M,2000.00,M,M,M,HZ,M,M,M,M,M,M,105.15,VABB 050700Z 28009KT 3000 HZ FEW020 32/26 Q1012 NOSIG,M
VABB,2022-04-05 07:30,89.60,78.80,70.63,300.00,6.00,0.00,29.88,M,1.86,M,FEW,M,M,M,2000.00,M,M,M,HZ,M,M,M,M,M,M,105.15,VABB 050730Z 30006KT 3000 HZ FEW020 32/26 Q1012 NOSIG,M
VABB,2022-04-05 08:00,91.40,75.20,59.24,290.00,8.00,0.00,29.85,M,1.86,M,FEW,M,M,M,2000.00,M,M,M,HZ,M,M,M,M,M,M,102.65,VABB 050800Z 29008KT 3000 HZ FEW020 33/24 Q1011 NOSIG,M
VABB,2022-04-05 08:30,91.40,77.00,62.90,280.00,12.00,0.00,29.83,M,1.86,M,FEW,M,M,M,2000.00,M,M,M,HZ,M,M,M,M,M,M,105.06,VABB 050830Z 28012KT 3000 HZ FEW020 33/25 Q1010 NOSIG,M
VABB,2022-04-05 09:00,89.60,77.00,66.55,260.00,11.00,0.00,29.83,M,2.17,M,FEW,M,M,M,2000.00,M,M,M,HZ,M,M,M,M,M,M,102.54,VABB 050900Z 26011KT 3500 HZ FEW020 32/25 Q1010 NOSIG,M
VABB,2022-04-05 09:30,89.60,75.20,62.68,260.00,12.00,0.00,29.83,M,2.49,M,FEW,SCT,M,M,2000.00,10000.00,M,M,HZ,M,M,M,M,M,M,100.23,VABB 050930Z 26012KT 4000 HZ FEW020 SCT100 32/24 Q1010 NOSIG,M
VABB,2022-04-05 10:00,89.60,73.40,59.01,280.00,11.00,0.00,29.80,M,2.49,M,FEW,SCT,M,M,2000.00,10000.00,M,M,HZ,M,M,M,M,M,M,98.20,VABB 051000Z 28011KT 4000 HZ FEW020 SCT100 32/23 Q1009 NOSIG,M
VABB,2022-04-05 10:30,87.80,78.80,74.77,270.00,7.00,0.00,29.80,M,2.49,17.00,FEW,SCT,M,M,2000.00,10000.00,M,M,HZ,M,M,M,M,M,M,102.37,VABB 051030Z 27007G17KT 4000 HZ FEW020 SCT100 31/26 Q1009 NOSIG,M
VABB,2022-04-05 11:00,87.80,78.80,74.77,280.00,12.00,0.00,29.80,M,2.49,M,FEW,SCT,M,M,2000.00,10000.00,M,M,HZ,M,M,M,M,M,M,102.37,VABB 051100Z 28012KT 4000 HZ FEW020 SCT100 31/26 Q1009 NOSIG,M
VABB,2022-04-05 11:30,87.80,78.80,74.77,280.00,10.00,0.00,29.80,M,2.49,M,FEW,M,M,M,2000.00,M,M,M,HZ,M,M,M,M,M,M,102.37,VABB 051130Z 28010KT 4000 HZ FEW020 31/26 Q1009 NOSIG,M
VABB,2022-04-05 12:00,86.00,78.80,79.18,280.00,11.00,0.00,29.80,M,2.49,M,FEW,M,M,M,2000.00,M,M,M,HZ,M,M,M,M,M,M,99.38,VABB 051200Z 28011KT 4000 HZ FEW020 30/26 Q1009 NOSIG,M
VABB,2022-04-05 12:30,86.00,78.80,79.18,270.00,10.00,0.00,29.80,M,2.49,M,SCT,M,M,M,2000.00,M,M,M,HZ,M,M,M,M,M,M,99.38,VABB 051230Z 27010KT 4000 HZ SCT020 30/26 Q1009 NOSIG,M
VABB,2022-04-05 13:00,86.00,78.80,79.18,280.00,9.00,0.00,29.80,M,2.17,M,FEW,M,M,M,2000.00,M,M,M,HZ,M,M,M,M,M,M,99.38,VABB 051300Z 28009KT 3500 HZ FEW020 30/26 Q1009 NOSIG,M
VABB,2022-04-05 13:30,84.20,78.80,83.88,260.00,9.00,0.00,29.83,M,2.17,M,FEW,M,M,M,2000.00,M,M,M,HZ,M,M,M,M,M,M,96.10,VABB 051330Z 26009KT 3500 HZ FEW020 29/26 Q1010 NOSIG,M
VABB,2022-04-05 14:00,84.20,78.80,83.88,250.00,8.00,0.00,29.83,M,2.17,M,FEW,M,M,M,2000.00,M,M,M,HZ,M,M,M,M,M,M,96.10,VABB 051400Z 25008KT 3500 HZ FEW020 29/26 Q1010 NOSIG,M
VABB,2022-04-05 14:30,84.20,78.80,83.88,290.00,5.00,0.00,29.85,M,2.17,M,FEW,M,M,M,2000.00,M,M,M,HZ,M,M,M,M,M,M,96.10,VABB 051430Z 29005KT 3500 HZ FEW020 29/26 Q1011 NOSIG,M
VABB,2022-04-05 15:00,84.20,78.80,83.88,260.00,4.00,0.00,29.85,M,2.17,M,FEW,M,M,M,2000.00,M,M,M,HZ,M,M,M,M,M,M,96.10,VABB 051500Z 26004KT 3500 HZ FEW020 29/26 Q1011 NOSIG,M
VABB,2022-04-05 15:30,84.20,78.80,83.88,230.00,6.00,0.00,29.85,M,2.17,M,FEW,M,M,M,2000.00,M,M,M,HZ,M,M,M,M,M,M,96.10,VABB 051530Z 23006KT 3500 HZ FEW020 29/26 Q1011 NOSIG,M
VABB,2022-04-05 16:00,84.20,78.80,83.88,210.00,5.00,0.00,29.88,M,2.17,M,FEW,M,M,M,2000.00,M,M,M,HZ,M,M,M,M,M,M,96.10,VABB 051600Z 21005KT 3500 HZ FEW020 29/26 Q1012 NOSIG,M
VABB,2022-04-05 16:30,84.20,78.80,83.88,230.00,5.00,0.00,29.88,M,2.17,M,FEW,M,M,M,2000.00,M,M,M,HZ,M,M,M,M,M,M,96.10,VABB 051630Z 23005KT 3500 HZ FEW020 29/26 Q1012 NOSIG,M
VABB,2022-04-05 17:00,84.20,78.80,83.88,230.00,5.00,0.00,29.88,M,2.17,M,FEW,M,M,M,2000.00,M,M,M,HZ,M,M,M,M,M,M,96.10,VABB 051700Z 23005KT 3500 HZ FEW020 29/26 Q1012 NOSIG,M
VABB,2022-04-05 17:30,84.20,78.80,83.88,230.00,5.00,0.00,29.88,M,2.17,M,FEW,M,M,M,2000.00,M,M,M,HZ,M,M,M,M,M,M,96.10,VABB 051730Z 23005KT 3500 HZ FEW020 29/26 Q1012 NOSIG,M
VABB,2022-04-05 18:00,84.20,78.80,83.88,230.00,4.00,0.00,29.88,M,2.17,M,FEW,M,M,M,2000.00,M,M,M,HZ,M,M,M,M,M,M,96.10,VABB 051800Z 23004KT 3500 HZ FEW020 29/26 Q1012 NOSIG,M
VABB,2022-04-05 18:30,84.20,78.80,83.88,210.00,4.00,0.00,29.88,M,2.17,M,FEW,M,M,M,2000.00,M,M,M,HZ,M,M,M,M,M,M,96.10,VABB 051830Z 21004KT 3500 HZ FEW020 29/26 Q1012 NOSIG,M
VABB,2022-04-05 19:00,84.20,78.80,83.88,0.00,0.00,0.00,29.88,M,2.17,M,FEW,M,M,M,2000.00,M,M,M,HZ,M,M,M,M,M,M,96.10,VABB 051900Z 00000KT 3500 HZ FEW020 29/26 Q1012 NOSIG,M
VABB,2022-04-05 19:30,84.20,78.80,83.88,200.00,6.00,0.00,29.88,M,2.17,M,FEW,M,M,M,2000.00,M,M,M,HZ,M,M,M,M,M,M,96.10,VABB 051930Z 20006KT 3500 HZ FEW020 29/26 Q1012 NOSIG,M
VABB,2022-04-05 20:00,84.20,78.80,83.88,220.00,4.00,0.00,29.88,M,2.17,M,FEW,M,M,M,2000.00,M,M,M,HZ,M,M,M,M,M,M,96.10,VABB 052000Z 22004KT 3500 HZ FEW020 29/26 Q1012 NOSIG,M
VABB,2022-04-05 20:30,82.40,78.80,88.90,190.00,4.00,0.00,29.85,M,2.17,M,SCT,M,M,M,2000.00,M,M,M,HZ,M,M,M,M,M,M,92.76,VABB 052030Z 19004KT 3500 HZ SCT020 28/26 Q1011 NOSIG,M
VABB,2022-04-05 21:00,84.20,78.80,83.88,210.00,5.00,0.00,29.85,M,2.17,M,SCT,M,M,M,2000.00,M,M,M,HZ,M,M,M,M,M,M,96.10,VABB 052100Z 21005KT 3500 HZ SCT020 29/26 Q1011 BECMG 3000 HZ,M
VABB,2022-04-05 21:30,84.20,78.80,83.88,210.00,4.00,0.00,29.85,M,1.86,M,SCT,M,M,M,2000.00,M,M,M,HZ,M,M,M,M,M,M,96.10,VABB 052130Z 21004KT 3000 HZ SCT020 29/26 Q1011 NOSIG,M
VABB,2022-04-05 22:00,84.20,78.80,83.88,240.00,6.00,0.00,29.85,M,1.86,M,SCT,M,M,M,2000.00,M,M,M,HZ,M,M,M,M,M,M,96.10,VABB 052200Z 24006KT 3000 HZ SCT020 29/26 Q1011 NOSIG,M
VABB,2022-04-05 22:30,82.40,78.80,88.90,220.00,5.00,0.00,29.85,M,1.86,M,SCT,M,M,M,2000.00,M,M,M,HZ,M,M,M,M,M,M,92.76,VABB 052230Z 22005KT 3000 HZ SCT020 28/26 Q1011 NOSIG,M
VABB,2022-04-05 23:00,84.20,78.80,83.88,210.00,4.00,0.00,29.85,M,1.86,M,SCT,M,M,M,2000.00,M,M,M,HZ,M,M,M,M,M,M,96.10,VABB 052300Z 21004KT 3000 HZ SCT020 29/26 Q1011 NOSIG,M
VABB,2022-04-05 23:30,84.20,77.00,79.04,190.00,3.00,0.00,29.85,M,1.86,M,SCT,M,M,M,2000.00,M,M,M,HZ,M,M,M,M,M,M,94.16,VABB 052330Z 19003KT 3000 HZ SCT020 29/25 Q1011 NOSIG,M
VABB,2022-04-06 00:00,82.40,77.00,83.77,210.00,4.00,0.00,29.85,M,1.86,M,SCT,M,M,M,2000.00,M,M,M,HZ,M,M,M,M,M,M,90.85,VABB 060000Z 21004KT 3000 HZ SCT020 28/25 Q1011 NOSIG,M
VABB,2022-04-06 00:30,84.20,77.00,79.04,200.00,3.00,0.00,29.85,M,1.86,M,SCT,M,M,M,2000.00,M,M,M,HZ,M,M,M,M,M,M,94.16,VABB 060030Z 20003KT 3000 HZ SCT020 29/25 Q1011 NOSIG,M
VABB,2022-04-06 01:00,84.20,77.00,79.04,220.00,3.00,0.00,29.88,M,1.86,M,SCT,M,M,M,2000.00,M,M,M,HZ,M,M,M,M,M,M,94.16,VABB 060100Z 22003KT 3000 HZ SCT020 29/25 Q1012 NOSIG,M
VABB,2022-04-06 01:30,84.20,77.00,79.04,230.00,3.00,0.00,29.88,M,1.86,M,SCT,M,M,M,2000.00,M,M,M,HZ,M,M,M,M,M,M,94.16,VABB 060130Z 23003KT 3000 HZ SCT020 29/25 Q1012 NOSIG,M
VABB,2022-04-06 02:00,84.20,77.00,79.04,220.00,4.00,0.00,29.88,M,1.86,M,SCT,M,M,M,2000.00,M,M,M,HZ,M,M,M,M,M,M,94.16,VABB 060200Z 22004KT 3000 HZ SCT020 29/25 Q1012 NOSIG,M
VABB,2022-04-06 02:30,84.20,77.00,79.04,170.00,5.00,0.00,29.91,M,1.86,M,SCT,M,M,M,2000.00,M,M,M,HZ,M,M,M,M,M,M,94.16,VABB 060230Z 17005KT 3000 HZ SCT020 29/25 Q1013 NOSIG,M
VABB,2022-04-06 03:00,84.20,78.80,83.88,120.00,5.00,0.00,29.91,M,1.86,M,SCT,M,M,M,1800.00,M,M,M,HZ,M,M,M,M,M,M,96.10,VABB 060300Z 12005KT 3000 HZ SCT018 29/26 Q1013 NOSIG,M
VABB,2022-04-06 03:30,84.20,78.80,83.88,180.00,6.00,0.00,29.94,M,1.86,M,SCT,M,M,M,1800.00,M,M,M,HZ,M,M,M,M,M,M,96.10,VABB 060330Z 18006KT 3000 HZ SCT018 29/26 Q1014 NOSIG,M
VABB,2022-04-06 04:00,86.00,78.80,79.18,180.00,6.00,0.00,29.94,M,1.86,M,SCT,M,M,M,2000.00,M,M,M,HZ,M,M,M,M,M,M,99.38,VABB 060400Z 18006KT 3000 HZ SCT020 30/26 Q1014 NOSIG,M
VABB,2022-04-06 04:30,87.80,77.00,70.45,170.00,5.00,0.00,29.94,M,1.86,M,SCT,M,M,M,2000.00,M,M,M,HZ,M,M,M,M,M,M,99.92,VABB 060430Z 17005KT 3000 HZ SCT020 31/25 Q1014 NOSIG,M
VABB,2022-04-06 05:00,89.60,77.00,66.55,180.00,6.00,0.00,29.94,M,1.86,M,SCT,M,M,M,2000.00,M,M,M,HZ,M,M,M,M,M,M,102.54,VABB 060500Z 18006KT 3000 HZ SCT020 32/25 Q1014 NOSIG,M
VABB,2022-04-06 05:30,87.80,77.00,70.45,230.00,7.00,0.00,29.94,M,1.86,M,SCT,M,M,M,2000.00,M,M,M,HZ,M,M,M,M,M,M,99.92,VABB 060530Z 23007KT 3000 HZ SCT020 31/25 Q1014 NOSIG,M
VABB,2022-04-06 06:00,89.60,77.00,66.55,200.00,7.00,0.00,29.91,M,2.17,M,FEW,M,M,M,2000.00,M,M,M,HZ,M,M,M,M,M,M,102.54,VABB 060600Z 20007KT 3500 HZ FEW020 32/25 Q1013 NOSIG,M
VABB,2022-04-06 06:30,89.60,77.00,66.55,250.00,11.00,0.00,29.91,M,2.17,M,FEW,M,M,M,2000.00,M,M,M,HZ,M,M,M,M,M,M,102.54,VABB 060630Z 25011KT 3500 HZ FEW020 32/25 Q1013 NOSIG,M
VABB,2022-04-06 07:00,89.60,77.00,66.55,240.00,9.00,0.00,29.91,M,2.49,M,FEW,M,M,M,2000.00,M,M,M,FU,M,M,M,M,M,M,102.54,VABB 060700Z 24009KT 4000 FU FEW020 32/25 Q1013 NOSIG,M
VABB,2022-04-06 07:30,89.60,77.00,66.55,270.00,12.00,0.00,29.88,M,2.49,M,FEW,M,M,M,2000.00,M,M,M,FU,M,M,M,M,M,M,102.54,VABB 060730Z 27012KT 4000 FU FEW020 32/25 Q1012 NOSIG,M
VABB,2022-04-06 08:00,89.60,77.00,66.55,250.00,12.00,0.00,29.88,M,2.49,M,NSC,M,M,M,M,M,M,M,FU,M,M,M,M,M,M,102.54,VABB 060800Z 25012KT 4000 FU NSC 32/25 Q1012 NOSIG,M
VABB,2022-04-06 08:30,89.60,78.80,70.63,270.00,10.00,0.00,29.85,M,2.49,M,NSC,M,M,M,M,M,M,M,FU,M,M,M,M,M,M,105.15,VABB 060830Z 27010KT 4000 FU NSC 32/26 Q1011 NOSIG,M
VABB,2022-04-06 09:00,87.80,78.80,74.77,260.00,13.00,0.00,29.85,M,2.49,M,NSC,M,M,M,M,M,M,M,HZ,M,M,M,M,M,M,102.37,VABB 060900Z 26013KT 4000 HZ NSC 31/26 Q1011 NOSIG,M
VABB,2022-04-06 09:30,89.60,77.00,66.55,270.00,10.00,0.00,29.83,M,2.49,M,NSC,M,M,M,M,M,M,M,HZ,M,M,M,M,M,M,102.54,VABB 060930Z 27010KT 4000 HZ NSC 32/25 Q1010 NOSIG,M
VABB,2022-04-06 10:00,87.80,77.00,70.45,290.00,12.00,0.00,29.83,M,2.49,M,NSC,M,M,M,M,M,M,M,HZ,M,M,M,M,M,M,99.92,VABB 061000Z 29012KT 4000 HZ NSC 31/25 Q1010 BECMG 5000,M
VABB,2022-04-06 10:30,87.80,77.00,70.45,290.00,10.00,0.00,29.80,M,3.11,M,NSC,M,M,M,M,M,M,M,HZ,M,M,M,M,M,M,99.92,VABB 061030Z 29010KT 5000 HZ NSC 31/25 Q1009 NOSIG,M
VABB,2022-04-06 11:00,87.80,77.00,70.45,280.00,12.00,0.00,29.80,M,3.11,M,NSC,M,M,M,M,M,M,M,HZ,M,M,M,M,M,M,99.92,VABB 061100Z 28012KT 5000 HZ NSC 31/25 Q1009 NOSIG,M
VABB,2022-04-06 11:30,87.80,77.00,70.45,310.00,9.00,0.00,29.80,M,2.49,M,NSC,M,M,M,M,M,M,M,HZ,M,M,M,M,M,M,99.92,VABB 061130Z 31009KT 4000 HZ NSC 31/25 Q1009 NOSIG,M
VABB,2022-04-06 12:00,87.80,77.00,70.45,300.00,10.00,0.00,29.80,M,2.49,M,FEW,M,M,M,2000.00,M,M,M,HZ,M,M,M,M,M,M,99.92,VABB 061200Z 30010KT 4000 HZ FEW020 31/25 Q1009 NOSIG,M
VABB,2022-04-06 12:30,86.00,77.00,74.61,290.00,11.00,0.00,29.80,M,2.49,M,FEW,M,M,M,2000.00,M,M,M,HZ,M,M,M,M,M,M,97.15,VABB 061230Z 29011KT 4000 HZ FEW020 30/25 Q1009 NOSIG,M
VABB,2022-04-06 13:00,86.00,78.80,79.18,290.00,10.00,0.00,29.83,M,2.49,M,FEW,M,M,M,2000.00,M,M,M,HZ,M,M,M,M,M,M,99.38,VABB 061300Z 29010KT 4000 HZ FEW020 30/26 Q1010 NOSIG,M
VABB,2022-04-06 13:30,84.20,78.80,83.88,310.00,6.00,0.00,29.83,M,2.49,M,SCT,M,M,M,2000.00,M,M,M,HZ,M,M,M,M,M,M,96.10,VABB 061330Z 31006KT 4000 HZ SCT020 29/26 Q1010 NOSIG,M
VABB,2022-04-06 14:00,84.20,78.80,83.88,300.00,5.00,0.00,29.83,M,2.17,M,SCT,M,M,M,2000.00,M,M,M,HZ,M,M,M,M,M,M,96.10,VABB 061400Z 30005KT 3500 HZ SCT020 29/26 Q1010 BECMG 3000 HZ,M
VABB,2022-04-06 14:30,84.20,77.00,79.04,290.00,6.00,0.00,29.83,M,1.86,M,SCT,M,M,M,2000.00,M,M,M,HZ,M,M,M,M,M,M,94.16,VABB 061430Z 29006KT 3000 HZ SCT020 29/25 Q1010 NOSIG,M
VABB,2022-04-06 15:00,84.20,77.00,79.04,310.00,5.00,0.00,29.85,M,1.86,M,SCT,M,M,M,2000.00,M,M,M,HZ,M,M,M,M,M,M,94.16,VABB 061500Z 31005KT 3000 HZ SCT020 29/25 Q1011 NOSIG,M
VABB,2022-04-06 15:30,84.20,78.80,83.88,310.00,5.00,0.00,29.85,M,1.86,M,FEW,M,M,M,2000.00,M,M,M,HZ,M,M,M,M,M,M,96.10,VABB 061530Z 31005KT 3000 HZ FEW020 29/26 Q1011 NOSIG,M
VABB,2022-04-06 16:00,84.20,78.80,83.88,310.00,4.00,0.00,29.85,M,1.86,M,FEW,M,M,M,2000.00,M,M,M,HZ,M,M,M,M,M,M,96.10,VABB 061600Z 31004KT 3000 HZ FEW020 29/26 Q1011 NOSIG,M
VABB,2022-04-06 16:30,84.20,78.80,83.88,0.00,0.00,0.00,29.85,M,1.86,M,FEW,M,M,M,2000.00,M,M,M,HZ,M,M,M,M,M,M,96.10,VABB 061630Z 00000KT 3000 HZ FEW020 29/26 Q1011 NOSIG,M
VABB,2022-04-06 17:00,84.20,78.80,83.88,200.00,4.00,0.00,29.88,M,1.86,M,FEW,M,M,M,2000.00,M,M,M,HZ,M,M,M,M,M,M,96.10,VABB 061700Z 20004KT 3000 HZ FEW020 29/26 Q1012 NOSIG,M
VABB,2022-04-06 17:30,84.20,78.80,83.88,280.00,3.00,0.00,29.88,M,1.86,M,FEW,M,M,M,2000.00,M,M,M,HZ,M,M,M,M,M,M,96.10,VABB 061730Z 28003KT 3000 HZ FEW020 29/26 Q1012 NOSIG,M
VABB,2022-04-06 18:00,82.40,78.80,88.90,250.00,5.00,0.00,29.88,M,1.86,M,FEW,M,M,M,2000.00,M,M,M,HZ,M,M,M,M,M,M,92.76,VABB 061800Z 25005KT 3000 HZ FEW020 28/26 Q1012 NOSIG,M
VABB,2022-04-06 18:30,82.40,78.80,88.90,270.00,6.00,0.00,29.88,M,1.86,M,FEW,M,M,M,2000.00,M,M,M,HZ,M,M,M,M,M,M,92.76,VABB 061830Z 27006KT 3000 HZ FEW020 28/26 Q1012 NOSIG,M
VABB,2022-04-06 19:00,82.40,78.80,88.90,290.00,4.00,0.00,29.85,M,1.86,M,FEW,M,M,M,2000.00,M,M,M,HZ,M,M,M,M,M,M,92.76,VABB 061900Z 29004KT 3000 HZ FEW020 28/26 Q1011 NOSIG,M
VABB,2022-04-06 19:30,82.40,78.80,88.90,290.00,5.00,0.00,29.85,M,1.86,M,SCT,M,M,M,2000.00,M,M,M,HZ,M,M,M,M,M,M,92.76,VABB 061930Z 29005KT 3000 HZ SCT020 28/26 Q1011 NOSIG,M
VABB,2022-04-06 20:00,82.40,78.80,88.90,250.00,5.00,0.00,29.85,M,1.86,M,SCT,M,M,M,1800.00,M,M,M,HZ,M,M,M,M,M,M,92.76,VABB 062000Z 25005KT 3000 HZ SCT018 28/26 Q1011 NOSIG,M
VABB,2022-04-06 20:30,82.40,78.80,88.90,260.00,5.00,0.00,29.85,M,1.86,M,SCT,SCT,M,M,1800.00,10000.00,M,M,HZ,M,M,M,M,M,M,92.76,VABB 062030Z 26005KT 3000 HZ SCT018 SCT100 28/26 Q1011 NOSIG,M
VABB,2022-04-06 21:00,82.40,78.80,88.90,230.00,5.00,0.00,29.83,M,1.86,M,SCT,SCT,M,M,1800.00,10000.00,M,M,HZ,M,M,M,M,M,M,92.76,VABB 062100Z 23005KT 3000 HZ SCT018 SCT100 28/26 Q1010 NOSIG,M
VABB,2022-04-06 21:30,82.40,78.80,88.90,260.00,7.00,0.00,29.83,M,1.86,M,SCT,SCT,M,M,1800.00,10000.00,M,M,HZ,M,M,M,M,M,M,92.76,VABB 062130Z 26007KT 3000 HZ SCT018 SCT100 28/26 Q1010 BECMG 2500 HZ,M
VABB,2022-04-06 22:00,82.40,77.00,83.77,0.00,0.00,0.00,29.83,M,1.86,M,SCT,M,M,M,2000.00,M,M,M,HZ,M,M,M,M,M,M,90.85,VABB 062200Z 00000KT 3000 HZ SCT020 28/25 Q1010 NOSIG,M
VABB,2022-04-06 22:30,80.60,77.00,88.83,0.00,0.00,0.00,29.83,M,1.86,M,SCT,M,M,M,2000.00,M,M,M,HZ,M,M,M,M,M,M,87.59,VABB 062230Z 00000KT 3000 HZ SCT020 27/25 Q1010 NOSIG,M
VABB,2022-04-06 23:00,80.60,77.00,88.83,0.00,0.00,0.00,29.83,M,1.86,M,SCT,M,M,M,2000.00,M,M,M,HZ,M,M,M,M,M,M,87.59,VABB 062300Z 00000KT 3000 HZ SCT020 27/25 Q1010 NOSIG,M
VABB,2022-04-06 23:30,82.40,77.00,83.77,0.00,0.00,0.00,29.83,M,1.86,M,SCT,M,M,M,2000.00,M,M,M,HZ,M,M,M,M,M,M,90.85,VABB 062330Z 00000KT 3000 HZ SCT020 28/25 Q1010 NOSIG,M
VABB,2022-04-07 00:00,80.60,77.00,88.83,0.00,0.00,0.00,29.83,M,1.86,M,SCT,M,M,M,2000.00,M,M,M,HZ,M,M,M,M,M,M,87.59,VABB 070000Z 00000KT 3000 HZ SCT020 27/25 Q1010 NOSIG,M
VABB,2022-04-07 00:30,80.60,77.00,88.83,0.00,0.00,0.00,29.83,M,1.86,M,SCT,M,M,M,2000.00,M,M,M,HZ,M,M,M,M,M,M,87.59,VABB 070030Z 00000KT 3000 HZ SCT020 27/25 Q1010 NOSIG,M
VABB,2022-04-07 01:00,80.60,77.00,88.83,70.00,4.00,0.00,29.83,M,1.86,M,FEW,M,M,M,2000.00,M,M,M,HZ,M,M,M,M,M,M,87.59,VABB 070100Z 07004KT 3000 HZ FEW020 27/25 Q1010 TEMPO 2500 HZ,M
VABB,2022-04-07 01:30,80.60,77.00,88.83,90.00,4.00,0.00,29.83,M,1.37,M,NSC,M,M,M,M,M,M,M,HZ,M,M,M,M,M,M,87.59,VABB 070130Z 09004KT 2200 HZ NSC 27/25 Q1010 NOSIG,M
VABB,2022-04-07 02:00,82.40,77.00,83.77,80.00,5.00,0.00,29.85,M,1.37,M,NSC,M,M,M,M,M,M,M,HZ,M,M,M,M,M,M,90.85,VABB 070200Z 08005KT 2200 HZ NSC 28/25 Q1011 NOSIG,M
VABB,2022-04-07 02:30,84.20,78.80,83.88,80.00,4.00,0.00,29.85,M,1.37,M,NSC,M,M,M,M,M,M,M,HZ,M,M,M,M,M,M,96.10,VABB 070230Z 08004KT 2200 HZ NSC 29/26 Q1011 NOSIG,M
VABB,2022-04-07 03:00,84.20,78.80,83.88,90.00,4.00,0.00,29.88,M,1.37,M,NSC,M,M,M,M,M,M,M,HZ,M,M,M,M,M,M,96.10,VABB 070300Z 09004KT 2200 HZ NSC 29/26 Q1012 NOSIG,M
VABB,2022-04-07 03:30,86.00,77.00,74.61,140.00,4.00,0.00,29.88,M,1.37,M,NSC,M,M,M,M,M,M,M,HZ,M,M,M,M,M,M,97.15,VABB 070330Z 14004KT 2200 HZ NSC 30/25 Q1012 NOSIG,M
VABB,2022-04-07 04:00,86.00,77.00,74.61,140.00,5.00,0.00,29.88,M,1.37,M,NSC,M,M,M,M,M,M,M,HZ,M,M,M,M,M,M,97.15,VABB 070400Z 14005KT 2200 HZ NSC 30/25 Q1012 NOSIG,M
VABB,2022-04-07 04:30,87.80,77.00,70.45,100.00,4.00,0.00,29.88,M,1.37,M,NSC,M,M,M,M,M,M,M,HZ,M,M,M,M,M,M,99.92,VABB 070430Z 10004KT 2200 HZ NSC 31/25 Q1012 NOSIG,M
VABB,2022-04-07 05:00,89.60,77.00,66.55,180.00,6.00,0.00,29.88,M,1.55,M,NSC,M,M,M,M,M,M,M,HZ,M,M,M,M,M,M,102.54,VABB 070500Z 18006KT 2500 HZ NSC 32/25 Q1012 NOSIG,M
VABB,2022-04-07 05:30,91.40,77.00,62.90,280.00,5.00,0.00,29.88,M,1.55,M,NSC,M,M,M,M,M,M,M,HZ,M,M,M,M,M,M,105.06,VABB 070530Z 28005KT 2500 HZ NSC 33/25 Q1012 NOSIG,M
VABB,2022-04-07 06:00,89.60,78.80,70.63,240.00,9.00,0.00,29.88,M,1.55,M,NSC,M,M,M,M,M,M,M,HZ,M,M,M,M,M,M,105.15,VABB 070600Z 24009KT 2500 HZ NSC 32/26 Q1012 NOSIG,M
VABB,2022-04-07 06:30,89.60,78.80,70.63,250.00,10.00,0.00,29.85,M,1.55,M,NSC,M,M,M,M,M,M,M,HZ,M,M,M,M,M,M,105.15,VABB 070630Z 25010KT 2500 HZ NSC 32/26 Q1011 NOSIG,M
VABB,2022-04-07 07:00,91.40,78.80,66.75,270.00,8.00,0.00,29.85,M,1.55,M,NSC,M,M,M,M,M,M,M,HZ,M,M,M,M,M,M,107.79,VABB 070700Z 27008KT 2500 HZ NSC 33/26 Q1011 NOSIG,M
VABB,2022-04-07 07:30,91.40,78.80,66.75,270.00,10.00,0.00,29.85,M,1.55,M,NSC,M,M,M,M,M,M,M,HZ,M,M,M,M,M,M,107.79,VABB 070730Z 27010KT 2500 HZ NSC 33/26 Q1011 BECMG 3000 HZ,M
VABB,2022-04-07 08:00,89.60,78.80,70.63,240.00,11.00,0.00,29.83,M,1.86,M,NSC,M,M,M,M,M,M,M,HZ,M,M,M,M,M,M,105.15,VABB 070800Z 24011KT 3000 HZ NSC 32/26 Q1010 NOSIG,M
VABB,2022-04-07 08:30,89.60,73.40,59.01,220.00,7.00,0.00,29.80,M,1.86,M,NSC,M,M,M,M,M,M,M,HZ,M,M,M,M,M,M,98.20,VABB 070830Z 22007KT 3000 HZ NSC 32/23 Q1009,M
VABB,2022-04-07 09:00,89.60,75.20,62.68,230.00,8.00,0.00,29.80,M,1.86,M,NSC,M,M,M,M,M,M,M,HZ,M,M,M,M,M,M,100.23,VABB 070900Z 23008KT 3000 HZ NSC 32/24 Q1009 NOSIG,M
VABB,2022-04-07 09:30,89.60,73.40,59.01,230.00,8.00,0.00,29.77,M,2.49,M,NSC,M,M,M,M,M,M,M,HZ,M,M,M,M,M,M,98.20,VABB 070930Z 23008KT 4000 HZ NSC 32/23 Q1008 NOSIG,M
VABB,2022-04-07 10:00,89.60,73.40,59.01,260.00,10.00,0.00,29.77,M,2.49,M,FEW,M,M,M,10000.00,M,M,M,HZ,M,M,M,M,M,M,98.20,VABB 071000Z 26010KT 4000 HZ FEW100 32/23 Q1008 NOSIG,M
VABB,2022-04-07 10:30,89.60,73.40,59.01,260.00,9.00,0.00,29.77,M,2.49,M,FEW,M,M,M,10000.00,M,M,M,HZ,M,M,M,M,M,M,98.20,VABB 071030Z 26009KT 4000 HZ FEW100 32/23 Q1008 BECMG 5000,M
VABB,2022-04-07 11:00,89.60,75.20,62.68,240.00,10.00,0.00,29.74,M,3.11,M,FEW,M,M,M,10000.00,M,M,M,HZ,M,M,M,M,M,M,100.23,VABB 071100Z 24010KT 5000 HZ FEW100 32/24 Q1007 NOSIG,M
VABB,2022-04-07 11:30,87.80,77.00,70.45,270.00,11.00,0.00,29.77,M,3.11,M,FEW,M,M,M,10000.00,M,M,M,HZ,M,M,M,M,M,M,99.92,VABB 071130Z 27011KT 5000 HZ FEW100 31/25 Q1008 NOSIG,M
VABB,2022-04-07 12:00,87.80,78.80,74.77,280.00,12.00,0.00,29.77,M,3.11,M,FEW,M,M,M,10000.00,M,M,M,HZ,M,M,M,M,M,M,102.37,VABB 071200Z 28012KT 5000 HZ FEW100 31/26 Q1008 NOSIG,M
VABB,2022-04-07 12:30,86.00,78.80,79.18,290.00,9.00,0.00,29.77,M,3.11,M,FEW,M,M,M,10000.00,M,M,M,HZ,M,M,M,M,M,M,99.38,VABB 071230Z 29009KT 5000 HZ FEW100 30/26 Q1008 NOSIG,M
VABB,2022-04-07 13:00,86.00,78.80,79.18,290.00,9.00,0.00,29.77,M,2.49,M,FEW,M,M,M,1000.00,M,M,M,HZ,M,M,M,M,M,M,99.38,VABB 071300Z 29009KT 4000 HZ FEW010 30/26 Q1008 BECMG 3000 HZ,M
VABB,2022-04-07 13:30,86.00,80.60,83.99,270.00,8.00,0.00,29.77,M,2.17,M,FEW,M,M,M,1000.00,M,M,M,HZ,M,M,M,M,M,M,101.90,VABB 071330Z 27008KT 3500 HZ FEW010 30/27 Q1008 NOSIG,M
VABB,2022-04-07 14:00,84.20,80.60,88.98,270.00,7.00,0.00,29.80,M,2.17,M,FEW,M,M,M,2000.00,M,M,M,HZ,M,M,M,M,M,M,98.50,VABB 071400Z 27007KT 3500 HZ FEW020 29/27 Q1009 NOSIG,M
VABB,2022-04-07 14:30,84.20,80.60,88.98,280.00,4.00,0.00,29.80,M,2.17,M,FEW,M,M,M,2000.00,M,M,M,HZ,M,M,M,M,M,M,98.50,VABB 071430Z 28004KT 3500 HZ FEW020 29/27 Q1009 NOSIG,M
VABB,2022-04-07 15:00,84.20,80.60,88.98,270.00,5.00,0.00,29.80,M,2.17,M,FEW,M,M,M,2000.00,M,M,M,HZ,M,M,M,M,M,M,98.50,VABB 071500Z 27005KT 3500 HZ FEW020 29/27 Q1009 BECMG 3000 HZ,M
VABB,2022-04-07 15:30,84.20,78.80,83.88,260.00,3.00,0.00,29.80,M,1.86,M,FEW,M,M,M,2000.00,M,M,M,HZ,M,M,M,M,M,M,96.10,VABB 071530Z 26003KT 3000 HZ FEW020 29/26 Q1009 NOSIG,M
VABB,2022-04-07 16:00,84.20,78.80,83.88,200.00,4.00,0.00,29.83,M,1.86,M,SCT,M,M,M,2000.00,M,M,M,HZ,M,M,M,M,M,M,96.10,VABB 071600Z 20004KT 3000 HZ SCT020 29/26 Q1010 NOSIG,M
VABB,2022-04-07 16:30,84.20,78.80,83.88,220.00,3.00,0.00,29.83,M,1.86,M,SCT,M,M,M,2000.00,M,M,M,HZ,M,M,M,M,M,M,96.10,VABB 071630Z 22003KT 3000 HZ SCT020 29/26 Q1010 NOSIG,M
VABB,2022-04-07 17:00,84.20,78.80,83.88,230.00,5.00,0.00,29.83,M,1.86,M,SCT,M,M,M,2000.00,M,M,M,HZ,M,M,M,M,M,M,96.10,VABB 071700Z 23005KT 3000 HZ SCT020 29/26 Q1010 NOSIG,M
VABB,2022-04-07 17:30,84.20,78.80,83.88,260.00,4.00,0.00,29.83,M,1.86,M,SCT,M,M,M,2000.00,M,M,M,HZ,M,M,M,M,M,M,96.10,VABB 071730Z 26004KT 3000 HZ SCT020 29/26 Q1010 NOSIG,M
VABB,2022-04-07 18:00,84.20,78.80,83.88,250.00,4.00,0.00,29.83,M,1.86,M,FEW,M,M,M,2000.00,M,M,M,HZ,M,M,M,M,M,M,96.10,VABB 071800Z 25004KT 3000 HZ FEW020 29/26 Q1010 NOSIG,M
VABB,2022-04-07 18:30,84.20,78.80,83.88,250.00,5.00,0.00,29.80,M,1.86,M,FEW,M,M,M,2000.00,M,M,M,HZ,M,M,M,M,M,M,96.10,VABB 071830Z 25005KT 3000 HZ FEW020 29/26 Q1009 NOSIG,M
VABB,2022-04-07 19:00,82.40,80.60,94.31,280.00,4.00,0.00,29.80,M,1.86,M,FEW,M,M,M,2000.00,M,M,M,HZ,M,M,M,M,M,M,95.00,VABB 071900Z 28004KT 3000 HZ FEW020 28/27 Q1009 NOSIG,M
VABB,2022-04-07 19:30,82.40,78.80,88.90,300.00,6.00,0.00,29.80,M,1.86,M,FEW,M,M,M,2000.00,M,M,M,HZ,M,M,M,M,M,M,92.76,VABB 071930Z 30006KT 3000 HZ FEW020 28/26 Q1009 NOSIG,M
VABB,2022-04-07 20:00,82.40,78.80,88.90,290.00,5.00,0.00,29.77,M,1.86,M,SCT,M,M,M,2000.00,M,M,M,HZ,M,M,M,M,M,M,92.76,VABB 072000Z 29005KT 3000 HZ SCT020 28/26 Q1008 NOSIG,M
VABB,2022-04-07 20:30,82.40,78.80,88.90,290.00,5.00,0.00,29.77,M,1.86,M,SCT,M,M,M,2000.00,M,M,M,HZ,M,M,M,M,M,M,92.76,VABB 072030Z 29005KT 3000 HZ SCT020 28/26 Q1008 NOSIG,M
VABB,2022-04-07 21:00,82.40,78.80,88.90,310.00,5.00,0.00,29.77,M,1.86,M,SCT,M,M,M,2000.00,M,M,M,HZ,M,M,M,M,M,M,92.76,VABB 072100Z 31005KT 3000 HZ SCT020 28/26 Q1008 NOSIG,M
VABB,2022-04-07 21:30,82.40,78.80,88.90,330.00,6.00,0.00,29.77,M,1.86,M,SCT,M,M,M,2000.00,M,M,M,HZ,M,M,M,M,M,M,92.76,VABB 072130Z 33006KT 3000 HZ SCT020 28/26 Q1008 NOSIG,M
VABB,2022-04-07 22:00,82.40,78.80,88.90,90.00,5.00,0.00,29.77,M,1.86,M,SCT,M,M,M,2000.00,M,M,M,HZ,M,M,M,M,M,M,92.76,VABB 072200Z 09005KT 3000 HZ SCT020 28/26 Q1008 NOSIG,M
VABB,2022-04-07 22:30,82.40,78.80,88.90,140.00,5.00,0.00,29.77,M,1.86,M,SCT,M,M,M,2000.00,M,M,M,HZ,M,M,M,M,M,M,92.76,VABB 072230Z 14005KT 3000 HZ SCT020 28/26 Q1008 NOSIG,M
VABB,2022-04-07 23:00,82.40,78.80,88.90,100.00,4.00,0.00,29.77,M,1.86,M,SCT,M,M,M,2000.00,M,M,M,HZ,M,M,M,M,M,M,92.76,VABB 072300Z 10004KT 3000 HZ SCT020 28/26 Q1008 NOSIG,M
VABB,2022-04-07 23:30,82.40,78.80,88.90,0.00,0.00,0.00,29.77,M,1.86,M,SCT,M,M,M,2000.00,M,M,M,HZ,M,M,M,M,M,M,92.76,VABB 072330Z 00000KT 3000 HZ SCT020 28/26 Q1008 NOSIG,M
VABB,2022-04-08 00:00,82.40,78.80,88.90,130.00,5.00,0.00,29.80,M,1.86,M,FEW,M,M,M,2000.00,M,M,M,HZ,M,M,M,M,M,M,92.76,VABB 080000Z 13005KT 3000 HZ FEW020 28/26 Q1009 NOSIG,M
VABB,2022-04-08 00:30,82.40,78.80,88.90,120.00,5.00,0.00,29.80,M,1.86,M,FEW,M,M,M,2000.00,M,M,M,HZ,M,M,M,M,M,M,92.76,VABB 080030Z 12005KT 3000 HZ FEW020 28/26 Q1009 NOSIG,M
VABB,2022-04-08 01:00,82.40,78.80,88.90,130.00,5.00,0.00,29.80,M,1.55,M,FEW,M,M,M,2000.00,M,M,M,HZ,M,M,M,M,M,M,92.76,VABB 080100Z 13005KT 2500 HZ FEW020 28/26 Q1009 NOSIG,M
VABB,2022-04-08 01:30,82.40,78.80,88.90,100.00,7.00,0.00,29.80,M,1.55,M,NSC,M,M,M,M,M,M,M,HZ,M,M,M,M,M,M,92.76,VABB 080130Z 10007KT 2500 HZ NSC 28/26 Q1009 NOSIG,M
VABB,2022-04-08 02:00,82.40,78.80,88.90,110.00,7.00,0.00,29.83,M,1.55,M,NSC,M,M,M,M,M,M,M,HZ,M,M,M,M,M,M,92.76,VABB 080200Z 11007KT 2500 HZ NSC 28/26 Q1010 NOSIG,M
VABB,2022-04-08 02:30,82.40,78.80,88.90,120.00,4.00,0.00,29.83,M,1.37,M,NSC,M,M,M,M,M,M,M,HZ,M,M,M,M,M,M,92.76,VABB 080230Z 12004KT 2200 HZ NSC 28/26 Q1010 NOSIG,M
VABB,2022-04-08 03:00,84.20,78.80,83.88,100.00,6.00,0.00,29.83,M,1.37,M,NSC,M,M,M,M,M,M,M,HZ,M,M,M,M,M,M,96.10,VABB 080300Z 10006KT 2200 HZ NSC 29/26 Q1010 NOSIG,M
VABB,2022-04-08 03:30,86.00,78.80,79.18,130.00,3.00,0.00,29.85,M,1.37,M,NSC,M,M,M,M,M,M,M,HZ,M,M,M,M,M,M,99.38,VABB 080330Z 13003KT 2200 HZ NSC 30/26 Q1011 NOSIG,M
VABB,2022-04-08 04:00,87.80,78.80,74.77,150.00,3.00,0.00,29.85,M,1.37,M,NSC,M,M,M,M,M,M,M,HZ,M,M,M,M,M,M,102.37,VABB 080400Z 15003KT 2200 HZ NSC 31/26 Q1011 NOSIG,M
VABB,2022-04-08 04:30,89.60,78.80,70.63,240.00,5.00,0.00,29.85,M,1.55,M,NSC,M,M,M,M,M,M,M,HZ,M,M,M,M,M,M,105.15,VABB 080430Z 24005KT 2500 HZ NSC 32/26 Q1011 NOSIG,M
VABB,2022-04-08 05:00,91.40,75.20,59.24,320.00,3.00,0.00,29.83,M,1.55,M,NSC,M,M,M,M,M,M,M,HZ,M,M,M,M,M,M,102.65,VABB 080500Z 32003KT 2500 HZ NSC 33/24 Q1010 NOSIG,M
VABB,2022-04-08 05:30,93.20,77.00,59.47,260.00,8.00,0.00,29.83,M,1.55,M,NSC,M,M,M,M,M,M,M,HZ,M,M,M,M,M,M,107.52,VABB 080530Z 26008KT 2500 HZ NSC 34/25 Q1010 NOSIG,M
VABB,2022-04-08 06:00,91.40,78.80,66.75,260.00,8.00,0.00,29.83,M,1.55,M,NSC,M,M,M,M,M,M,M,HZ,M,M,M,M,M,M,107.79,VABB 080600Z 26008KT 2500 HZ NSC 33/26 Q1010 NOSIG,M
VABB,2022-04-08 06:30,91.40,78.80,66.75,280.00,9.00,0.00,29.80,M,1.55,M,NSC,M,M,M,M,M,M,M,HZ,M,M,M,M,M,M,107.79,VABB 080630Z 28009KT 2500 HZ NSC 33/26 Q1009 BECMG 3000 HZ,M
VABB,2022-04-08 07:00,91.40,78.80,66.75,270.00,9.00,0.00,29.80,M,1.86,M,NSC,M,M,M,M,M,M,M,HZ,M,M,M,M,M,M,107.79,VABB 080700Z 27009KT 3000 HZ NSC 33/26 Q1009 NOSIG,M
VABB,2022-04-08 07:30,91.40,78.80,66.75,270.00,9.00,0.00,29.80,M,1.86,M,NSC,M,M,M,M,M,M,M,HZ,M,M,M,M,M,M,107.79,VABB 080730Z 27009KT 3000 HZ NSC 33/26 Q1009 NOSIG,M
VABB,2022-04-08 08:00,89.60,78.80,70.63,270.00,7.00,0.00,29.77,M,2.17,17.00,NSC,M,M,M,M,M,M,M,HZ,M,M,M,M,M,M,105.15,VABB 080800Z 27007G17KT 3500 HZ NSC 32/26 Q1008 NOSIG,M
VABB,2022-04-08 08:30,91.40,78.80,66.75,270.00,11.00,0.00,29.77,M,2.17,M,NSC,M,M,M,M,M,M,M,HZ,M,M,M,M,M,M,107.79,VABB 080830Z 27011KT 3500 HZ NSC 33/26 Q1008 NOSIG,M
VABB,2022-04-08 09:00,89.60,78.80,70.63,270.00,10.00,0.00,29.74,M,2.17,M,NSC,M,M,M,M,M,M,M,HZ,M,M,M,M,M,M,105.15,VABB 080900Z 27010KT 3500 HZ NSC 32/26 Q1007 NOSIG,M
VABB,2022-04-08 09:30,89.60,78.80,70.63,260.00,11.00,0.00,29.74,M,2.17,M,NSC,M,M,M,M,M,M,M,HZ,M,M,M,M,M,M,105.15,VABB 080930Z 26011KT 3500 HZ NSC 32/26 Q1007 NOSIG,M
VABB,2022-04-08 10:00,89.60,77.00,66.55,250.00,13.00,0.00,29.74,M,2.17,M,FEW,M,M,M,2000.00,M,M,M,HZ,M,M,M,M,M,M,102.54,VABB 081000Z 25013KT 3500 HZ FEW020 32/25 Q1007 NOSIG,M
VABB,2022-04-08 10:30,89.60,78.80,70.63,280.00,10.00,0.00,29.71,M,2.17,M,FEW,M,M,M,2000.00,M,M,M,HZ,M,M,M,M,M,M,105.15,VABB 081030Z 28010KT 3500 HZ FEW020 32/26 Q1006 NOSIG,M
VABB,2022-04-08 11:00,87.80,78.80,74.77,280.00,13.00,0.00,29.71,M,2.17,M,FEW,M,M,M,2000.00,M,M,M,HZ,M,M,M,M,M,M,102.37,VABB 081100Z 28013KT 3500 HZ FEW020 31/26 Q1006 NOSIG,M
VABB,2022-04-08 11:30,87.80,78.80,74.77,260.00,11.00,0.00,29.71,M,2.17,M,FEW,M,M,M,2000.00,M,M,M,HZ,M,M,M,M,M,M,102.37,VABB 081130Z 26011KT 3500 HZ FEW020 31/26 Q1006 NOSIG,M
VABB,2022-04-08 12:00,86.00,78.80,79.18,250.00,12.00,0.00,29.71,M,2.17,M,FEW,M,M,M,2000.00,M,M,M,HZ,M,M,M,M,M,M,99.38,VABB 081200Z 25012KT 3500 HZ FEW020 30/26 Q1006 NOSIG,M
VABB,2022-04-08 12:30,86.00,78.80,79.18,240.00,12.00,0.00,29.71,M,2.17,M,FEW,M,M,M,2000.00,M,M,M,HZ,M,M,M,M,M,M,99.38,VABB 081230Z 24012KT 3500 HZ FEW020 30/26 Q1006 NOSIG,M
VABB,2022-04-08 13:00,86.00,78.80,79.18,270.00,9.00,0.00,29.74,M,2.17,M,FEW,M,M,M,2000.00,M,M,M,HZ,M,M,M,M,M,M,99.38,VABB 081300Z 27009KT 3500 HZ FEW020 30/26 Q1007 NOSIG,M
VABB,2022-04-08 13:30,86.00,78.80,79.18,250.00,9.00,0.00,29.74,M,2.17,M,SCT,M,M,M,2000.00,M,M,M,HZ,M,M,M,M,M,M,99.38,VABB 081330Z 25009KT 3500 HZ SCT020 30/26 Q1007 NOSIG,M
VABB,2022-04-08 14:00,84.20,78.80,83.88,210.00,6.00,0.00,29.77,M,2.17,M,SCT,M,M,M,2000.00,M,M,M,HZ,M,M,M,M,M,M,96.10,VABB 081400Z 21006KT 3500 HZ SCT020 29/26 Q1008 NOSIG,M
VABB,2022-04-08 14:30,84.20,78.80,83.88,230.00,6.00,0.00,29.77,M,2.17,M,SCT,M,M,M,2000.00,M,M,M,HZ,M,M,M,M,M,M,96.10,VABB 081430Z 23006KT 3500 HZ SCT020 29/26 Q1008 NOSIG,M
VABB,2022-04-08 15:00,84.20,78.80,83.88,220.00,6.00,0.00,29.77,M,2.17,M,SCT,M,M,M,2000.00,M,M,M,HZ,M,M,M,M,M,M,96.10,VABB 081500Z 22006KT 3500 HZ SCT020 29/26 Q1008 NOSIG,M
VABB,2022-04-08 15:30,84.20,78.80,83.88,190.00,7.00,0.00,29.80,M,1.86,M,SCT,M,M,M,2000.00,M,M,M,HZ,M,M,M,M,M,M,96.10,VABB 081530Z 19007KT 3000 HZ SCT020 29/26 Q1009 NOSIG,M
VABB,2022-04-08 16:00,84.20,78.80,83.88,200.00,9.00,0.00,29.80,M,1.86,M,SCT,M,M,M,2000.00,M,M,M,HZ,M,M,M,M,M,M,96.10,VABB 081600Z 20009KT 3000 HZ SCT020 29/26 Q1009 NOSIG,M
VABB,2022-04-08 16:30,84.20,78.80,83.88,190.00,8.00,0.00,29.80,M,1.86,M,SCT,M,M,M,2000.00,M,M,M,HZ,M,M,M,M,M,M,96.10,VABB 081630Z 19008KT 3000 HZ SCT020 29/26 Q1009 NOSIG,M
VABB,2022-04-08 17:00,84.20,78.80,83.88,220.00,6.00,0.00,29.80,M,1.86,M,SCT,M,M,M,2000.00,M,M,M,HZ,M,M,M,M,M,M,96.10,VABB 081700Z 22006KT 3000 HZ SCT020 29/26 Q1009 NOSIG,M
VABB,2022-04-08 17:30,84.20,78.80,83.88,230.00,5.00,0.00,29.80,M,1.86,M,SCT,M,M,M,2000.00,M,M,M,HZ,M,M,M,M,M,M,96.10,VABB 081730Z 23005KT 3000 HZ SCT020 29/26 Q1009 NOSIG,M
VABB,2022-04-08 18:00,84.20,78.80,83.88,220.00,7.00,0.00,29.80,M,1.86,M,SCT,M,M,M,2000.00,M,M,M,HZ,M,M,M,M,M,M,96.10,VABB 081800Z 22007KT 3000 HZ SCT020 29/26 Q1009 NOSIG,M
VABB,2022-04-08 18:30,84.20,78.80,83.88,230.00,8.00,0.00,29.80,M,1.86,M,SCT,M,M,M,2000.00,M,M,M,HZ,M,M,M,M,M,M,96.10,VABB 081830Z 23008KT 3000 HZ SCT020 29/26 Q1009 NOSIG,M
VABB,2022-04-08 19:00,84.20,78.80,83.88,210.00,7.00,0.00,29.80,M,1.86,M,SCT,M,M,M,2000.00,M,M,M,HZ,M,M,M,M,M,M,96.10,VABB 081900Z 21007KT 3000 HZ SCT020 29/26 Q1009 NOSIG,M
VABB,2022-04-08 19:30,84.20,78.80,83.88,220.00,5.00,0.00,29.77,M,1.86,M,SCT,M,M,M,2000.00,M,M,M,HZ,M,M,M,M,M,M,96.10,VABB 081930Z 22005KT 3000 HZ SCT020 29/26 Q1008 NOSIG,M
VABB,2022-04-08 20:00,84.20,78.80,83.88,200.00,4.00,0.00,29.77,M,1.86,M,SCT,M,M,M,2000.00,M,M,M,HZ,M,M,M,M,M,M,96.10,VABB 082000Z 20004KT 3000 HZ SCT020 29/26 Q1008 NOSIG,M
VABB,2022-04-08 20:30,84.20,78.80,83.88,200.00,4.00,0.00,29.77,M,1.86,M,SCT,M,M,M,2000.00,M,M,M,HZ,M,M,M,M,M,M,96.10,VABB 082030Z 20004KT 3000 HZ SCT020 29/26 Q1008 NOSIG,M
VABB,2022-04-08 21:00,84.20,78.80,83.88,220.00,6.00,0.00,29.77,M,1.86,M,SCT,M,M,M,2000.00,M,M,M,HZ,M,M,M,M,M,M,96.10,VABB 082100Z 22006KT 3000 HZ SCT020 29/26 Q1008 NOSIG,M
VABB,2022-04-08 21:30,84.20,78.80,83.88,180.00,5.00,0.00,29.77,M,1.86,M,BKN,M,M,M,2000.00,M,M,M,HZ,M,M,M,M,M,M,96.10,VABB 082130Z 18005KT 3000 HZ BKN020 29/26 Q1008 NOSIG,M
VABB,2022-04-08 22:00,84.20,77.00,79.04,160.00,4.00,0.00,29.74,M,1.86,M,SCT,M,M,M,2000.00,M,M,M,HZ,M,M,M,M,M,M,94.16,VABB 082200Z 16004KT 3000 HZ SCT020 29/25 Q1007 NOSIG,M
VABB,2022-04-08 22:30,84.20,77.00,79.04,170.00,4.00,0.00,29.74,M,1.86,M,SCT,M,M,M,2000.00,M,M,M,HZ,M,M,M,M,M,M,94.16,VABB 082230Z 17004KT 3000 HZ SCT020 29/25 Q1007 NOSIG,M
VABB,2022-04-08 23:00,84.20,78.80,83.88,150.00,3.00,0.00,29.77,M,1.86,M,SCT,M,M,M,2000.00,M,M,M,HZ,M,M,M,M,M,M,96.10,VABB 082300Z 15003KT 3000 HZ SCT020 29/26 Q1008 NOSIG,M
VABB,2022-04-08 23:30,84.20,78.80,83.88,180.00,4.00,0.00,29.77,M,1.86,M,SCT,M,M,M,2000.00,M,M,M,HZ,M,M,M,M,M,M,96.10,VABB 082330Z 18004KT 3000 HZ SCT020 29/26 Q1008 NOSIG,M
VABB,2022-04-09 00:00,84.20,78.80,83.88,170.00,4.00,0.00,29.77,M,1.86,M,SCT,M,M,M,2000.00,M,M,M,HZ,M,M,M,M,M,M,96.10,VABB 090000Z 17004KT 3000 HZ SCT020 29/26 Q1008 NOSIG,M
VABB,2022-04-09 00:30,84.20,78.80,83.88,150.00,4.00,0.00,29.77,M,1.86,M,SCT,M,M,M,2000.00,M,M,M,HZ,M,M,M,M,M,M,96.10,VABB 090030Z 15004KT 3000 HZ SCT020 29/26 Q1008 NOSIG,M
VABB,2022-04-09 01:00,82.40,78.80,88.90,130.00,3.00,0.00,29.77,M,1.86,M,SCT,M,M,M,2000.00,M,M,M,HZ,M,M,M,M,M,M,92.76,VABB 090100Z 13003KT 3000 HZ SCT020 28/26 Q1008 NOSIG,M
VABB,2022-04-09 01:30,84.20,78.80,83.88,110.00,5.00,0.00,29.80,M,1.86,M,FEW,M,M,M,2000.00,M,M,M,HZ,M,M,M,M,M,M,96.10,VABB 090130Z 11005KT 3000 HZ FEW020 29/26 Q1009 NOSIG,M
VABB,2022-04-09 02:00,84.20,78.80,83.88,110.00,5.00,0.00,29.80,M,1.86,M,FEW,M,M,M,2000.00,M,M,M,HZ,M,M,M,M,M,M,96.10,VABB 090200Z 11005KT 3000 HZ FEW020 29/26 Q1009 NOSIG,M
VABB,2022-04-09 02:30,84.20,78.80,83.88,110.00,6.00,0.00,29.80,M,1.86,M,FEW,M,M,M,2000.00,M,M,M,HZ,M,M,M,M,M,M,96.10,VABB 090230Z 11006KT 3000 HZ FEW020 29/26 Q1009 NOSIG,M
VABB,2022-04-09 03:00,86.00,78.80,79.18,120.00,5.00,0.00,29.83,M,1.86,M,NSC,M,M,M,M,M,M,M,HZ,M,M,M,M,M,M,99.38,VABB 090300Z 12005KT 3000 HZ NSC 30/26 Q1010 NOSIG,M
VABB,2022-04-09 03:30,86.00,78.80,79.18,170.00,4.00,0.00,29.83,M,1.86,M,NSC,M,M,M,M,M,M,M,HZ,M,M,M,M,M,M,99.38,VABB 090330Z 17004KT 3000 HZ NSC 30/26 Q1010 NOSIG,M
VABB,2022-04-09 04:00,87.80,78.80,74.77,190.00,4.00,0.00,29.83,M,1.86,M,NSC,M,M,M,M,M,M,M,HZ,M,M,M,M,M,M,102.37,VABB 090400Z 19004KT 3000 HZ NSC 31/26 Q1010 NOSIG,M
VABB,2022-04-09 04:30,89.60,77.00,66.55,180.00,8.00,0.00,29.83,M,1.86,M,NSC,M,M,M,M,M,M,M,HZ,M,M,M,M,M,M,102.54,VABB 090430Z 18008KT 3000 HZ NSC 32/25 Q1010 NOSIG,M
VABB,2022-04-09 05:00,89.60,75.20,62.68,180.00,8.00,0.00,29.83,M,1.86,M,NSC,M,M,M,M,M,M,M,HZ,M,M,M,M,M,M,100.23,VABB 090500Z 18008KT 3000 HZ NSC 32/24 Q1010 NOSIG,M
VABB,2022-04-09 05:30,89.60,77.00,66.55,180.00,6.00,0.00,29.83,M,1.86,M,FEW,M,M,M,2000.00,M,M,M,HZ,M,M,M,M,M,M,102.54,VABB 090530Z 18006KT 3000 HZ FEW020 32/25 Q1010 NOSIG,M
VABB,2022-04-09 06:00,91.40,78.80,66.75,180.00,8.00,0.00,29.83,M,2.17,M,NSC,M,M,M,M,M,M,M,FU,M,M,M,M,M,M,107.79,VABB 090600Z 18008KT 3500 FU NSC 33/26 Q1010 NOSIG,M
VABB,2022-04-09 06:30,91.40,77.00,62.90,230.00,8.00,0.00,29.83,M,2.17,M,FEW,M,M,M,2000.00,M,M,M,FU,M,M,M,M,M,M,105.06,VABB 090630Z 23008KT 3500 FU FEW020 33/25 Q1010 NOSIG,M
VABB,2022-04-09 07:00,91.40,78.80,66.75,250.00,12.00,0.00,29.80,M,2.17,M,FEW,M,M,M,2000.00,M,M,M,FU,M,M,M,M,M,M,107.79,VABB 090700Z 25012KT 3500 FU FEW020 33/26 Q1009 NOSIG,M
VABB,2022-04-09 07:30,93.20,77.00,59.47,250.00,12.00,0.00,29.80,M,2.17,M,FEW,M,M,M,2000.00,M,M,M,FU,M,M,M,M,M,M,107.52,VABB 090730Z 25012KT 3500 FU FEW020 34/25 Q1009 NOSIG,M
VABB,2022-04-09 08:00,91.40,77.00,62.90,250.00,11.00,0.00,29.77,M,2.17,M,NSC,M,M,M,M,M,M,M,HZ,M,M,M,M,M,M,105.06,VABB 090800Z 25011KT 3500 HZ NSC 33/25 Q1008 NOSIG,M
VABB,2022-04-09 08:30,91.40,78.80,66.75,240.00,12.00,0.00,29.77,M,2.49,M,NSC,M,M,M,M,M,M,M,FU,M,M,M,M,M,M,107.79,VABB 090830Z 24012KT 4000 FU NSC 33/26 Q1008 NOSIG,M
VABB,2022-04-09 09:00,89.60,78.80,70.63,240.00,12.00,0.00,29.77,M,2.80,M,FEW,M,M,M,2000.00,M,M,M,HZ,M,M,M,M,M,M,105.15,VABB 090900Z 24012KT 4500 HZ FEW020 32/26 Q1008 BECMG 5000 HZ,M
VABB,2022-04-09 09:30,89.60,78.80,70.63,260.00,12.00,0.00,29.74,M,3.11,M,FEW,M,M,M,2000.00,M,M,M,HZ,M,M,M,M,M,M,105.15,VABB 090930Z 26012KT 5000 HZ FEW020 32/26 Q1007 NOSIG,M
VABB,2022-04-09 10:00,89.60,78.80,70.63,250.00,13.00,0.00,29.74,M,3.11,M,SCT,M,M,M,2000.00,M,M,M,HZ,M,M,M,M,M,M,105.15,VABB 091000Z 25013KT 5000 HZ SCT020 32/26 Q1007 NOSIG,M
VABB,2022-04-09 10:30,89.60,78.80,70.63,260.00,12.00,0.00,29.74,M,3.11,M,SCT,M,M,M,2000.00,M,M,M,HZ,M,M,M,M,M,M,105.15,VABB 091030Z 26012KT 5000 HZ SCT020 32/26 Q1007 NOSIG,M
VABB,2022-04-09 11:00,87.80,78.80,74.77,220.00,12.00,0.00,29.74,M,3.11,M,SCT,SCT,M,M,2000.00,2500.00,M,M,HZ,M,M,M,M,M,M,102.37,VABB 091100Z 22012KT 5000 HZ SCT020 SCT025 31/26 Q1007 NOSIG,M
VABB,2022-04-09 11:30,87.80,78.80,74.77,240.00,11.00,0.00,29.74,M,3.11,M,SCT,SCT,M,M,2000.00,2500.00,M,M,HZ,M,M,M,M,M,M,102.37,VABB 091130Z 24011KT 5000 HZ SCT020 SCT025 31/26 Q1007 NOSIG,M
VABB,2022-04-09 12:00,87.80,78.80,74.77,240.00,10.00,0.00,29.74,M,2.49,M,FEW,SCT,M,M,2000.00,2500.00,M,M,HZ,M,M,M,M,M,M,102.37,VABB 091200Z 24010KT 4000 HZ FEW020 SCT025 31/26 Q1007 NOSIG,M
VABB,2022-04-09 12:30,87.80,78.80,74.77,250.00,12.00,0.00,29.74,M,2.49,M,FEW,M,M,M,2000.00,M,M,M,HZ,M,M,M,M,M,M,102.37,VABB 091230Z 25012KT 4000 HZ FEW020 31/26 Q1007 NOSIG,M
VABB,2022-04-09 13:00,86.00,78.80,79.18,220.00,9.00,0.00,29.74,M,2.49,M,FEW,SCT,M,M,2000.00,10000.00,M,M,HZ,M,M,M,M,M,M,99.38,VABB 091300Z 22009KT 4000 HZ FEW020 SCT100 30/26 Q1007 NOSIG,M
VABB,2022-04-09 13:30,86.00,78.80,79.18,240.00,9.00,0.00,29.74,M,2.17,M,SCT,M,M,M,2000.00,M,M,M,HZ,M,M,M,M,M,M,99.38,VABB 091330Z 24009KT 3500 HZ SCT020 30/26 Q1007 NOSIG,M
VABB,2022-04-09 14:00,86.00,80.60,83.99,250.00,8.00,0.00,29.77,M,2.17,M,SCT,M,M,M,2000.00,M,M,M,HZ,M,M,M,M,M,M,101.90,VABB 091400Z 25008KT 3500 HZ SCT020 30/27 Q1008 BECMG 3000 HZ,M
VABB,2022-04-09 14:30,86.00,80.60,83.99,220.00,9.00,0.00,29.77,M,1.86,M,SCT,M,M,M,2000.00,M,M,M,HZ,M,M,M,M,M,M,101.90,VABB 091430Z 22009KT 3000 HZ SCT020 30/27 Q1008 NOSIG,M
VABB,2022-04-09 15:00,86.00,78.80,79.18,220.00,8.00,0.00,29.77,M,1.86,M,SCT,M,M,M,2000.00,M,M,M,HZ,M,M,M,M,M,M,99.38,VABB 091500Z 22008KT 3000 HZ SCT020 30/26 Q1008 NOSIG,M
VABB,2022-04-09 15:30,86.00,77.00,74.61,240.00,7.00,0.00,29.77,M,1.86,M,SCT,M,M,M,2000.00,M,M,M,HZ,M,M,M,M,M,M,97.15,VABB 091530Z 24007KT 3000 HZ SCT020 30/25 Q1008 NOSIG,M
VABB,2022-04-09 16:00,84.20,78.80,83.88,240.00,7.00,0.00,29.77,M,1.86,M,SCT,M,M,M,2000.00,M,M,M,HZ,M,M,M,M,M,M,96.10,VABB 091600Z 24007KT 3000 HZ SCT020 29/26 Q1008 NOSIG,M
VABB,2022-04-09 16:30,84.20,78.80,83.88,250.00,6.00,0.00,29.80,M,1.86,M,SCT,M,M,M,2000.00,M,M,M,HZ,M,M,M,M,M,M,96.10,VABB 091630Z 25006KT 3000 HZ SCT020 29/26 Q1009 NOSIG,M
VABB,2022-04-09 17:00,84.20,78.80,83.88,240.00,6.00,0.00,29.80,M,1.86,M,SCT,M,M,M,2000.00,M,M,M,HZ,M,M,M,M,M,M,96.10,VABB 091700Z 24006KT 3000 HZ SCT020 29/26 Q1009 NOSIG,M
VABB,2022-04-09 17:30,84.20,78.80,83.88,240.00,7.00,0.00,29.80,M,1.86,M,SCT,M,M,M,2000.00,M,M,M,HZ,M,M,M,M,M,M,96.10,VABB 091730Z 24007KT 3000 HZ SCT020 29/26 Q1009 NOSIG,M
VABB,2022-04-09 18:00,84.20,78.80,83.88,250.00,6.00,0.00,29.80,M,1.86,M,SCT,M,M,M,2000.00,M,M,M,HZ,M,M,M,M,M,M,96.10,VABB 091800Z 25006KT 3000 HZ SCT020 29/26 Q1009 NOSIG,M
VABB,2022-04-09 18:30,84.20,78.80,83.88,240.00,6.00,0.00,29.80,M,1.86,M,SCT,M,M,M,2000.00,M,M,M,HZ,M,M,M,M,M,M,96.10,VABB 091830Z 24006KT 3000 HZ SCT020 29/26 Q1009 NOSIG,M
VABB,2022-04-09 19:00,84.20,78.80,83.88,240.00,6.00,0.00,29.77,M,1.86,M,SCT,M,M,M,2000.00,M,M,M,HZ,M,M,M,M,M,M,96.10,VABB 091900Z 24006KT 3000 HZ SCT020 29/26 Q1008 NOSIG,M
VABB,2022-04-09 19:30,84.20,78.80,83.88,230.00,6.00,0.00,29.77,M,1.86,M,FEW,M,M,M,2000.00,M,M,M,HZ,M,M,M,M,M,M,96.10,VABB 091930Z 23006KT 3000 HZ FEW020 29/26 Q1008 NOSIG,M
VABB,2022-04-09 20:00,84.20,78.80,83.88,240.00,5.00,0.00,29.77,M,1.86,M,FEW,M,M,M,2000.00,M,M,M,HZ,M,M,M,M,M,M,96.10,VABB 092000Z 24005KT 3000 HZ FEW020 29/26 Q1008 NOSIG,M
VABB,2022-04-09 20:30,84.20,78.80,83.88,250.00,4.00,0.00,29.77,M,1.86,M,FEW,M,M,M,2000.00,M,M,M,HZ,M,M,M,M,M,M,96.10,VABB 092030Z 25004KT 3000 HZ FEW020 29/26 Q1008 NOSIG,M
VABB,2022-04-09 21:00,84.20,78.80,83.88,240.00,3.00,0.00,29.74,M,1.86,M,FEW,M,M,M,2000.00,M,M,M,HZ,M,M,M,M,M,M,96.10,VABB 092100Z 24003KT 3000 HZ FEW020 29/26 Q1007 NOSIG,M
VABB,2022-04-09 21:30,84.20,78.80,83.88,230.00,6.00,0.00,29.74,M,1.86,M,FEW,M,M,M,2000.00,M,M,M,HZ,M,M,M,M,M,M,96.10,VABB 092130Z 23006KT 3000 HZ FEW020 29/26 Q1007 NOSIG,M
VABB,2022-04-09 22:00,84.20,78.80,83.88,220.00,3.00,0.00,29.74,M,1.86,M,FEW,M,M,M,2000.00,M,M,M,HZ,M,M,M,M,M,M,96.10,VABB 092200Z 22003KT 3000 HZ FEW020 29/26 Q1007 NOSIG,M
VABB,2022-04-09 22:30,82.40,78.80,88.90,0.00,0.00,0.00,29.74,M,1.86,M,NSC,M,M,M,M,M,M,M,HZ,M,M,M,M,M,M,92.76,VABB 092230Z 00000KT 3000 HZ NSC 28/26 Q1007 NOSIG,M
VABB,2022-04-09 23:00,82.40,78.80,88.90,210.00,3.00,0.00,29.74,M,1.86,M,NSC,M,M,M,M,M,M,M,HZ,M,M,M,M,M,M,92.76,VABB 092300Z 21003KT 3000 HZ NSC 28/26 Q1007 NOSIG,M
VABB,2022-04-09 23:30,84.20,78.80,83.88,220.00,5.00,0.00,29.74,M,1.86,M,NSC,M,M,M,M,M,M,M,HZ,M,M,M,M,M,M,96.10,VABB 092330Z 22005KT 3000 HZ NSC 29/26 Q1007 NOSIG,M
VABB,2022-04-10 00:00,84.20,78.80,83.88,240.00,5.00,0.00,29.77,M,1.86,M,NSC,M,M,M,M,M,M,M,HZ,M,M,M,M,M,M,96.10,VABB 100000Z 24005KT 3000 HZ NSC 29/26 Q1008 NOSIG,M
VABB,2022-04-10 00:30,84.20,78.80,83.88,220.00,5.00,0.00,29.77,M,1.86,M,NSC,M,M,M,M,M,M,M,HZ,M,M,M,M,M,M,96.10,VABB 100030Z 22005KT 3000 HZ NSC 29/26 Q1008 NOSIG,M
VABB,2022-04-10 01:00,84.20,78.80,83.88,220.00,4.00,0.00,29.77,M,1.55,M,FEW,M,M,M,10000.00,M,M,M,HZ,M,M,M,M,M,M,96.10,VABB 100100Z 22004KT 2500 HZ FEW100 29/26 Q1008 NOSIG,M
VABB,2022-04-10 01:30,84.20,78.80,83.88,220.00,6.00,0.00,29.80,M,1.55,M,FEW,M,M,M,2000.00,M,M,M,HZ,M,M,M,M,M,M,96.10,VABB 100130Z 22006KT 2500 HZ FEW020 29/26 Q1009 NOSIG,M
VABB,2022-04-10 02:00,84.20,78.80,83.88,230.00,3.00,0.00,29.80,M,1.55,M,FEW,M,M,M,2000.00,M,M,M,HZ,M,M,M,M,M,M,96.10,VABB 100200Z 23003KT 2500 HZ FEW020 29/26 Q1009 NOSIG,M
VABB,2022-04-10 02:30,84.20,78.80,83.88,190.00,3.00,0.00,29.83,M,1.55,M,SCT,M,M,M,2000.00,M,M,M,HZ,M,M,M,M,M,M,96.10,VABB 100230Z 19003KT 2500 HZ SCT020 29/26 Q1010 NOSIG,M
VABB,2022-04-10 03:00,86.00,78.80,79.18,170.00,5.00,0.00,29.83,M,1.55,M,SCT,M,M,M,2000.00,M,M,M,HZ,M,M,M,M,M,M,99.38,VABB 100300Z 17005KT 2500 HZ SCT020 30/26 Q1010 NOSIG,M
VABB,2022-04-10 03:30,86.00,78.80,79.18,210.00,4.00,0.00,29.83,M,1.55,M,SCT,M,M,M,2000.00,M,M,M,HZ,M,M,M,M,M,M,99.38,VABB 100330Z 21004KT 2500 HZ SCT020 30/26 Q1010 NOSIG,M
VABB,2022-04-10 04:00,86.00,78.80,79.18,230.00,6.00,0.00,29.85,M,1.55,M,SCT,M,M,M,2000.00,M,M,M,HZ,M,M,M,M,M,M,99.38,VABB 100400Z 23006KT 2500 HZ SCT020 30/26 Q1011 NOSIG,M
VABB,2022-04-10 04:30,87.80,78.80,74.77,180.00,5.00,0.00,29.85,M,1.55,M,SCT,M,M,M,2000.00,M,M,M,HZ,M,M,M,M,M,M,102.37,VABB 100430Z 18005KT 2500 HZ SCT020 31/26 Q1011 NOSIG,M
VABB,2022-04-10 05:00,89.60,78.80,70.63,250.00,8.00,0.00,29.85,M,1.55,M,SCT,M,M,M,2000.00,M,M,M,HZ,M,M,M,M,M,M,105.15,VABB 100500Z 25008KT 2500 HZ SCT020 32/26 Q1011 NOSIG,M
VABB,2022-04-10 05:30,89.60,78.80,70.63,220.00,7.00,0.00,29.83,M,1.86,M,SCT,M,M,M,2000.00,M,M,M,HZ,M,M,M,M,M,M,105.15,VABB 100530Z 22007KT 3000 HZ SCT020 32/26 Q1010 NOSIG,M
VABB,2022-04-10 06:00,89.60,78.80,70.63,210.00,9.00,0.00,29.83,M,1.86,M,SCT,M,M,M,2000.00,M,M,M,HZ,M,M,M,M,M,M,105.15,VABB 100600Z 21009KT 3000 HZ SCT020 32/26 Q1010 NOSIG,M
VABB,2022-04-10 06:30,89.60,78.80,70.63,230.00,8.00,0.00,29.83,M,1.86,M,SCT,M,M,M,2000.00,M,M,M,HZ,M,M,M,M,M,M,105.15,VABB 100630Z 23008KT 3000 HZ SCT020 32/26 Q1010 NOSIG,M
VABB,2022-04-10 07:00,91.40,77.00,62.90,250.00,10.00,0.00,29.80,M,1.86,M,SCT,M,M,M,2000.00,M,M,M,HZ,M,M,M,M,M,M,105.06,VABB 100700Z 25010KT 3000 HZ SCT020 33/25 Q1009 NOSIG,M
VABB,2022-04-10 07:30,89.60,77.00,66.55,260.00,10.00,0.00,29.80,M,1.86,M,SCT,M,M,M,2000.00,M,M,M,HZ,M,M,M,M,M,M,102.54,VABB 100730Z 26010KT 3000 HZ SCT020 32/25 Q1009 NOSIG,M
VABB,2022-04-10 08:00,89.60,78.80,70.63,250.00,11.00,0.00,29.77,M,1.86,M,SCT,M,M,M,2000.00,M,M,M,HZ,M,M,M,M,M,M,105.15,VABB 100800Z 25011KT 3000 HZ SCT020 32/26 Q1008 NOSIG,M
VABB,2022-04-10 08:30,89.60,77.00,66.55,250.00,10.00,0.00,29.77,M,2.17,M,SCT,M,M,M,2000.00,M,M,M,HZ,M,M,M,M,M,M,102.54,VABB 100830Z 25010KT 3500 HZ SCT020 32/25 Q1008 NOSIG,M
VABB,2022-04-10 09:00,89.60,77.00,66.55,250.00,11.00,0.00,29.74,M,2.17,M,FEW,M,M,M,2000.00,M,M,M,HZ,M,M,M,M,M,M,102.54,VABB 100900Z 25011KT 3500 HZ FEW020 32/25 Q1007 NOSIG,M
VABB,2022-04-10 09:30,89.60,77.00,66.55,240.00,11.00,0.00,29.74,M,2.49,M,FEW,M,M,M,2000.00,M,M,M,HZ,M,M,M,M,M,M,102.54,VABB 100930Z 24011KT 4000 HZ FEW020 32/25 Q1007 NOSIG,M
VABB,2022-04-10 10:00,89.60,78.80,70.63,250.00,10.00,0.00,29.74,M,2.49,M,FEW,M,M,M,2000.00,M,M,M,HZ,M,M,M,M,M,M,105.15,VABB 101000Z 25010KT 4000 HZ FEW020 32/26 Q1007 NOSIG,M
VABB,2022-04-10 10:30,89.60,78.80,70.63,270.00,10.00,0.00,29.71,M,2.80,M,FEW,M,M,M,2000.00,M,M,M,HZ,M,M,M,M,M,M,105.15,COR VABB 101030Z 27010KT 4500 HZ FEW020 32/26 Q1006 BECMG 5000 HZ,M
VABB,2022-04-10 11:00,87.80,78.80,74.77,250.00,13.00,0.00,29.71,M,3.11,M,SCT,M,M,M,2000.00,M,M,M,HZ,M,M,M,M,M,M,102.37,VABB 101100Z 25013KT 5000 HZ SCT020 31/26 Q1006 NOSIG,M
VABB,2022-04-10 11:30,87.80,78.80,74.77,270.00,11.00,0.00,29.71,M,3.11,M,SCT,M,M,M,2000.00,M,M,M,HZ,M,M,M,M,M,M,102.37,VABB 101130Z 27011KT 5000 HZ SCT020 31/26 Q1006 NOSIG,M
VABB,2022-04-10 12:00,86.00,78.80,79.18,290.00,8.00,0.00,29.71,M,3.11,M,SCT,M,M,M,2000.00,M,M,M,HZ,M,M,M,M,M,M,99.38,VABB 101200Z 29008KT 5000 HZ SCT020 30/26 Q1006 NOSIG,M
VABB,2022-04-10 12:30,86.00,78.80,79.18,290.00,10.00,0.00,29.71,M,3.11,M,SCT,M,M,M,2000.00,M,M,M,HZ,M,M,M,M,M,M,99.38,VABB 101230Z 29010KT 5000 HZ SCT020 30/26 Q1006 NOSIG,M
VABB,2022-04-10 13:00,84.20,78.80,83.88,280.00,10.00,0.00,29.74,M,2.49,M,FEW,SCT,M,M,2000.00,10000.00,M,M,HZ,M,M,M,M,M,M,96.10,VABB 101300Z 28010KT 4000 HZ FEW020 SCT100 29/26 Q1007 NOSIG,M
VABB,2022-04-10 13:30,86.00,77.00,74.61,280.00,9.00,0.00,29.74,M,2.49,M,FEW,SCT,M,M,2000.00,10000.00,M,M,HZ,M,M,M,M,M,M,97.15,VABB 101330Z 28009KT 4000 HZ FEW020 SCT100 30/25 Q1007 NOSIG,M
VABB,2022-04-10 14:00,84.20,77.00,79.04,260.00,7.00,0.00,29.74,M,2.17,M,SCT,M,M,M,2000.00,M,M,M,HZ,M,M,M,M,M,M,94.16,VABB 101400Z 26007KT 3500 HZ SCT020 29/25 Q1007 NOSIG,M
VABB,2022-04-10 14:30,84.20,77.00,79.04,270.00,7.00,0.00,29.77,M,2.17,M,FEW,M,M,M,2000.00,M,M,M,HZ,M,M,M,M,M,M,94.16,VABB 101430Z 27007KT 3500 HZ FEW020 29/25 Q1008 NOSIG,M
VABB,2022-04-10 15:00,84.20,77.00,79.04,300.00,4.00,0.00,29.77,M,2.17,M,FEW,M,M,M,2000.00,M,M,M,HZ,M,M,M,M,M,M,94.16,VABB 101500Z 30004KT 3500 HZ FEW020 29/25 Q1008 NOSIG,M
VABB,2022-04-10 15:30,86.00,77.00,74.61,250.00,5.00,0.00,29.77,M,2.17,M,NSC,M,M,M,M,M,M,M,HZ,M,M,M,M,M,M,97.15,VABB 101530Z 25005KT 3500 HZ NSC 30/25 Q1008 NOSIG,M
VABB,2022-04-10 16:00,84.20,77.00,79.04,240.00,6.00,0.00,29.80,M,2.17,M,FEW,M,M,M,10000.00,M,M,M,HZ,M,M,M,M,M,M,94.16,VABB 101600Z 24006KT 3500 HZ FEW100 29/25 Q1009 NOSIG,M
VABB,2022-04-10 16:30,84.20,77.00,79.04,240.00,6.00,0.00,29.80,M,2.17,M,FEW,M,M,M,10000.00,M,M,M,HZ,M,M,M,M,M,M,94.16,VABB 101630Z 24006KT 3500 HZ FEW100 29/25 Q1009 NOSIG,M
VABB,2022-04-10 17:00,84.20,77.00,79.04,220.00,3.00,0.00,29.80,M,2.17,M,FEW,M,M,M,10000.00,M,M,M,HZ,M,M,M,M,M,M,94.16,VABB 101700Z 22003KT 3500 HZ FEW100 29/25 Q1009 NOSIG,M
VABB,2022-04-10 17:30,84.20,77.00,79.04,210.00,5.00,0.00,29.80,M,2.17,M,FEW,M,M,M,10000.00,M,M,M,HZ,M,M,M,M,M,M,94.16,VABB 101730Z 21005KT 3500 HZ FEW100 29/25 Q1009 NOSIG,M
VABB,2022-04-10 18:00,84.20,77.00,79.04,220.00,4.00,0.00,29.80,M,2.17,M,FEW,M,M,M,10000.00,M,M,M,HZ,M,M,M,M,M,M,94.16,VABB 101800Z 22004KT 3500 HZ FEW100 29/25 Q1009 NOSIG,M
VABB,2022-04-10 18:30,84.20,77.00,79.04,210.00,4.00,0.00,29.77,M,2.17,M,FEW,M,M,M,10000.00,M,M,M,HZ,M,M,M,M,M,M,94.16,VABB 101830Z 21004KT 3500 HZ FEW100 29/25 Q1008 NOSIG,M
VABB,2022-04-10 19:00,84.20,77.00,79.04,0.00,0.00,0.00,29.77,M,2.17,M,FEW,M,M,M,10000.00,M,M,M,HZ,M,M,M,M,M,M,94.16,VABB 101900Z 00000KT 3500 HZ FEW100 29/25 Q1008 NOSIG,M
VABB,2022-04-10 19:30,84.20,77.00,79.04,180.00,4.00,0.00,29.77,M,2.17,M,FEW,SCT,M,M,2000.00,10000.00,M,M,HZ,M,M,M,M,M,M,94.16,VABB 101930Z 18004KT 3500 HZ FEW020 SCT100 29/25 Q1008 NOSIG,M
VABB,2022-04-10 20:00,82.40,77.00,83.77,220.00,5.00,0.00,29.77,M,2.17,M,FEW,SCT,M,M,2000.00,10000.00,M,M,HZ,M,M,M,M,M,M,90.85,VABB 102000Z 22005KT 3500 HZ FEW020 SCT100 28/25 Q1008 NOSIG,M
VABB,2022-04-10 20:30,82.40,77.00,83.77,210.00,4.00,0.00,29.77,M,2.17,M,FEW,SCT,M,M,2000.00,10000.00,M,M,HZ,M,M,M,M,M,M,90.85,VABB 102030Z 21004KT 3500 HZ FEW020 SCT100 28/25 Q1008 NOSIG,M
VABB,2022-04-10 21:00,84.20,77.00,79.04,220.00,4.00,0.00,29.77,M,2.17,M,FEW,SCT,M,M,2000.00,10000.00,M,M,HZ,M,M,M,M,M,M,94.16,VABB 102100Z 22004KT 3500 HZ FEW020 SCT100 29/25 Q1008 NOSIG,M
VABB,2022-04-10 21:30,84.20,77.00,79.04,230.00,4.00,0.00,29.74,M,2.17,M,FEW,SCT,M,M,2000.00,10000.00,M,M,HZ,M,M,M,M,M,M,94.16,VABB 102130Z 23004KT 3500 HZ FEW020 SCT100 29/25 Q1007 NOSIG,M
VABB,2022-04-10 22:00,82.40,77.00,83.77,150.00,3.00,0.00,29.74,M,2.17,M,FEW,M,M,M,10000.00,M,M,M,HZ,M,M,M,M,M,M,90.85,VABB 102200Z 15003KT 3500 HZ FEW100 28/25 Q1007 NOSIG,M
VABB,2022-04-10 22:30,82.40,75.20,78.90,0.00,0.00,0.00,29.74,M,2.17,M,FEW,M,M,M,10000.00,M,M,M,HZ,M,M,M,M,M,M,89.48,VABB 102230Z 00000KT 3500 HZ FEW100 28/24 Q1007 NOSIG,M
VABB,2022-04-10 23:00,84.20,77.00,79.04,100.00,4.00,0.00,29.74,M,2.17,M,FEW,M,M,M,10000.00,M,M,M,HZ,M,M,M,M,M,M,94.16,VABB 102300Z 10004KT 3500 HZ FEW100 29/25 Q1007 NOSIG,M
VABB,2022-04-10 23:30,82.40,77.00,83.77,0.00,0.00,0.00,29.77,M,2.17,M,FEW,M,M,M,10000.00,M,M,M,HZ,M,M,M,M,M,M,90.85,VABB 102330Z 00000KT 3500 HZ FEW100 28/25 Q1008 NOSIG,M
VABB,2022-04-11 00:00,82.40,78.80,88.90,0.00,0.00,0.00,29.77,M,2.17,M,FEW,M,M,M,10000.00,M,M,M,HZ,M,M,M,M,M,M,92.76,VABB 110000Z 00000KT 3500 HZ FEW100 28/26 Q1008 BECMG 3000 HZ,M
VABB,2022-04-11 00:30,82.40,78.80,88.90,170.00,4.00,0.00,29.77,M,1.86,M,FEW,M,M,M,10000.00,M,M,M,HZ,M,M,M,M,M,M,92.76,VABB 110030Z 17004KT 3000 HZ FEW100 28/26 Q1008 NOSIG,M
VABB,2022-04-11 01:00,82.40,78.80,88.90,160.00,4.00,0.00,29.77,M,1.86,M,FEW,M,M,M,10000.00,M,M,M,HZ,M,M,M,M,M,M,92.76,VABB 110100Z 16004KT 3000 HZ FEW100 28/26 Q1008 NOSIG,M
VABB,2022-04-11 01:30,82.40,78.80,88.90,0.00,0.00,0.00,29.77,M,1.86,M,NSC,M,M,M,M,M,M,M,HZ,M,M,M,M,M,M,92.76,VABB 110130Z 00000KT 3000 HZ NSC 28/26 Q1008 NOSIG,M
VABB,2022-04-11 02:00,82.40,78.80,88.90,100.00,5.00,0.00,29.80,M,1.55,M,NSC,M,M,M,M,M,M,M,HZ,M,M,M,M,M,M,92.76,VABB 110200Z 10005KT 2500 HZ NSC 28/26 Q1009 NOSIG,M
VABB,2022-04-11 02:30,84.20,78.80,83.88,120.00,4.00,0.00,29.80,M,1.55,M,FEW,M,M,M,2000.00,M,M,M,HZ,M,M,M,M,M,M,96.10,VABB 110230Z 12004KT 2500 HZ FEW020 29/26 Q1009 NOSIG,M
VABB,2022-04-11 03:00,84.20,78.80,83.88,0.00,0.00,0.00,29.80,M,1.55,M,FEW,M,M,M,2000.00,M,M,M,HZ,M,M,M,M,M,M,96.10,VABB 110300Z 00000KT 2500 HZ FEW020 29/26 Q1009 BECMG 3000 HZ,M
VABB,2022-04-11 03:30,86.00,77.00,74.61,0.00,0.00,0.00,29.83,M,1.86,M,FEW,M,M,M,2000.00,M,M,M,HZ,M,M,M,M,M,M,97.15,VABB 110330Z 00000KT 3000 HZ FEW020 30/25 Q1010 NOSIG,M
VABB,2022-04-11 04:00,86.00,77.00,74.61,0.00,0.00,0.00,29.80,M,1.86,M,FEW,M,M,M,2000.00,M,M,M,HZ,M,M,M,M,M,M,97.15,VABB 110400Z 00000KT 3000 HZ FEW020 30/25 Q1009 NOSIG,M
VABB,2022-04-11 04:30,87.80,75.20,66.35,90.00,4.00,0.00,29.80,M,1.86,M,FEW,M,M,M,2000.00,M,M,M,HZ,M,M,M,M,M,M,97.76,VABB 110430Z 09004KT 3000 HZ FEW020 31/24 Q1009 NOSIG,M
VABB,2022-04-11 05:00,91.40,75.20,59.24,150.00,4.00,0.00,29.80,M,1.86,M,FEW,M,M,M,10000.00,M,M,M,FU,M,M,M,M,M,M,102.65,VABB 110500Z 15004KT 3000 FU FEW100 33/24 Q1009 NOSIG,M
VABB,2022-04-11 05:30,93.20,71.60,49.62,70.00,4.00,0.00,29.80,M,1.86,M,FEW,M,M,M,10000.00,M,M,M,FU,M,M,M,M,M,M,100.88,VABB 110530Z 07004KT 3000 FU FEW100 34/22 Q1009 NOSIG,M
VABB,2022-04-11 06:00,93.20,75.20,56.01,260.00,8.00,0.00,29.80,M,2.17,M,FEW,M,M,M,10000.00,M,M,M,FU,M,M,M,M,M,M,105.02,VABB 110600Z 26008KT 3500 FU FEW100 34/24 Q1009 NOSIG,M
VABB,2022-04-11 06:30,93.20,75.20,56.01,270.00,11.00,0.00,29.77,M,2.17,M,SCT,M,M,M,10000.00,M,M,M,FU,M,M,M,M,M,M,105.02,VABB 110630Z 27011KT 3500 FU SCT100 34/24 Q1008 NOSIG,M
VABB,2022-04-11 07:00,91.40,75.20,59.24,280.00,12.00,0.00,29.77,M,2.17,M,SCT,M,M,M,10000.00,M,M,M,FU,M,M,M,M,M,M,102.65,VABB 110700Z 28012KT 3500 FU SCT100 33/24 Q1008 NOSIG,M
VABB,2022-04-11 07:30,91.40,71.60,52.48,270.00,11.00,0.00,29.77,M,2.49,M,SCT,M,M,M,10000.00,M,M,M,FU,M,M,M,M,M,M,98.64,VABB 110730Z 27011KT 4000 FU SCT100 33/22 Q1008 NOSIG,M
VABB,2022-04-11 08:00,91.40,66.20,43.61,260.00,11.00,0.00,29.74,M,2.49,M,SCT,M,M,M,10000.00,M,M,M,FU,M,M,M,M,M,M,94.29,VABB 110800Z 26011KT 4000 FU SCT100 33/19 Q1007 NOSIG,M
VABB,2022-04-11 08:30,91.40,66.20,43.61,270.00,11.00,0.00,29.74,M,2.49,M,BKN,M,M,M,10000.00,M,M,M,FU,M,M,M,M,M,M,94.29,VABB 110830Z 27011KT 4000 FU BKN100 33/19 Q1007 NOSIG,M
VABB,2022-04-11 09:00,91.40,66.20,43.61,250.00,9.00,0.00,29.71,M,2.49,M,BKN,M,M,M,10000.00,M,M,M,FU,M,M,M,M,M,M,94.29,VABB 110900Z 25009KT 4000 FU BKN100 33/19 Q1006 NOSIG,M
VABB,2022-04-11 09:30,91.40,66.20,43.61,260.00,10.00,0.00,29.71,M,2.49,M,SCT,M,M,M,10000.00,M,M,M,FU,M,M,M,M,M,M,94.29,VABB 110930Z 26010KT 4000 FU SCT100 33/19 Q1006 BECMG 5000 FU,M
VABB,2022-04-11 10:00,91.40,59.00,33.84,270.00,12.00,0.00,29.68,M,3.11,M,SCT,M,M,M,10000.00,M,M,M,FU,M,M,M,M,M,M,90.68,VABB 111000Z 27012KT 5000 FU SCT100 33/15 Q1005 NOSIG,M
VABB,2022-04-11 10:30,89.60,66.20,46.14,260.00,13.00,0.00,29.68,M,3.11,M,SCT,M,M,M,10000.00,M,M,M,FU,M,M,M,M,M,M,92.27,VABB 111030Z 26013KT 5000 FU SCT100 32/19 Q1005 NOSIG,M
VABB,2022-04-11 11:00,87.80,69.80,55.29,270.00,11.00,0.00,29.68,M,3.11,M,SCT,M,M,M,10000.00,M,M,M,FU,M,M,M,M,M,M,92.71,VABB 111100Z 27011KT 5000 FU SCT100 31/21 Q1005 NOSIG,M
VABB,2022-04-11 11:30,87.80,69.80,55.29,250.00,8.00,0.00,29.68,M,3.11,M,SCT,M,M,M,10000.00,M,M,M,FU,M,M,M,M,M,M,92.71,VABB 111130Z 25008KT 5000 FU SCT100 31/21 Q1005 NOSIG,M
VABB,2022-04-11 12:00,87.80,73.40,62.47,280.00,13.00,0.00,29.68,M,3.11,M,SCT,M,M,M,10000.00,M,M,M,HZ,M,M,M,M,M,M,95.86,VABB 111200Z 28013KT 5000 HZ SCT100 31/23 Q1005 NOSIG,M
VABB,2022-04-11 12:30,87.80,73.40,62.47,300.00,9.00,0.00,29.71,M,3.11,M,SCT,M,M,M,10000.00,M,M,M,HZ,M,M,M,M,M,M,95.86,VABB 111230Z 30009KT 5000 HZ SCT100 31/23 Q1006 BECMG 4000 HZ,M
VABB,2022-04-11 13:00,87.80,73.40,62.47,300.00,9.00,0.00,29.71,M,2.49,M,SCT,M,M,M,10000.00,M,M,M,HZ,M,M,M,M,M,M,95.86,VABB 111300Z 30009KT 4000 HZ SCT100 31/23 Q1006 NOSIG,M
VABB,2022-04-11 13:30,86.00,73.40,66.15,290.00,10.00,0.00,29.71,M,2.17,M,SCT,M,M,M,10000.00,M,M,M,HZ,M,M,M,M,M,M,93.45,VABB 111330Z 29010KT 3500 HZ SCT100 30/23 Q1006 NOSIG,M
VABB,2022-04-11 14:00,86.00,75.20,70.27,290.00,9.00,0.00,29.71,M,2.17,M,SCT,M,M,M,10000.00,M,M,M,HZ,M,M,M,M,M,M,95.19,VABB 111400Z 29009KT 3500 HZ SCT100 30/24 Q1006 NOSIG,M
VABB,2022-04-11 14:30,86.00,77.00,74.61,290.00,7.00,0.00,29.74,M,2.17,M,SCT,M,M,M,10000.00,M,M,M,HZ,M,M,M,M,M,M,97.15,VABB 111430Z 29007KT 3500 HZ SCT100 30/25 Q1007 NOSIG,M
VABB,2022-04-11 15:00,84.20,77.00,79.04,320.00,5.00,0.00,29.74,M,2.17,M,SCT,M,M,M,10000.00,M,M,M,HZ,M,M,M,M,M,M,94.16,VABB 111500Z 32005KT 3500 HZ SCT100 29/25 Q1007 NOSIG,M
VABB,2022-04-11 15:30,84.20,75.20,74.44,320.00,5.00,0.00,29.77,M,2.17,M,FEW,M,M,M,10000.00,M,M,M,HZ,M,M,M,M,M,M,92.45,VABB 111530Z 32005KT 3500 HZ FEW100 29/24 Q1008 NOSIG,M
VABB,2022-04-11 16:00,84.20,75.20,74.44,300.00,4.00,0.00,29.77,M,2.17,M,FEW,M,M,M,10000.00,M,M,M,HZ,M,M,M,M,M,M,92.45,VABB 111600Z 30004KT 3500 HZ FEW100 29/24 Q1008 NOSIG,M
VABB,2022-04-11 16:30,84.20,73.40,70.08,0.00,0.00,0.00,29.77,M,2.17,M,FEW,M,M,M,10000.00,M,M,M,HZ,M,M,M,M,M,M,90.94,VABB 111630Z 00000KT 3500 HZ FEW100 29/23 Q1008 NOSIG,M
VABB,2022-04-11 17:00,84.20,73.40,70.08,0.00,0.00,0.00,29.77,M,2.17,M,FEW,M,M,M,10000.00,M,M,M,HZ,M,M,M,M,M,M,90.94,VABB 111700Z 00000KT 3500 HZ FEW100 29/23 Q1008 NOSIG,M
VABB,2022-04-11 17:30,86.00,71.60,62.25,310.00,4.00,0.00,29.77,M,2.17,M,FEW,M,M,M,10000.00,M,M,M,HZ,M,M,M,M,M,M,91.92,VABB 111730Z 31004KT 3500 HZ FEW100 30/22 Q1008 NOSIG,M
VABB,2022-04-11 18:00,84.20,71.60,65.95,290.00,4.00,0.00,29.77,M,2.17,M,FEW,M,M,M,10000.00,M,M,M,HZ,M,M,M,M,M,M,89.60,VABB 111800Z 29004KT 3500 HZ FEW100 29/22 Q1008 NOSIG,M
VABB,2022-04-11 18:30,84.20,71.60,65.95,0.00,0.00,0.00,29.77,M,2.17,M,FEW,M,M,M,10000.00,M,M,M,HZ,M,M,M,M,M,M,89.60,VABB 111830Z 00000KT 3500 HZ FEW100 29/22 Q1008 NOSIG,M
VABB,2022-04-11 19:00,84.20,71.60,65.95,0.00,0.00,0.00,29.74,M,2.17,M,FEW,M,M,M,10000.00,M,M,M,HZ,M,M,M,M,M,M,89.60,VABB 111900Z 00000KT 3500 HZ FEW100 29/22 Q1007 NOSIG,M
VABB,2022-04-11 19:30,84.20,71.60,65.95,0.00,0.00,0.00,29.74,M,2.17,M,FEW,M,M,M,10000.00,M,M,M,HZ,M,M,M,M,M,M,89.60,VABB 111930Z 00000KT 3500 HZ FEW100 29/22 Q1007 NOSIG,M
VABB,2022-04-11 20:00,84.20,71.60,65.95,0.00,0.00,0.00,29.74,M,2.17,M,FEW,M,M,M,10000.00,M,M,M,HZ,M,M,M,M,M,M,89.60,VABB 112000Z 00000KT 3500 HZ FEW100 29/22 Q1007 NOSIG,M
VABB,2022-04-11 20:30,84.20,73.40,70.08,0.00,0.00,0.00,29.71,M,2.17,M,FEW,M,M,M,10000.00,M,M,M,HZ,M,M,M,M,M,M,90.94,VABB 112030Z 00000KT 3500 HZ FEW100 29/23 Q1006 NOSIG,M
VABB,2022-04-11 21:00,84.20,71.60,65.95,0.00,0.00,0.00,29.71,M,2.17,M,FEW,M,M,M,10000.00,M,M,M,HZ,M,M,M,M,M,M,89.60,VABB 112100Z 00000KT 3500 HZ FEW100 29/22 Q1006 NOSIG,M
VABB,2022-04-11 21:30,82.40,73.40,74.28,0.00,0.00,0.00,29.71,M,1.86,M,FEW,M,M,M,10000.00,M,M,M,HZ,M,M,M,M,M,M,88.26,VABB 112130Z 00000KT 3000 HZ FEW100 28/23 Q1006 NOSIG,M
VABB,2022-04-11 22:00,82.40,73.40,74.28,0.00,0.00,0.00,29.71,M,1.86,M,FEW,M,M,M,10000.00,M,M,M,HZ,M,M,M,M,M,M,88.26,VABB 112200Z 00000KT 3000 HZ FEW100 28/23 Q1006 NOSIG,M
VABB,2022-04-11 22:30,82.40,71.60,69.90,20.00,3.00,0.00,29.71,M,1.86,M,FEW,M,M,M,10000.00,M,M,M,HZ,M,M,M,M,M,M,87.18,VABB 112230Z 02003KT 3000 HZ FEW100 28/22 Q1006 NOSIG,M
VABB,2022-04-11 23:00,82.40,71.60,69.90,0.00,0.00,0.00,29.71,M,1.86,M,FEW,M,M,M,10000.00,M,M,M,HZ,M,M,M,M,M,M,87.18,VABB 112300Z 00000KT 3000 HZ FEW100 28/22 Q1006 NOSIG,M
VABB,2022-04-11 23:30,82.40,73.40,74.28,0.00,0.00,0.00,29.71,M,1.86,M,FEW,M,M,M,10000.00,M,M,M,HZ,M,M,M,M,M,M,88.26,VABB 112330Z 00000KT 3000 HZ FEW100 28/23 Q1006 NOSIG,M
VABB,2022-04-12 00:00,82.40,73.40,74.28,0.00,0.00,0.00,29.71,M,1.86,M,FEW,M,M,M,10000.00,M,M,M,HZ,M,M,M,M,M,M,88.26,VABB 120000Z 00000KT 3000 HZ FEW100 28/23 Q1006 NOSIG,M
VABB,2022-04-12 00:30,82.40,73.40,74.28,120.00,3.00,0.00,29.71,M,1.86,M,FEW,M,M,M,10000.00,M,M,M,HZ,M,M,M,M,M,M,88.26,VABB 120030Z 12003KT 3000 HZ FEW100 28/23 Q1006 NOSIG,M
VABB,2022-04-12 01:00,82.40,73.40,74.28,150.00,3.00,0.00,29.71,M,1.86,M,FEW,M,M,M,10000.00,M,M,M,HZ,M,M,M,M,M,M,88.26,VABB 120100Z 15003KT 3000 HZ FEW100 28/23 Q1006 NOSIG,M
VABB,2022-04-12 01:30,82.40,73.40,74.28,0.00,0.00,0.00,29.74,M,1.86,M,FEW,M,M,M,10000.00,M,M,M,HZ,M,M,M,M,M,M,88.26,VABB 120130Z 00000KT 3000 HZ FEW100 28/23 Q1007 NOSIG,M
VABB,2022-04-12 02:00,82.40,73.40,74.28,0.00,0.00,0.00,29.74,M,1.86,M,FEW,M,M,M,10000.00,M,M,M,HZ,M,M,M,M,M,M,88.26,VABB 120200Z 00000KT 3000 HZ FEW100 28/23 Q1007 NOSIG,M
VABB,2022-04-12 02:30,84.20,69.80,62.03,0.00,0.00,0.00,29.77,M,1.86,M,NSC,M,M,M,M,M,M,M,HZ,M,M,M,M,M,M,88.43,VABB 120230Z 00000KT 3000 HZ NSC 29/21 Q1008 NOSIG,M
VABB,2022-04-12 03:00,86.00,68.00,55.04,0.00,0.00,0.00,29.77,M,1.86,M,NSC,M,M,M,M,M,M,M,FU,M,M,M,M,M,M,89.41,VABB 120300Z 00000KT 3000 FU NSC 30/20 Q1008 NOSIG,M
VABB,2022-04-12 03:30,87.80,64.40,45.88,0.00,0.00,0.00,29.77,M,2.17,M,NSC,M,M,M,M,M,M,M,FU,M,M,M,M,M,M,89.33,VABB 120330Z 00000KT 3500 FU NSC 31/18 Q1008 NOSIG,M
VABB,2022-04-12 04:00,89.60,60.80,38.18,340.00,4.00,0.00,29.77,M,2.49,M,NSC,M,M,M,M,M,M,M,FU,M,M,M,M,M,M,89.54,VABB 120400Z 34004KT 4000 FU NSC 32/16 Q1008 NOSIG,M
VABB,2022-04-12 04:30,91.40,59.00,33.84,330.00,5.00,0.00,29.77,M,2.49,M,NSC,M,M,M,M,M,M,M,FU,M,M,M,M,M,M,90.68,VABB 120430Z 33005KT 4000 FU NSC 33/15 Q1008 NOSIG,M
VABB,2022-04-12 05:00,93.20,60.80,34.11,330.00,4.00,0.00,29.77,M,2.49,M,NSC,M,M,M,M,M,M,M,FU,M,M,M,M,M,M,93.32,VABB 120500Z 33004KT 4000 FU NSC 34/16 Q1008 NOSIG,M
VABB,2022-04-12 05:30,95.00,57.20,28.37,30.00,5.00,0.00,29.77,M,2.49,M,NSC,M,M,M,M,M,M,M,FU,M,M,M,M,M,M,93.82,VABB 120530Z 03005KT 4000 FU NSC 35/14 Q1008 NOSIG,M
VABB,2022-04-12 06:00,95.00,69.80,44.14,260.00,8.00,0.00,29.77,M,2.49,M,NSC,M,M,M,M,M,M,M,FU,M,M,M,M,M,M,101.37,VABB 120600Z 26008KT 4000 FU NSC 35/21 Q1008 NOSIG,M
VABB,2022-04-12 06:30,93.20,71.60,49.62,260.00,10.00,0.00,29.74,M,2.49,M,NSC,M,M,M,M,M,M,M,FU,M,M,M,M,M,M,100.88,VABB 120630Z 26010KT 4000 FU NSC 34/22 Q1007 NOSIG,M
VABB,2022-04-12 07:00,91.40,73.40,55.77,250.00,9.00,0.00,29.74,M,2.49,M,NSC,M,M,M,M,M,M,M,FU,M,M,M,M,M,M,100.52,VABB 120700Z 25009KT 4000 FU NSC 33/23 Q1007 NOSIG,M
VABB,2022-04-12 07:30,91.40,73.40,55.77,270.00,12.00,0.00,29.71,M,2.49,M,NSC,M,M,M,M,M,M,M,FU,M,M,M,M,M,M,100.52,VABB 120730Z 27012KT 4000 FU NSC 33/23 Q1006 BECMG 5000 FU,M
VABB,2022-04-12 08:00,91.40,73.40,55.77,270.00,12.00,0.00,29.71,M,3.11,M,FEW,M,M,M,10000.00,M,M,M,FU,M,M,M,M,M,M,100.52,VABB 120800Z 27012KT 5000 FU FEW100 33/23 Q1006 NOSIG,M
VABB,2022-04-12 08:30,91.40,75.20,59.24,280.00,12.00,0.00,29.68,M,3.11,M,FEW,M,M,M,10000.00,M,M,M,FU,M,M,M,M,M,M,102.65,VABB 120830Z 28012KT 5000 FU FEW100 33/24 Q1005 NOSIG,M
VABB,2022-04-12 09:00,93.20,71.60,49.62,270.00,7.00,0.00,29.68,M,3.11,17.00,FEW,M,M,M,10000.00,M,M,M,FU,M,M,M,M,M,M,100.88,VABB 120900Z 27007G17KT 5000 FU FEW100 34/22 Q1005 NOSIG,M
VABB,2022-04-12 09:30,93.20,68.00,43.88,290.00,11.00,0.00,29.68,M,3.11,M,NSC,M,M,M,M,M,M,M,FU,M,M,M,M,M,M,97.67,VABB 120930Z 29011KT 5000 FU NSC 34/20 Q1005 NOSIG,M
VABB,2022-04-12 10:00,93.20,68.00,43.88,280.00,15.00,0.00,29.65,M,3.11,M,NSC,M,M,M,M,M,M,M,FU,M,M,M,M,M,M,97.67,VABB 121000Z 28015KT 5000 FU NSC 34/20 Q1004 NOSIG,M
VABB,2022-04-12 10:30,95.00,66.20,39.00,300.00,10.00,0.00,29.65,M,3.11,M,NSC,M,M,M,M,M,M,M,FU,M,M,M,M,M,M,98.46,VABB 121030Z 30010KT 5000 FU NSC 35/19 Q1004 NOSIG,M
VABB,2022-04-12 11:00,93.20,66.20,41.23,290.00,12.00,0.00,29.65,M,3.11,M,FEW,M,M,M,10000.00,M,M,M,FU,M,M,M,M,M,M,96.35,VABB 121100Z 29012KT 5000 FU FEW100 34/19 Q1004 NOSIG,M
VABB,2022-04-12 11:30,91.40,68.00,46.41,290.00,10.00,0.00,29.62,M,3.11,M,FEW,M,M,M,10000.00,M,M,M,FU,M,M,M,M,M,M,95.55,VABB 121130Z 29010KT 5000 FU FEW100 33/20 Q1003 NOSIG,M
VABB,2022-04-12 12:00,89.60,69.80,52.23,290.00,10.00,0.00,29.65,M,3.11,M,FEW,M,M,M,10000.00,M,M,M,FU,M,M,M,M,M,M,94.85,VABB 121200Z 29010KT 5000 FU FEW100 32/21 Q1004 NOSIG,M
VABB,2022-04-12 12:30,89.60,71.60,55.53,290.00,8.00,0.00,29.65,M,2.49,M,FEW,M,M,M,10000.00,M,M,M,FU,M,M,M,M,M,M,96.41,VABB 121230Z 29008KT 4000 FU FEW100 32/22 Q1004 NOSIG,M
VABB,2022-04-12 13:00,89.60,69.80,52.23,300.00,6.00,0.00,29.65,M,2.49,M,FEW,M,M,M,10000.00,M,M,M,FU,M,M,M,M,M,M,94.85,VABB 121300Z 30006KT 4000 FU FEW100 32/21 Q1004 NOSIG,M
VABB,2022-04-12 13:30,87.80,71.60,58.78,310.00,8.00,0.00,29.65,M,2.49,M,FEW,M,M,M,10000.00,M,M,M,FU,M,M,M,M,M,M,94.18,VABB 121330Z 31008KT 4000 FU FEW100 31/22 Q1004 NOSIG,M
VABB,2022-04-12 14:00,87.80,73.40,62.47,320.00,6.00,0.00,29.68,M,2.49,M,FEW,M,M,M,10000.00,M,M,M,HZ,M,M,M,M,M,M,95.86,VABB 121400Z 32006KT 4000 HZ FEW100 31/23 Q1005 NOSIG,M
VABB,2022-04-12 14:30,87.80,73.40,62.47,290.00,6.00,0.00,29.68,M,2.49,M,FEW,M,M,M,10000.00,M,M,M,HZ,M,M,M,M,M,M,95.86,VABB 121430Z 29006KT 4000 HZ FEW100 31/23 Q1005 NOSIG,M
VABB,2022-04-12 15:00,87.80,75.20,66.35,290.00,6.00,0.00,29.68,M,2.17,M,FEW,M,M,M,10000.00,M,M,M,HZ,M,M,M,M,M,M,97.76,VABB 121500Z 29006KT 3500 HZ FEW100 31/24 Q1005 NOSIG,M
VABB,2022-04-12 15:30,86.00,77.00,74.61,300.00,4.00,0.00,29.71,M,2.17,M,FEW,M,M,M,10000.00,M,M,M,HZ,M,M,M,M,M,M,97.15,VABB 121530Z 30004KT 3500 HZ FEW100 30/25 Q1006 NOSIG,M
VABB,2022-04-12 16:00,86.00,77.00,74.61,290.00,8.00,0.00,29.71,M,2.17,M,FEW,M,M,M,10000.00,M,M,M,HZ,M,M,M,M,M,M,97.15,VABB 121600Z 29008KT 3500 HZ FEW100 30/25 Q1006 NOSIG,M
VABB,2022-04-12 16:30,86.00,77.00,74.61,310.00,6.00,0.00,29.71,M,2.17,M,FEW,M,M,M,2000.00,M,M,M,HZ,M,M,M,M,M,M,97.15,VABB 121630Z 31006KT 3500 HZ FEW020 30/25 Q1006 NOSIG,M
VABB,2022-04-12 17:00,86.00,77.00,74.61,320.00,6.00,0.00,29.71,M,2.17,M,FEW,M,M,M,2000.00,M,M,M,HZ,M,M,M,M,M,M,97.15,VABB 121700Z 32006KT 3500 HZ FEW020 30/25 Q1006 NOSIG,M
VABB,2022-04-12 17:30,86.00,75.20,70.27,330.00,4.00,0.00,29.71,M,2.17,M,FEW,M,M,M,2000.00,M,M,M,HZ,M,M,M,M,M,M,95.19,VABB 121730Z 33004KT 3500 HZ FEW020 30/24 Q1006 NOSIG,M
VABB,2022-04-12 18:00,86.00,75.20,70.27,310.00,6.00,0.00,29.71,M,2.17,M,FEW,M,M,M,2000.00,M,M,M,HZ,M,M,M,M,M,M,95.19,VABB 121800Z 31006KT 3500 HZ FEW020 30/24 Q1006 NOSIG,M
VABB,2022-04-12 18:30,86.00,75.20,70.27,300.00,5.00,0.00,29.71,M,2.17,M,FEW,M,M,M,10000.00,M,M,M,HZ,M,M,M,M,M,M,95.19,VABB 121830Z 30005KT 3500 HZ FEW100 30/24 Q1006 NOSIG,M
VABB,2022-04-12 19:00,86.00,75.20,70.27,350.00,4.00,0.00,29.71,M,2.17,M,FEW,M,M,M,10000.00,M,M,M,HZ,M,M,M,M,M,M,95.19,VABB 121900Z 35004KT 3500 HZ FEW100 30/24 Q1006 NOSIG,M
VABB,2022-04-12 19:30,84.20,75.20,74.44,320.00,3.00,0.00,29.71,M,2.17,M,FEW,M,M,M,10000.00,M,M,M,HZ,M,M,M,M,M,M,92.45,VABB 121930Z 32003KT 3500 HZ FEW100 29/24 Q1006 NOSIG,M
VABB,2022-04-12 20:00,84.20,75.20,74.44,0.00,0.00,0.00,29.68,M,2.17,M,FEW,M,M,M,10000.00,M,M,M,HZ,M,M,M,M,M,M,92.45,VABB 122000Z 00000KT 3500 HZ FEW100 29/24 Q1005 NOSIG,M
VABB,2022-04-12 20:30,84.20,77.00,79.04,0.00,0.00,0.00,29.68,M,2.17,M,FEW,M,M,M,10000.00,M,M,M,HZ,M,M,M,M,M,M,94.16,VABB 122030Z 00000KT 3500 HZ FEW100 29/25 Q1005 NOSIG,M
VABB,2022-04-12 21:00,84.20,77.00,79.04,0.00,0.00,0.00,29.68,M,2.17,M,FEW,M,M,M,10000.00,M,M,M,HZ,M,M,M,M,M,M,94.16,VABB 122100Z 00000KT 3500 HZ FEW100 29/25 Q1005 NOSIG,M
VABB,2022-04-12 21:30,84.20,75.20,74.44,10.00,3.00,0.00,29.68,M,2.17,M,FEW,M,M,M,10000.00,M,M,M,HZ,M,M,M,M,M,M,92.45,VABB 122130Z 01003KT 3500 HZ FEW100 29/24 Q1005 NOSIG,M
VABB,2022-04-12 22:00,84.20,75.20,74.44,0.00,0.00,0.00,29.65,M,2.17,M,FEW,M,M,M,10000.00,M,M,M,HZ,M,M,M,M,M,M,92.45,VABB 122200Z 00000KT 3500 HZ FEW100 29/24 Q1004 NOSIG,M
VABB,2022-04-12 22:30,82.40,75.20,78.90,10.00,3.00,0.00,29.65,M,2.17,M,NSC,M,M,M,M,M,M,M,HZ,M,M,M,M,M,M,89.48,VABB 122230Z 01003KT 3500 HZ NSC 28/24 Q1004 BECMG 3000 HZ,M
VABB,2022-04-12 23:00,82.40,75.20,78.90,350.00,3.00,0.00,29.68,M,1.86,M,NSC,M,M,M,M,M,M,M,HZ,M,M,M,M,M,M,89.48,VABB 122300Z 35003KT 3000 HZ NSC 28/24 Q1005 NOSIG,M
VABB,2022-04-12 23:30,82.40,75.20,78.90,0.00,0.00,0.00,29.68,M,1.86,M,NSC,M,M,M,M,M,M,M,HZ,M,M,M,M,M,M,89.48,VABB 122330Z 00000KT 3000 HZ NSC 28/24 Q1005 NOSIG,M
VABB,2022-04-13 00:00,82.40,73.40,74.28,0.00,0.00,0.00,29.68,M,1.86,M,NSC,M,M,M,M,M,M,M,HZ,M,M,M,M,M,M,88.26,VABB 130000Z 00000KT 3000 HZ NSC 28/23 Q1005 NOSIG,M
VABB,2022-04-13 00:30,82.40,71.60,69.90,0.00,0.00,0.00,29.68,M,1.86,M,NSC,M,M,M,M,M,M,M,HZ,M,M,M,M,M,M,87.18,VABB 130030Z 00000KT 3000 HZ NSC 28/22 Q1005 NOSIG,M
VABB,2022-04-13 01:00,84.20,71.60,65.95,210.00,4.00,0.00,29.68,M,1.86,M,NSC,M,M,M,M,M,M,M,HZ,M,M,M,M,M,M,89.60,VABB 130100Z 21004KT 3000 HZ NSC 29/22 Q1005 NOSIG,M
VABB,2022-04-13 01:30,82.40,73.40,74.28,0.00,0.00,0.00,29.71,M,1.55,M,NSC,M,M,M,M,M,M,M,HZ,M,M,M,M,M,M,88.26,VABB 130130Z 00000KT 2500 HZ NSC 28/23 Q1006 NOSIG,M
VABB,2022-04-13 02:00,84.20,73.40,70.08,0.00,0.00,0.00,29.71,M,1.55,M,NSC,M,M,M,M,M,M,M,HZ,M,M,M,M,M,M,90.94,VABB 130200Z 00000KT 2500 HZ NSC 29/23 Q1006 NOSIG,M
VABB,2022-04-13 02:30,86.00,69.80,58.55,0.00,0.00,0.00,29.74,M,1.55,M,NSC,M,M,M,M,M,M,M,HZ,M,M,M,M,M,M,90.58,VABB 130230Z 00000KT 2500 HZ NSC 30/21 Q1007 NOSIG,M
VABB,2022-04-13 03:00,87.80,64.40,45.88,0.00,0.00,0.00,29.74,M,1.55,M,NSC,M,M,M,M,M,M,M,HZ,M,M,M,M,M,M,89.33,VABB 130300Z 00000KT 2500 HZ NSC 31/18 Q1007 BECMG 3000 FU,M
VABB,2022-04-13 03:30,89.60,64.40,43.34,10.00,5.00,0.00,29.74,M,1.86,M,NSC,M,M,M,M,M,M,M,FU,M,M,M,M,M,M,91.23,VABB 130330Z 01005KT 3000 FU NSC 32/18 Q1007 NOSIG,M
VABB,2022-04-13 04:00,91.40,62.60,38.45,350.00,3.00,0.00,29.74,M,2.17,M,NSC,M,M,M,M,M,M,M,FU,M,M,M,M,M,M,92.23,VABB 130400Z 35003KT 3500 FU NSC 33/17 Q1007 NOSIG,M
VABB,2022-04-13 04:30,93.20,59.00,31.99,40.00,4.00,0.00,29.74,M,2.17,M,NSC,M,M,M,M,M,M,M,FU,M,M,M,M,M,M,92.57,VABB 130430Z 04004KT 3500 FU NSC 34/15 Q1007 BECMG 4000 FU,M
VABB,2022-04-13 05:00,95.00,57.20,28.37,10.00,6.00,0.00,29.74,M,2.49,M,NSC,M,M,M,M,M,M,M,FU,M,M,M,M,M,M,93.82,VABB 130500Z 01006KT 4000 FU NSC 35/14 Q1007 NOSIG,M
VABB,2022-04-13 05:30,95.00,59.00,30.26,40.00,7.00,0.00,29.74,M,2.49,M,NSC,M,M,M,M,M,M,M,FU,M,M,M,M,M,M,94.51,VABB 130530Z 04007KT 4000 FU NSC 35/15 Q1007 NOSIG,M
VABB,2022-04-13 06:00,95.00,68.00,41.50,260.00,8.00,0.00,29.74,M,2.49,M,NSC,M,M,M,M,M,M,M,FU,M,M,M,M,M,M,99.82,VABB 130600Z 26008KT 4000 FU NSC 35/20 Q1007 NOSIG,M
VABB,2022-04-13 06:30,95.00,69.80,44.14,250.00,10.00,0.00,29.71,M,2.49,M,NSC,M,M,M,M,M,M,M,FU,M,M,M,M,M,M,101.37,VABB 130630Z 25010KT 4000 FU NSC 35/21 Q1006 NOSIG,M
VABB,2022-04-13 07:00,95.00,73.40,49.87,260.00,9.00,0.00,29.71,M,2.49,M,NSC,M,M,M,M,M,M,M,FU,M,M,M,M,M,M,105.13,VABB 130700Z 26009KT 4000 FU NSC 35/23 Q1006 NOSIG,M
VABB,2022-04-13 07:30,95.00,73.40,49.87,250.00,10.00,0.00,29.68,M,2.49,M,NSC,M,M,M,M,M,M,M,FU,M,M,M,M,M,M,105.13,VABB 130730Z 25010KT 4000 FU NSC 35/23 Q1005 NOSIG,M
VABB,2022-04-13 08:00,93.20,73.40,52.73,260.00,12.00,0.00,29.68,M,2.49,M,NSC,M,M,M,M,M,M,M,FU,M,M,M,M,M,M,102.82,VABB 130800Z 26012KT 4000 FU NSC 34/23 Q1005 NOSIG,M
VABB,2022-04-13 08:30,93.20,73.40,52.73,260.00,12.00,0.00,29.65,M,2.49,M,NSC,M,M,M,M,M,M,M,FU,M,M,M,M,M,M,102.82,VABB 130830Z 26012KT 4000 FU NSC 34/23 Q1004 NOSIG,M
VABB,2022-04-13 09:00,93.20,75.20,56.01,270.00,11.00,0.00,29.65,M,2.49,M,NSC,M,M,M,M,M,M,M,FU,M,M,M,M,M,M,105.02,VABB 130900Z 27011KT 4000 FU NSC 34/24 Q1004 NOSIG,M
VABB,2022-04-13 09:30,95.00,73.40,49.87,280.00,13.00,0.00,29.62,M,2.49,M,NSC,M,M,M,M,M,M,M,FU,M,M,M,M,M,M,105.13,VABB 130930Z 28013KT 4000 FU NSC 35/23 Q1003 BECMG 5000 FU,M
VABB,2022-04-13 10:00,95.00,68.00,41.50,300.00,11.00,0.00,29.62,M,3.11,M,SCT,M,M,M,10000.00,M,M,M,FU,M,M,M,M,M,M,99.82,VABB 131000Z 30011KT 5000 FU SCT100 35/20 Q1003 NOSIG,M
VABB,2022-04-13 10:30,96.80,60.80,30.53,320.00,12.00,0.00,29.62,M,3.11,M,SCT,M,M,M,10000.00,M,M,M,FU,M,M,M,M,M,M,97.33,VABB 131030Z 32012KT 5000 FU SCT100 36/16 Q1003 NOSIG,M
VABB,2022-04-13 11:00,95.00,64.40,36.63,300.00,12.00,0.00,29.62,M,3.11,M,SCT,M,M,M,10000.00,M,M,M,FU,M,M,M,M,M,M,97.26,VABB 131100Z 30012KT 5000 FU SCT100 35/18 Q1003 NOSIG,M
VABB,2022-04-13 11:30,93.20,66.20,41.23,300.00,12.00,0.00,29.62,M,3.11,M,SCT,M,M,M,10000.00,M,M,M,FU,M,M,M,M,M,M,96.35,VABB 131130Z 30012KT 5000 FU SCT100 34/19 Q1003 NOSIG,M
VABB,2022-04-13 12:00,93.20,66.20,41.23,300.00,10.00,0.00,29.62,M,2.49,M,SCT,M,M,M,10000.00,M,M,M,FU,M,M,M,M,M,M,96.35,VABB 131200Z 30010KT 4000 FU SCT100 34/19 Q1003 NOSIG,M
VABB,2022-04-13 12:30,91.40,68.00,46.41,300.00,11.00,0.00,29.62,M,2.49,M,SCT,M,M,M,10000.00,M,M,M,FU,M,M,M,M,M,M,95.55,VABB 131230Z 30011KT 4000 FU SCT100 33/20 Q1003 NOSIG,M
VABB,2022-04-13 13:00,89.60,69.80,52.23,300.00,7.00,0.00,29.62,M,2.49,M,BKN,M,M,M,10000.00,M,M,M,FU,M,M,M,M,M,M,94.85,VABB 131300Z 30007KT 4000 FU BKN100 32/21 Q1003 NOSIG,M
VABB,2022-04-13 13:30,89.60,71.60,55.53,300.00,8.00,0.00,29.65,M,2.49,M,BKN,M,M,M,10000.00,M,M,M,FU,M,M,M,M,M,M,96.41,VABB 131330Z 30008KT 4000 FU BKN100 32/22 Q1004 NOSIG,M
VABB,2022-04-13 14:00,87.80,73.40,62.47,300.00,8.00,0.00,29.65,M,1.86,M,SCT,M,M,M,10000.00,M,M,M,HZ,M,M,M,M,M,M,95.86,VABB 131400Z 30008KT 3000 HZ SCT100 31/23 Q1004 NOSIG,M
VABB,2022-04-13 14:30,87.80,71.60,58.78,310.00,5.00,0.00,29.65,M,1.86,M,SCT,M,M,M,10000.00,M,M,M,FU,M,M,M,M,M,M,94.18,VABB 131430Z 31005KT 3000 FU SCT100 31/22 Q1004 NOSIG,M
VABB,2022-04-13 15:00,87.80,71.60,58.78,300.00,4.00,0.00,29.68,M,1.86,M,SCT,M,M,M,10000.00,M,M,M,FU,M,M,M,M,M,M,94.18,VABB 131500Z 30004KT 3000 FU SCT100 31/22 Q1005 NOSIG,M
VABB,2022-04-13 15:30,87.80,71.60,58.78,300.00,5.00,0.00,29.68,M,1.86,M,SCT,M,M,M,10000.00,M,M,M,HZ,M,M,M,M,M,M,94.18,VABB 131530Z 30005KT 3000 HZ SCT100 31/22 Q1005 NOSIG,M
VABB,2022-04-13 16:00,87.80,71.60,58.78,290.00,3.00,0.00,29.68,M,1.86,M,SCT,M,M,M,10000.00,M,M,M,HZ,M,M,M,M,M,M,94.18,VABB 131600Z 29003KT 3000 HZ SCT100 31/22 Q1005 NOSIG,M
VABB,2022-04-13 16:30,87.80,73.40,62.47,300.00,7.00,0.00,29.71,M,1.86,M,SCT,M,M,M,10000.00,M,M,M,HZ,M,M,M,M,M,M,95.86,VABB 131630Z 30007KT 3000 HZ SCT100 31/23 Q1006 NOSIG,M
VABB,2022-04-13 17:00,87.80,73.40,62.47,320.00,5.00,0.00,29.71,M,1.86,M,SCT,M,M,M,10000.00,M,M,M,HZ,M,M,M,M,M,M,95.86,VABB 131700Z 32005KT 3000 HZ SCT100 31/23 Q1006 NOSIG,M
VABB,2022-04-13 17:30,87.80,75.20,66.35,310.00,4.00,0.00,29.71,M,1.86,M,SCT,M,M,M,10000.00,M,M,M,HZ,M,M,M,M,M,M,97.76,VABB 131730Z 31004KT 3000 HZ SCT100 31/24 Q1006 NOSIG,M
VABB,2022-04-13 18:00,86.00,75.20,70.27,310.00,5.00,0.00,29.71,M,1.86,M,SCT,M,M,M,10000.00,M,M,M,HZ,M,M,M,M,M,M,95.19,VABB 131800Z 31005KT 3000 HZ SCT100 30/24 Q1006 NOSIG,M
VABB,2022-04-13 18:30,86.00,77.00,74.61,310.00,4.00,0.00,29.68,M,1.86,M,SCT,M,M,M,10000.00,M,M,M,HZ,M,M,M,M,M,M,97.15,VABB 131830Z 31004KT 3000 HZ SCT100 30/25 Q1005 NOSIG,M
VABB,2022-04-13 19:00,86.00,77.00,74.61,330.00,3.00,0.00,29.68,M,1.86,M,SCT,M,M,M,10000.00,M,M,M,HZ,M,M,M,M,M,M,97.15,VABB 131900Z 33003KT 3000 HZ SCT100 30/25 Q1005 NOSIG,M
VABB,2022-04-13 19:30,86.00,75.20,70.27,300.00,4.00,0.00,29.68,M,1.86,M,SCT,M,M,M,10000.00,M,M,M,HZ,M,M,M,M,M,M,95.19,VABB 131930Z 30004KT 3000 HZ SCT100 30/24 Q1005 NOSIG,M
VABB,2022-04-13 20:00,86.00,75.20,70.27,290.00,4.00,0.00,29.68,M,1.86,M,SCT,M,M,M,10000.00,M,M,M,HZ,M,M,M,M,M,M,95.19,VABB 132000Z 29004KT 3000 HZ SCT100 30/24 Q1005 NOSIG,M
VABB,2022-04-13 20:30,86.00,75.20,70.27,270.00,4.00,0.00,29.68,M,1.86,M,SCT,M,M,M,10000.00,M,M,M,HZ,M,M,M,M,M,M,95.19,VABB 132030Z 27004KT 3000 HZ SCT100 30/24 Q1005 NOSIG,M
VABB,2022-04-13 21:00,84.20,75.20,74.44,260.00,4.00,0.00,29.68,M,1.86,M,SCT,M,M,M,10000.00,M,M,M,HZ,M,M,M,M,M,M,92.45,VABB 132100Z 26004KT 3000 HZ SCT100 29/24 Q1005 NOSIG,M
VABB,2022-04-13 21:30,84.20,75.20,74.44,270.00,4.00,0.00,29.68,M,1.86,M,SCT,M,M,M,10000.00,M,M,M,HZ,M,M,M,M,M,M,92.45,VABB 132130Z 27004KT 3000 HZ SCT100 29/24 Q1005 NOSIG,M
VABB,2022-04-13 22:00,84.20,75.20,74.44,260.00,4.00,0.00,29.68,M,1.86,M,SCT,M,M,M,10000.00,M,M,M,HZ,M,M,M,M,M,M,92.45,VABB 132200Z 26004KT 3000 HZ SCT100 29/24 Q1005 NOSIG,M
VABB,2022-04-13 22:30,84.20,77.00,79.04,270.00,4.00,0.00,29.68,M,1.86,M,SCT,M,M,M,10000.00,M,M,M,HZ,M,M,M,M,M,M,94.16,VABB 132230Z 27004KT 3000 HZ SCT100 29/25 Q1005 NOSIG,M
VABB,2022-04-13 23:00,84.20,78.80,83.88,260.00,5.00,0.00,29.68,M,1.86,M,SCT,M,M,M,10000.00,M,M,M,HZ,M,M,M,M,M,M,96.10,VABB 132300Z 26005KT 3000 HZ SCT100 29/26 Q1005 NOSIG,M
VABB,2022-04-13 23:30,84.20,78.80,83.88,310.00,3.00,0.00,29.68,M,1.86,M,SCT,M,M,M,10000.00,M,M,M,HZ,M,M,M,M,M,M,96.10,VABB 132330Z 31003KT 3000 HZ SCT100 29/26 Q1005 NOSIG,M
VABB,2022-04-14 00:00,84.20,78.80,83.88,0.00,0.00,0.00,29.68,M,1.86,M,SCT,M,M,M,10000.00,M,M,M,HZ,M,M,M,M,M,M,96.10,VABB 140000Z 00000KT 3000 HZ SCT100 29/26 Q1005 NOSIG,M
VABB,2022-04-14 00:30,84.20,78.80,83.88,0.00,0.00,0.00,29.71,M,1.86,M,FEW,M,M,M,10000.00,M,M,M,M,M,M,M,M,M,M,96.10,VABB 140030Z 00000KT 3000 FEW100 29/26 Q1006 NOSIG,M
VABB,2022-04-14 01:00,84.20,77.00,79.04,340.00,3.00,0.00,29.71,M,1.86,M,SCT,M,M,M,10000.00,M,M,M,M,M,M,M,M,M,M,94.16,VABB 140100Z 34003KT 3000 SCT100 29/25 Q1006 NOSIG,M
VABB,2022-04-14 01:30,84.20,77.00,79.04,230.00,5.00,0.00,29.74,M,1.86,M,SCT,M,M,M,10000.00,M,M,M,HZ,M,M,M,M,M,M,94.16,VABB 140130Z 23005KT 3000 HZ SCT100 29/25 Q1007 NOSIG,M
VABB,2022-04-14 02:00,84.20,77.00,79.04,210.00,4.00,0.00,29.74,M,1.86,M,SCT,M,M,M,10000.00,M,M,M,HZ,M,M,M,M,M,M,94.16,VABB 140200Z 21004KT 3000 HZ SCT100 29/25 Q1007 NOSIG,M
VABB,2022-04-14 02:30,86.00,77.00,74.61,240.00,4.00,0.00,M,M,1.86,M,SCT,M,M,M,10000.00,M,M,M,HZ,M,M,M,M,M,M,97.15,VABB 140230Z 24004KT 3000 HZ SCT100 30/25 NOSIG,M
VABB,2022-04-14 03:00,86.00,77.00,74.61,0.00,0.00,0.00,29.77,M,M,M,SCT,M,M,M,10000.00,M,M,M,HZ,M,M,M,M,M,M,97.15,VABB 140300Z 00000KT HZ SCT100 30/25 Q1008 NOSIG,M
VABB,2022-04-14 03:30,87.80,77.00,70.45,0.00,0.00,0.00,29.77,M,1.86,M,SCT,M,M,M,10000.00,M,M,M,HZ,M,M,M,M,M,M,99.92,VABB 140330Z 00000KT 3000 HZ SCT100 31/25 Q1008 NOSIG,M
VABB,2022-04-14 04:00,87.80,77.00,70.45,M,3.00,0.00,29.80,M,2.17,M,FEW,M,M,M,2000.00,M,M,M,HZ,M,M,M,M,M,M,99.92,VABB 140400Z VRB03KT 3500 HZ FEW020 31/25 Q1009 NOSIG,M
VABB,2022-04-14 04:30,89.60,77.00,66.55,200.00,5.00,0.00,29.80,M,2.17,M,FEW,M,M,M,2000.00,M,M,M,HZ,M,M,M,M,M,M,102.54,VABB 140430Z 20005KT 3500 HZ FEW020 32/25 Q1009 NOSIG,M
VABB,2022-04-14 05:00,89.60,78.80,70.63,180.00,8.00,0.00,29.80,M,2.17,M,FEW,M,M,M,2000.00,M,M,M,HZ,M,M,M,M,M,M,105.15,VABB 140500Z 18008KT 3500 HZ FEW020 32/26 Q1009 NOSIG,M
VABB,2022-04-14 05:30,89.60,78.80,70.63,230.00,6.00,0.00,29.77,M,2.49,M,FEW,M,M,M,2000.00,M,M,M,HZ,M,M,M,M,M,M,105.15,VABB 140530Z 23006KT 4000 HZ FEW020 32/26 Q1008 NOSIG,M
VABB,2022-04-14 06:00,89.60,78.80,70.63,230.00,8.00,0.00,29.77,M,2.49,M,FEW,M,M,M,2000.00,M,M,M,HZ,M,M,M,M,M,M,105.15,VABB 140600Z 23008KT 4000 HZ FEW020 32/26 Q1008 NOSIG,M
VABB,2022-04-14 06:30,89.60,78.80,70.63,240.00,11.00,0.00,29.77,M,2.49,M,FEW,M,M,M,2000.00,M,M,M,HZ,M,M,M,M,M,M,105.15,VABB 140630Z 24011KT 4000 HZ FEW020 32/26 Q1008 BECMG 5000 HZ,M
VABB,2022-04-14 07:00,89.60,78.80,70.63,260.00,10.00,0.00,29.74,M,3.11,M,FEW,M,M,M,2000.00,M,M,M,HZ,M,M,M,M,M,M,105.15,VABB 140700Z 26010KT 5000 HZ FEW020 32/26 Q1007 NOSIG,M
VABB,2022-04-14 07:30,89.60,78.80,70.63,220.00,9.00,0.00,29.74,M,3.11,M,FEW,M,M,M,2000.00,M,M,M,HZ,M,M,M,M,M,M,105.15,VABB 140730Z 22009KT 5000 HZ FEW020 32/26 Q1007 NOSIG,M
VABB,2022-04-14 08:00,89.60,78.80,70.63,250.00,7.00,0.00,29.74,M,3.11,17.00,FEW,M,M,M,2000.00,M,M,M,HZ,M,M,M,M,M,M,105.15,VABB 140800Z 25007G17KT 5000 HZ FEW020 32/26 Q1007 NOSIG,M
VABB,2022-04-14 08:30,89.60,77.00,66.55,240.00,7.00,0.00,29.71,M,3.11,17.00,FEW,M,M,M,2000.00,M,M,M,HZ,M,M,M,M,M,M,102.54,VABB 140830Z 24007G17KT 5000 HZ FEW020 32/25 Q1006 NOSIG,M
VABB,2022-04-14 09:00,89.60,75.20,62.68,220.00,8.00,0.00,29.68,M,3.11,18.00,NSC,M,M,M,M,M,M,M,HZ,M,M,M,M,M,M,100.23,VABB 140900Z 22008G18KT 5000 HZ NSC 32/24 Q1005 NOSIG,M
VABB,2022-04-14 09:30,89.60,75.20,62.68,250.00,10.00,0.00,29.68,M,3.11,M,NSC,M,M,M,M,M,M,M,HZ,M,M,M,M,M,M,100.23,VABB 140930Z 25010KT 5000 HZ NSC 32/24 Q1005 NOSIG,M
VABB,2022-04-14 10:00,89.60,78.80,70.63,270.00,11.00,0.00,29.68,M,3.11,M,NSC,M,M,M,M,M,M,M,HZ,M,M,M,M,M,M,105.15,VABB 141000Z 27011KT 5000 HZ NSC 32/26 Q1005 NOSIG,M
VABB,2022-04-14 10:30,89.60,78.80,70.63,270.00,10.00,0.00,29.68,M,3.11,M,NSC,M,M,M,M,M,M,M,HZ,M,M,M,M,M,M,105.15,VABB 141030Z 27010KT 5000 HZ NSC 32/26 Q1005 NOSIG,M
VABB,2022-04-14 11:00,89.60,77.00,66.55,270.00,10.00,0.00,29.65,M,3.11,M,NSC,M,M,M,M,M,M,M,HZ,M,M,M,M,M,M,102.54,VABB 141100Z 27010KT 5000 HZ NSC 32/25 Q1004 NOSIG,M
VABB,2022-04-14 11:30,89.60,77.00,66.55,270.00,10.00,0.00,29.65,M,3.11,M,NSC,M,M,M,M,M,M,M,HZ,M,M,M,M,M,M,102.54,VABB 141130Z 27010KT 5000 HZ NSC 32/25 Q1004 NOSIG,M
VABB,2022-04-14 12:00,87.80,78.80,74.77,280.00,10.00,0.00,29.65,M,3.11,M,NSC,M,M,M,M,M,M,M,HZ,M,M,M,M,M,M,102.37,VABB 141200Z 28010KT 5000 HZ NSC 31/26 Q1004 NOSIG,M
VABB,2022-04-14 12:30,87.80,78.80,74.77,270.00,9.00,0.00,29.68,M,3.11,M,NSC,M,M,M,M,M,M,M,HZ,M,M,M,M,M,M,102.37,VABB 141230Z 27009KT 5000 HZ NSC 31/26 Q1005 BECMG 4000 HZ,M
VABB,2022-04-14 13:00,86.00,78.80,79.18,250.00,9.00,0.00,29.68,M,2.49,M,SCT,M,M,M,2000.00,M,M,M,HZ,M,M,M,M,M,M,99.38,VABB 141300Z 25009KT 4000 HZ SCT020 30/26 Q1005 NOSIG,M
VABB,2022-04-14 13:30,86.00,78.80,79.18,260.00,7.00,0.00,29.68,M,2.17,M,SCT,M,M,M,2000.00,M,M,M,HZ,M,M,M,M,M,M,99.38,VABB 141330Z 26007KT 3500 HZ SCT020 30/26 Q1005 NOSIG,M
VABB,2022-04-14 14:00,86.00,78.80,79.18,260.00,7.00,0.00,29.71,M,2.17,M,SCT,M,M,M,2000.00,M,M,M,HZ,M,M,M,M,M,M,99.38,VABB 141400Z 26007KT 3500 HZ SCT020 30/26 Q1006 NOSIG,M
VABB,2022-04-14 14:30,86.00,78.80,79.18,240.00,7.00,0.00,29.71,M,2.17,M,SCT,M,M,M,2000.00,M,M,M,HZ,M,M,M,M,M,M,99.38,VABB 141430Z 24007KT 3500 HZ SCT020 30/26 Q1006 NOSIG,M
VABB,2022-04-14 15:00,86.00,78.80,79.18,240.00,7.00,0.00,29.71,M,2.17,M,SCT,M,M,M,2000.00,M,M,M,HZ,M,M,M,M,M,M,99.38,VABB 141500Z 24007KT 3500 HZ SCT020 30/26 Q1006 BECMG 3000 HZ,M
VABB,2022-04-14 15:30,84.20,78.80,83.88,230.00,6.00,0.00,29.71,M,2.17,M,SCT,M,M,M,2000.00,M,M,M,HZ,M,M,M,M,M,M,96.10,VABB 141530Z 23006KT 3500 HZ SCT020 29/26 Q1006 NOSIG,M
VABB,2022-04-14 16:00,84.20,78.80,83.88,230.00,6.00,0.00,29.74,M,2.17,M,SCT,M,M,M,2000.00,M,M,M,HZ,M,M,M,M,M,M,96.10,VABB 141600Z 23006KT 3500 HZ SCT020 29/26 Q1007 NOSIG,M
VABB,2022-04-14 16:30,84.20,78.80,83.88,210.00,6.00,0.00,29.74,M,2.17,M,SCT,M,M,M,2000.00,M,M,M,HZ,M,M,M,M,M,M,96.10,VABB 141630Z 21006KT 3500 HZ SCT020 29/26 Q1007 NOSIG,M
VABB,2022-04-14 17:00,84.20,78.80,83.88,220.00,6.00,0.00,29.74,M,2.17,M,SCT,M,M,M,2000.00,M,M,M,HZ,M,M,M,M,M,M,96.10,VABB 141700Z 22006KT 3500 HZ SCT020 29/26 Q1007 NOSIG,M
VABB,2022-04-14 17:30,84.20,78.80,83.88,240.00,5.00,0.00,29.77,M,2.17,M,SCT,M,M,M,2000.00,M,M,M,HZ,M,M,M,M,M,M,96.10,VABB 141730Z 24005KT 3500 HZ SCT020 29/26 Q1008 NOSIG,M
VABB,2022-04-14 18:00,84.20,78.80,83.88,210.00,6.00,0.00,29.77,M,2.17,M,SCT,M,M,M,2000.00,M,M,M,HZ,M,M,M,M,M,M,96.10,VABB 141800Z 21006KT 3500 HZ SCT020 29/26 Q1008 NOSIG,M
VABB,2022-04-14 18:30,84.20,78.80,83.88,230.00,6.00,0.00,29.77,M,2.17,M,SCT,M,M,M,2000.00,M,M,M,HZ,M,M,M,M,M,M,96.10,VABB 141830Z 23006KT 3500 HZ SCT020 29/26 Q1008 BECMG 3000 HZ,M
VABB,2022-04-14 19:00,84.20,78.80,83.88,240.00,4.00,0.00,29.77,M,1.86,M,SCT,M,M,M,2000.00,M,M,M,HZ,M,M,M,M,M,M,96.10,VABB 141900Z 24004KT 3000 HZ SCT020 29/26 Q1008 NOSIG,M
VABB,2022-04-14 19:30,84.20,78.80,83.88,190.00,4.00,0.00,29.77,M,1.86,M,SCT,M,M,M,2000.00,M,M,M,HZ,M,M,M,M,M,M,96.10,VABB 141930Z 19004KT 3000 HZ SCT020 29/26 Q1008 NOSIG,M
VABB,2022-04-14 20:00,84.20,77.00,79.04,220.00,5.00,0.00,29.74,M,1.86,M,SCT,M,M,M,2000.00,M,M,M,HZ,M,M,M,M,M,M,94.16,VABB 142000Z 22005KT 3000 HZ SCT020 29/25 Q1007 NOSIG,M
VABB,2022-04-14 20:30,84.20,77.00,79.04,210.00,4.00,0.00,29.74,M,1.86,M,BKN,M,M,M,2000.00,M,M,M,HZ,M,M,M,M,M,M,94.16,VABB 142030Z 21004KT 3000 HZ BKN020 29/25 Q1007 NOSIG,M
VABB,2022-04-14 21:00,84.20,77.00,79.04,200.00,6.00,0.00,29.74,M,1.86,M,BKN,M,M,M,2000.00,M,M,M,HZ,M,M,M,M,M,M,94.16,VABB 142100Z 20006KT 3000 HZ BKN020 29/25 Q1007 NOSIG,M
VABB,2022-04-14 21:30,84.20,77.00,79.04,200.00,3.00,0.00,29.74,M,1.86,M,BKN,M,M,M,2000.00,M,M,M,HZ,M,M,M,M,M,M,94.16,VABB 142130Z 20003KT 3000 HZ BKN020 29/25 Q1007 NOSIG,M
VABB,2022-04-14 22:00,82.40,77.00,83.77,210.00,3.00,0.00,29.74,M,2.17,M,BKN,M,M,M,2000.00,M,M,M,HZ,M,M,M,M,M,M,90.85,VABB 142200Z 21003KT 3500 HZ BKN020 28/25 Q1007 NOSIG,M
VABB,2022-04-14 22:30,82.40,77.00,83.77,200.00,3.00,0.00,29.74,M,2.17,M,BKN,M,M,M,2000.00,M,M,M,HZ,M,M,M,M,M,M,90.85,VABB 142230Z 20003KT 3500 HZ BKN020 28/25 Q1007 NOSIG,M
VABB,2022-04-14 23:00,84.20,77.00,79.04,230.00,4.00,0.00,29.74,M,2.17,M,BKN,M,M,M,2000.00,M,M,M,HZ,M,M,M,M,M,M,94.16,VABB 142300Z 23004KT 3500 HZ BKN020 29/25 Q1007 NOSIG,M
VABB,2022-04-14 23:30,84.20,77.00,79.04,250.00,5.00,0.00,29.74,M,2.17,M,BKN,M,M,M,2000.00,M,M,M,HZ,M,M,M,M,M,M,94.16,VABB 142330Z 25005KT 3500 HZ BKN020 29/25 Q1007 NOSIG,M
VABB,2022-04-15 00:00,82.40,77.00,83.77,230.00,5.00,0.00,29.74,M,2.17,M,BKN,M,M,M,2000.00,M,M,M,HZ,M,M,M,M,M,M,90.85,VABB 150000Z 23005KT 3500 HZ BKN020 28/25 Q1007 NOSIG,M
VABB,2022-04-15 00:30,84.20,77.00,79.04,220.00,4.00,0.00,29.74,M,2.17,M,BKN,M,M,M,2000.00,M,M,M,HZ,M,M,M,M,M,M,94.16,VABB 150030Z 22004KT 3500 HZ BKN020 29/25 Q1007 BECMG 3000 HZ,M
VABB,2022-04-15 01:00,84.20,77.00,79.04,250.00,5.00,0.00,29.74,M,1.86,M,BKN,M,M,M,2000.00,M,M,M,HZ,M,M,M,M,M,M,94.16,VABB 150100Z 25005KT 3000 HZ BKN020 29/25 Q1007 NOSIG,M
VABB,2022-04-15 01:30,84.20,77.00,79.04,260.00,6.00,0.00,29.74,M,1.86,M,BKN,M,M,M,2000.00,M,M,M,HZ,M,M,M,M,M,M,94.16,VABB 150130Z 26006KT 3000 HZ BKN020 29/25 Q1007 NOSIG,M
VABB,2022-04-15 02:00,84.20,77.00,79.04,260.00,4.00,0.00,29.77,M,1.86,M,BKN,M,M,M,2000.00,M,M,M,HZ,M,M,M,M,M,M,94.16,VABB 150200Z 26004KT 3000 HZ BKN020 29/25 Q1008 NOSIG,M
VABB,2022-04-15 02:30,84.20,77.00,79.04,250.00,5.00,0.00,29.77,M,1.86,M,BKN,M,M,M,2000.00,M,M,M,HZ,M,M,M,M,M,M,94.16,VABB 150230Z 25005KT 3000 HZ BKN020 29/25 Q1008 NOSIG,M
VABB,2022-04-15 03:00,86.00,77.00,74.61,290.00,3.00,0.00,29.80,M,1.86,M,BKN,M,M,M,2000.00,M,M,M,HZ,M,M,M,M,M,M,97.15,VABB 150300Z 29003KT 3000 HZ BKN020 30/25 Q1009 NOSIG,M
VABB,2022-04-15 03:30,86.00,77.00,74.61,230.00,6.00,0.00,29.80,M,2.17,M,SCT,M,M,M,2000.00,M,M,M,HZ,M,M,M,M,M,M,97.15,VABB 150330Z 23006KT 3500 HZ SCT020 30/25 Q1009 NOSIG,M
VABB,2022-04-15 04:00,87.80,77.00,70.45,200.00,4.00,0.00,29.80,M,2.17,M,SCT,M,M,M,2000.00,M,M,M,HZ,M,M,M,M,M,M,99.92,VABB 150400Z 20004KT 3500 HZ SCT020 31/25 Q1009 NOSIG,M
VABB,2022-04-15 04:30,87.80,77.00,70.45,210.00,5.00,0.00,29.80,M,2.17,M,SCT,M,M,M,2000.00,M,M,M,HZ,M,M,M,M,M,M,99.92,VABB 150430Z 21005KT 3500 HZ SCT020 31/25 Q1009 NOSIG,M
VABB,2022-04-15 05:00,89.60,77.00,66.55,270.00,6.00,0.00,29.80,M,2.17,M,SCT,M,M,M,2000.00,M,M,M,HZ,M,M,M,M,M,M,102.54,VABB 150500Z 27006KT 3500 HZ SCT020 32/25 Q1009 NOSIG,M
VABB,2022-04-15 05:30,89.60,77.00,66.55,280.00,8.00,0.00,29.80,M,2.17,M,FEW,M,M,M,2000.00,M,M,M,HZ,M,M,M,M,M,M,102.54,VABB 150530Z 28008KT 3500 HZ FEW020 32/25 Q1009 NOSIG,M
VABB,2022-04-15 06:00,89.60,77.00,66.55,250.00,7.00,0.00,29.80,M,2.49,M,FEW,M,M,M,2000.00,M,M,M,HZ,M,M,M,M,M,M,102.54,VABB 150600Z 25007KT 4000 HZ FEW020 32/25 Q1009 NOSIG,M
VABB,2022-04-15 06:30,91.40,77.00,62.90,260.00,9.00,0.00,29.80,M,2.49,M,FEW,M,M,M,2000.00,M,M,M,HZ,M,M,M,M,M,M,105.06,VABB 150630Z 26009KT 4000 HZ FEW020 33/25 Q1009 NOSIG,M
VABB,2022-04-15 07:00,91.40,77.00,62.90,250.00,8.00,0.00,29.77,M,2.49,M,FEW,M,M,M,2000.00,M,M,M,HZ,M,M,M,M,M,M,105.06,VABB 150700Z 25008KT 4000 HZ FEW020 33/25 Q1008 NOSIG,M
VABB,2022-04-15 07:30,91.40,77.00,62.90,270.00,9.00,0.00,29.77,M,2.49,M,NSC,M,M,M,M,M,M,M,HZ,M,M,M,M,M,M,105.06,VABB 150730Z 27009KT 4000 HZ NSC 33/25 Q1008 NOSIG,M
VABB,2022-04-15 08:00,91.40,77.00,62.90,260.00,11.00,0.00,29.74,M,2.49,M,NSC,M,M,M,M,M,M,M,HZ,M,M,M,M,M,M,105.06,VABB 150800Z 26011KT 4000 HZ NSC 33/25 Q1007 NOSIG,M
VABB,2022-04-15 08:30,91.40,75.20,59.24,240.00,11.00,0.00,29.74,M,2.49,M,NSC,M,M,M,M,M,M,M,HZ,M,M,M,M,M,M,102.65,VABB 150830Z 24011KT 4000 HZ NSC 33/24 Q1007 NOSIG,M
VABB,2022-04-15 09:00,89.60,77.00,66.55,270.00,10.00,0.00,29.71,M,2.49,M,NSC,M,M,M,M,M,M,M,HZ,M,M,M,M,M,M,102.54,VABB 150900Z 27010KT 4000 HZ NSC 32/25 Q1006 NOSIG,M
VABB,2022-04-15 09:30,89.60,77.00,66.55,260.00,12.00,0.00,29.71,M,2.49,M,NSC,M,M,M,M,M,M,M,HZ,M,M,M,M,M,M,102.54,VABB 150930Z 26012KT 4000 HZ NSC 32/25 Q1006 BECMG 5000 HZ,M
VABB,2022-04-15 10:00,89.60,77.00,66.55,260.00,10.00,0.00,29.68,M,3.11,M,NSC,M,M,M,M,M,M,M,HZ,M,M,M,M,M,M,102.54,VABB 151000Z 26010KT 5000 HZ NSC 32/25 Q1005 NOSIG,M
VABB,2022-04-15 10:30,87.80,77.00,70.45,280.00,13.00,0.00,29.68,M,3.11,M,NSC,M,M,M,M,M,M,M,HZ,M,M,M,M,M,M,99.92,VABB 151030Z 28013KT 5000 HZ NSC 31/25 Q1005 NOSIG,M
VABB,2022-04-15 11:00,87.80,75.20,66.35,280.00,12.00,0.00,29.68,M,3.11,M,NSC,M,M,M,M,M,M,M,HZ,M,M,M,M,M,M,97.76,VABB 151100Z 28012KT 5000 HZ NSC 31/24 Q1005 NOSIG,M
VABB,2022-04-15 11:30,87.80,73.40,62.47,270.00,14.00,0.00,29.68,M,2.80,M,NSC,M,M,M,M,M,M,M,HZ,M,M,M,M,M,M,95.86,VABB 151130Z 27014KT 4500 HZ NSC 31/23 Q1005 NOSIG,M
VABB,2022-04-15 12:00,87.80,73.40,62.47,280.00,11.00,0.00,29.68,M,2.49,M,NSC,M,M,M,M,M,M,M,HZ,M,M,M,M,M,M,95.86,VABB 151200Z 28011KT 4000 HZ NSC 31/23 Q1005 NOSIG,M
VABB,2022-04-15 12:30,87.80,73.40,62.47,280.00,10.00,0.00,29.68,M,2.49,M,NSC,M,M,M,M,M,M,M,HZ,M,M,M,M,M,M,95.86,VABB 151230Z 28010KT 4000 HZ NSC 31/23 Q1005 NOSIG,M
VABB,2022-04-15 13:00,87.80,75.20,66.35,320.00,7.00,0.00,29.68,M,2.49,M,NSC,M,M,M,M,M,M,M,HZ,M,M,M,M,M,M,97.76,VABB 151300Z 32007KT 4000 HZ NSC 31/24 Q1005 NOSIG,M
VABB,2022-04-15 13:30,86.00,75.20,70.27,280.00,10.00,0.00,29.71,M,2.17,M,NSC,M,M,M,M,M,M,M,HZ,M,M,M,M,M,M,95.19,VABB 151330Z 28010KT 3500 HZ NSC 30/24 Q1006 NOSIG,M
VABB,2022-04-15 14:00,86.00,75.20,70.27,300.00,5.00,0.00,29.71,M,2.17,M,NSC,M,M,M,M,M,M,M,HZ,M,M,M,M,M,M,95.19,VABB 151400Z 30005KT 3500 HZ NSC 30/24 Q1006 NOSIG,M
VABB,2022-04-15 14:30,84.20,75.20,74.44,240.00,5.00,0.00,29.71,M,2.17,M,FEW,M,M,M,2000.00,M,M,M,HZ,M,M,M,M,M,M,92.45,VABB 151430Z 24005KT 3500 HZ FEW020 29/24 Q1006 NOSIG,M
VABB,2022-04-15 15:00,84.20,75.20,74.44,290.00,7.00,0.00,29.74,M,2.17,M,FEW,M,M,M,2000.00,M,M,M,HZ,M,M,M,M,M,M,92.45,VABB 151500Z 29007KT 3500 HZ FEW020 29/24 Q1007 NOSIG,M
VABB,2022-04-15 15:30,84.20,75.20,74.44,300.00,6.00,0.00,29.74,M,2.17,M,NSC,M,M,M,M,M,M,M,HZ,M,M,M,M,M,M,92.45,VABB 151530Z 30006KT 3500 HZ NSC 29/24 Q1007 NOSIG,M
VABB,2022-04-15 16:00,84.20,75.20,74.44,310.00,4.00,0.00,29.74,M,2.17,M,NSC,M,M,M,M,M,M,M,HZ,M,M,M,M,M,M,92.45,VABB 151600Z 31004KT 3500 HZ NSC 29/24 Q1007 NOSIG,M
VABB,2022-04-15 16:30,84.20,75.20,74.44,280.00,4.00,0.00,29.77,M,2.17,M,NSC,M,M,M,M,M,M,M,HZ,M,M,M,M,M,M,92.45,VABB 151630Z 28004KT 3500 HZ NSC 29/24 Q1008 NOSIG,M
VABB,2022-04-15 17:00,84.20,75.20,74.44,300.00,3.00,0.00,29.77,M,2.17,M,NSC,M,M,M,M,M,M,M,HZ,M,M,M,M,M,M,92.45,VABB 151700Z 30003KT 3500 HZ NSC 29/24 Q1008 NOSIG,M
VABB,2022-04-15 17:30,84.20,75.20,74.44,300.00,3.00,0.00,29.77,M,2.17,M,NSC,M,M,M,M,M,M,M,HZ,M,M,M,M,M,M,92.45,VABB 151730Z 30003KT 3500 HZ NSC 29/24 Q1008 NOSIG,M
VABB,2022-04-15 18:00,84.20,75.20,74.44,210.00,4.00,0.00,29.77,M,2.17,M,NSC,M,M,M,M,M,M,M,HZ,M,M,M,M,M,M,92.45,VABB 151800Z 21004KT 3500 HZ NSC 29/24 Q1008 NOSIG,M
VABB,2022-04-15 18:30,84.20,75.20,74.44,220.00,5.00,0.00,29.77,M,2.17,M,NSC,M,M,M,M,M,M,M,HZ,M,M,M,M,M,M,92.45,VABB 151830Z 22005KT 3500 HZ NSC 29/24 Q1008 BECMG 3000 HZ,M
VABB,2022-04-15 19:00,82.40,75.20,78.90,210.00,4.00,0.00,29.74,M,1.86,M,NSC,M,M,M,M,M,M,M,HZ,M,M,M,M,M,M,89.48,VABB 151900Z 21004KT 3000 HZ NSC 28/24 Q1007 NOSIG,M
VABB,2022-04-15 19:30,82.40,75.20,78.90,250.00,4.00,0.00,29.74,M,1.86,M,NSC,M,M,M,M,M,M,M,HZ,M,M,M,M,M,M,89.48,VABB 151930Z 25004KT 3000 HZ NSC 28/24 Q1007 NOSIG,M
VABB,2022-04-15 20:00,82.40,75.20,78.90,230.00,5.00,0.00,29.74,M,1.86,M,NSC,M,M,M,M,M,M,M,HZ,M,M,M,M,M,M,89.48,VABB 152000Z 23005KT 3000 HZ NSC 28/24 Q1007 NOSIG,M
VABB,2022-04-15 20:30,82.40,75.20,78.90,240.00,4.00,0.00,29.71,M,1.86,M,NSC,M,M,M,M,M,M,M,HZ,M,M,M,M,M,M,89.48,VABB 152030Z 24004KT 3000 HZ NSC 28/24 Q1006 NOSIG,M
VABB,2022-04-15 21:00,82.40,75.20,78.90,220.00,3.00,0.00,29.71,M,1.86,M,NSC,M,M,M,M,M,M,M,HZ,M,M,M,M,M,M,89.48,VABB 152100Z 22003KT 3000 HZ NSC 28/24 Q1006 NOSIG,M
VABB,2022-04-15 21:30,82.40,75.20,78.90,210.00,3.00,0.00,29.71,M,1.86,M,NSC,M,M,M,M,M,M,M,HZ,M,M,M,M,M,M,89.48,VABB 152130Z 21003KT 3000 HZ NSC 28/24 Q1006 NOSIG,M
VABB,2022-04-15 22:00,80.60,75.20,83.66,0.00,0.00,0.00,29.71,M,1.86,M,NSC,M,M,M,M,M,M,M,HZ,M,M,M,M,M,M,86.17,VABB 152200Z 00000KT 3000 HZ NSC 27/24 Q1006 NOSIG,M
VABB,2022-04-15 22:30,80.60,75.20,83.66,0.00,0.00,0.00,29.71,M,1.86,M,NSC,M,M,M,M,M,M,M,HZ,M,M,M,M,M,M,86.17,VABB 152230Z 00000KT 3000 HZ NSC 27/24 Q1006 NOSIG,M
VABB,2022-04-15 23:00,82.40,75.20,78.90,0.00,0.00,0.00,29.71,M,1.86,M,NSC,M,M,M,M,M,M,M,HZ,M,M,M,M,M,M,89.48,VABB 152300Z 00000KT 3000 HZ NSC 28/24 Q1006 NOSIG,M
VABB,2022-04-15 23:30,80.60,75.20,83.66,0.00,0.00,0.00,29.71,M,1.86,M,NSC,M,M,M,M,M,M,M,HZ,M,M,M,M,M,M,86.17,VABB 152330Z 00000KT 3000 HZ NSC 27/24 Q1006 NOSIG,M
VABB,2022-04-16 00:00,80.60,75.20,83.66,110.00,5.00,0.00,29.71,M,1.86,M,NSC,M,M,M,M,M,M,M,HZ,M,M,M,M,M,M,86.17,VABB 160000Z 11005KT 3000 HZ NSC 27/24 Q1006 NOSIG,M
VABB,2022-04-16 00:30,80.60,77.00,88.83,120.00,6.00,0.00,29.71,M,1.86,M,NSC,M,M,M,M,M,M,M,HZ,M,M,M,M,M,M,87.59,VABB 160030Z 12006KT 3000 HZ NSC 27/25 Q1006 NOSIG,M
VABB,2022-04-16 01:00,80.60,77.00,88.83,150.00,3.00,0.00,29.74,M,1.86,M,NSC,M,M,M,M,M,M,M,HZ,M,M,M,M,M,M,87.59,VABB 160100Z 15003KT 3000 HZ NSC 27/25 Q1007 NOSIG,M
VABB,2022-04-16 01:30,80.60,77.00,88.83,130.00,4.00,0.00,29.74,M,1.86,M,FEW,M,M,M,2000.00,M,M,M,HZ,M,M,M,M,M,M,87.59,VABB 160130Z 13004KT 3000 HZ FEW020 27/25 Q1007 NOSIG,M
VABB,2022-04-16 02:00,80.60,77.00,88.83,160.00,4.00,0.00,29.74,M,1.86,M,FEW,M,M,M,2000.00,M,M,M,HZ,M,M,M,M,M,M,87.59,VABB 160200Z 16004KT 3000 HZ FEW020 27/25 Q1007 NOSIG,M
VABB,2022-04-16 02:30,82.40,75.20,78.90,180.00,4.00,0.00,29.77,M,1.86,M,FEW,M,M,M,2000.00,M,M,M,HZ,M,M,M,M,M,M,89.48,VABB 160230Z 18004KT 3000 HZ FEW020 28/24 Q1008 NOSIG,M
VABB,2022-04-16 03:00,84.20,75.20,74.44,0.00,0.00,0.00,29.77,M,1.55,M,FEW,M,M,M,2000.00,M,M,M,HZ,M,M,M,M,M,M,92.45,VABB 160300Z 00000KT 2500 HZ FEW020 29/24 Q1008 NOSIG,M
VABB,2022-04-16 03:30,84.20,75.20,74.44,220.00,5.00,0.00,29.77,M,1.55,M,FEW,M,M,M,2000.00,M,M,M,HZ,M,M,M,M,M,M,92.45,VABB 160330Z 22005KT 2500 HZ FEW020 29/24 Q1008 NOSIG,M
VABB,2022-04-16 04:00,87.80,73.40,62.47,0.00,0.00,0.00,29.77,M,1.74,M,FEW,M,M,M,2000.00,M,M,M,HZ,M,M,M,M,M,M,95.86,VABB 160400Z 00000KT 2800 HZ FEW020 31/23 Q1008 BECMG 3000 HZ,M
VABB,2022-04-16 04:30,87.80,71.60,58.78,0.00,0.00,0.00,29.77,M,1.86,M,FEW,M,M,M,2000.00,M,M,M,FU,M,M,M,M,M,M,94.18,VABB 160430Z 00000KT 3000 FU FEW020 31/22 Q1008 NOSIG,M
VABB,2022-04-16 05:00,89.60,73.40,59.01,240.00,6.00,0.00,29.77,M,1.86,M,NSC,M,M,M,M,M,M,M,FU,M,M,M,M,M,M,98.20,VABB 160500Z 24006KT 3000 FU NSC 32/23 Q1008 NOSIG,M
VABB,2022-04-16 05:30,87.80,75.20,66.35,260.00,9.00,0.00,29.77,M,1.86,M,NSC,M,M,M,M,M,M,M,FU,M,M,M,M,M,M,97.76,VABB 160530Z 26009KT 3000 FU NSC 31/24 Q1008 NOSIG,M
VABB,2022-04-16 06:00,89.60,75.20,62.68,240.00,9.00,0.00,29.77,M,1.86,M,NSC,M,M,M,M,M,M,M,FU,M,M,M,M,M,M,100.23,VABB 160600Z 24009KT 3000 FU NSC 32/24 Q1008 NOSIG,M
VABB,2022-04-16 06:30,89.60,75.20,62.68,250.00,9.00,0.00,29.74,M,1.86,M,NSC,M,M,M,M,M,M,M,FU,M,M,M,M,M,M,100.23,VABB 160630Z 25009KT 3000 FU NSC 32/24 Q1007 NOSIG,M
VABB,2022-04-16 07:00,89.60,75.20,62.68,270.00,7.00,0.00,29.74,M,2.17,M,NSC,M,M,M,M,M,M,M,FU,M,M,M,M,M,M,100.23,VABB 160700Z 27007KT 3500 FU NSC 32/24 Q1007 BECMG 4000 FU,M
VABB,2022-04-16 07:30,89.60,69.80,52.23,260.00,8.00,0.00,29.74,M,2.49,M,NSC,M,M,M,M,M,M,M,FU,M,M,M,M,M,M,94.85,VABB 160730Z 26008KT 4000 FU NSC 32/21 Q1007 NOSIG,M
VABB,2022-04-16 08:00,89.60,64.40,43.34,280.00,11.00,0.00,29.74,M,2.80,M,NSC,M,M,M,M,M,M,M,FU,M,M,M,M,M,M,91.23,VABB 160800Z 28011KT 4500 FU NSC 32/18 Q1007 BECMG 5000 FU,M
VABB,2022-04-16 08:30,89.60,68.00,49.10,270.00,13.00,0.00,29.71,M,3.11,M,NSC,M,M,M,M,M,M,M,FU,M,M,M,M,M,M,93.47,VABB 160830Z 27013KT 5000 FU NSC 32/20 Q1006 NOSIG,M
VABB,2022-04-16 09:00,89.60,69.80,52.23,270.00,13.00,0.00,29.68,M,3.11,M,NSC,M,M,M,M,M,M,M,FU,M,M,M,M,M,M,94.85,VABB 160900Z 27013KT 5000 FU NSC 32/21 Q1005 NOSIG,M
VABB,2022-04-16 09:30,89.60,71.60,55.53,270.00,10.00,0.00,29.68,M,3.11,M,NSC,M,M,M,M,M,M,M,FU,M,M,M,M,M,M,96.41,VABB 160930Z 27010KT 5000 FU NSC 32/22 Q1005 NOSIG,M
VABB,2022-04-16 10:00,89.60,71.60,55.53,270.00,11.00,0.00,29.68,M,3.11,M,NSC,M,M,M,M,M,M,M,FU,M,M,M,M,M,M,96.41,VABB 161000Z 27011KT 5000 FU NSC 32/22 Q1005 NOSIG,M
VABB,2022-04-16 10:30,89.60,71.60,55.53,280.00,10.00,0.00,29.65,M,3.11,M,NSC,M,M,M,M,M,M,M,FU,M,M,M,M,M,M,96.41,VABB 161030Z 28010KT 5000 FU NSC 32/22 Q1004 NOSIG,M
VABB,2022-04-16 11:00,87.80,73.40,62.47,270.00,11.00,0.00,29.65,M,3.11,M,NSC,M,M,M,M,M,M,M,FU,M,M,M,M,M,M,95.86,VABB 161100Z 27011KT 5000 FU NSC 31/23 Q1004 NOSIG,M
VABB,2022-04-16 11:30,87.80,73.40,62.47,290.00,10.00,0.00,29.65,M,3.11,M,NSC,M,M,M,M,M,M,M,FU,M,M,M,M,M,M,95.86,VABB 161130Z 29010KT 5000 FU NSC 31/23 Q1004 NOSIG,M
VABB,2022-04-16 12:00,86.00,75.20,70.27,270.00,11.00,0.00,29.65,M,3.11,M,NSC,M,M,M,M,M,M,M,HZ,M,M,M,M,M,M,95.19,VABB 161200Z 27011KT 5000 HZ NSC 30/24 Q1004 NOSIG,M
VABB,2022-04-16 12:30,86.00,75.20,70.27,270.00,10.00,0.00,29.65,M,3.11,M,NSC,M,M,M,M,M,M,M,HZ,M,M,M,M,M,M,95.19,VABB 161230Z 27010KT 5000 HZ NSC 30/24 Q1004 NOSIG,M
VABB,2022-04-16 13:00,86.00,75.20,70.27,290.00,10.00,0.00,29.65,M,3.11,M,NSC,M,M,M,M,M,M,M,HZ,M,M,M,M,M,M,95.19,VABB 161300Z 29010KT 5000 HZ NSC 30/24 Q1004 BECMG 4000 HZ,M
VABB,2022-04-16 13:30,84.20,75.20,74.44,290.00,9.00,0.00,29.65,M,2.49,M,NSC,M,M,M,M,M,M,M,HZ,M,M,M,M,M,M,92.45,COR VABB 161330Z 29009KT 4000 HZ NSC 29/24 Q1004 NOSIG,M
VABB,2022-04-16 14:00,84.20,75.20,74.44,290.00,6.00,0.00,29.68,M,2.49,M,NSC,M,M,M,M,M,M,M,HZ,M,M,M,M,M,M,92.45,VABB 161400Z 29006KT 4000 HZ NSC 29/24 Q1005 NOSIG,M
VABB,2022-04-16 14:30,84.20,77.00,79.04,290.00,7.00,0.00,29.68,M,2.49,M,NSC,M,M,M,M,M,M,M,HZ,M,M,M,M,M,M,94.16,VABB 161430Z 29007KT 4000 HZ NSC 29/25 Q1005 NOSIG,M
VABB,2022-04-16 15:00,84.20,77.00,79.04,280.00,7.00,0.00,29.68,M,2.17,M,NSC,M,M,M,M,M,M,M,HZ,M,M,M,M,M,M,94.16,VABB 161500Z 28007KT 3500 HZ NSC 29/25 Q1005 NOSIG,M
VABB,2022-04-16 15:30,84.20,77.00,79.04,270.00,5.00,0.00,29.71,M,2.17,M,NSC,M,M,M,M,M,M,M,HZ,M,M,M,M,M,M,94.16,VABB 161530Z 27005KT 3500 HZ NSC 29/25 Q1006 NOSIG,M
VABB,2022-04-16 16:00,82.40,77.00,83.77,300.00,5.00,0.00,29.71,M,2.17,M,NSC,M,M,M,M,M,M,M,HZ,M,M,M,M,M,M,90.85,VABB 161600Z 30005KT 3500 HZ NSC 28/25 Q1006 NOSIG,M
VABB,2022-04-16 16:30,82.40,77.00,83.77,300.00,4.00,0.00,29.71,M,2.17,M,NSC,M,M,M,M,M,M,M,HZ,M,M,M,M,M,M,90.85,VABB 161630Z 30004KT 3500 HZ NSC 28/25 Q1006 NOSIG,M
VABB,2022-04-16 17:00,82.40,77.00,83.77,290.00,3.00,0.00,29.74,M,2.17,M,NSC,M,M,M,M,M,M,M,HZ,M,M,M,M,M,M,90.85,VABB 161700Z 29003KT 3500 HZ NSC 28/25 Q1007 NOSIG,M
VABB,2022-04-16 17:30,82.40,77.00,83.77,260.00,5.00,0.00,29.74,M,2.17,M,NSC,M,M,M,M,M,M,M,HZ,M,M,M,M,M,M,90.85,VABB 161730Z 26005KT 3500 HZ NSC 28/25 Q1007 NOSIG,M
VABB,2022-04-16 18:00,82.40,77.00,83.77,230.00,5.00,0.00,29.74,M,2.17,M,NSC,M,M,M,M,M,M,M,HZ,M,M,M,M,M,M,90.85,VABB 161800Z 23005KT 3500 HZ NSC 28/25 Q1007 NOSIG,M
VABB,2022-04-16 18:30,82.40,77.00,83.77,230.00,5.00,0.00,29.74,M,2.17,M,NSC,M,M,M,M,M,M,M,HZ,M,M,M,M,M,M,90.85,VABB 161830Z 23005KT 3500 HZ NSC 28/25 Q1007 NOSIG,M
VABB,2022-04-16 19:00,82.40,77.00,83.77,220.00,5.00,0.00,29.74,M,2.17,M,NSC,M,M,M,M,M,M,M,HZ,M,M,M,M,M,M,90.85,VABB 161900Z 22005KT 3500 HZ NSC 28/25 Q1007 NOSIG,M
VABB,2022-04-16 19:30,82.40,77.00,83.77,210.00,4.00,0.00,29.74,M,2.17,M,NSC,M,M,M,M,M,M,M,HZ,M,M,M,M,M,M,90.85,VABB 161930Z 21004KT 3500 HZ NSC 28/25 Q1007 NOSIG,M
VABB,2022-04-16 20:00,82.40,77.00,83.77,230.00,3.00,0.00,29.74,M,2.17,M,NSC,M,M,M,M,M,M,M,HZ,M,M,M,M,M,M,90.85,VABB 162000Z 23003KT 3500 HZ NSC 28/25 Q1007 NOSIG,M
VABB,2022-04-16 20:30,82.40,75.20,78.90,200.00,4.00,0.00,29.71,M,2.17,M,NSC,M,M,M,M,M,M,M,HZ,M,M,M,M,M,M,89.48,VABB 162030Z 20004KT 3500 HZ NSC 28/24 Q1006 NOSIG,M
VABB,2022-04-16 21:00,82.40,75.20,78.90,200.00,4.00,0.00,29.71,M,2.17,M,FEW,M,M,M,2000.00,M,M,M,HZ,M,M,M,M,M,M,89.48,VABB 162100Z 20004KT 3500 HZ FEW020 28/24 Q1006 NOSIG,M
VABB,2022-04-16 21:30,80.60,75.20,83.66,200.00,3.00,0.00,29.71,M,2.17,M,SCT,M,M,M,2000.00,M,M,M,HZ,M,M,M,M,M,M,86.17,VABB 162130Z 20003KT 3500 HZ SCT020 27/24 Q1006 NOSIG,M
VABB,2022-04-16 22:00,82.40,75.20,78.90,210.00,3.00,0.00,29.71,M,2.17,M,SCT,M,M,M,2000.00,M,M,M,HZ,M,M,M,M,M,M,89.48,VABB 162200Z 21003KT 3500 HZ SCT020 28/24 Q1006 NOSIG,M
VABB,2022-04-16 22:30,80.60,75.20,83.66,0.00,0.00,0.00,29.71,M,2.17,M,SCT,M,M,M,2000.00,M,M,M,HZ,M,M,M,M,M,M,86.17,VABB 162230Z 00000KT 3500 HZ SCT020 27/24 Q1006 NOSIG,M
VABB,2022-04-16 23:00,82.40,75.20,78.90,0.00,0.00,0.00,29.71,M,2.17,M,SCT,M,M,M,2000.00,M,M,M,HZ,M,M,M,M,M,M,89.48,VABB 162300Z 00000KT 3500 HZ SCT020 28/24 Q1006 NOSIG,M
VABB,2022-04-16 23:30,82.40,75.20,78.90,M,2.00,0.00,29.71,M,2.17,M,SCT,M,M,M,2000.00,M,M,M,HZ,M,M,M,M,M,M,89.48,VABB 162330Z VRB02KT 3500 HZ SCT020 28/24 Q1006 NOSIG,M
VABB,2022-04-17 00:00,82.40,75.20,78.90,190.00,4.00,0.00,29.74,M,2.17,M,SCT,M,M,M,2000.00,M,M,M,HZ,M,M,M,M,M,M,89.48,VABB 170000Z 19004KT 3500 HZ SCT020 28/24 Q1007 BECMG 3000 HZ,M
VABB,2022-04-17 00:30,82.40,77.00,83.77,190.00,3.00,0.00,29.74,M,1.86,M,FEW,M,M,M,2000.00,M,M,M,HZ,M,M,M,M,M,M,90.85,VABB 170030Z 19003KT 3000 HZ FEW020 28/25 Q1007 NOSIG,M
VABB,2022-04-17 01:00,82.40,77.00,83.77,150.00,5.00,0.00,29.74,M,1.86,M,FEW,M,M,M,2000.00,M,M,M,HZ,M,M,M,M,M,M,90.85,VABB 170100Z 15005KT 3000 HZ FEW020 28/25 Q1007 NOSIG,M
VABB,2022-04-17 01:30,80.60,77.00,88.83,110.00,6.00,0.00,29.77,M,1.86,M,FEW,M,M,M,2000.00,M,M,M,HZ,M,M,M,M,M,M,87.59,VABB 170130Z 11006KT 3000 HZ FEW020 27/25 Q1008 NOSIG,M
VABB,2022-04-17 02:00,80.60,77.00,88.83,110.00,5.00,0.00,29.77,M,1.55,M,FEW,M,M,M,2000.00,M,M,M,HZ,M,M,M,M,M,M,87.59,VABB 170200Z 11005KT 2500 HZ FEW020 27/25 Q1008 NOSIG,M
VABB,2022-04-17 02:30,82.40,77.00,83.77,110.00,5.00,0.00,29.77,M,1.55,M,FEW,M,M,M,2000.00,M,M,M,HZ,M,M,M,M,M,M,90.85,VABB 170230Z 11005KT 2500 HZ FEW020 28/25 Q1008 NOSIG,M
VABB,2022-04-17 03:00,84.20,77.00,79.04,150.00,5.00,0.00,29.80,M,1.55,M,SCT,M,M,M,2000.00,M,M,M,HZ,M,M,M,M,M,M,94.16,VABB 170300Z 15005KT 2500 HZ SCT020 29/25 Q1009 BECMG 3000 HZ,M
VABB,2022-04-17 03:30,86.00,77.00,74.61,170.00,6.00,0.00,29.80,M,1.86,M,SCT,M,M,M,2000.00,M,M,M,HZ,M,M,M,M,M,M,97.15,VABB 170330Z 17006KT 3000 HZ SCT020 30/25 Q1009 NOSIG,M
VABB,2022-04-17 04:00,86.00,75.20,70.27,130.00,6.00,0.00,29.80,M,2.17,M,SCT,M,M,M,2000.00,M,M,M,HZ,M,M,M,M,M,M,95.19,VABB 170400Z 13006KT 3500 HZ SCT020 30/24 Q1009 NOSIG,M
VABB,2022-04-17 04:30,87.80,73.40,62.47,220.00,4.00,0.00,29.80,M,2.49,M,SCT,M,M,M,2000.00,M,M,M,HZ,M,M,M,M,M,M,95.86,VABB 170430Z 22004KT 4000 HZ SCT020 31/23 Q1009 NOSIG,M
VABB,2022-04-17 05:00,89.60,73.40,59.01,170.00,5.00,0.00,29.80,M,2.49,M,SCT,M,M,M,2000.00,M,M,M,HZ,M,M,M,M,M,M,98.20,VABB 170500Z 17005KT 4000 HZ SCT020 32/23 Q1009 NOSIG,M
VABB,2022-04-17 05:30,89.60,75.20,62.68,160.00,6.00,0.00,29.80,M,2.49,M,FEW,M,M,M,2000.00,M,M,M,HZ,M,M,M,M,M,M,100.23,VABB 170530Z 16006KT 4000 HZ FEW020 32/24 Q1009 NOSIG,M
VABB,2022-04-17 06:00,87.80,75.20,66.35,250.00,5.00,0.00,29.80,M,2.49,M,FEW,M,M,M,2000.00,M,M,M,HZ,M,M,M,M,M,M,97.76,VABB 170600Z 25005KT 4000 HZ FEW020 31/24 Q1009 NOSIG,M
VABB,2022-04-17 06:30,89.60,75.20,62.68,220.00,9.00,0.00,29.77,M,2.49,M,FEW,M,M,M,2000.00,M,M,M,HZ,M,M,M,M,M,M,100.23,VABB 170630Z 22009KT 4000 HZ FEW020 32/24 Q1008 NOSIG,M
VABB,2022-04-17 07:00,89.60,75.20,62.68,240.00,10.00,0.00,29.77,M,2.49,M,FEW,M,M,M,2000.00,M,M,M,HZ,M,M,M,M,M,M,100.23,VABB 170700Z 24010KT 4000 HZ FEW020 32/24 Q1008 NOSIG,M
VABB,2022-04-17 07:30,89.60,75.20,62.68,260.00,10.00,0.00,29.77,M,2.49,M,NSC,M,M,M,M,M,M,M,HZ,M,M,M,M,M,M,100.23,VABB 170730Z 26010KT 4000 HZ NSC 32/24 Q1008 BECMG 5000 HZ,M
VABB,2022-04-17 08:00,89.60,75.20,62.68,260.00,11.00,0.00,29.74,M,3.11,M,NSC,M,M,M,M,M,M,M,HZ,M,M,M,M,M,M,100.23,VABB 170800Z 26011KT 5000 HZ NSC 32/24 Q1007 NOSIG,M
VABB,2022-04-17 08:30,89.60,73.40,59.01,260.00,11.00,0.00,29.74,M,3.11,M,NSC,M,M,M,M,M,M,M,FU,M,M,M,M,M,M,98.20,VABB 170830Z 26011KT 5000 FU NSC 32/23 Q1007 NOSIG,M
VABB,2022-04-17 09:00,89.60,71.60,55.53,270.00,10.00,0.00,29.71,M,3.73,M,NSC,M,M,M,M,M,M,M,M,M,M,M,M,M,M,96.41,VABB 170900Z 27010KT 6000 NSC 32/22 Q1006 NOSIG,M
VABB,2022-04-17 09:30,89.60,71.60,55.53,250.00,11.00,0.00,29.71,M,3.73,M,NSC,M,M,M,M,M,M,M,M,M,M,M,M,M,M,96.41,VABB 170930Z 25011KT 6000 NSC 32/22 Q1006 NOSIG,M
VABB,2022-04-17 10:00,91.40,69.80,49.36,280.00,12.00,0.00,29.71,M,3.73,M,NSC,M,M,M,M,M,M,M,M,M,M,M,M,M,M,96.99,VABB 171000Z 28012KT 6000 NSC 33/21 Q1006 NOSIG,M
VABB,2022-04-17 10:30,89.60,71.60,55.53,260.00,12.00,0.00,29.68,M,3.73,M,NSC,M,M,M,M,M,M,M,M,M,M,M,M,M,M,96.41,VABB 171030Z 26012KT 6000 NSC 32/22 Q1005 NOSIG,M
VABB,2022-04-17 11:00,87.80,73.40,62.47,280.00,13.00,0.00,29.71,M,4.35,M,NSC,M,M,M,M,M,M,M,M,M,M,M,M,M,M,95.86,VABB 171100Z 28013KT 7000 NSC 31/23 Q1006 NOSIG,M
VABB,2022-04-17 11:30,87.80,71.60,58.78,280.00,7.00,0.00,29.68,M,4.97,17.00,NSC,M,M,M,M,M,M,M,M,M,M,M,M,M,M,94.18,VABB 171130Z 28007G17KT 8000 NSC 31/22 Q1005 NOSIG,M
VABB,2022-04-17 12:00,87.80,73.40,62.47,270.00,7.00,0.00,29.71,M,4.35,17.00,NSC,M,M,M,M,M,M,M,M,M,M,M,M,M,M,95.86,VABB 171200Z 27007G17KT 7000 NSC 31/23 Q1006 NOSIG,M
VABB,2022-04-17 12:30,86.00,71.60,62.25,270.00,13.00,0.00,29.71,M,3.73,M,NSC,M,M,M,M,M,M,M,M,M,M,M,M,M,M,91.92,VABB 171230Z 27013KT 6000 NSC 30/22 Q1006 BECMG 5000 HZ,M
VABB,2022-04-17 13:00,86.00,73.40,66.15,280.00,12.00,0.00,29.71,M,3.11,M,NSC,M,M,M,M,M,M,M,HZ,M,M,M,M,M,M,93.45,VABB 171300Z 28012KT 5000 HZ NSC 30/23 Q1006 NOSIG,M
VABB,2022-04-17 13:30,86.00,73.40,66.15,290.00,8.00,0.00,29.74,M,3.11,M,NSC,M,M,M,M,M,M,M,HZ,M,M,M,M,M,M,93.45,VABB 171330Z 29008KT 5000 HZ NSC 30/23 Q1007 NOSIG,M
VABB,2022-04-17 14:00,84.20,73.40,70.08,300.00,9.00,0.00,29.74,M,3.11,M,NSC,M,M,M,M,M,M,M,HZ,M,M,M,M,M,M,90.94,VABB 171400Z 30009KT 5000 HZ NSC 29/23 Q1007 NOSIG,M
VABB,2022-04-17 14:30,84.20,73.40,70.08,300.00,8.00,0.00,29.74,M,2.49,M,NSC,M,M,M,M,M,M,M,HZ,M,M,M,M,M,M,90.94,VABB 171430Z 30008KT 4000 HZ NSC 29/23 Q1007 NOSIG,M
VABB,2022-04-17 15:00,84.20,73.40,70.08,300.00,6.00,0.00,29.74,M,2.49,M,NSC,M,M,M,M,M,M,M,HZ,M,M,M,M,M,M,90.94,VABB 171500Z 30006KT 4000 HZ NSC 29/23 Q1007 NOSIG,M
VABB,2022-04-17 15:30,84.20,73.40,70.08,290.00,7.00,0.00,29.77,M,2.49,M,NSC,M,M,M,M,M,M,M,HZ,M,M,M,M,M,M,90.94,VABB 171530Z 29007KT 4000 HZ NSC 29/23 Q1008 NOSIG,M
VABB,2022-04-17 16:00,84.20,75.20,74.44,280.00,6.00,0.00,29.77,M,2.49,M,NSC,M,M,M,M,M,M,M,HZ,M,M,M,M,M,M,92.45,VABB 171600Z 28006KT 4000 HZ NSC 29/24 Q1008 NOSIG,M
VABB,2022-04-17 16:30,84.20,75.20,74.44,290.00,4.00,0.00,29.80,M,2.49,M,NSC,M,M,M,M,M,M,M,HZ,M,M,M,M,M,M,92.45,VABB 171630Z 29004KT 4000 HZ NSC 29/24 Q1009 NOSIG,M
VABB,2022-04-17 17:00,84.20,75.20,74.44,310.00,4.00,0.00,29.80,M,2.17,M,NSC,M,M,M,M,M,M,M,HZ,M,M,M,M,M,M,92.45,VABB 171700Z 31004KT 3500 HZ NSC 29/24 Q1009 NOSIG,M
VABB,2022-04-17 17:30,84.20,75.20,74.44,350.00,3.00,0.00,29.80,M,2.17,M,NSC,M,M,M,M,M,M,M,HZ,M,M,M,M,M,M,92.45,VABB 171730Z 35003KT 3500 HZ NSC 29/24 Q1009 NOSIG,M
VABB,2022-04-17 18:00,84.20,75.20,74.44,0.00,0.00,0.00,29.80,M,2.17,M,NSC,M,M,M,M,M,M,M,HZ,M,M,M,M,M,M,92.45,VABB 171800Z 00000KT 3500 HZ NSC 29/24 Q1009 NOSIG,M
VABB,2022-04-17 18:30,84.20,75.20,74.44,230.00,3.00,0.00,29.80,M,2.17,M,NSC,M,M,M,M,M,M,M,HZ,M,M,M,M,M,M,92.45,VABB 171830Z 23003KT 3500 HZ NSC 29/24 Q1009 NOSIG,M
VABB,2022-04-17 19:00,84.20,75.20,74.44,220.00,6.00,0.00,29.80,M,2.17,M,NSC,M,M,M,M,M,M,M,HZ,M,M,M,M,M,M,92.45,VABB 171900Z 22006KT 3500 HZ NSC 29/24 Q1009 NOSIG,M
VABB,2022-04-17 19:30,82.40,75.20,78.90,240.00,4.00,0.00,29.80,M,2.17,M,FEW,M,M,M,2000.00,M,M,M,HZ,M,M,M,M,M,M,89.48,VABB 171930Z 24004KT 3500 HZ FEW020 28/24 Q1009 NOSIG,M
VABB,2022-04-17 20:00,82.40,75.20,78.90,0.00,0.00,0.00,29.77,M,2.17,M,SCT,M,M,M,2000.00,M,M,M,HZ,M,M,M,M,M,M,89.48,VABB 172000Z 00000KT 3500 HZ SCT020 28/24 Q1008 NOSIG,M
VABB,2022-04-17 20:30,82.40,75.20,78.90,0.00,0.00,0.00,29.77,M,2.17,M,SCT,M,M,M,2000.00,M,M,M,HZ,M,M,M,M,M,M,89.48,VABB 172030Z 00000KT 3500 HZ SCT020 28/24 Q1008 NOSIG,M
VABB,2022-04-17 21:00,82.40,75.20,78.90,0.00,0.00,0.00,29.77,M,2.17,M,SCT,M,M,M,2000.00,M,M,M,HZ,M,M,M,M,M,M,89.48,VABB 172100Z 00000KT 3500 HZ SCT020 28/24 Q1008 NOSIG,M
VABB,2022-04-17 21:30,82.40,75.20,78.90,0.00,0.00,0.00,29.77,M,2.17,M,FEW,M,M,M,2000.00,M,M,M,HZ,M,M,M,M,M,M,89.48,VABB 172130Z 00000KT 3500 HZ FEW020 28/24 Q1008 NOSIG,M
VABB,2022-04-17 22:00,82.40,75.20,78.90,0.00,0.00,0.00,29.77,M,2.17,M,FEW,M,M,M,2000.00,M,M,M,HZ,M,M,M,M,M,M,89.48,VABB 172200Z 00000KT 3500 HZ FEW020 28/24 Q1008 NOSIG,M
VABB,2022-04-17 22:30,80.60,75.20,83.66,0.00,0.00,0.00,29.77,M,2.17,M,FEW,M,M,M,2000.00,M,M,M,HZ,M,M,M,M,M,M,86.17,VABB 172230Z 00000KT 3500 HZ FEW020 27/24 Q1008 NOSIG,M
VABB,2022-04-17 23:00,82.40,75.20,78.90,0.00,0.00,0.00,29.80,M,2.17,M,SCT,M,M,M,2000.00,M,M,M,HZ,M,M,M,M,M,M,89.48,VABB 172300Z 00000KT 3500 HZ SCT020 28/24 Q1009 NOSIG,M
VABB,2022-04-17 23:30,82.40,73.40,74.28,0.00,0.00,0.00,29.80,M,2.17,M,SCT,M,M,M,2000.00,M,M,M,HZ,M,M,M,M,M,M,88.26,VABB 172330Z 00000KT 3500 HZ SCT020 28/23 Q1009 NOSIG,M
VABB,2022-04-18 00:00,82.40,75.20,78.90,0.00,0.00,0.00,29.80,M,2.17,M,FEW,M,M,M,2000.00,M,M,M,HZ,M,M,M,M,M,M,89.48,VABB 180000Z 00000KT 3500 HZ FEW020 28/24 Q1009 NOSIG,M
VABB,2022-04-18 00:30,82.40,75.20,78.90,0.00,0.00,0.00,29.80,M,2.17,M,FEW,M,M,M,2000.00,M,M,M,HZ,M,M,M,M,M,M,89.48,VABB 180030Z 00000KT 3500 HZ FEW020 28/24 Q1009 NOSIG,M
VABB,2022-04-18 01:00,82.40,75.20,78.90,180.00,3.00,0.00,29.83,M,2.17,M,FEW,M,M,M,2000.00,M,M,M,HZ,M,M,M,M,M,M,89.48,VABB 180100Z 18003KT 3500 HZ FEW020 28/24 Q1010 NOSIG,M
VABB,2022-04-18 01:30,82.40,75.20,78.90,130.00,3.00,0.00,29.83,M,2.17,M,FEW,M,M,M,2000.00,M,M,M,HZ,M,M,M,M,M,M,89.48,VABB 180130Z 13003KT 3500 HZ FEW020 28/24 Q1010 NOSIG,M
VABB,2022-04-18 02:00,82.40,75.20,78.90,140.00,3.00,0.00,29.83,M,2.17,M,SCT,M,M,M,2000.00,M,M,M,HZ,M,M,M,M,M,M,89.48,VABB 180200Z 14003KT 3500 HZ SCT020 28/24 Q1010 NOSIG,M
VABB,2022-04-18 02:30,84.20,75.20,74.44,230.00,4.00,0.00,29.85,M,2.17,M,SCT,M,M,M,2000.00,M,M,M,HZ,M,M,M,M,M,M,92.45,VABB 180230Z 23004KT 3500 HZ SCT020 29/24 Q1011 NOSIG,M
VABB,2022-04-18 03:00,84.20,73.40,70.08,220.00,5.00,0.00,29.85,M,2.17,M,SCT,M,M,M,2000.00,M,M,M,HZ,M,M,M,M,M,M,90.94,VABB 180300Z 22005KT 3500 HZ SCT020 29/23 Q1011 NOSIG,M
VABB,2022-04-18 03:30,84.20,73.40,70.08,240.00,3.00,0.00,29.85,M,2.17,M,SCT,M,M,M,2000.00,M,M,M,HZ,M,M,M,M,M,M,90.94,VABB 180330Z 24003KT 3500 HZ SCT020 29/23 Q1011 NOSIG,M
VABB,2022-04-18 04:00,87.80,73.40,62.47,20.00,4.00,0.00,29.85,M,2.17,M,SCT,M,M,M,2000.00,M,M,M,HZ,M,M,M,M,M,M,95.86,VABB 180400Z 02004KT 3500 HZ SCT020 31/23 Q1011 NOSIG,M
VABB,2022-04-18 04:30,87.80,73.40,62.47,0.00,0.00,0.00,29.85,M,2.17,M,SCT,M,M,M,2000.00,M,M,M,HZ,M,M,M,M,M,M,95.86,VABB 180430Z 00000KT 3500 HZ SCT020 31/23 Q1011 NOSIG,M
VABB,2022-04-18 05:00,87.80,73.40,62.47,270.00,8.00,0.00,29.85,M,2.17,M,SCT,M,M,M,2000.00,M,M,M,HZ,M,M,M,M,M,M,95.86,VABB 180500Z 27008KT 3500 HZ SCT020 31/23 Q1011 BECMG 4000 HZ,M
VABB,2022-04-18 05:30,87.80,73.40,62.47,290.00,7.00,0.00,29.85,M,2.49,M,FEW,M,M,M,2000.00,M,M,M,HZ,M,M,M,M,M,M,95.86,VABB 180530Z 29007KT 4000 HZ FEW020 31/23 Q1011 NOSIG,M
VABB,2022-04-18 06:00,89.60,73.40,59.01,260.00,9.00,0.00,29.85,M,2.49,M,FEW,M,M,M,2000.00,M,M,M,HZ,M,M,M,M,M,M,98.20,VABB 180600Z 26009KT 4000 HZ FEW020 32/23 Q1011 NOSIG,M
VABB,2022-04-18 06:30,89.60,73.40,59.01,260.00,9.00,0.00,29.85,M,2.49,M,FEW,M,M,M,2000.00,M,M,M,HZ,M,M,M,M,M,M,98.20,VABB 180630Z 26009KT 4000 HZ FEW020 32/23 Q1011 BECMG 5000 HZ,M
VABB,2022-04-18 07:00,87.80,73.40,62.47,240.00,9.00,0.00,29.85,M,3.11,M,FEW,M,M,M,2000.00,M,M,M,HZ,M,M,M,M,M,M,95.86,VABB 180700Z 24009KT 5000 HZ FEW020 31/23 Q1011 NOSIG,M
VABB,2022-04-18 07:30,89.60,73.40,59.01,250.00,10.00,0.00,29.83,M,3.11,M,FEW,M,M,M,2000.00,M,M,M,HZ,M,M,M,M,M,M,98.20,VABB 180730Z 25010KT 5000 HZ FEW020 32/23 Q1010 NOSIG,M
VABB,2022-04-18 08:00,89.60,73.40,59.01,270.00,9.00,0.00,29.80,M,3.11,M,FEW,M,M,M,2000.00,M,M,M,HZ,M,M,M,M,M,M,98.20,VABB 180800Z 27009KT 5000 HZ FEW020 32/23 Q1009 NOSIG,M
VABB,2022-04-18 08:30,89.60,71.60,55.53,270.00,10.00,0.00,29.80,M,3.11,M,FEW,M,M,M,2000.00,M,M,M,FU,M,M,M,M,M,M,96.41,VABB 180830Z 27010KT 5000 FU FEW020 32/22 Q1009 NOSIG,M
VABB,2022-04-18 09:00,89.60,71.60,55.53,270.00,11.00,0.00,29.80,M,3.11,M,FEW,M,M,M,2000.00,M,M,M,FU,M,M,M,M,M,M,96.41,VABB 180900Z 27011KT 5000 FU FEW020 32/22 Q1009 NOSIG,M
VABB,2022-04-18 09:30,89.60,71.60,55.53,260.00,13.00,0.00,29.77,M,3.11,M,NSC,M,M,M,M,M,M,M,FU,M,M,M,M,M,M,96.41,VABB 180930Z 26013KT 5000 FU NSC 32/22 Q1008 NOSIG,M
VABB,2022-04-18 10:00,89.60,68.00,49.10,300.00,9.00,0.00,29.77,M,3.11,M,NSC,M,M,M,M,M,M,M,FU,M,M,M,M,M,M,93.47,VABB 181000Z 30009KT 5000 FU NSC 32/20 Q1008 NOSIG,M
VABB,2022-04-18 10:30,89.60,69.80,52.23,290.00,11.00,0.00,29.77,M,3.11,M,NSC,M,M,M,M,M,M,M,FU,M,M,M,M,M,M,94.85,VABB 181030Z 29011KT 5000 FU NSC 32/21 Q1008 NOSIG,M
VABB,2022-04-18 11:00,87.80,73.40,62.47,260.00,12.00,0.00,29.74,M,3.11,M,NSC,M,M,M,M,M,M,M,FU,M,M,M,M,M,M,95.86,VABB 181100Z 26012KT 5000 FU NSC 31/23 Q1007 NOSIG,M
VABB,2022-04-18 11:30,87.80,71.60,58.78,280.00,12.00,0.00,29.74,M,3.11,M,NSC,M,M,M,M,M,M,M,FU,M,M,M,M,M,M,94.18,VABB 181130Z 28012KT 5000 FU NSC 31/22 Q1007 NOSIG,M
VABB,2022-04-18 12:00,87.80,73.40,62.47,280.00,10.00,0.00,29.77,M,3.11,M,NSC,M,M,M,M,M,M,M,FU,M,M,M,M,M,M,95.86,VABB 181200Z 28010KT 5000 FU NSC 31/23 Q1008 NOSIG,M
VABB,2022-04-18 12:30,87.80,73.40,62.47,290.00,11.00,0.00,29.77,M,3.11,M,NSC,M,M,M,M,M,M,M,HZ,M,M,M,M,M,M,95.86,VABB 181230Z 29011KT 5000 HZ NSC 31/23 Q1008 NOSIG,M
VABB,2022-04-18 13:00,86.00,73.40,66.15,290.00,10.00,0.00,29.77,M,3.11,M,NSC,M,M,M,M,M,M,M,HZ,M,M,M,M,M,M,93.45,VABB 181300Z 29010KT 5000 HZ NSC 30/23 Q1008 BECMG 4000 HZ,M
VABB,2022-04-18 13:30,86.00,75.20,70.27,280.00,7.00,0.00,29.77,M,2.49,M,NSC,M,M,M,M,M,M,M,HZ,M,M,M,M,M,M,95.19,VABB 181330Z 28007KT 4000 HZ NSC 30/24 Q1008 NOSIG,M
VABB,2022-04-18 14:00,86.00,73.40,66.15,310.00,7.00,0.00,29.80,M,2.49,M,NSC,M,M,M,M,M,M,M,HZ,M,M,M,M,M,M,93.45,VABB 181400Z 31007KT 4000 HZ NSC 30/23 Q1009 NOSIG,M
VABB,2022-04-18 14:30,86.00,75.20,70.27,300.00,7.00,0.00,29.80,M,2.49,M,FEW,M,M,M,2000.00,M,M,M,HZ,M,M,M,M,M,M,95.19,VABB 181430Z 30007KT 4000 HZ FEW020 30/24 Q1009 NOSIG,M
VABB,2022-04-18 15:00,84.20,75.20,74.44,320.00,6.00,0.00,29.80,M,2.49,M,FEW,M,M,M,2000.00,M,M,M,HZ,M,M,M,M,M,M,92.45,VABB 181500Z 32006KT 4000 HZ FEW020 29/24 Q1009 NOSIG,M
VABB,2022-04-18 15:30,84.20,75.20,74.44,310.00,6.00,0.00,29.80,M,2.49,M,NSC,M,M,M,M,M,M,M,HZ,M,M,M,M,M,M,92.45,VABB 181530Z 31006KT 4000 HZ NSC 29/24 Q1009 NOSIG,M
VABB,2022-04-18 16:00,84.20,75.20,74.44,320.00,5.00,0.00,29.83,M,2.49,M,NSC,M,M,M,M,M,M,M,HZ,M,M,M,M,M,M,92.45,VABB 181600Z 32005KT 4000 HZ NSC 29/24 Q1010 NOSIG,M
VABB,2022-04-18 16:30,84.20,75.20,74.44,300.00,4.00,0.00,29.83,M,2.49,M,NSC,M,M,M,M,M,M,M,HZ,M,M,M,M,M,M,92.45,VABB 181630Z 30004KT 4000 HZ NSC 29/24 Q1010 NOSIG,M
VABB,2022-04-18 17:00,84.20,75.20,74.44,320.00,3.00,0.00,29.85,M,2.17,M,NSC,M,M,M,M,M,M,M,HZ,M,M,M,M,M,M,92.45,VABB 181700Z 32003KT 3500 HZ NSC 29/24 Q1011 NOSIG,M
VABB,2022-04-18 17:30,84.20,75.20,74.44,340.00,4.00,0.00,29.83,M,2.17,M,FEW,M,M,M,2000.00,M,M,M,HZ,M,M,M,M,M,M,92.45,VABB 181730Z 34004KT 3500 HZ FEW020 29/24 Q1010 NOSIG,M
VABB,2022-04-18 18:00,84.20,75.20,74.44,360.00,5.00,0.00,29.83,M,2.17,M,FEW,M,M,M,2000.00,M,M,M,HZ,M,M,M,M,M,M,92.45,VABB 181800Z 36005KT 3500 HZ FEW020 29/24 Q1010 NOSIG,M
VABB,2022-04-18 18:30,84.20,75.20,74.44,40.00,5.00,0.00,29.83,M,2.17,M,FEW,M,M,M,2000.00,M,M,M,HZ,M,M,M,M,M,M,92.45,VABB 181830Z 04005KT 3500 HZ FEW020 29/24 Q1010 NOSIG,M
VABB,2022-04-18 19:00,84.20,75.20,74.44,30.00,4.00,0.00,29.83,M,2.17,M,FEW,M,M,M,2000.00,M,M,M,HZ,M,M,M,M,M,M,92.45,VABB 181900Z 03004KT 3500 HZ FEW020 29/24 Q1010 NOSIG,M
VABB,2022-04-18 19:30,82.40,77.00,83.77,0.00,0.00,0.00,29.83,M,2.17,M,SCT,M,M,M,2000.00,M,M,M,HZ,M,M,M,M,M,M,90.85,VABB 181930Z 00000KT 3500 HZ SCT020 28/25 Q1010 NOSIG,M
VABB,2022-04-18 20:00,82.40,75.20,78.90,350.00,3.00,0.00,29.83,M,2.17,M,SCT,M,M,M,2000.00,M,M,M,HZ,M,M,M,M,M,M,89.48,VABB 182000Z 35003KT 3500 HZ SCT020 28/24 Q1010 NOSIG,M
VABB,2022-04-18 20:30,82.40,77.00,83.77,340.00,5.00,0.00,29.83,M,2.17,M,SCT,M,M,M,2000.00,M,M,M,HZ,M,M,M,M,M,M,90.85,VABB 182030Z 34005KT 3500 HZ SCT020 28/25 Q1010 NOSIG,M
VABB,2022-04-18 21:00,82.40,77.00,83.77,20.00,5.00,0.00,29.80,M,2.17,M,FEW,M,M,M,2000.00,M,M,M,HZ,M,M,M,M,M,M,90.85,VABB 182100Z 02005KT 3500 HZ FEW020 28/25 Q1009 NOSIG,M
VABB,2022-04-18 21:30,82.40,77.00,83.77,340.00,5.00,0.00,29.80,M,2.17,M,FEW,M,M,M,2000.00,M,M,M,HZ,M,M,M,M,M,M,90.85,VABB 182130Z 34005KT 3500 HZ FEW020 28/25 Q1009 NOSIG,M
VABB,2022-04-18 22:00,82.40,77.00,83.77,M,3.00,0.00,29.80,M,2.17,M,FEW,M,M,M,2000.00,M,M,M,HZ,M,M,M,M,M,M,90.85,VABB 182200Z VRB03KT 3500 HZ FEW020 28/25 Q1009 NOSIG,M
VABB,2022-04-18 22:30,82.40,77.00,83.77,350.00,5.00,0.00,29.80,M,2.17,M,FEW,M,M,M,2000.00,M,M,M,HZ,M,M,M,M,M,M,90.85,VABB 182230Z 35005KT 3500 HZ FEW020 28/25 Q1009 NOSIG,M
VABB,2022-04-18 23:00,82.40,77.00,83.77,30.00,3.00,0.00,29.80,M,2.17,M,FEW,M,M,M,2000.00,M,M,M,HZ,M,M,M,M,M,M,90.85,VABB 182300Z 03003KT 3500 HZ FEW020 28/25 Q1009 NOSIG,M
VABB,2022-04-18 23:30,82.40,77.00,83.77,0.00,0.00,0.00,29.83,M,2.17,M,FEW,M,M,M,2000.00,M,M,M,HZ,M,M,M,M,M,M,90.85,VABB 182330Z 00000KT 3500 HZ FEW020 28/25 Q1010 NOSIG,M
VABB,2022-04-19 00:00,80.60,77.00,88.83,70.00,5.00,0.00,29.83,M,2.17,M,FEW,M,M,M,2000.00,M,M,M,HZ,M,M,M,M,M,M,87.59,VABB 190000Z 07005KT 3500 HZ FEW020 27/25 Q1010 NOSIG,M
VABB,2022-04-19 00:30,80.60,77.00,88.83,30.00,4.00,0.00,29.83,M,2.17,M,FEW,M,M,M,2000.00,M,M,M,HZ,M,M,M,M,M,M,87.59,VABB 190030Z 03004KT 3500 HZ FEW020 27/25 Q1010 NOSIG,M
VABB,2022-04-19 01:00,82.40,77.00,83.77,50.00,6.00,0.00,29.85,M,1.86,M,SCT,M,M,M,10000.00,M,M,M,HZ,M,M,M,M,M,M,90.85,VABB 190100Z 05006KT 3000 HZ SCT100 28/25 Q1011 NOSIG,M
VABB,2022-04-19 01:30,82.40,77.00,83.77,80.00,3.00,0.00,29.85,M,1.86,M,SCT,M,M,M,10000.00,M,M,M,HZ,M,M,M,M,M,M,90.85,VABB 190130Z 08003KT 3000 HZ SCT100 28/25 Q1011 NOSIG,M
VABB,2022-04-19 02:00,82.40,77.00,83.77,0.00,0.00,0.00,29.88,M,1.86,M,FEW,M,M,M,10000.00,M,M,M,HZ,M,M,M,M,M,M,90.85,VABB 190200Z 00000KT 3000 HZ FEW100 28/25 Q1012 NOSIG,M
VABB,2022-04-19 02:30,82.40,77.00,83.77,0.00,0.00,0.00,29.88,M,1.86,M,FEW,M,M,M,10000.00,M,M,M,HZ,M,M,M,M,M,M,90.85,VABB 190230Z 00000KT 3000 HZ FEW100 28/25 Q1012 NOSIG,M
VABB,2022-04-19 03:00,84.20,77.00,79.04,180.00,4.00,0.00,29.91,M,1.86,M,FEW,SCT,M,M,2000.00,10000.00,M,M,HZ,M,M,M,M,M,M,94.16,VABB 190300Z 18004KT 3000 HZ FEW020 SCT100 29/25 Q1013 NOSIG,M
VABB,2022-04-19 03:30,84.20,75.20,74.44,230.00,5.00,0.00,29.91,M,1.86,M,FEW,SCT,M,M,2000.00,10000.00,M,M,HZ,M,M,M,M,M,M,92.45,VABB 190330Z 23005KT 3000 HZ FEW020 SCT100 29/24 Q1013 NOSIG,M
VABB,2022-04-19 04:00,86.00,75.20,70.27,200.00,6.00,0.00,29.91,M,2.17,M,FEW,SCT,M,M,2000.00,10000.00,M,M,HZ,M,M,M,M,M,M,95.19,VABB 190400Z 20006KT 3500 HZ FEW020 SCT100 30/24 Q1013 NOSIG,M
VABB,2022-04-19 04:30,87.80,71.60,58.78,190.00,5.00,0.00,29.91,M,2.17,M,SCT,M,M,M,2000.00,M,M,M,HZ,M,M,M,M,M,M,94.18,VABB 190430Z 19005KT 3500 HZ SCT020 31/22 Q1013 NOSIG,M
VABB,2022-04-19 05:00,89.60,71.60,55.53,230.00,5.00,0.00,29.91,M,2.17,M,SCT,M,M,M,2000.00,M,M,M,HZ,M,M,M,M,M,M,96.41,VABB 190500Z 23005KT 3500 HZ SCT020 32/22 Q1013 NOSIG,M
VABB,2022-04-19 05:30,89.60,73.40,59.01,280.00,10.00,0.00,29.91,M,2.49,M,SCT,M,M,M,2000.00,M,M,M,HZ,M,M,M,M,M,M,98.20,VABB 190530Z 28010KT 4000 HZ SCT020 32/23 Q1013 NOSIG,M
VABB,2022-04-19 06:00,89.60,75.20,62.68,270.00,9.00,0.00,29.91,M,2.49,M,SCT,M,M,M,2000.00,M,M,M,HZ,M,M,M,M,M,M,100.23,VABB 190600Z 27009KT 4000 HZ SCT020 32/24 Q1013 NOSIG,M
VABB,2022-04-19 06:30,89.60,73.40,59.01,260.00,8.00,0.00,29.91,M,2.49,M,FEW,M,M,M,2000.00,M,M,M,FU,M,M,M,M,M,M,98.20,VABB 190630Z 26008KT 4000 FU FEW020 32/23 Q1013 BECMG 5000 FU,M
VABB,2022-04-19 07:00,89.60,73.40,59.01,280.00,11.00,0.00,29.88,M,3.11,M,FEW,M,M,M,2000.00,M,M,M,FU,M,M,M,M,M,M,98.20,VABB 190700Z 28011KT 5000 FU FEW020 32/23 Q1012 NOSIG,M
VABB,2022-04-19 07:30,87.80,73.40,62.47,250.00,12.00,0.00,29.88,M,3.11,M,FEW,M,M,M,2000.00,M,M,M,FU,M,M,M,M,M,M,95.86,VABB 190730Z 25012KT 5000 FU FEW020 31/23 Q1012 NOSIG,M
VABB,2022-04-19 08:00,89.60,73.40,59.01,260.00,11.00,0.00,29.88,M,3.11,M,FEW,M,M,M,2000.00,M,M,M,FU,M,M,M,M,M,M,98.20,VABB 190800Z 26011KT 5000 FU FEW020 32/23 Q1012 NOSIG,M
VABB,2022-04-19 08:30,89.60,71.60,55.53,260.00,11.00,0.00,29.85,M,3.11,M,FEW,M,M,M,2000.00,M,M,M,FU,M,M,M,M,M,M,96.41,VABB 190830Z 26011KT 5000 FU FEW020 32/22 Q1011 NOSIG,M
VABB,2022-04-19 09:00,87.80,69.80,55.29,260.00,12.00,0.00,29.83,M,3.73,M,FEW,M,M,M,2000.00,M,M,M,M,M,M,M,M,M,M,92.71,VABB 190900Z 26012KT 6000 FEW020 31/21 Q1010 NOSIG,M
VABB,2022-04-19 09:30,87.80,71.60,58.78,260.00,10.00,0.00,29.83,M,3.73,M,FEW,M,M,M,2000.00,M,M,M,M,M,M,M,M,M,M,94.18,VABB 190930Z 26010KT 6000 FEW020 31/22 Q1010 NOSIG,M
VABB,2022-04-19 10:00,87.80,75.20,66.35,250.00,10.00,0.00,29.83,M,3.73,M,FEW,SCT,M,M,2000.00,10000.00,M,M,M,M,M,M,M,M,M,97.76,VABB 191000Z 25010KT 6000 FEW020 SCT100 31/24 Q1010 NOSIG,M
VABB,2022-04-19 10:30,89.60,75.20,62.68,290.00,10.00,0.00,29.83,M,3.11,M,FEW,SCT,M,M,2000.00,10000.00,M,M,HZ,M,M,M,M,M,M,100.23,VABB 191030Z 29010KT 5000 HZ FEW020 SCT100 32/24 Q1010 NOSIG,M
VABB,2022-04-19 11:00,87.80,75.20,66.35,280.00,13.00,0.00,29.80,M,3.11,M,FEW,SCT,M,M,2000.00,10000.00,M,M,HZ,M,M,M,M,M,M,97.76,VABB 191100Z 28013KT 5000 HZ FEW020 SCT100 31/24 Q1009 NOSIG,M
VABB,2022-04-19 11:30,87.80,75.20,66.35,280.00,8.00,0.00,29.80,M,3.11,18.00,SCT,M,M,M,10000.00,M,M,M,HZ,M,M,M,M,M,M,97.76,VABB 191130Z 28008G18KT 5000 HZ SCT100 31/24 Q1009 NOSIG,M
VABB,2022-04-19 12:00,86.00,75.20,70.27,270.00,13.00,0.00,29.80,M,3.11,M,SCT,M,M,M,10000.00,M,M,M,HZ,M,M,M,M,M,M,95.19,VABB 191200Z 27013KT 5000 HZ SCT100 30/24 Q1009 NOSIG,M
VABB,2022-04-19 12:30,86.00,75.20,70.27,310.00,10.00,0.00,29.80,M,3.11,M,SCT,M,M,M,10000.00,M,M,M,HZ,M,M,M,M,M,M,95.19,VABB 191230Z 31010KT 5000 HZ SCT100 30/24 Q1009 NOSIG,M
VABB,2022-04-19 13:00,86.00,75.20,70.27,320.00,9.00,0.00,29.80,M,2.49,M,SCT,M,M,M,10000.00,M,M,M,HZ,M,M,M,M,M,M,95.19,VABB 191300Z 32009KT 4000 HZ SCT100 30/24 Q1009 NOSIG,M
VABB,2022-04-19 13:30,86.00,75.20,70.27,310.00,7.00,0.00,29.80,M,2.49,M,SCT,M,M,M,10000.00,M,M,M,HZ,M,M,M,M,M,M,95.19,VABB 191330Z 31007KT 4000 HZ SCT100 30/24 Q1009 NOSIG,M
VABB,2022-04-19 14:00,84.20,75.20,74.44,300.00,8.00,0.00,29.83,M,2.49,M,SCT,M,M,M,10000.00,M,M,M,HZ,M,M,M,M,M,M,92.45,VABB 191400Z 30008KT 4000 HZ SCT100 29/24 Q1010 NOSIG,M
VABB,2022-04-19 14:30,84.20,75.20,74.44,310.00,6.00,0.00,29.83,M,2.17,M,SCT,M,M,M,10000.00,M,M,M,HZ,M,M,M,M,M,M,92.45,VABB 191430Z 31006KT 3500 HZ SCT100 29/24 Q1010 NOSIG,M
VABB,2022-04-19 15:00,86.00,75.20,70.27,320.00,3.00,0.00,29.83,M,2.17,M,FEW,M,M,M,10000.00,M,M,M,HZ,M,M,M,M,M,M,95.19,VABB 191500Z 32003KT 3500 HZ FEW100 30/24 Q1010 NOSIG,M
VABB,2022-04-19 15:30,86.00,75.20,70.27,350.00,4.00,0.00,29.85,M,2.17,M,FEW,M,M,M,10000.00,M,M,M,HZ,M,M,M,M,M,M,95.19,VABB 191530Z 35004KT 3500 HZ FEW100 30/24 Q1011 NOSIG,M
VABB,2022-04-19 16:00,84.20,75.20,74.44,320.00,5.00,0.00,29.85,M,2.17,M,FEW,M,M,M,10000.00,M,M,M,HZ,M,M,M,M,M,M,92.45,VABB 191600Z 32005KT 3500 HZ FEW100 29/24 Q1011 NOSIG,M
VABB,2022-04-19 16:30,84.20,75.20,74.44,340.00,7.00,0.00,29.85,M,2.17,M,FEW,M,M,M,10000.00,M,M,M,HZ,M,M,M,M,M,M,92.45,VABB 191630Z 34007KT 3500 HZ FEW100 29/24 Q1011 NOSIG,M
VABB,2022-04-19 17:00,84.20,75.20,74.44,340.00,6.00,0.00,29.85,M,2.17,M,FEW,M,M,M,10000.00,M,M,M,HZ,M,M,M,M,M,M,92.45,VABB 191700Z 34006KT 3500 HZ FEW100 29/24 Q1011 NOSIG,M
VABB,2022-04-19 17:30,84.20,75.20,74.44,350.00,5.00,0.00,29.85,M,2.17,M,FEW,M,M,M,10000.00,M,M,M,HZ,M,M,M,M,M,M,92.45,VABB 191730Z 35005KT 3500 HZ FEW100 29/24 Q1011 NOSIG,M
VABB,2022-04-19 18:00,84.20,75.20,74.44,0.00,0.00,0.00,29.85,M,2.17,M,FEW,M,M,M,10000.00,M,M,M,HZ,M,M,M,M,M,M,92.45,VABB 191800Z 00000KT 3500 HZ FEW100 29/24 Q1011 NOSIG,M
VABB,2022-04-19 18:30,84.20,77.00,79.04,350.00,4.00,0.00,29.83,M,2.17,M,FEW,M,M,M,10000.00,M,M,M,HZ,M,M,M,M,M,M,94.16,VABB 191830Z 35004KT 3500 HZ FEW100 29/25 Q1010 NOSIG,M
VABB,2022-04-19 19:00,84.20,77.00,79.04,330.00,5.00,0.00,29.83,M,2.17,M,FEW,SCT,M,M,2000.00,10000.00,M,M,HZ,M,M,M,M,M,M,94.16,VABB 191900Z 33005KT 3500 HZ FEW020 SCT100 29/25 Q1010 NOSIG,M
VABB,2022-04-19 19:30,84.20,77.00,79.04,350.00,7.00,0.00,29.83,M,2.17,M,FEW,SCT,M,M,2000.00,10000.00,M,M,HZ,M,M,M,M,M,M,94.16,VABB 191930Z 35007KT 3500 HZ FEW020 SCT100 29/25 Q1010 NOSIG,M
VABB,2022-04-19 20:00,82.40,77.00,83.77,340.00,4.00,0.00,29.83,M,2.17,M,FEW,SCT,M,M,2000.00,10000.00,M,M,HZ,M,M,M,M,M,M,90.85,VABB 192000Z 34004KT 3500 HZ FEW020 SCT100 28/25 Q1010 NOSIG,M
VABB,2022-04-19 20:30,82.40,77.00,83.77,20.00,3.00,0.00,29.80,M,2.17,M,FEW,SCT,M,M,2000.00,10000.00,M,M,HZ,M,M,M,M,M,M,90.85,VABB 192030Z 02003KT 3500 HZ FEW020 SCT100 28/25 Q1009 NOSIG,M
VABB,2022-04-19 21:00,84.20,78.80,83.88,210.00,5.00,0.00,29.80,M,2.17,M,FEW,SCT,M,M,2000.00,10000.00,M,M,HZ,M,M,M,M,M,M,96.10,VABB 192100Z 21005KT 3500 HZ FEW020 SCT100 29/26 Q1009 BECMG 3000 HZ,M
VABB,2022-04-19 21:30,82.40,77.00,83.77,0.00,0.00,0.00,29.80,M,1.86,M,FEW,SCT,M,M,2000.00,10000.00,M,M,HZ,M,M,M,M,M,M,90.85,VABB 192130Z 00000KT 3000 HZ FEW020 SCT100 28/25 Q1009 NOSIG,M
VABB,2022-04-19 22:00,82.40,77.00,83.77,0.00,0.00,0.00,29.80,M,1.86,M,FEW,SCT,M,M,2000.00,10000.00,M,M,HZ,M,M,M,M,M,M,90.85,VABB 192200Z 00000KT 3000 HZ FEW020 SCT100 28/25 Q1009 NOSIG,M
VABB,2022-04-19 22:30,82.40,77.00,83.77,190.00,3.00,0.00,29.80,M,1.86,M,FEW,SCT,M,M,2000.00,10000.00,M,M,HZ,M,M,M,M,M,M,90.85,VABB 192230Z 19003KT 3000 HZ FEW020 SCT100 28/25 Q1009 NOSIG,M
VABB,2022-04-19 23:00,82.40,77.00,83.77,170.00,4.00,0.00,29.80,M,1.86,M,FEW,SCT,M,M,2000.00,10000.00,M,M,HZ,M,M,M,M,M,M,90.85,VABB 192300Z 17004KT 3000 HZ FEW020 SCT100 28/25 Q1009 NOSIG,M
VABB,2022-04-19 23:30,82.40,77.00,83.77,0.00,0.00,0.00,29.80,M,1.86,M,FEW,SCT,M,M,2000.00,10000.00,M,M,HZ,M,M,M,M,M,M,90.85,VABB 192330Z 00000KT 3000 HZ FEW020 SCT100 28/25 Q1009 NOSIG,M
VABB,2022-04-20 00:00,82.40,77.00,83.77,0.00,0.00,0.00,29.80,M,1.86,M,FEW,SCT,M,M,2000.00,10000.00,M,M,HZ,M,M,M,M,M,M,90.85,VABB 200000Z 00000KT 3000 HZ FEW020 SCT100 28/25 Q1009 NOSIG,M
VABB,2022-04-20 00:30,82.40,77.00,83.77,0.00,0.00,0.00,29.80,M,1.86,M,FEW,SCT,M,M,2000.00,10000.00,M,M,HZ,M,M,M,M,M,M,90.85,VABB 200030Z 00000KT 3000 HZ FEW020 SCT100 28/25 Q1009 NOSIG,M
VABB,2022-04-20 01:00,82.40,77.00,83.77,90.00,5.00,0.00,29.80,M,1.86,M,FEW,SCT,M,M,2000.00,10000.00,M,M,HZ,M,M,M,M,M,M,90.85,VABB 200100Z 09005KT 3000 HZ FEW020 SCT100 28/25 Q1009 NOSIG,M
VABB,2022-04-20 01:30,82.40,77.00,83.77,80.00,5.00,0.00,29.80,M,1.86,M,FEW,SCT,M,M,2000.00,10000.00,M,M,HZ,M,M,M,M,M,M,90.85,VABB 200130Z 08005KT 3000 HZ FEW020 SCT100 28/25 Q1009 NOSIG,M
VABB,2022-04-20 02:00,82.40,77.00,83.77,120.00,7.00,0.00,29.83,M,1.86,M,FEW,SCT,M,M,2000.00,10000.00,M,M,HZ,M,M,M,M,M,M,90.85,VABB 200200Z 12007KT 3000 HZ FEW020 SCT100 28/25 Q1010 NOSIG,M
VABB,2022-04-20 02:30,82.40,77.00,83.77,110.00,5.00,0.00,29.83,M,1.86,M,FEW,BKN,M,M,2000.00,10000.00,M,M,HZ,M,M,M,M,M,M,90.85,VABB 200230Z 11005KT 3000 HZ FEW020 BKN100 28/25 Q1010 NOSIG,M
VABB,2022-04-20 03:00,84.20,77.00,79.04,260.00,5.00,0.00,29.83,M,1.86,M,FEW,BKN,M,M,2000.00,10000.00,M,M,HZ,M,M,M,M,M,M,94.16,VABB 200300Z 26005KT 3000 HZ FEW020 BKN100 29/25 Q1010 NOSIG,M
VABB,2022-04-20 03:30,86.00,77.00,74.61,M,3.00,0.00,29.83,M,1.86,M,FEW,BKN,M,M,2000.00,10000.00,M,M,HZ,M,M,M,M,M,M,97.15,VABB 200330Z VRB03KT 3000 HZ FEW020 BKN100 30/25 Q1010 NOSIG,M
VABB,2022-04-20 04:00,86.00,75.20,70.27,M,3.00,0.00,29.83,M,2.17,M,FEW,BKN,M,M,2000.00,10000.00,M,M,HZ,M,M,M,M,M,M,95.19,VABB 200400Z VRB03KT 3500 HZ FEW020 BKN100 30/24 Q1010 NOSIG,M
VABB,2022-04-20 04:30,89.60,75.20,62.68,110.00,4.00,0.00,29.83,M,2.17,M,FEW,BKN,M,M,2000.00,10000.00,M,M,FU,M,M,M,M,M,M,100.23,VABB 200430Z 11004KT 3500 FU FEW020 BKN100 32/24 Q1010 NOSIG,M
VABB,2022-04-20 05:30,89.60,77.00,66.55,270.00,9.00,0.00,29.83,M,2.17,M,FEW,BKN,M,M,2000.00,10000.00,M,M,HZ,M,M,M,M,M,M,102.54,VABB 200530Z 27009KT 3500 HZ FEW020 BKN100 32/25 Q1010 NOSIG,M
VABB,2022-04-20 06:00,87.80,78.80,74.77,260.00,12.00,0.00,29.83,M,2.17,M,FEW,BKN,M,M,2000.00,10000.00,M,M,HZ,M,M,M,M,M,M,102.37,VABB 200600Z 26012KT 3500 HZ FEW020 BKN100 31/26 Q1010 NOSIG,M
VABB,2022-04-20 06:30,89.60,78.80,70.63,240.00,11.00,0.00,29.83,M,2.17,M,FEW,BKN,M,M,2000.00,10000.00,M,M,HZ,M,M,M,M,M,M,105.15,VABB 200630Z 24011KT 3500 HZ FEW020 BKN100 32/26 Q1010 NOSIG,M
VABB,2022-04-20 07:00,89.60,78.80,70.63,270.00,11.00,0.00,29.80,M,2.17,M,FEW,BKN,M,M,2000.00,10000.00,M,M,HZ,M,M,M,M,M,M,105.15,VABB 200700Z 27011KT 3500 HZ FEW020 BKN100 32/26 Q1009 NOSIG,M
VABB,2022-04-20 07:30,91.40,78.80,66.75,290.00,9.00,0.00,29.80,M,2.49,M,FEW,BKN,M,M,2000.00,10000.00,M,M,HZ,M,M,M,M,M,M,107.79,VABB 200730Z 29009KT 4000 HZ FEW020 BKN100 33/26 Q1009 NOSIG,M
VABB,2022-04-20 08:00,91.40,78.80,66.75,280.00,11.00,0.00,29.77,M,2.49,M,FEW,SCT,M,M,2000.00,10000.00,M,M,HZ,M,M,M,M,M,M,107.79,VABB 200800Z 28011KT 4000 HZ FEW020 SCT100 33/26 Q1008 NOSIG,M
VABB,2022-04-20 08:30,91.40,78.80,66.75,290.00,11.00,0.00,29.74,M,2.49,M,FEW,SCT,M,M,2000.00,10000.00,M,M,HZ,M,M,M,M,M,M,107.79,VABB 200830Z 29011KT 4000 HZ FEW020 SCT100 33/26 Q1007 NOSIG,M
VABB,2022-04-20 09:00,93.20,80.60,66.95,270.00,11.00,0.00,29.74,M,2.49,M,FEW,SCT,M,M,2000.00,10000.00,M,M,HZ,M,M,M,M,M,M,113.52,VABB 200900Z 27011KT 4000 HZ FEW020 SCT100 34/27 Q1007 NOSIG,M
VABB,2022-04-20 09:30,91.40,80.60,70.81,280.00,10.00,0.00,29.74,M,2.49,M,SCT,M,M,M,10000.00,M,M,M,HZ,M,M,M,M,M,M,110.88,VABB 200930Z 28010KT 4000 HZ SCT100 33/27 Q1007 NOSIG,M
VABB,2022-04-20 10:00,91.40,78.80,66.75,290.00,11.00,0.00,29.71,M,2.49,M,SCT,M,M,M,10000.00,M,M,M,HZ,M,M,M,M,M,M,107.79,VABB 201000Z 29011KT 4000 HZ SCT100 33/26 Q1006 NOSIG,M
VABB,2022-04-20 10:30,91.40,78.80,66.75,280.00,9.00,0.00,29.71,M,2.49,M,SCT,M,M,M,10000.00,M,M,M,HZ,M,M,M,M,M,M,107.79,VABB 201030Z 28009KT 4000 HZ SCT100 33/26 Q1006 BECMG 3000,M
VABB,2022-04-20 11:00,91.40,78.80,66.75,290.00,12.00,0.00,29.71,M,3.11,M,SCT,M,M,M,10000.00,M,M,M,HZ,M,M,M,M,M,M,107.79,VABB 201100Z 29012KT 5000 HZ SCT100 33/26 Q1006 NOSIG,M
VABB,2022-04-20 11:30,91.40,78.80,66.75,290.00,9.00,0.00,29.71,M,3.11,M,SCT,M,M,M,10000.00,M,M,M,HZ,M,M,M,M,M,M,107.79,VABB 201130Z 29009KT 5000 HZ SCT100 33/26 Q1006 NOSIG,M
VABB,2022-04-20 12:00,91.40,77.00,62.90,310.00,10.00,0.00,29.68,M,3.11,M,SCT,M,M,M,10000.00,M,M,M,HZ,M,M,M,M,M,M,105.06,VABB 201200Z 31010KT 5000 HZ SCT100 33/25 Q1005 BECMG 4000 HZ,M
VABB,2022-04-20 12:30,91.40,75.20,59.24,300.00,10.00,0.00,29.68,M,3.11,M,FEW,SCT,M,M,2000.00,10000.00,M,M,HZ,M,M,M,M,M,M,102.65,VABB 201230Z 30010KT 5000 HZ FEW020 SCT100 33/24 Q1005 BECMG 4000 HZ,M
VABB,2022-04-20 13:00,91.40,75.20,59.24,320.00,7.00,0.00,29.71,M,2.49,M,FEW,SCT,M,M,2000.00,10000.00,M,M,HZ,M,M,M,M,M,M,102.65,VABB 201300Z 32007KT 4000 HZ FEW020 SCT100 33/24 Q1006 NOSIG,M
VABB,2022-04-20 13:30,91.40,75.20,59.24,340.00,5.00,0.00,29.71,M,2.49,M,FEW,SCT,M,M,2000.00,10000.00,M,M,HZ,M,M,M,M,M,M,102.65,VABB 201330Z 34005KT 4000 HZ FEW020 SCT100 33/24 Q1006 NOSIG,M
VABB,2022-04-20 14:00,91.40,73.40,55.77,330.00,10.00,0.00,29.71,M,2.17,M,FEW,SCT,M,M,2000.00,10000.00,M,M,HZ,M,M,M,M,M,M,100.52,VABB 201400Z 33010KT 3500 HZ FEW020 SCT100 33/23 Q1006 NOSIG,M
VABB,2022-04-20 14:30,91.40,73.40,55.77,310.00,6.00,0.00,29.74,M,2.17,M,SCT,M,M,M,10000.00,M,M,M,HZ,M,M,M,M,M,M,100.52,VABB 201430Z 31006KT 3500 HZ SCT100 33/23 Q1007 NOSIG,M
VABB,2022-04-20 15:00,91.40,75.20,59.24,340.00,5.00,0.00,29.74,M,2.17,M,SCT,M,M,M,10000.00,M,M,M,HZ,M,M,M,M,M,M,102.65,VABB 201500Z 34005KT 3500 HZ SCT100 33/24 Q1007 NOSIG,M
VABB,2022-04-20 15:30,89.60,75.20,62.68,340.00,6.00,0.00,29.74,M,2.17,M,FEW,M,M,M,10000.00,M,M,M,HZ,M,M,M,M,M,M,100.23,VABB 201530Z 34006KT 3500 HZ FEW100 32/24 Q1007 NOSIG,M
VABB,2022-04-20 16:00,89.60,73.40,59.01,350.00,7.00,0.00,29.74,M,2.17,M,FEW,M,M,M,10000.00,M,M,M,HZ,M,M,M,M,M,M,98.20,VABB 201600Z 35007KT 3500 HZ FEW100 32/23 Q1007 NOSIG,M
VABB,2022-04-20 16:30,89.60,73.40,59.01,330.00,6.00,0.00,29.77,M,2.17,M,FEW,M,M,M,10000.00,M,M,M,HZ,M,M,M,M,M,M,98.20,VABB 201630Z 33006KT 3500 HZ FEW100 32/23 Q1008 NOSIG,M
VABB,2022-04-20 17:00,89.60,73.40,59.01,350.00,5.00,0.00,29.77,M,2.17,M,FEW,M,M,M,10000.00,M,M,M,HZ,M,M,M,M,M,M,98.20,VABB 201700Z 35005KT 3500 HZ FEW100 32/23 Q1008 NOSIG,M
VABB,2022-04-20 17:30,89.60,71.60,55.53,20.00,6.00,0.00,29.77,M,2.17,M,FEW,M,M,M,10000.00,M,M,M,HZ,M,M,M,M,M,M,96.41,VABB 201730Z 02006KT 3500 HZ FEW100 32/22 Q1008 NOSIG,M
VABB,2022-04-20 18:00,89.60,71.60,55.53,360.00,4.00,0.00,29.77,M,2.17,M,FEW,M,M,M,10000.00,M,M,M,HZ,M,M,M,M,M,M,96.41,VABB 201800Z 36004KT 3500 HZ FEW100 32/22 Q1008 NOSIG,M
VABB,2022-04-20 18:30,89.60,66.20,46.14,360.00,6.00,0.00,29.74,M,2.17,M,FEW,M,M,M,10000.00,M,M,M,HZ,M,M,M,M,M,M,92.27,VABB 201830Z 36006KT 3500 HZ FEW100 32/19 Q1007 NOSIG,M
VABB,2022-04-20 19:00,89.60,64.40,43.34,0.00,0.00,0.00,29.74,M,2.17,M,FEW,M,M,M,10000.00,M,M,M,FU,M,M,M,M,M,M,91.23,VABB 201900Z 00000KT 3500 FU FEW100 32/18 Q1007 NOSIG,M
VABB,2022-04-20 19:30,89.60,60.80,38.18,M,3.00,0.00,29.74,M,2.17,M,FEW,M,M,M,10000.00,M,M,M,FU,M,M,M,M,M,M,89.54,VABB 201930Z VRB03KT 3500 FU FEW100 32/16 Q1007 NOSIG,M
VABB,2022-04-20 20:00,89.60,53.60,29.45,350.00,4.00,0.00,29.71,M,2.17,M,SCT,M,M,M,10000.00,M,M,M,FU,M,M,M,M,M,M,87.36,VABB 202000Z 35004KT 3500 FU SCT100 32/12 Q1006 NOSIG,M
VABB,2022-04-20 20:30,89.60,53.60,29.45,0.00,0.00,0.00,29.71,M,2.17,M,SCT,M,M,M,10000.00,M,M,M,FU,M,M,M,M,M,M,87.36,VABB 202030Z 00000KT 3500 FU SCT100 32/12 Q1006 NOSIG,M
VABB,2022-04-20 21:00,89.60,55.40,31.45,0.00,0.00,0.00,29.71,M,2.17,M,SCT,M,M,M,10000.00,M,M,M,FU,M,M,M,M,M,M,87.78,VABB 202100Z 00000KT 3500 FU SCT100 32/13 Q1006 NOSIG,M
VABB,2022-04-20 21:30,87.80,59.00,37.90,0.00,0.00,0.00,29.71,M,2.17,M,FEW,M,M,M,2000.00,M,M,M,FU,M,M,M,M,M,M,87.12,VABB 202130Z 00000KT 3500 FU FEW020 31/15 Q1006 NOSIG,M
VABB,2022-04-20 22:00,87.80,60.80,40.41,0.00,0.00,0.00,29.68,M,2.17,M,FEW,M,M,M,2000.00,M,M,M,FU,M,M,M,M,M,M,87.75,VABB 202200Z 00000KT 3500 FU FEW020 31/16 Q1005 NOSIG,M
VABB,2022-04-20 22:30,87.80,60.80,40.41,0.00,0.00,0.00,29.68,M,2.17,M,FEW,M,M,M,2000.00,M,M,M,FU,M,M,M,M,M,M,87.75,VABB 202230Z 00000KT 3500 FU FEW020 31/16 Q1005 NOSIG,M
VABB,2022-04-20 23:00,87.80,60.80,40.41,0.00,0.00,0.00,29.68,M,2.17,M,FEW,M,M,M,2000.00,M,M,M,FU,M,M,M,M,M,M,87.75,VABB 202300Z 00000KT 3500 FU FEW020 31/16 Q1005 NOSIG,M
VABB,2022-04-20 23:30,87.80,60.80,40.41,0.00,0.00,0.00,29.68,M,2.17,M,FEW,M,M,M,2000.00,M,M,M,FU,M,M,M,M,M,M,87.75,VABB 202330Z 00000KT 3500 FU FEW020 31/16 Q1005 NOSIG,M
VABB,2022-04-21 00:00,87.80,59.00,37.90,0.00,0.00,0.00,29.71,M,2.17,M,FEW,M,M,M,2000.00,M,M,M,FU,M,M,M,M,M,M,87.12,VABB 210000Z 00000KT 3500 FU FEW020 31/15 Q1006 NOSIG,M
VABB,2022-04-21 00:30,87.80,59.00,37.90,10.00,3.00,0.00,29.71,M,2.17,M,SCT,M,M,M,2000.00,M,M,M,FU,M,M,M,M,M,M,87.12,VABB 210030Z 01003KT 3500 FU SCT020 31/15 Q1006 NOSIG,M
VABB,2022-04-21 01:00,87.80,60.80,40.41,300.00,3.00,0.00,29.71,M,2.17,M,SCT,M,M,M,2000.00,M,M,M,FU,M,M,M,M,M,M,87.75,VABB 210100Z 30003KT 3500 FU SCT020 31/16 Q1006 NOSIG,M
VABB,2022-04-21 01:30,89.60,59.00,35.81,10.00,3.00,0.00,29.71,M,2.17,M,SCT,M,M,M,2000.00,M,M,M,FU,M,M,M,M,M,M,88.86,VABB 210130Z 01003KT 3500 FU SCT020 32/15 Q1006 NOSIG,M
VABB,2022-04-21 02:00,89.60,62.60,40.69,260.00,5.00,0.00,29.74,M,2.17,M,SCT,M,M,M,2000.00,M,M,M,FU,M,M,M,M,M,M,90.32,VABB 210200Z 26005KT 3500 FU SCT020 32/17 Q1007 NOSIG,M
VABB,2022-04-21 02:30,89.60,64.40,43.34,340.00,5.00,0.00,29.74,M,2.17,M,FEW,BKN,M,M,2000.00,10000.00,M,M,FU,M,M,M,M,M,M,91.23,VABB 210230Z 34005KT 3500 FU FEW020 BKN100 32/18 Q1007 NOSIG,M
VABB,2022-04-21 03:00,91.40,60.80,36.08,70.00,3.00,0.00,29.74,M,2.17,M,FEW,BKN,M,M,2000.00,10000.00,M,M,FU,M,M,M,M,M,M,91.40,VABB 210300Z 07003KT 3500 FU FEW020 BKN100 33/16 Q1007 NOSIG,M
VABB,2022-04-21 03:30,91.40,60.80,36.08,200.00,7.00,0.00,29.77,M,2.17,M,FEW,BKN,M,M,2000.00,10000.00,M,M,FU,M,M,M,M,M,M,91.40,VABB 210330Z 20007KT 3500 FU FEW020 BKN100 33/16 Q1008 NOSIG,M
VABB,2022-04-21 04:00,91.40,62.60,38.45,320.00,4.00,0.00,29.77,M,2.17,M,FEW,BKN,M,M,2000.00,10000.00,M,M,FU,M,M,M,M,M,M,92.23,VABB 210400Z 32004KT 3500 FU FEW020 BKN100 33/17 Q1008 NOSIG,M
VABB,2022-04-21 04:30,95.00,53.60,24.89,40.00,4.00,0.00,29.77,M,2.17,M,FEW,BKN,M,M,2000.00,10000.00,M,M,FU,M,M,M,M,M,M,92.71,VABB 210430Z 04004KT 3500 FU FEW020 BKN100 35/12 Q1008 NOSIG,M
VABB,2022-04-21 05:00,96.80,51.80,22.04,20.00,3.00,0.00,29.77,M,2.17,M,FEW,BKN,M,M,2000.00,10000.00,M,M,FU,M,M,M,M,M,M,94.12,VABB 210500Z 02003KT 3500 FU FEW020 BKN100 36/11 Q1008 NOSIG,M
VABB,2022-04-21 05:30,96.80,53.60,23.55,20.00,7.00,0.00,29.74,M,2.17,M,FEW,BKN,M,M,2000.00,10000.00,M,M,FU,M,M,M,M,M,M,94.59,VABB 210530Z 02007KT 3500 FU FEW020 BKN100 36/12 Q1007 NOSIG,M
VABB,2022-04-21 06:00,96.80,53.60,23.55,30.00,8.00,0.00,29.74,M,2.17,M,FEW,BKN,M,M,2000.00,10000.00,M,M,FU,M,M,M,M,M,M,94.59,VABB 210600Z 03008KT 3500 FU FEW020 BKN100 36/12 Q1007 NOSIG,M
VABB,2022-04-21 06:30,100.40,51.80,19.76,20.00,8.00,0.00,29.74,M,2.17,M,FEW,BKN,M,M,2000.00,10000.00,M,M,FU,M,M,M,M,M,M,97.90,VABB 210630Z 02008KT 3500 FU FEW020 BKN100 38/11 Q1007 NOSIG,M
VABB,2022-04-21 07:00,98.60,64.40,32.81,320.00,9.00,0.00,29.74,M,2.17,M,FEW,M,M,M,2000.00,M,M,M,FU,M,M,M,M,M,M,101.50,VABB 210700Z 32009KT 3500 FU FEW020 37/18 Q1007 NOSIG,M
VABB,2022-04-21 07:30,100.40,64.40,31.07,310.00,10.00,0.00,29.71,M,2.17,M,FEW,M,M,M,2000.00,M,M,M,FU,M,M,M,M,M,M,103.66,VABB 210730Z 31010KT 3500 FU FEW020 38/18 Q1006 NOSIG,M
VABB,2022-04-21 08:00,100.40,60.80,27.37,290.00,5.00,0.00,29.68,M,2.17,M,FEW,M,M,M,2000.00,M,M,M,FU,M,M,M,M,M,M,101.47,VABB 210800Z 29005KT 3500 FU FEW020 38/16 Q1005 BECMG 3000 FU,M
VABB,2022-04-21 08:30,100.40,59.00,25.67,280.00,12.00,0.00,29.65,M,1.86,M,FEW,M,M,M,2000.00,M,M,M,FU,M,M,M,M,M,M,100.57,VABB 210830Z 28012KT 3000 FU FEW020 38/15 Q1004 TEMPO 2500 FU,M
VABB,2022-04-21 09:00,102.20,62.60,27.63,260.00,9.00,0.00,29.65,M,1.86,M,FEW,M,M,M,2000.00,M,M,M,FU,M,M,M,M,M,M,104.63,VABB 210900Z 26009KT 3000 FU FEW020 39/17 Q1004 NOSIG,M
VABB,2022-04-21 09:30,102.20,62.60,27.63,280.00,10.00,0.00,29.65,M,1.86,M,NSC,M,M,M,M,M,M,M,FU,M,M,M,M,M,M,104.63,VABB 210930Z 28010KT 3000 FU NSC 39/17 Q1004 NOSIG,M
VABB,2022-04-21 10:00,98.60,68.00,37.17,280.00,12.00,0.00,29.62,M,1.86,M,NSC,M,M,M,M,M,M,M,FU,M,M,M,M,M,M,104.22,VABB 211000Z 28012KT 3000 FU NSC 37/20 Q1003 NOSIG,M
VABB,2022-04-21 10:30,100.40,62.60,29.17,320.00,9.00,0.00,29.62,M,1.86,M,NSC,M,M,M,M,M,M,M,FU,M,M,M,M,M,M,102.50,VABB 211030Z 32009KT 3000 FU NSC 38/17 Q1003 NOSIG,M
VABB,2022-04-21 11:00,100.40,64.40,31.07,320.00,9.00,0.00,29.62,M,2.17,M,NSC,M,M,M,M,M,M,M,FU,M,M,M,M,M,M,103.66,VABB 211100Z 32009KT 3500 FU NSC 38/18 Q1003 NOSIG,M
VABB,2022-04-21 11:30,96.80,66.20,36.90,310.00,11.00,0.00,29.62,M,2.17,M,NSC,M,M,M,M,M,M,M,FU,M,M,M,M,M,M,100.60,VABB 211130Z 31011KT 3500 FU NSC 36/19 Q1003 NOSIG,M
VABB,2022-04-21 12:00,95.00,69.80,44.14,310.00,9.00,0.00,29.62,M,2.17,M,NSC,M,M,M,M,M,M,M,FU,M,M,M,M,M,M,101.37,VABB 211200Z 31009KT 3500 FU NSC 35/21 Q1003 NOSIG,M
VABB,2022-04-21 12:30,91.40,73.40,55.77,300.00,10.00,0.00,29.65,M,2.17,M,NSC,M,M,M,M,M,M,M,FU,M,M,M,M,M,M,100.52,VABB 211230Z 30010KT 3500 FU NSC 33/23 Q1004 NOSIG,M
VABB,2022-04-21 13:00,91.40,71.60,52.48,320.00,7.00,0.00,29.65,M,2.17,M,NSC,M,M,M,M,M,M,M,FU,M,M,M,M,M,M,98.64,VABB 211300Z 32007KT 3500 FU NSC 33/22 Q1004 NOSIG,M
VABB,2022-04-21 13:30,91.40,71.60,52.48,310.00,6.00,0.00,29.65,M,2.17,M,NSC,M,M,M,M,M,M,M,FU,M,M,M,M,M,M,98.64,VABB 211330Z 31006KT 3500 FU NSC 33/22 Q1004 NOSIG,M
VABB,2022-04-21 14:00,91.40,71.60,52.48,310.00,5.00,0.00,29.68,M,2.17,M,NSC,M,M,M,M,M,M,M,FU,M,M,M,M,M,M,98.64,VABB 211400Z 31005KT 3500 FU NSC 33/22 Q1005 NOSIG,M
VABB,2022-04-21 14:30,89.60,75.20,62.68,320.00,6.00,0.00,29.68,M,2.17,M,NSC,M,M,M,M,M,M,M,FU,M,M,M,M,M,M,100.23,VABB 211430Z 32006KT 3500 FU NSC 32/24 Q1005 NOSIG,M
VABB,2022-04-21 15:00,89.60,75.20,62.68,310.00,7.00,0.00,29.68,M,2.17,M,NSC,M,M,M,M,M,M,M,FU,M,M,M,M,M,M,100.23,VABB 211500Z 31007KT 3500 FU NSC 32/24 Q1005 NOSIG,M
VABB,2022-04-21 15:30,89.60,75.20,62.68,310.00,4.00,0.00,29.71,M,1.86,M,FEW,M,M,M,10000.00,M,M,M,HZ,M,M,M,M,M,M,100.23,VABB 211530Z 31004KT 3000 HZ FEW100 32/24 Q1006 NOSIG,M
VABB,2022-04-21 16:00,87.80,75.20,66.35,320.00,4.00,0.00,29.71,M,1.86,M,FEW,M,M,M,10000.00,M,M,M,HZ,M,M,M,M,M,M,97.76,VABB 211600Z 32004KT 3000 HZ FEW100 31/24 Q1006 NOSIG,M
VABB,2022-04-21 16:30,87.80,77.00,70.45,340.00,8.00,0.00,29.71,M,1.86,M,FEW,M,M,M,10000.00,M,M,M,HZ,M,M,M,M,M,M,99.92,VABB 211630Z 34008KT 3000 HZ FEW100 31/25 Q1006 NOSIG,M
VABB,2022-04-21 17:00,87.80,77.00,70.45,330.00,6.00,0.00,29.71,M,1.86,M,FEW,M,M,M,10000.00,M,M,M,HZ,M,M,M,M,M,M,99.92,VABB 211700Z 33006KT 3000 HZ FEW100 31/25 Q1006 NOSIG,M
VABB,2022-04-21 17:30,87.80,75.20,66.35,340.00,5.00,0.00,29.74,M,1.86,M,FEW,M,M,M,10000.00,M,M,M,HZ,M,M,M,M,M,M,97.76,VABB 211730Z 34005KT 3000 HZ FEW100 31/24 Q1007 NOSIG,M
VABB,2022-04-21 18:00,87.80,75.20,66.35,310.00,4.00,0.00,29.74,M,1.86,M,FEW,M,M,M,10000.00,M,M,M,HZ,M,M,M,M,M,M,97.76,VABB 211800Z 31004KT 3000 HZ FEW100 31/24 Q1007 NOSIG,M
VABB,2022-04-21 18:30,87.80,78.80,74.77,320.00,6.00,0.00,29.74,M,1.86,M,FEW,M,M,M,10000.00,M,M,M,HZ,M,M,M,M,M,M,102.37,VABB 211830Z 32006KT 3000 HZ FEW100 31/26 Q1007 NOSIG,M
VABB,2022-04-21 19:00,87.80,78.80,74.77,310.00,5.00,0.00,29.74,M,1.86,M,NSC,M,M,M,M,M,M,M,HZ,M,M,M,M,M,M,102.37,VABB 211900Z 31005KT 3000 HZ NSC 31/26 Q1007 NOSIG,M
VABB,2022-04-21 19:30,86.00,78.80,79.18,330.00,6.00,0.00,29.74,M,1.86,M,NSC,M,M,M,M,M,M,M,HZ,M,M,M,M,M,M,99.38,VABB 211930Z 33006KT 3000 HZ NSC 30/26 Q1007 NOSIG,M
VABB,2022-04-21 20:00,86.00,82.40,89.06,330.00,8.00,0.00,29.71,M,1.86,M,NSC,M,M,M,M,M,M,M,HZ,M,M,M,M,M,M,104.83,VABB 212000Z 33008KT 3000 HZ NSC 30/28 Q1006 NOSIG,M
VABB,2022-04-21 20:30,86.00,78.80,79.18,340.00,8.00,0.00,29.71,M,1.86,M,NSC,M,M,M,M,M,M,M,HZ,M,M,M,M,M,M,99.38,VABB 212030Z 34008KT 3000 HZ NSC 30/26 Q1006 NOSIG,M
VABB,2022-04-21 21:00,86.00,78.80,79.18,340.00,8.00,0.00,29.71,M,1.55,M,NSC,M,M,M,M,M,M,M,HZ,M,M,M,M,M,M,99.38,VABB 212100Z 34008KT 2500 HZ NSC 30/26 Q1006 NOSIG,M
VABB,2022-04-21 21:30,86.00,78.80,79.18,340.00,7.00,0.00,29.71,M,1.55,M,NSC,M,M,M,M,M,M,M,HZ,M,M,M,M,M,M,99.38,VABB 212130Z 34007KT 2500 HZ NSC 30/26 Q1006 NOSIG,M
VABB,2022-04-21 22:00,86.00,75.20,70.27,330.00,5.00,0.00,29.71,M,1.86,M,NSC,M,M,M,M,M,M,M,HZ,M,M,M,M,M,M,95.19,VABB 212200Z 33005KT 3000 HZ NSC 30/24 Q1006 NOSIG,M
VABB,2022-04-21 22:30,86.00,75.20,70.27,0.00,0.00,0.00,29.71,M,1.86,M,NSC,M,M,M,M,M,M,M,HZ,M,M,M,M,M,M,95.19,VABB 212230Z 00000KT 3000 HZ NSC 30/24 Q1006 NOSIG,M
VABB,2022-04-21 23:00,86.00,73.40,66.15,0.00,0.00,0.00,29.71,M,1.86,M,NSC,M,M,M,M,M,M,M,HZ,M,M,M,M,M,M,93.45,VABB 212300Z 00000KT 3000 HZ NSC 30/23 Q1006 NOSIG,M
VABB,2022-04-21 23:30,86.00,73.40,66.15,340.00,5.00,0.00,29.71,M,1.86,M,NSC,M,M,M,M,M,M,M,HZ,M,M,M,M,M,M,93.45,VABB 212330Z 34005KT 3000 HZ NSC 30/23 Q1006 NOSIG,M
VABB,2022-04-22 00:00,86.00,73.40,66.15,0.00,0.00,0.00,29.74,M,1.86,M,NSC,M,M,M,M,M,M,M,HZ,M,M,M,M,M,M,93.45,VABB 220000Z 00000KT 3000 HZ NSC 30/23 Q1007 NOSIG,M
VABB,2022-04-22 00:30,86.00,71.60,62.25,0.00,0.00,0.00,29.74,M,1.86,M,SCT,M,M,M,10000.00,M,M,M,HZ,M,M,M,M,M,M,91.92,VABB 220030Z 00000KT 3000 HZ SCT100 30/22 Q1007 NOSIG,M
VABB,2022-04-22 01:00,86.00,69.80,58.55,120.00,5.00,0.00,29.77,M,1.86,M,FEW,SCT,M,M,2000.00,10000.00,M,M,FU,M,M,M,M,M,M,90.58,VABB 220100Z 12005KT 3000 FU FEW020 SCT100 30/21 Q1008 NOSIG,M
VABB,2022-04-22 01:30,86.00,71.60,62.25,120.00,4.00,0.00,29.77,M,1.86,M,FEW,SCT,M,M,2000.00,10000.00,M,M,FU,M,M,M,M,M,M,91.92,VABB 220130Z 12004KT 3000 FU FEW020 SCT100 30/22 Q1008 NOSIG,M
VABB,2022-04-22 02:00,86.00,73.40,66.15,150.00,4.00,0.00,29.80,M,1.55,M,FEW,SCT,M,M,2000.00,10000.00,M,M,HZ,M,M,M,M,M,M,93.45,VABB 220200Z 15004KT 2500 HZ FEW020 SCT100 30/23 Q1009 NOSIG,M
VABB,2022-04-22 02:30,87.80,75.20,66.35,130.00,4.00,0.00,29.80,M,1.55,M,FEW,SCT,M,M,2000.00,10000.00,M,M,HZ,M,M,M,M,M,M,97.76,VABB 220230Z 13004KT 2500 HZ FEW020 SCT100 31/24 Q1009 NOSIG,M
VABB,2022-04-22 03:00,89.60,73.40,59.01,110.00,6.00,0.00,29.80,M,1.55,M,SCT,M,M,M,10000.00,M,M,M,HZ,M,M,M,M,M,M,98.20,VABB 220300Z 11006KT 2500 HZ SCT100 32/23 Q1009 NOSIG,M
VABB,2022-04-22 03:30,91.40,69.80,49.36,70.00,6.00,0.00,29.80,M,1.55,M,SCT,M,M,M,10000.00,M,M,M,FU,M,M,M,M,M,M,96.99,VABB 220330Z 07006KT 2500 FU SCT100 33/21 Q1009 BECMG 3000 FU,M
VABB,2022-04-22 04:00,93.20,71.60,49.62,70.00,4.00,0.00,29.80,M,1.86,M,SCT,M,M,M,10000.00,M,M,M,FU,M,M,M,M,M,M,100.88,VABB 220400Z 07004KT 3000 FU SCT100 34/22 Q1009 NOSIG,M
VABB,2022-04-22 04:30,93.20,73.40,52.73,110.00,5.00,0.00,29.80,M,1.86,M,SCT,M,M,M,10000.00,M,M,M,FU,M,M,M,M,M,M,102.82,VABB 220430Z 11005KT 3000 FU SCT100 34/23 Q1009 NOSIG,M
VABB,2022-04-22 05:00,95.00,73.40,49.87,0.00,0.00,0.00,29.80,M,1.86,M,SCT,M,M,M,10000.00,M,M,M,FU,M,M,M,M,M,M,105.13,VABB 220500Z 00000KT 3000 FU SCT100 35/23 Q1009 NOSIG,M
VABB,2022-04-22 05:30,95.00,73.40,49.87,230.00,4.00,0.00,29.77,M,1.86,M,FEW,M,M,M,10000.00,M,M,M,FU,M,M,M,M,M,M,105.13,VABB 220530Z 23004KT 3000 FU FEW100 35/23 Q1008 NOSIG,M
VABB,2022-04-22 06:00,98.60,71.60,42.04,280.00,5.00,0.00,29.77,M,1.86,M,SCT,M,M,M,10000.00,M,M,M,FU,M,M,M,M,M,M,107.70,VABB 220600Z 28005KT 3000 FU SCT100 37/22 Q1008 NOSIG,M
VABB,2022-04-22 06:30,96.80,73.40,47.19,260.00,10.00,0.00,29.77,M,1.86,M,SCT,M,M,M,10000.00,M,M,M,FU,M,M,M,M,M,M,107.45,VABB 220630Z 26010KT 3000 FU SCT100 36/23 Q1008 NOSIG,M
VABB,2022-04-22 07:00,96.80,71.60,44.41,280.00,9.00,0.00,29.77,M,1.86,M,FEW,M,M,M,10000.00,M,M,M,FU,M,M,M,M,M,M,105.40,VABB 220700Z 28009KT 3000 FU FEW100 36/22 Q1008 NOSIG,M
VABB,2022-04-22 07:30,96.80,69.80,41.77,280.00,11.00,0.00,29.74,M,1.86,M,FEW,M,M,M,10000.00,M,M,M,FU,M,M,M,M,M,M,103.60,VABB 220730Z 28011KT 3000 FU FEW100 36/21 Q1007 NOSIG,M
VABB,2022-04-22 08:00,96.80,69.80,41.77,260.00,14.00,0.00,29.71,M,2.17,M,FEW,M,M,M,10000.00,M,M,M,FU,M,M,M,M,M,M,103.60,VABB 220800Z 26014KT 3500 FU FEW100 36/21 Q1006 NOSIG,M
VABB,2022-04-22 08:30,96.80,73.40,47.19,270.00,12.00,0.00,29.71,M,2.17,M,FEW,M,M,M,10000.00,M,M,M,FU,M,M,M,M,M,M,107.45,VABB 220830Z 27012KT 3500 FU FEW100 36/23 Q1006 NOSIG,M
VABB,2022-04-22 09:00,98.60,73.40,44.67,300.00,9.00,0.00,29.71,M,2.49,M,FEW,M,M,M,10000.00,M,M,M,FU,M,M,M,M,M,M,109.77,VABB 220900Z 30009KT 4000 FU FEW100 37/23 Q1006 NOSIG,M
VABB,2022-04-22 09:30,96.80,68.00,39.27,290.00,11.00,0.00,29.68,M,2.49,M,NSC,M,M,M,M,M,M,M,FU,M,M,M,M,M,M,102.01,VABB 220930Z 29011KT 4000 FU NSC 36/20 Q1005 NOSIG,M
VABB,2022-04-22 10:00,96.80,71.60,44.41,300.00,9.00,0.00,29.68,M,2.49,M,NSC,M,M,M,M,M,M,M,FU,M,M,M,M,M,M,105.40,VABB 221000Z 30009KT 4000 FU NSC 36/22 Q1005 NOSIG,M
VABB,2022-04-22 10:30,98.60,71.60,42.04,290.00,10.00,0.00,29.68,M,2.49,M,NSC,M,M,M,M,M,M,M,FU,M,M,M,M,M,M,107.70,VABB 221030Z 29010KT 4000 FU NSC 37/22 Q1005 NOSIG,M
VABB,2022-04-22 11:00,98.60,66.20,34.93,290.00,12.00,0.00,29.65,M,2.49,M,NSC,M,M,M,M,M,M,M,FU,M,M,M,M,M,M,102.78,VABB 221100Z 29012KT 4000 FU NSC 37/19 Q1004 NOSIG,M
VABB,2022-04-22 11:30,96.80,68.00,39.27,320.00,12.00,0.00,29.65,M,2.49,M,NSC,M,M,M,M,M,M,M,FU,M,M,M,M,M,M,102.01,VABB 221130Z 32012KT 4000 FU NSC 36/20 Q1004 NOSIG,M
VABB,2022-04-22 12:00,96.80,68.00,39.27,310.00,11.00,0.00,29.65,M,2.49,M,NSC,M,M,M,M,M,M,M,FU,M,M,M,M,M,M,102.01,VABB 221200Z 31011KT 4000 FU NSC 36/20 Q1004 NOSIG,M
VABB,2022-04-22 12:30,96.80,66.20,36.90,320.00,10.00,0.00,29.65,M,2.49,M,NSC,M,M,M,M,M,M,M,FU,M,M,M,M,M,M,100.60,VABB 221230Z 32010KT 4000 FU NSC 36/19 Q1004 NOSIG,M
VABB,2022-04-22 13:00,96.80,60.80,30.53,330.00,7.00,0.00,29.68,M,2.49,M,NSC,M,M,M,M,M,M,M,FU,M,M,M,M,M,M,97.33,VABB 221300Z 33007KT 4000 FU NSC 36/16 Q1005 BECMG 3000 FU,M
VABB,2022-04-22 13:30,96.80,60.80,30.53,300.00,8.00,0.00,29.68,M,2.17,M,NSC,M,M,M,M,M,M,M,FU,M,M,M,M,M,M,97.33,VABB 221330Z 30008KT 3500 FU NSC 36/16 Q1005 NOSIG,M
VABB,2022-04-22 14:00,95.00,62.60,34.39,310.00,9.00,0.00,29.68,M,2.17,M,NSC,M,M,M,M,M,M,M,FU,M,M,M,M,M,M,96.22,VABB 221400Z 31009KT 3500 FU NSC 35/17 Q1005 NOSIG,M
VABB,2022-04-22 14:30,95.00,66.20,39.00,350.00,5.00,0.00,29.71,M,2.17,M,NSC,M,M,M,M,M,M,M,FU,M,M,M,M,M,M,98.46,VABB 221430Z 35005KT 3500 FU NSC 35/19 Q1006 NOSIG,M
VABB,2022-04-22 15:00,93.20,66.20,41.23,50.00,3.00,0.00,29.71,M,2.17,M,NSC,M,M,M,M,M,M,M,FU,M,M,M,M,M,M,96.35,VABB 221500Z 05003KT 3500 FU NSC 34/19 Q1006 NOSIG,M
VABB,2022-04-22 15:30,93.20,69.80,46.67,120.00,4.00,0.00,29.74,M,2.17,M,NSC,M,M,M,M,M,M,M,FU,M,M,M,M,M,M,99.17,VABB 221530Z 12004KT 3500 FU NSC 34/21 Q1007 NOSIG,M
VABB,2022-04-22 16:00,93.20,68.00,43.88,170.00,10.00,0.00,29.77,M,2.17,M,NSC,M,M,M,M,M,M,M,FU,M,M,M,M,M,M,97.67,VABB 221600Z 17010KT 3500 FU NSC 34/20 Q1008 NOSIG,M
VABB,2022-04-22 16:30,89.60,75.20,62.68,220.00,10.00,0.00,29.77,M,2.17,20.00,FEW,M,M,M,2000.00,M,M,M,FU,M,M,M,M,M,M,100.23,VABB 221630Z 22010G20KT 3500 FU FEW020 32/24 Q1008 NOSIG,M
VABB,2022-04-22 17:00,89.60,75.20,62.68,200.00,8.00,0.00,29.80,M,2.17,M,FEW,M,M,M,2000.00,M,M,M,HZ,M,M,M,M,M,M,100.23,VABB 221700Z 20008KT 3500 HZ FEW020 32/24 Q1009 NOSIG,M
VABB,2022-04-22 17:30,87.80,80.60,79.31,180.00,9.00,0.00,29.80,M,2.17,M,FEW,M,M,M,2000.00,M,M,M,HZ,M,M,M,M,M,M,105.14,VABB 221730Z 18009KT 3500 HZ FEW020 31/27 Q1009 BECMG 3000 HZ,M
VABB,2022-04-22 18:00,87.80,77.00,70.45,160.00,4.00,0.00,29.80,M,1.86,M,FEW,M,M,M,2000.00,M,M,M,HZ,M,M,M,M,M,M,99.92,VABB 221800Z 16004KT 3000 HZ FEW020 31/25 Q1009 NOSIG,M
VABB,2022-04-22 18:30,87.80,75.20,66.35,190.00,4.00,0.00,29.77,M,1.86,M,FEW,M,M,M,10000.00,M,M,M,HZ,M,M,M,M,M,M,97.76,VABB 221830Z 19004KT 3000 HZ FEW100 31/24 Q1008 NOSIG,M
VABB,2022-04-22 19:00,87.80,75.20,66.35,0.00,0.00,0.00,29.77,M,1.86,M,FEW,M,M,M,10000.00,M,M,M,HZ,M,M,M,M,M,M,97.76,VABB 221900Z 00000KT 3000 HZ FEW100 31/24 Q1008 NOSIG,M
VABB,2022-04-22 19:30,87.80,73.40,62.47,200.00,3.00,0.00,29.77,M,1.86,M,NSC,M,M,M,M,M,M,M,HZ,M,M,M,M,M,M,95.86,VABB 221930Z 20003KT 3000 HZ NSC 31/23 Q1008 NOSIG,M
VABB,2022-04-22 20:00,87.80,71.60,58.78,330.00,3.00,0.00,29.74,M,1.86,M,NSC,M,M,M,M,M,M,M,HZ,M,M,M,M,M,M,94.18,VABB 222000Z 33003KT 3000 HZ NSC 31/22 Q1007 NOSIG,M
VABB,2022-04-22 20:30,87.80,75.20,66.35,330.00,3.00,0.00,29.74,M,1.86,M,NSC,M,M,M,M,M,M,M,HZ,M,M,M,M,M,M,97.76,VABB 222030Z 33003KT 3000 HZ NSC 31/24 Q1007 NOSIG,M
VABB,2022-04-22 21:00,87.80,75.20,66.35,330.00,4.00,0.00,29.74,M,1.86,M,NSC,M,M,M,M,M,M,M,HZ,M,M,M,M,M,M,97.76,VABB 222100Z 33004KT 3000 HZ NSC 31/24 Q1007 NOSIG,M
VABB,2022-04-22 21:30,87.80,77.00,70.45,320.00,4.00,0.00,29.74,M,1.86,M,NSC,M,M,M,M,M,M,M,HZ,M,M,M,M,M,M,99.92,VABB 222130Z 32004KT 3000 HZ NSC 31/25 Q1007 NOSIG,M
VABB,2022-04-22 22:00,86.00,80.60,83.99,310.00,5.00,0.00,29.74,M,1.86,M,NSC,M,M,M,M,M,M,M,HZ,M,M,M,M,M,M,101.90,VABB 222200Z 31005KT 3000 HZ NSC 30/27 Q1007 NOSIG,M
VABB,2022-04-22 22:30,86.00,82.40,89.06,320.00,5.00,0.00,29.74,M,1.86,M,FEW,M,M,M,2000.00,M,M,M,HZ,M,M,M,M,M,M,104.83,VABB 222230Z 32005KT 3000 HZ FEW020 30/28 Q1007 NOSIG,M
VABB,2022-04-22 23:00,86.00,82.40,89.06,340.00,6.00,0.00,29.74,M,1.86,M,SCT,M,M,M,2000.00,M,M,M,HZ,M,M,M,M,M,M,104.83,VABB 222300Z 34006KT 3000 HZ SCT020 30/28 Q1007 NOSIG,M
VABB,2022-04-22 23:30,86.00,82.40,89.06,340.00,5.00,0.00,29.74,M,1.86,M,SCT,M,M,M,2000.00,M,M,M,HZ,M,M,M,M,M,M,104.83,VABB 222330Z 34005KT 3000 HZ SCT020 30/28 Q1007 NOSIG,M
VABB,2022-04-23 00:00,86.00,80.60,83.99,340.00,5.00,0.00,29.74,M,1.86,M,SCT,M,M,M,2000.00,M,M,M,HZ,M,M,M,M,M,M,101.90,VABB 230000Z 34005KT 3000 HZ SCT020 30/27 Q1007 NOSIG,M
VABB,2022-04-23 00:30,86.00,80.60,83.99,20.00,7.00,0.00,29.74,M,1.86,M,FEW,M,M,M,2000.00,M,M,M,HZ,M,M,M,M,M,M,101.90,VABB 230030Z 02007KT 3000 HZ FEW020 30/27 Q1007 NOSIG,M
VABB,2022-04-23 01:00,86.00,80.60,83.99,10.00,5.00,0.00,29.77,M,1.86,M,FEW,M,M,M,10000.00,M,M,M,HZ,M,M,M,M,M,M,101.90,VABB 230100Z 01005KT 3000 HZ FEW100 30/27 Q1008 NOSIG,M
VABB,2022-04-23 01:30,87.80,80.60,79.31,100.00,4.00,0.00,29.77,M,1.86,M,NSC,M,M,M,M,M,M,M,HZ,M,M,M,M,M,M,105.14,VABB 230130Z 10004KT 3000 HZ NSC 31/27 Q1008 NOSIG,M
VABB,2022-04-23 02:00,87.80,78.80,74.77,60.00,6.00,0.00,29.77,M,1.86,M,NSC,M,M,M,M,M,M,M,HZ,M,M,M,M,M,M,102.37,VABB 230200Z 06006KT 3000 HZ NSC 31/26 Q1008 NOSIG,M
VABB,2022-04-23 02:30,87.80,78.80,74.77,90.00,5.00,0.00,29.80,M,1.55,M,NSC,M,M,M,M,M,M,M,HZ,M,M,M,M,M,M,102.37,VABB 230230Z 09005KT 2500 HZ NSC 31/26 Q1009 NOSIG,M
VABB,2022-04-23 03:00,89.60,78.80,70.63,50.00,4.00,0.00,29.80,M,1.55,M,NSC,M,M,M,M,M,M,M,HZ,M,M,M,M,M,M,105.15,VABB 230300Z 05004KT 2500 HZ NSC 32/26 Q1009 NOSIG,M
VABB,2022-04-23 03:30,91.40,77.00,62.90,60.00,4.00,0.00,29.80,M,1.55,M,NSC,M,M,M,M,M,M,M,HZ,M,M,M,M,M,M,105.06,VABB 230330Z 06004KT 2500 HZ NSC 33/25 Q1009 NOSIG,M
VABB,2022-04-23 04:00,93.20,75.20,56.01,90.00,7.00,0.00,29.80,M,1.55,M,NSC,M,M,M,M,M,M,M,FU,M,M,M,M,M,M,105.02,VABB 230400Z 09007KT 2500 FU NSC 34/24 Q1009 BECMG 3000,M
VABB,2022-04-23 04:30,93.20,75.20,56.01,150.00,8.00,0.00,29.83,M,1.86,M,NSC,M,M,M,M,M,M,M,FU,M,M,M,M,M,M,105.02,VABB 230430Z 15008KT 3000 FU NSC 34/24 Q1010 NOSIG,M
VABB,2022-04-23 05:00,95.00,75.20,52.98,150.00,3.00,0.00,29.80,M,1.86,M,NSC,M,M,M,M,M,M,M,FU,M,M,M,M,M,M,107.39,VABB 230500Z 15003KT 3000 FU NSC 35/24 Q1009 NOSIG,M
VABB,2022-04-23 05:30,96.80,69.80,41.77,220.00,5.00,0.00,29.80,M,1.86,M,NSC,M,M,M,M,M,M,M,FU,M,M,M,M,M,M,103.60,VABB 230530Z 22005KT 3000 FU NSC 36/21 Q1009 NOSIG,M
VABB,2022-04-23 06:00,98.60,75.20,47.45,260.00,9.00,0.00,29.80,M,1.86,M,NSC,M,M,M,M,M,M,M,FU,M,M,M,M,M,M,112.12,VABB 230600Z 26009KT 3000 FU NSC 37/24 Q1009 NOSIG,M
VABB,2022-04-23 06:30,96.80,77.00,53.22,250.00,12.00,0.00,29.80,M,1.86,M,NSC,M,M,M,M,M,M,M,FU,M,M,M,M,M,M,112.35,VABB 230630Z 25012KT 3000 FU NSC 36/25 Q1009 NOSIG,M
VABB,2022-04-23 07:00,95.00,77.00,56.25,250.00,11.00,0.00,29.77,M,1.86,M,NSC,M,M,M,M,M,M,M,FU,M,M,M,M,M,M,109.94,VABB 230700Z 25011KT 3000 FU NSC 35/25 Q1008 NOSIG,M
VABB,2022-04-23 07:30,95.00,73.40,49.87,250.00,12.00,0.00,29.77,M,1.86,M,NSC,M,M,M,M,M,M,M,FU,M,M,M,M,M,M,105.13,VABB 230730Z 25012KT 3000 FU NSC 35/23 Q1008 NOSIG,M
VABB,2022-04-23 08:00,93.20,80.60,66.95,270.00,12.00,0.00,29.77,M,1.86,M,NSC,M,M,M,M,M,M,M,HZ,M,M,M,M,M,M,113.52,VABB 230800Z 27012KT 3000 HZ NSC 34/27 Q1008 NOSIG,M
VABB,2022-04-23 08:30,93.20,78.80,63.11,270.00,14.00,0.00,29.77,M,2.49,M,NSC,M,M,M,M,M,M,M,FU,M,M,M,M,M,M,110.34,VABB 230830Z 27014KT 4000 FU NSC 34/26 Q1008 NOSIG,M
VABB,2022-04-23 09:00,93.20,77.00,59.47,270.00,7.00,0.00,29.74,M,2.49,17.00,FEW,M,M,M,2000.00,M,M,M,FU,M,M,M,M,M,M,107.52,VABB 230900Z 27007G17KT 4000 FU FEW020 34/25 Q1007 NOSIG,M
VABB,2022-04-23 09:30,93.20,78.80,63.11,280.00,7.00,0.00,29.74,M,2.49,17.00,FEW,M,M,M,2000.00,M,M,M,FU,M,M,M,M,M,M,110.34,VABB 230930Z 28007G17KT 4000 FU FEW020 34/26 Q1007 NOSIG,M
VABB,2022-04-23 10:00,91.40,78.80,66.75,270.00,12.00,0.00,29.74,M,2.49,M,FEW,M,M,M,10000.00,M,M,M,FU,M,M,M,M,M,M,107.79,VABB 231000Z 27012KT 4000 FU FEW100 33/26 Q1007 NOSIG,M
VABB,2022-04-23 10:30,91.40,80.60,70.81,270.00,11.00,0.00,29.74,M,2.49,M,FEW,M,M,M,10000.00,M,M,M,HZ,M,M,M,M,M,M,110.88,VABB 231030Z 27011KT 4000 HZ FEW100 33/27 Q1007 NOSIG,M
VABB,2022-04-23 11:00,91.40,80.60,70.81,250.00,12.00,0.00,29.71,M,2.49,M,FEW,M,M,M,2000.00,M,M,M,HZ,M,M,M,M,M,M,110.88,VABB 231100Z 25012KT 4000 HZ FEW020 33/27 Q1006 NOSIG,M
VABB,2022-04-23 11:30,89.60,78.80,70.63,250.00,12.00,0.00,29.71,M,2.49,M,FEW,M,M,M,2000.00,M,M,M,HZ,M,M,M,M,M,M,105.15,VABB 231130Z 25012KT 4000 HZ FEW020 32/26 Q1006 NOSIG,M
VABB,2022-04-23 12:00,89.60,78.80,70.63,210.00,8.00,0.00,29.71,M,2.49,M,FEW,M,M,M,2000.00,M,M,M,HZ,M,M,M,M,M,M,105.15,VABB 231200Z 21008KT 4000 HZ FEW020 32/26 Q1006 NOSIG,M
VABB,2022-04-23 12:30,89.60,78.80,70.63,240.00,7.00,0.00,29.71,M,2.49,M,FEW,SCT,M,M,2000.00,10000.00,M,M,HZ,M,M,M,M,M,M,105.15,VABB 231230Z 24007KT 4000 HZ FEW020 SCT100 32/26 Q1006 NOSIG,M
VABB,2022-04-23 13:00,87.80,80.60,79.31,260.00,9.00,0.00,29.74,M,2.17,M,FEW,SCT,M,M,2000.00,10000.00,M,M,HZ,M,M,M,M,M,M,105.14,VABB 231300Z 26009KT 3500 HZ FEW020 SCT100 31/27 Q1007 NOSIG,M
VABB,2022-04-23 13:30,87.80,80.60,79.31,260.00,8.00,0.00,29.74,M,2.17,M,FEW,SCT,M,M,2000.00,10000.00,M,M,HZ,M,M,M,M,M,M,105.14,VABB 231330Z 26008KT 3500 HZ FEW020 SCT100 31/27 Q1007 BECMG 3000 HZ,M
VABB,2022-04-23 14:00,87.80,80.60,79.31,250.00,6.00,0.00,29.77,M,1.86,M,FEW,SCT,M,M,2000.00,10000.00,M,M,HZ,M,M,M,M,M,M,105.14,VABB 231400Z 25006KT 3000 HZ FEW020 SCT100 31/27 Q1008 NOSIG,M
VABB,2022-04-23 14:30,87.80,77.00,70.45,260.00,4.00,0.00,29.77,M,1.86,M,FEW,SCT,M,M,2000.00,10000.00,M,M,HZ,M,M,M,M,M,M,99.92,VABB 231430Z 26004KT 3000 HZ FEW020 SCT100 31/25 Q1008 NOSIG,M
VABB,2022-04-23 15:00,87.80,77.00,70.45,200.00,4.00,0.00,29.77,M,1.86,M,FEW,SCT,M,M,2000.00,10000.00,M,M,HZ,M,M,M,M,M,M,99.92,VABB 231500Z 20004KT 3000 HZ FEW020 SCT100 31/25 Q1008 NOSIG,M
VABB,2022-04-23 15:30,87.80,77.00,70.45,200.00,5.00,0.00,29.77,M,1.86,M,FEW,SCT,M,M,2000.00,10000.00,M,M,HZ,M,M,M,M,M,M,99.92,VABB 231530Z 20005KT 3000 HZ FEW020 SCT100 31/25 Q1008 NOSIG,M
VABB,2022-04-23 16:00,87.80,77.00,70.45,230.00,5.00,0.00,29.80,M,2.17,M,FEW,M,M,M,2000.00,M,M,M,HZ,M,M,M,M,M,M,99.92,VABB 231600Z 23005KT 3500 HZ FEW020 31/25 Q1009 NOSIG,M
VABB,2022-04-23 16:30,87.80,75.20,66.35,250.00,7.00,0.00,29.80,M,2.17,M,FEW,M,M,M,2000.00,M,M,M,HZ,M,M,M,M,M,M,97.76,VABB 231630Z 25007KT 3500 HZ FEW020 31/24 Q1009 NOSIG,M
VABB,2022-04-23 17:00,87.80,77.00,70.45,240.00,6.00,0.00,29.80,M,2.17,M,FEW,M,M,M,2000.00,M,M,M,HZ,M,M,M,M,M,M,99.92,VABB 231700Z 24006KT 3500 HZ FEW020 31/25 Q1009 NOSIG,M
VABB,2022-04-23 17:30,87.80,78.80,74.77,230.00,7.00,0.00,29.80,M,2.17,M,FEW,M,M,M,2000.00,M,M,M,HZ,M,M,M,M,M,M,102.37,VABB 231730Z 23007KT 3500 HZ FEW020 31/26 Q1009 NOSIG,M
VABB,2022-04-23 18:00,87.80,78.80,74.77,220.00,5.00,0.00,29.80,M,2.17,M,FEW,M,M,M,2000.00,M,M,M,HZ,M,M,M,M,M,M,102.37,VABB 231800Z 22005KT 3500 HZ FEW020 31/26 Q1009 NOSIG,M
VABB,2022-04-23 18:30,86.00,80.60,83.99,220.00,7.00,0.00,29.77,M,2.17,M,FEW,M,M,M,2000.00,M,M,M,HZ,M,M,M,M,M,M,101.90,VABB 231830Z 22007KT 3500 HZ FEW020 30/27 Q1008 NOSIG,M
VABB,2022-04-23 19:00,86.00,80.60,83.99,220.00,5.00,0.00,29.77,M,2.17,M,FEW,M,M,M,2000.00,M,M,M,HZ,M,M,M,M,M,M,101.90,VABB 231900Z 22005KT 3500 HZ FEW020 30/27 Q1008 NOSIG,M
VABB,2022-04-23 19:30,86.00,80.60,83.99,250.00,6.00,0.00,29.77,M,2.17,M,FEW,M,M,M,2000.00,M,M,M,HZ,M,M,M,M,M,M,101.90,VABB 231930Z 25006KT 3500 HZ FEW020 30/27 Q1008 NOSIG,M
VABB,2022-04-23 20:00,86.00,80.60,83.99,260.00,7.00,0.00,29.77,M,2.17,M,FEW,M,M,M,2000.00,M,M,M,HZ,M,M,M,M,M,M,101.90,VABB 232000Z 26007KT 3500 HZ FEW020 30/27 Q1008 NOSIG,M
VABB,2022-04-23 20:30,86.00,80.60,83.99,260.00,7.00,0.00,29.77,M,2.17,M,FEW,M,M,M,2000.00,M,M,M,HZ,M,M,M,M,M,M,101.90,VABB 232030Z 26007KT 3500 HZ FEW020 30/27 Q1008 NOSIG,M
VABB,2022-04-23 21:00,86.00,80.60,83.99,250.00,7.00,0.00,29.77,M,2.17,M,FEW,M,M,M,2000.00,M,M,M,HZ,M,M,M,M,M,M,101.90,VABB 232100Z 25007KT 3500 HZ FEW020 30/27 Q1008 NOSIG,M
VABB,2022-04-23 21:30,86.00,80.60,83.99,260.00,6.00,0.00,29.77,M,2.17,M,SCT,M,M,M,2000.00,M,M,M,HZ,M,M,M,M,M,M,101.90,VABB 232130Z 26006KT 3500 HZ SCT020 30/27 Q1008 NOSIG,M
VABB,2022-04-23 22:00,86.00,78.80,79.18,260.00,5.00,0.00,29.77,M,2.17,M,SCT,M,M,M,2000.00,M,M,M,HZ,M,M,M,M,M,M,99.38,VABB 232200Z 26005KT 3500 HZ SCT020 30/26 Q1008 NOSIG,M
VABB,2022-04-23 22:30,86.00,78.80,79.18,0.00,0.00,0.00,29.77,M,2.17,M,SCT,M,M,M,2000.00,M,M,M,HZ,M,M,M,M,M,M,99.38,VABB 232230Z 00000KT 3500 HZ SCT020 30/26 Q1008 NOSIG,M
VABB,2022-04-23 23:00,86.00,78.80,79.18,120.00,4.00,0.00,29.77,M,2.17,M,SCT,M,M,M,2000.00,M,M,M,HZ,M,M,M,M,M,M,99.38,VABB 232300Z 12004KT 3500 HZ SCT020 30/26 Q1008 NOSIG,M
VABB,2022-04-23 23:30,86.00,78.80,79.18,110.00,7.00,0.00,29.77,M,2.17,M,SCT,M,M,M,2000.00,M,M,M,HZ,M,M,M,M,M,M,99.38,VABB 232330Z 11007KT 3500 HZ SCT020 30/26 Q1008 NOSIG,M
VABB,2022-04-24 00:00,86.00,78.80,79.18,110.00,5.00,0.00,29.77,M,2.17,M,SCT,M,M,M,2000.00,M,M,M,HZ,M,M,M,M,M,M,99.38,VABB 240000Z 11005KT 3500 HZ SCT020 30/26 Q1008 NOSIG,M
VABB,2022-04-24 00:30,86.00,78.80,79.18,140.00,5.00,0.00,29.77,M,1.86,M,FEW,SCT,M,M,2000.00,10000.00,M,M,HZ,M,M,M,M,M,M,99.38,VABB 240030Z 14005KT 3000 HZ FEW020 SCT100 30/26 Q1008 NOSIG,M
VABB,2022-04-24 01:00,86.00,78.80,79.18,130.00,6.00,0.00,29.80,M,1.86,M,SCT,M,M,M,10000.00,M,M,M,HZ,M,M,M,M,M,M,99.38,VABB 240100Z 13006KT 3000 HZ SCT100 30/26 Q1009 NOSIG,M
VABB,2022-04-24 01:30,86.00,80.60,83.99,120.00,4.00,0.00,29.80,M,1.86,M,FEW,SCT,M,M,2000.00,10000.00,M,M,HZ,M,M,M,M,M,M,101.90,VABB 240130Z 12004KT 3000 HZ FEW020 SCT100 30/27 Q1009 NOSIG,M
VABB,2022-04-24 02:00,86.00,78.80,79.18,130.00,6.00,0.00,29.80,M,1.86,M,FEW,SCT,M,M,2000.00,10000.00,M,M,HZ,M,M,M,M,M,M,99.38,VABB 240200Z 13006KT 3000 HZ FEW020 SCT100 30/26 Q1009 NOSIG,M
VABB,2022-04-24 02:30,86.00,78.80,79.18,190.00,4.00,0.00,29.83,M,1.86,M,FEW,SCT,M,M,2000.00,10000.00,M,M,HZ,M,M,M,M,M,M,99.38,VABB 240230Z 19004KT 3000 HZ FEW020 SCT100 30/26 Q1010 NOSIG,M
VABB,2022-04-24 03:00,87.80,78.80,74.77,190.00,6.00,0.00,29.83,M,1.86,M,FEW,SCT,M,M,2000.00,10000.00,M,M,HZ,M,M,M,M,M,M,102.37,VABB 240300Z 19006KT 3000 HZ FEW020 SCT100 31/26 Q1010 NOSIG,M
VABB,2022-04-24 03:30,87.80,78.80,74.77,180.00,8.00,0.00,29.85,M,2.17,M,SCT,SCT,M,M,2000.00,10000.00,M,M,HZ,M,M,M,M,M,M,102.37,VABB 240330Z 18008KT 3500 HZ SCT020 SCT100 31/26 Q1011 NOSIG,M
VABB,2022-04-24 04:00,89.60,78.80,70.63,220.00,6.00,0.00,29.85,M,2.17,M,SCT,SCT,M,M,2000.00,10000.00,M,M,HZ,M,M,M,M,M,M,105.15,VABB 240400Z 22006KT 3500 HZ SCT020 SCT100 32/26 Q1011 NOSIG,M
VABB,2022-04-24 04:30,89.60,78.80,70.63,220.00,6.00,0.00,29.85,M,2.17,M,SCT,SCT,M,M,2000.00,10000.00,M,M,HZ,M,M,M,M,M,M,105.15,VABB 240430Z 22006KT 3500 HZ SCT020 SCT100 32/26 Q1011 NOSIG,M
VABB,2022-04-24 05:00,91.40,77.00,62.90,210.00,10.00,0.00,29.85,M,2.17,M,SCT,SCT,M,M,2000.00,10000.00,M,M,HZ,M,M,M,M,M,M,105.06,VABB 240500Z 21010KT 3500 HZ SCT020 SCT100 33/25 Q1011 NOSIG,M
VABB,2022-04-24 05:30,91.40,77.00,62.90,190.00,10.00,0.00,29.85,M,2.17,M,SCT,SCT,M,M,2000.00,10000.00,M,M,HZ,M,M,M,M,M,M,105.06,VABB 240530Z 19010KT 3500 HZ SCT020 SCT100 33/25 Q1011 NOSIG,M
VABB,2022-04-24 06:00,91.40,75.20,59.24,210.00,8.00,0.00,29.85,M,2.17,M,SCT,SCT,M,M,2000.00,10000.00,M,M,HZ,M,M,M,M,M,M,102.65,VABB 240600Z 21008KT 3500 HZ SCT020 SCT100 33/24 Q1011 NOSIG,M
VABB,2022-04-24 06:30,93.20,77.00,59.47,210.00,12.00,0.00,29.83,M,2.49,M,SCT,SCT,M,M,2000.00,10000.00,M,M,FU,M,M,M,M,M,M,107.52,VABB 240630Z 21012KT 4000 FU SCT020 SCT100 34/25 Q1010 NOSIG,M
VABB,2022-04-24 07:00,93.20,77.00,59.47,230.00,11.00,0.00,29.83,M,2.49,M,SCT,SCT,M,M,2000.00,10000.00,M,M,FU,M,M,M,M,M,M,107.52,VABB 240700Z 23011KT 4000 FU SCT020 SCT100 34/25 Q1010 NOSIG,M
VABB,2022-04-24 07:30,93.20,77.00,59.47,230.00,13.00,0.00,29.83,M,2.49,M,SCT,SCT,M,M,2000.00,10000.00,M,M,FU,M,M,M,M,M,M,107.52,VABB 240730Z 23013KT 4000 FU SCT020 SCT100 34/25 Q1010 NOSIG,M
VABB,2022-04-24 08:00,91.40,78.80,66.75,240.00,15.00,0.00,29.80,M,2.49,M,SCT,SCT,M,M,2000.00,10000.00,M,M,FU,M,M,M,M,M,M,107.79,VABB 240800Z 24015KT 4000 FU SCT020 SCT100 33/26 Q1009 NOSIG,M
VABB,2022-04-24 08:30,89.60,78.80,70.63,230.00,14.00,0.00,29.77,M,2.49,M,SCT,SCT,M,M,2000.00,10000.00,M,M,HZ,M,M,M,M,M,M,105.15,VABB 240830Z 23014KT 4000 HZ SCT020 SCT100 32/26 Q1008 NOSIG,M
VABB,2022-04-24 09:00,89.60,80.60,74.93,230.00,13.00,0.00,29.77,M,2.49,M,SCT,SCT,M,M,2000.00,10000.00,M,M,HZ,M,M,M,M,M,M,108.11,VABB 240900Z 23013KT 4000 HZ SCT020 SCT100 32/27 Q1008 NOSIG,M
VABB,2022-04-24 09:30,89.60,78.80,70.63,240.00,13.00,0.00,29.77,M,2.49,M,FEW,SCT,M,M,2000.00,10000.00,M,M,HZ,M,M,M,M,M,M,105.15,VABB 240930Z 24013KT 4000 HZ FEW020 SCT100 32/26 Q1008 NOSIG,M
VABB,2022-04-24 10:00,89.60,77.00,66.55,270.00,14.00,0.00,29.74,M,2.49,M,FEW,SCT,M,M,2000.00,10000.00,M,M,HZ,M,M,M,M,M,M,102.54,VABB 241000Z 27014KT 4000 HZ FEW020 SCT100 32/25 Q1007 NOSIG,M
VABB,2022-04-24 10:30,89.60,78.80,70.63,270.00,11.00,0.00,29.74,M,2.49,M,FEW,SCT,M,M,2000.00,10000.00,M,M,HZ,M,M,M,M,M,M,105.15,VABB 241030Z 27011KT 4000 HZ FEW020 SCT100 32/26 Q1007 NOSIG,M
VABB,2022-04-24 11:00,87.80,78.80,74.77,250.00,12.00,0.00,29.71,M,2.49,M,SCT,SCT,M,M,2000.00,10000.00,M,M,HZ,M,M,M,M,M,M,102.37,VABB 241100Z 25012KT 4000 HZ SCT020 SCT100 31/26 Q1006 NOSIG,M
VABB,2022-04-24 11:30,87.80,78.80,74.77,290.00,10.00,0.00,29.71,M,2.49,M,FEW,SCT,M,M,2000.00,10000.00,M,M,HZ,M,M,M,M,M,M,102.37,VABB 241130Z 29010KT 4000 HZ FEW020 SCT100 31/26 Q1006 NOSIG,M
VABB,2022-04-24 12:00,87.80,78.80,74.77,270.00,9.00,0.00,29.71,M,2.49,M,FEW,SCT,M,M,2000.00,10000.00,M,M,HZ,M,M,M,M,M,M,102.37,VABB 241200Z 27009KT 4000 HZ FEW020 SCT100 31/26 Q1006 NOSIG,M
VABB,2022-04-24 12:30,87.80,78.80,74.77,270.00,11.00,0.00,29.71,M,2.49,M,SCT,M,M,M,2000.00,M,M,M,HZ,M,M,M,M,M,M,102.37,VABB 241230Z 27011KT 4000 HZ SCT020 31/26 Q1006 NOSIG,M
VABB,2022-04-24 13:00,87.80,78.80,74.77,290.00,6.00,0.00,29.71,M,2.49,M,SCT,M,M,M,2000.00,M,M,M,HZ,M,M,M,M,M,M,102.37,VABB 241300Z 29006KT 4000 HZ SCT020 31/26 Q1006 NOSIG,M
VABB,2022-04-24 13:30,87.80,78.80,74.77,320.00,6.00,0.00,29.71,M,2.49,M,SCT,M,M,M,2000.00,M,M,M,HZ,M,M,M,M,M,M,102.37,VABB 241330Z 32006KT 4000 HZ SCT020 31/26 Q1006 BECMG 3000 FU,M
VABB,2022-04-24 14:00,86.00,78.80,79.18,310.00,7.00,0.00,29.74,M,2.17,M,SCT,M,M,M,2000.00,M,M,M,HZ,M,M,M,M,M,M,99.38,VABB 241400Z 31007KT 3500 HZ SCT020 30/26 Q1007 NOSIG,M
VABB,2022-04-24 14:30,86.00,78.80,79.18,320.00,7.00,0.00,29.74,M,2.17,M,SCT,M,M,M,2000.00,M,M,M,HZ,M,M,M,M,M,M,99.38,VABB 241430Z 32007KT 3500 HZ SCT020 30/26 Q1007 NOSIG,M
VABB,2022-04-24 15:00,87.80,77.00,70.45,330.00,5.00,0.00,29.74,M,2.17,M,SCT,M,M,M,2000.00,M,M,M,HZ,M,M,M,M,M,M,99.92,VABB 241500Z 33005KT 3500 HZ SCT020 31/25 Q1007 NOSIG,M
VABB,2022-04-24 15:30,87.80,77.00,70.45,10.00,5.00,0.00,29.74,M,2.17,M,FEW,M,M,M,2000.00,M,M,M,HZ,M,M,M,M,M,M,99.92,VABB 241530Z 01005KT 3500 HZ FEW020 31/25 Q1007 NOSIG,M
VABB,2022-04-24 16:00,86.00,78.80,79.18,350.00,4.00,0.00,29.77,M,2.17,M,FEW,M,M,M,2000.00,M,M,M,HZ,M,M,M,M,M,M,99.38,VABB 241600Z 35004KT 3500 HZ FEW020 30/26 Q1008 NOSIG,M
VABB,2022-04-24 16:30,86.00,77.00,74.61,10.00,3.00,0.00,29.77,M,2.17,M,NSC,M,M,M,M,M,M,M,HZ,M,M,M,M,M,M,97.15,VABB 241630Z 01003KT 3500 HZ NSC 30/25 Q1008 NOSIG,M
VABB,2022-04-24 17:00,87.80,77.00,70.45,0.00,0.00,0.00,29.77,M,2.17,M,NSC,M,M,M,M,M,M,M,HZ,M,M,M,M,M,M,99.92,VABB 241700Z 00000KT 3500 HZ NSC 31/25 Q1008 NOSIG,M
VABB,2022-04-24 17:30,86.00,75.20,70.27,350.00,5.00,0.00,29.77,M,2.17,M,NSC,M,M,M,M,M,M,M,HZ,M,M,M,M,M,M,95.19,VABB 241730Z 35005KT 3500 HZ NSC 30/24 Q1008 NOSIG,M
VABB,2022-04-24 18:00,87.80,75.20,66.35,330.00,3.00,0.00,29.77,M,2.17,M,NSC,M,M,M,M,M,M,M,HZ,M,M,M,M,M,M,97.76,VABB 241800Z 33003KT 3500 HZ NSC 31/24 Q1008 NOSIG,M
VABB,2022-04-24 18:30,86.00,75.20,70.27,110.00,4.00,0.00,29.77,M,2.17,M,NSC,M,M,M,M,M,M,M,HZ,M,M,M,M,M,M,95.19,VABB 241830Z 11004KT 3500 HZ NSC 30/24 Q1008 NOSIG,M
VABB,2022-04-24 19:00,86.00,75.20,70.27,0.00,0.00,0.00,29.74,M,2.17,M,NSC,M,M,M,M,M,M,M,HZ,M,M,M,M,M,M,95.19,VABB 241900Z 00000KT 3500 HZ NSC 30/24 Q1007 NOSIG,M
VABB,2022-04-24 19:30,86.00,75.20,70.27,330.00,4.00,0.00,29.74,M,2.17,M,NSC,M,M,M,M,M,M,M,HZ,M,M,M,M,M,M,95.19,VABB 241930Z 33004KT 3500 HZ NSC 30/24 Q1007 NOSIG,M
VABB,2022-04-24 20:00,86.00,77.00,74.61,340.00,5.00,0.00,29.74,M,2.17,M,NSC,M,M,M,M,M,M,M,HZ,M,M,M,M,M,M,97.15,VABB 242000Z 34005KT 3500 HZ NSC 30/25 Q1007 NOSIG,M
VABB,2022-04-24 20:30,84.20,77.00,79.04,20.00,6.00,0.00,29.71,M,2.17,M,NSC,M,M,M,M,M,M,M,HZ,M,M,M,M,M,M,94.16,VABB 242030Z 02006KT 3500 HZ NSC 29/25 Q1006 NOSIG,M
VABB,2022-04-24 21:00,84.20,75.20,74.44,340.00,5.00,0.00,29.71,M,2.17,M,NSC,M,M,M,M,M,M,M,HZ,M,M,M,M,M,M,92.45,VABB 242100Z 34005KT 3500 HZ NSC 29/24 Q1006 NOSIG,M
VABB,2022-04-24 21:30,84.20,71.60,65.95,0.00,0.00,0.00,29.71,M,2.17,M,NSC,M,M,M,M,M,M,M,HZ,M,M,M,M,M,M,89.60,VABB 242130Z 00000KT 3500 HZ NSC 29/22 Q1006 NOSIG,M
VABB,2022-04-24 22:00,84.20,71.60,65.95,100.00,4.00,0.00,29.71,M,2.17,M,NSC,M,M,M,M,M,M,M,HZ,M,M,M,M,M,M,89.60,VABB 242200Z 10004KT 3500 HZ NSC 29/22 Q1006 NOSIG,M
VABB,2022-04-24 22:30,82.40,73.40,74.28,100.00,4.00,0.00,29.71,M,2.17,M,NSC,M,M,M,M,M,M,M,HZ,M,M,M,M,M,M,88.26,VABB 242230Z 10004KT 3500 HZ NSC 28/23 Q1006 NOSIG,M
VABB,2022-04-24 23:00,84.20,73.40,70.08,80.00,4.00,0.00,29.71,M,2.17,M,NSC,M,M,M,M,M,M,M,HZ,M,M,M,M,M,M,90.94,VABB 242300Z 08004KT 3500 HZ NSC 29/23 Q1006 NOSIG,M
VABB,2022-04-24 23:30,84.20,73.40,70.08,70.00,4.00,0.00,29.71,M,2.17,M,NSC,M,M,M,M,M,M,M,HZ,M,M,M,M,M,M,90.94,VABB 242330Z 07004KT 3500 HZ NSC 29/23 Q1006 BECMG 3000 HZ,M
VABB,2022-04-25 00:00,84.20,73.40,70.08,0.00,0.00,0.00,29.71,M,1.86,M,NSC,M,M,M,M,M,M,M,HZ,M,M,M,M,M,M,90.94,VABB 250000Z 00000KT 3000 HZ NSC 29/23 Q1006 NOSIG,M
VABB,2022-04-25 00:30,84.20,73.40,70.08,0.00,0.00,0.00,29.74,M,1.86,M,NSC,M,M,M,M,M,M,M,HZ,M,M,M,M,M,M,90.94,VABB 250030Z 00000KT 3000 HZ NSC 29/23 Q1007 NOSIG,M
VABB,2022-04-25 01:00,84.20,73.40,70.08,M,2.00,0.00,29.74,M,1.86,M,NSC,M,M,M,M,M,M,M,HZ,M,M,M,M,M,M,90.94,VABB 250100Z VRB02KT 3000 HZ NSC 29/23 Q1007 NOSIG,M
VABB,2022-04-25 01:30,84.20,71.60,65.95,0.00,0.00,0.00,29.74,M,1.86,M,NSC,M,M,M,M,M,M,M,HZ,M,M,M,M,M,M,89.60,VABB 250130Z 00000KT 3000 HZ NSC 29/22 Q1007 NOSIG,M
VABB,2022-04-25 02:00,86.00,71.60,62.25,10.00,3.00,0.00,29.77,M,1.86,M,NSC,M,M,M,M,M,M,M,HZ,M,M,M,M,M,M,91.92,VABB 250200Z 01003KT 3000 HZ NSC 30/22 Q1008 NOSIG,M
VABB,2022-04-25 02:30,87.80,69.80,55.29,40.00,4.00,0.00,29.77,M,1.86,M,NSC,M,M,M,M,M,M,M,HZ,M,M,M,M,M,M,92.71,VABB 250230Z 04004KT 3000 HZ NSC 31/21 Q1008 NOSIG,M
VABB,2022-04-25 03:00,89.60,68.00,49.10,40.00,3.00,0.00,29.80,M,1.86,M,NSC,M,M,M,M,M,M,M,FU,M,M,M,M,M,M,93.47,VABB 250300Z 04003KT 3000 FU NSC 32/20 Q1009 NOSIG,M
VABB,2022-04-25 03:30,89.60,68.00,49.10,30.00,3.00,0.00,29.80,M,1.86,M,NSC,M,M,M,M,M,M,M,FU,M,M,M,M,M,M,93.47,VABB 250330Z 03003KT 3000 FU NSC 32/20 Q1009 NOSIG,M
VABB,2022-04-25 04:00,93.20,64.40,38.73,0.00,0.00,0.00,29.80,M,1.86,M,NSC,M,M,M,M,M,M,M,FU,M,M,M,M,M,M,95.20,VABB 250400Z 00000KT 3000 FU NSC 34/18 Q1009 NOSIG,M
VABB,2022-04-25 04:30,95.00,62.60,34.39,340.00,5.00,0.00,29.80,M,2.49,M,NSC,M,M,M,M,M,M,M,FU,M,M,M,M,M,M,96.22,VABB 250430Z 34005KT 4000 FU NSC 35/17 Q1009 NOSIG,M
VABB,2022-04-25 05:00,96.80,57.20,26.84,20.00,5.00,0.00,29.80,M,2.49,M,NSC,M,M,M,M,M,M,M,FU,M,M,M,M,M,M,95.77,VABB 250500Z 02005KT 4000 FU NSC 36/14 Q1009 NOSIG,M
VABB,2022-04-25 05:30,98.60,55.40,23.81,60.00,7.00,0.00,29.77,M,2.49,M,NSC,M,M,M,M,M,M,M,FU,M,M,M,M,M,M,97.09,VABB 250530Z 06007KT 4000 FU NSC 37/13 Q1008 NOSIG,M
VABB,2022-04-25 06:00,100.40,53.60,21.11,10.00,7.00,0.00,29.77,M,2.49,M,NSC,M,M,M,M,M,M,M,FU,M,M,M,M,M,M,98.44,VABB 250600Z 01007KT 4000 FU NSC 38/12 Q1008 NOSIG,M
VABB,2022-04-25 06:30,100.40,57.20,24.06,300.00,7.00,0.00,29.77,M,2.49,M,NSC,M,M,M,M,M,M,M,FU,M,M,M,M,M,M,99.77,VABB 250630Z 30007KT 4000 FU NSC 38/14 Q1008 NOSIG,M
VABB,2022-04-25 07:00,102.20,53.60,20.00,320.00,6.00,0.00,29.74,M,2.49,M,NSC,M,M,M,M,M,M,M,FU,M,M,M,M,M,M,100.38,VABB 250700Z 32006KT 4000 FU NSC 39/12 Q1007 NOSIG,M
VABB,2022-04-25 07:30,98.60,68.00,37.17,270.00,9.00,0.00,29.71,M,2.49,M,NSC,M,M,M,M,M,M,M,FU,M,M,M,M,M,M,104.22,VABB 250730Z 27009KT 4000 FU NSC 37/20 Q1006 NOSIG,M
VABB,2022-04-25 08:00,100.40,66.20,33.08,290.00,11.00,0.00,29.71,M,2.49,M,NSC,M,M,M,M,M,M,M,FU,M,M,M,M,M,M,104.98,VABB 250800Z 29011KT 4000 FU NSC 38/19 Q1006 NOSIG,M
VABB,2022-04-25 08:30,98.60,69.80,39.54,300.00,10.00,0.00,29.68,M,2.49,M,NSC,M,M,M,M,M,M,M,FU,M,M,M,M,M,M,105.85,VABB 250830Z 30010KT 4000 FU NSC 37/21 Q1005 NOSIG,M
VABB,2022-04-25 09:00,98.60,66.20,34.93,280.00,13.00,0.00,29.68,M,2.49,M,NSC,M,M,M,M,M,M,M,FU,M,M,M,M,M,M,102.78,VABB 250900Z 28013KT 4000 FU NSC 37/19 Q1005 NOSIG,M
VABB,2022-04-25 09:30,96.80,66.20,36.90,270.00,12.00,0.00,29.65,M,2.49,M,NSC,M,M,M,M,M,M,M,FU,M,M,M,M,M,M,100.60,VABB 250930Z 27012KT 4000 FU NSC 36/19 Q1004 NOSIG,M
VABB,2022-04-25 10:00,98.60,62.60,30.80,270.00,13.00,0.00,29.65,M,2.49,M,NSC,M,M,M,M,M,M,M,FU,M,M,M,M,M,M,100.38,VABB 251000Z 27013KT 4000 FU NSC 37/17 Q1004 NOSIG,M
VABB,2022-04-25 10:30,100.40,60.80,27.37,310.00,11.00,0.00,29.65,M,2.49,M,NSC,M,M,M,M,M,M,M,FU,M,M,M,M,M,M,101.47,VABB 251030Z 31011KT 4000 FU NSC 38/16 Q1004 NOSIG,M
VABB,2022-04-25 11:00,98.60,60.80,28.90,310.00,10.00,0.00,29.65,M,2.49,M,NSC,M,M,M,M,M,M,M,FU,M,M,M,M,M,M,99.39,VABB 251100Z 31010KT 4000 FU NSC 37/16 Q1004 NOSIG,M
VABB,2022-04-25 11:30,98.60,59.00,27.10,310.00,11.00,0.00,29.62,M,2.49,M,NSC,M,M,M,M,M,M,M,FU,M,M,M,M,M,M,98.52,VABB 251130Z 31011KT 4000 FU NSC 37/15 Q1003 NOSIG,M
VABB,2022-04-25 12:00,96.80,57.20,26.84,310.00,10.00,0.00,29.65,M,2.49,M,NSC,M,M,M,M,M,M,M,FU,M,M,M,M,M,M,95.77,VABB 251200Z 31010KT 4000 FU NSC 36/14 Q1004 NOSIG,M
VABB,2022-04-25 12:30,96.80,60.80,30.53,310.00,9.00,0.00,29.65,M,2.49,M,NSC,M,M,M,M,M,M,M,FU,M,M,M,M,M,M,97.33,VABB 251230Z 31009KT 4000 FU NSC 36/16 Q1004 NOSIG,M
VABB,2022-04-25 13:00,95.00,64.40,36.63,310.00,9.00,0.00,29.65,M,2.49,M,NSC,M,M,M,M,M,M,M,FU,M,M,M,M,M,M,97.26,VABB 251300Z 31009KT 4000 FU NSC 35/18 Q1004 NOSIG,M
VABB,2022-04-25 13:30,93.20,66.20,41.23,300.00,6.00,0.00,29.65,M,2.49,M,NSC,M,M,M,M,M,M,M,FU,M,M,M,M,M,M,96.35,VABB 251330Z 30006KT 4000 FU NSC 34/19 Q1004 NOSIG,M
VABB,2022-04-25 14:00,93.20,64.40,38.73,350.00,4.00,0.00,29.68,M,2.49,M,NSC,M,M,M,M,M,M,M,FU,M,M,M,M,M,M,95.20,VABB 251400Z 35004KT 4000 FU NSC 34/18 Q1005 NOSIG,M
VABB,2022-04-25 14:30,93.20,66.20,41.23,290.00,5.00,0.00,29.71,M,2.49,M,NSC,M,M,M,M,M,M,M,FU,M,M,M,M,M,M,96.35,VABB 251430Z 29005KT 4000 FU NSC 34/19 Q1006 NOSIG,M
VABB,2022-04-25 15:00,91.40,71.60,52.48,280.00,6.00,0.00,29.71,M,2.49,M,NSC,M,M,M,M,M,M,M,FU,M,M,M,M,M,M,98.64,VABB 251500Z 28006KT 4000 FU NSC 33/22 Q1006 NOSIG,M
VABB,2022-04-25 15:30,89.60,73.40,59.01,300.00,5.00,0.00,29.74,M,2.49,M,NSC,M,M,M,M,M,M,M,FU,M,M,M,M,M,M,98.20,VABB 251530Z 30005KT 4000 FU NSC 32/23 Q1007 NOSIG,M
VABB,2022-04-25 16:00,89.60,73.40,59.01,320.00,6.00,0.00,29.74,M,2.49,M,NSC,M,M,M,M,M,M,M,FU,M,M,M,M,M,M,98.20,VABB 251600Z 32006KT 4000 FU NSC 32/23 Q1007 NOSIG,M
VABB,2022-04-25 16:30,87.80,73.40,62.47,290.00,4.00,0.00,29.77,M,2.49,M,NSC,M,M,M,M,M,M,M,FU,M,M,M,M,M,M,95.86,VABB 251630Z 29004KT 4000 FU NSC 31/23 Q1008 NOSIG,M
VABB,2022-04-25 17:00,87.80,75.20,66.35,300.00,7.00,0.00,29.77,M,2.49,M,NSC,M,M,M,M,M,M,M,HZ,M,M,M,M,M,M,97.76,VABB 251700Z 30007KT 4000 HZ NSC 31/24 Q1008 NOSIG,M
VABB,2022-04-25 17:30,87.80,73.40,62.47,300.00,4.00,0.00,29.77,M,2.49,M,NSC,M,M,M,M,M,M,M,HZ,M,M,M,M,M,M,95.86,VABB 251730Z 30004KT 4000 HZ NSC 31/23 Q1008 NOSIG,M
VABB,2022-04-25 18:00,87.80,71.60,58.78,310.00,3.00,0.00,29.77,M,2.49,M,NSC,M,M,M,M,M,M,M,HZ,M,M,M,M,M,M,94.18,VABB 251800Z 31003KT 4000 HZ NSC 31/22 Q1008 NOSIG,M
VABB,2022-04-25 18:30,87.80,71.60,58.78,280.00,6.00,0.00,29.77,M,2.49,M,NSC,M,M,M,M,M,M,M,HZ,M,M,M,M,M,M,94.18,VABB 251830Z 28006KT 4000 HZ NSC 31/22 Q1008 NOSIG,M
VABB,2022-04-25 19:00,86.00,71.60,62.25,260.00,6.00,0.00,29.77,M,2.49,M,NSC,M,M,M,M,M,M,M,HZ,M,M,M,M,M,M,91.92,VABB 251900Z 26006KT 4000 HZ NSC 30/22 Q1008 NOSIG,M
VABB,2022-04-25 19:30,87.80,71.60,58.78,300.00,4.00,0.00,29.74,M,2.49,M,NSC,M,M,M,M,M,M,M,HZ,M,M,M,M,M,M,94.18,VABB 251930Z 30004KT 4000 HZ NSC 31/22 Q1007 NOSIG,M
VABB,2022-04-25 20:00,87.80,71.60,58.78,310.00,4.00,0.00,29.74,M,2.49,M,NSC,M,M,M,M,M,M,M,FU,M,M,M,M,M,M,94.18,VABB 252000Z 31004KT 4000 FU NSC 31/22 Q1007 NOSIG,M
VABB,2022-04-25 20:30,87.80,69.80,55.29,0.00,0.00,0.00,29.74,M,2.49,M,NSC,M,M,M,M,M,M,M,FU,M,M,M,M,M,M,92.71,VABB 252030Z 00000KT 4000 FU NSC 31/21 Q1007 NOSIG,M
VABB,2022-04-25 21:00,86.00,69.80,58.55,0.00,0.00,0.00,29.71,M,2.49,M,NSC,M,M,M,M,M,M,M,FU,M,M,M,M,M,M,90.58,VABB 252100Z 00000KT 4000 FU NSC 30/21 Q1006 NOSIG,M
VABB,2022-04-25 21:30,84.20,71.60,65.95,0.00,0.00,0.00,29.71,M,2.17,M,NSC,M,M,M,M,M,M,M,HZ,M,M,M,M,M,M,89.60,VABB 252130Z 00000KT 3500 HZ NSC 29/22 Q1006 NOSIG,M
VABB,2022-04-25 22:00,84.20,71.60,65.95,0.00,0.00,0.00,29.71,M,2.49,M,NSC,M,M,M,M,M,M,M,HZ,M,M,M,M,M,M,89.60,VABB 252200Z 00000KT 4000 HZ NSC 29/22 Q1006 NOSIG,M
VABB,2022-04-25 22:30,84.20,71.60,65.95,0.00,0.00,0.00,29.71,M,2.49,M,NSC,M,M,M,M,M,M,M,HZ,M,M,M,M,M,M,89.60,VABB 252230Z 00000KT 4000 HZ NSC 29/22 Q1006 NOSIG,M
VABB,2022-04-25 23:00,86.00,71.60,62.25,270.00,3.00,0.00,29.71,M,2.49,M,NSC,M,M,M,M,M,M,M,HZ,M,M,M,M,M,M,91.92,VABB 252300Z 27003KT 4000 HZ NSC 30/22 Q1006 NOSIG,M
VABB,2022-04-25 23:30,86.00,73.40,66.15,180.00,4.00,0.00,29.74,M,2.49,M,NSC,M,M,M,M,M,M,M,HZ,M,M,M,M,M,M,93.45,VABB 252330Z 18004KT 4000 HZ NSC 30/23 Q1007 NOSIG,M
VABB,2022-04-26 00:00,84.20,73.40,70.08,180.00,5.00,0.00,29.74,M,2.49,M,NSC,M,M,M,M,M,M,M,HZ,M,M,M,M,M,M,90.94,VABB 260000Z 18005KT 4000 HZ NSC 29/23 Q1007 NOSIG,M
VABB,2022-04-26 00:30,84.20,77.00,79.04,170.00,4.00,0.00,29.74,M,2.17,M,FEW,M,M,M,10000.00,M,M,M,HZ,M,M,M,M,M,M,94.16,VABB 260030Z 17004KT 3500 HZ FEW100 29/25 Q1007 NOSIG,M
VABB,2022-04-26 01:00,84.20,75.20,74.44,190.00,6.00,0.00,29.77,M,2.17,M,FEW,M,M,M,2000.00,M,M,M,HZ,M,M,M,M,M,M,92.45,VABB 260100Z 19006KT 3500 HZ FEW020 29/24 Q1008 NOSIG,M
VABB,2022-04-26 01:30,86.00,77.00,74.61,180.00,6.00,0.00,29.77,M,2.17,M,SCT,M,M,M,2000.00,M,M,M,HZ,M,M,M,M,M,M,97.15,VABB 260130Z 18006KT 3500 HZ SCT020 30/25 Q1008 NOSIG,M
VABB,2022-04-26 02:00,86.00,75.20,70.27,190.00,6.00,0.00,29.80,M,1.86,M,FEW,M,M,M,2000.00,M,M,M,HZ,M,M,M,M,M,M,95.19,VABB 260200Z 19006KT 3000 HZ FEW020 30/24 Q1009 NOSIG,M
VABB,2022-04-26 02:30,86.00,69.80,58.55,190.00,8.00,0.00,29.80,M,1.86,M,FEW,SCT,M,M,2000.00,10000.00,M,M,FU,M,M,M,M,M,M,90.58,VABB 260230Z 19008KT 3000 FU FEW020 SCT100 30/21 Q1009 NOSIG,M
VABB,2022-04-26 03:00,87.80,69.80,55.29,190.00,7.00,0.00,29.80,M,1.86,M,FEW,SCT,M,M,2000.00,10000.00,M,M,FU,M,M,M,M,M,M,92.71,VABB 260300Z 19007KT 3000 FU FEW020 SCT100 31/21 Q1009 NOSIG,M
VABB,2022-04-26 03:30,89.60,71.60,55.53,230.00,6.00,0.00,29.83,M,1.86,M,FEW,M,M,M,2000.00,M,M,M,FU,M,M,M,M,M,M,96.41,VABB 260330Z 23006KT 3000 FU FEW020 32/22 Q1010 NOSIG,M
VABB,2022-04-26 04:00,89.60,71.60,55.53,220.00,5.00,0.00,29.83,M,1.86,M,FEW,M,M,M,2000.00,M,M,M,FU,M,M,M,M,M,M,96.41,VABB 260400Z 22005KT 3000 FU FEW020 32/22 Q1010 NOSIG,M
VABB,2022-04-26 04:30,89.60,71.60,55.53,210.00,7.00,0.00,29.83,M,1.86,M,FEW,M,M,M,2000.00,M,M,M,FU,M,M,M,M,M,M,96.41,VABB 260430Z 21007KT 3000 FU FEW020 32/22 Q1010 NOSIG,M
VABB,2022-04-26 05:00,91.40,75.20,59.24,260.00,8.00,0.00,29.83,M,1.86,M,FEW,M,M,M,2000.00,M,M,M,FU,M,M,M,M,M,M,102.65,VABB 260500Z 26008KT 3000 FU FEW020 33/24 Q1010 NOSIG,M
VABB,2022-04-26 05:30,91.40,77.00,62.90,250.00,9.00,0.00,29.83,M,1.86,M,FEW,M,M,M,2000.00,M,M,M,HZ,M,M,M,M,M,M,105.06,VABB 260530Z 25009KT 3000 HZ FEW020 33/25 Q1010 NOSIG,M
VABB,2022-04-26 06:00,91.40,75.20,59.24,240.00,7.00,0.00,29.80,M,2.49,M,FEW,M,M,M,2000.00,M,M,M,FU,M,M,M,M,M,M,102.65,VABB 260600Z 24007KT 4000 FU FEW020 33/24 Q1009 NOSIG,M
VABB,2022-04-26 06:30,93.20,75.20,56.01,210.00,10.00,0.00,29.80,M,2.49,M,FEW,M,M,M,2000.00,M,M,M,FU,M,M,M,M,M,M,105.02,VABB 260630Z 21010KT 4000 FU FEW020 34/24 Q1009 NOSIG,M
VABB,2022-04-26 07:00,91.40,75.20,59.24,260.00,10.00,0.00,29.80,M,2.49,M,FEW,M,M,M,2000.00,M,M,M,FU,M,M,M,M,M,M,102.65,VABB 260700Z 26010KT 4000 FU FEW020 33/24 Q1009 NOSIG,M
VABB,2022-04-26 07:30,91.40,71.60,52.48,250.00,8.00,0.00,29.80,M,2.49,M,FEW,M,M,M,2000.00,M,M,M,FU,M,M,M,M,M,M,98.64,VABB 260730Z 25008KT 4000 FU FEW020 33/22 Q1009 NOSIG,M
VABB,2022-04-26 08:00,93.20,69.80,46.67,240.00,10.00,0.00,29.77,M,2.49,M,FEW,M,M,M,2000.00,M,M,M,FU,M,M,M,M,M,M,99.17,VABB 260800Z 24010KT 4000 FU FEW020 34/21 Q1008 NOSIG,M
VABB,2022-04-26 08:30,91.40,71.60,52.48,260.00,11.00,0.00,29.77,M,2.49,M,FEW,M,M,M,2000.00,M,M,M,FU,M,M,M,M,M,M,98.64,VABB 260830Z 26011KT 4000 FU FEW020 33/22 Q1008 NOSIG,M
VABB,2022-04-26 09:00,91.40,73.40,55.77,270.00,11.00,0.00,29.74,M,2.49,M,FEW,M,M,M,2000.00,M,M,M,FU,M,M,M,M,M,M,100.52,VABB 260900Z 27011KT 4000 FU FEW020 33/23 Q1007 BECMG 5000 FU,M
VABB,2022-04-26 09:30,93.20,75.20,56.01,280.00,11.00,0.00,29.74,M,3.11,M,FEW,M,M,M,10000.00,M,M,M,FU,M,M,M,M,M,M,105.02,VABB 260930Z 28011KT 5000 FU FEW100 34/24 Q1007 NOSIG,M
VABB,2022-04-26 10:00,91.40,75.20,59.24,270.00,12.00,0.00,29.71,M,3.11,M,NSC,M,M,M,M,M,M,M,FU,M,M,M,M,M,M,102.65,VABB 261000Z 27012KT 5000 FU NSC 33/24 Q1006 NOSIG,M
VABB,2022-04-26 10:30,91.40,75.20,59.24,280.00,11.00,0.00,29.71,M,3.73,M,NSC,M,M,M,M,M,M,M,M,M,M,M,M,M,M,102.65,VABB 261030Z 28011KT 6000 NSC 33/24 Q1006 NOSIG,M
VABB,2022-04-26 11:00,89.60,77.00,66.55,270.00,12.00,0.00,29.71,M,3.73,M,NSC,M,M,M,M,M,M,M,M,M,M,M,M,M,M,102.54,VABB 261100Z 27012KT 6000 NSC 32/25 Q1006 NOSIG,M
VABB,2022-04-26 11:30,89.60,77.00,66.55,270.00,11.00,0.00,29.68,M,3.73,M,NSC,M,M,M,M,M,M,M,M,M,M,M,M,M,M,102.54,VABB 261130Z 27011KT 6000 NSC 32/25 Q1005 NOSIG,M
VABB,2022-04-26 12:00,89.60,77.00,66.55,280.00,10.00,0.00,29.71,M,3.73,M,NSC,M,M,M,M,M,M,M,M,M,M,M,M,M,M,102.54,VABB 261200Z 28010KT 6000 NSC 32/25 Q1006 NOSIG,M
VABB,2022-04-26 12:30,89.60,77.00,66.55,290.00,11.00,0.00,29.71,M,3.73,M,NSC,M,M,M,M,M,M,M,M,M,M,M,M,M,M,102.54,VABB 261230Z 29011KT 6000 NSC 32/25 Q1006 NOSIG,M
VABB,2022-04-26 13:00,89.60,77.00,66.55,290.00,9.00,0.00,29.71,M,3.73,M,FEW,M,M,M,2000.00,M,M,M,M,M,M,M,M,M,M,102.54,VABB 261300Z 29009KT 6000 FEW020 32/25 Q1006 BECMG 5000 HZ,M
VABB,2022-04-26 13:30,87.80,75.20,66.35,320.00,7.00,0.00,29.71,M,3.11,M,FEW,M,M,M,2000.00,M,M,M,HZ,M,M,M,M,M,M,97.76,VABB 261330Z 32007KT 5000 HZ FEW020 31/24 Q1006 NOSIG,M
VABB,2022-04-26 14:00,87.80,77.00,70.45,300.00,7.00,0.00,29.71,M,2.80,M,FEW,M,M,M,10000.00,M,M,M,HZ,M,M,M,M,M,M,99.92,VABB 261400Z 30007KT 4500 HZ FEW100 31/25 Q1006 NOSIG,M
VABB,2022-04-26 14:30,87.80,77.00,70.45,300.00,7.00,0.00,29.74,M,2.49,M,FEW,M,M,M,10000.00,M,M,M,HZ,M,M,M,M,M,M,99.92,VABB 261430Z 30007KT 4000 HZ FEW100 31/25 Q1007 NOSIG,M
VABB,2022-04-26 15:00,87.80,75.20,66.35,300.00,7.00,0.00,29.74,M,2.49,M,FEW,M,M,M,10000.00,M,M,M,HZ,M,M,M,M,M,M,97.76,VABB 261500Z 30007KT 4000 HZ FEW100 31/24 Q1007 NOSIG,M
VABB,2022-04-26 15:30,87.80,75.20,66.35,310.00,5.00,0.00,29.74,M,2.49,M,FEW,M,M,M,10000.00,M,M,M,HZ,M,M,M,M,M,M,97.76,VABB 261530Z 31005KT 4000 HZ FEW100 31/24 Q1007 NOSIG,M
VABB,2022-04-26 16:00,87.80,75.20,66.35,320.00,4.00,0.00,29.74,M,2.49,M,FEW,M,M,M,10000.00,M,M,M,HZ,M,M,M,M,M,M,97.76,VABB 261600Z 32004KT 4000 HZ FEW100 31/24 Q1007 NOSIG,M
VABB,2022-04-26 16:30,87.80,75.20,66.35,300.00,3.00,0.00,29.77,M,2.49,M,FEW,M,M,M,10000.00,M,M,M,HZ,M,M,M,M,M,M,97.76,VABB 261630Z 30003KT 4000 HZ FEW100 31/24 Q1008 NOSIG,M
VABB,2022-04-26 17:00,87.80,77.00,70.45,310.00,5.00,0.00,29.77,M,2.49,M,FEW,SCT,M,M,2000.00,10000.00,M,M,HZ,M,M,M,M,M,M,99.92,VABB 261700Z 31005KT 4000 HZ FEW020 SCT100 31/25 Q1008 NOSIG,M
VABB,2022-04-26 17:30,86.00,77.00,74.61,310.00,5.00,0.00,29.77,M,2.49,M,FEW,SCT,M,M,2000.00,10000.00,M,M,HZ,M,M,M,M,M,M,97.15,VABB 261730Z 31005KT 4000 HZ FEW020 SCT100 30/25 Q1008 NOSIG,M
VABB,2022-04-26 18:00,86.00,77.00,74.61,290.00,7.00,0.00,29.77,M,2.49,M,FEW,SCT,M,M,2000.00,10000.00,M,M,HZ,M,M,M,M,M,M,97.15,VABB 261800Z 29007KT 4000 HZ FEW020 SCT100 30/25 Q1008 NOSIG,M
VABB,2022-04-26 18:30,86.00,77.00,74.61,310.00,7.00,0.00,29.77,M,2.49,M,FEW,M,M,M,2000.00,M,M,M,HZ,M,M,M,M,M,M,97.15,VABB 261830Z 31007KT 4000 HZ FEW020 30/25 Q1008 NOSIG,M
VABB,2022-04-26 19:00,86.00,77.00,74.61,320.00,6.00,0.00,29.74,M,2.49,M,FEW,M,M,M,2000.00,M,M,M,HZ,M,M,M,M,M,M,97.15,VABB 261900Z 32006KT 4000 HZ FEW020 30/25 Q1007 NOSIG,M
VABB,2022-04-26 19:30,86.00,77.00,74.61,310.00,5.00,0.00,29.74,M,2.49,M,FEW,M,M,M,2000.00,M,M,M,HZ,M,M,M,M,M,M,97.15,VABB 261930Z 31005KT 4000 HZ FEW020 30/25 Q1007 NOSIG,M
VABB,2022-04-26 20:00,86.00,77.00,74.61,330.00,5.00,0.00,29.74,M,2.49,M,FEW,M,M,M,2000.00,M,M,M,HZ,M,M,M,M,M,M,97.15,VABB 262000Z 33005KT 4000 HZ FEW020 30/25 Q1007 NOSIG,M
VABB,2022-04-26 20:30,86.00,75.20,70.27,300.00,3.00,0.00,29.74,M,2.49,M,FEW,M,M,M,2000.00,M,M,M,HZ,M,M,M,M,M,M,95.19,VABB 262030Z 30003KT 4000 HZ FEW020 30/24 Q1007 NOSIG,M
VABB,2022-04-26 21:00,86.00,77.00,74.61,20.00,5.00,0.00,29.71,M,2.49,M,FEW,M,M,M,2000.00,M,M,M,HZ,M,M,M,M,M,M,97.15,VABB 262100Z 02005KT 4000 HZ FEW020 30/25 Q1006 NOSIG,M
VABB,2022-04-26 21:30,84.20,75.20,74.44,0.00,0.00,0.00,29.71,M,2.49,M,FEW,SCT,M,M,2000.00,10000.00,M,M,HZ,M,M,M,M,M,M,92.45,VABB 262130Z 00000KT 4000 HZ FEW020 SCT100 29/24 Q1006 NOSIG,M
VABB,2022-04-26 22:00,84.20,75.20,74.44,10.00,4.00,0.00,29.71,M,2.49,M,FEW,SCT,M,M,2000.00,10000.00,M,M,HZ,M,M,M,M,M,M,92.45,VABB 262200Z 01004KT 4000 HZ FEW020 SCT100 29/24 Q1006 NOSIG,M
VABB,2022-04-26 22:30,84.20,75.20,74.44,350.00,4.00,0.00,29.71,M,2.49,M,FEW,SCT,M,M,2000.00,10000.00,M,M,HZ,M,M,M,M,M,M,92.45,VABB 262230Z 35004KT 4000 HZ FEW020 SCT100 29/24 Q1006 NOSIG,M
VABB,2022-04-26 23:00,84.20,73.40,70.08,300.00,3.00,0.00,29.71,M,2.49,M,FEW,SCT,M,M,2000.00,10000.00,M,M,HZ,M,M,M,M,M,M,90.94,VABB 262300Z 30003KT 4000 HZ FEW020 SCT100 29/23 Q1006 NOSIG,M
VABB,2022-04-26 23:30,84.20,69.80,62.03,110.00,5.00,0.00,29.71,M,2.49,M,FEW,SCT,M,M,2000.00,10000.00,M,M,HZ,M,M,M,M,M,M,88.43,VABB 262330Z 11005KT 4000 HZ FEW020 SCT100 29/21 Q1006 NOSIG,M
VABB,2022-04-27 00:00,84.20,73.40,70.08,0.00,0.00,0.00,29.71,M,2.49,M,FEW,SCT,M,M,2000.00,10000.00,M,M,HZ,M,M,M,M,M,M,90.94,VABB 270000Z 00000KT 4000 HZ FEW020 SCT100 29/23 Q1006 NOSIG,M
VABB,2022-04-27 00:30,84.20,71.60,65.95,60.00,3.00,0.00,29.74,M,2.49,M,FEW,SCT,M,M,2000.00,10000.00,M,M,HZ,M,M,M,M,M,M,89.60,VABB 270030Z 06003KT 4000 HZ FEW020 SCT100 29/22 Q1007 NOSIG,M
VABB,2022-04-27 01:00,84.20,71.60,65.95,0.00,0.00,0.00,29.74,M,2.49,M,FEW,SCT,M,M,2000.00,10000.00,M,M,HZ,M,M,M,M,M,M,89.60,VABB 270100Z 00000KT 4000 HZ FEW020 SCT100 29/22 Q1007 NOSIG,M
VABB,2022-04-27 01:30,84.20,73.40,70.08,0.00,0.00,0.00,29.74,M,2.17,M,FEW,SCT,M,M,2000.00,10000.00,M,M,HZ,M,M,M,M,M,M,90.94,VABB 270130Z 00000KT 3500 HZ FEW020 SCT100 29/23 Q1007 NOSIG,M
VABB,2022-04-27 02:00,86.00,71.60,62.25,180.00,3.00,0.00,29.74,M,2.17,M,FEW,SCT,M,M,2000.00,10000.00,M,M,HZ,M,M,M,M,M,M,91.92,VABB 270200Z 18003KT 3500 HZ FEW020 SCT100 30/22 Q1007 BECMG 3000 HZ,M
VABB,2022-04-27 02:30,87.80,71.60,58.78,200.00,4.00,0.00,29.77,M,2.17,M,FEW,SCT,M,M,2000.00,10000.00,M,M,HZ,M,M,M,M,M,M,94.18,VABB 270230Z 20004KT 3500 HZ FEW020 SCT100 31/22 Q1008 NOSIG,M
VABB,2022-04-27 03:00,87.80,69.80,55.29,M,2.00,0.00,29.77,M,2.17,M,FEW,M,M,M,10000.00,M,M,M,FU,M,M,M,M,M,M,92.71,VABB 270300Z VRB02KT 3500 FU FEW100 31/21 Q1008 NOSIG,M
VABB,2022-04-27 03:30,91.40,68.00,46.41,M,2.00,0.00,29.77,M,2.49,M,FEW,M,M,M,10000.00,M,M,M,FU,M,M,M,M,M,M,95.55,VABB 270330Z VRB02KT 4000 FU FEW100 33/20 Q1008 NOSIG,M
VABB,2022-04-27 04:00,91.40,60.80,36.08,0.00,0.00,0.00,29.77,M,2.49,M,FEW,M,M,M,2000.00,M,M,M,FU,M,M,M,M,M,M,91.40,VABB 270400Z 00000KT 4000 FU FEW020 33/16 Q1008 NOSIG,M
VABB,2022-04-27 04:30,93.20,64.40,38.73,10.00,6.00,0.00,29.77,M,2.49,M,FEW,M,M,M,2000.00,M,M,M,FU,M,M,M,M,M,M,95.20,VABB 270430Z 01006KT 4000 FU FEW020 34/18 Q1008 NOSIG,M
VABB,2022-04-27 05:00,95.00,64.40,36.63,270.00,5.00,0.00,29.77,M,2.49,M,FEW,M,M,M,2000.00,M,M,M,FU,M,M,M,M,M,M,97.26,VABB 270500Z 27005KT 4000 FU FEW020 35/18 Q1008 NOSIG,M
VABB,2022-04-27 05:30,96.80,66.20,36.90,290.00,6.00,0.00,29.77,M,2.49,M,NSC,M,M,M,M,M,M,M,FU,M,M,M,M,M,M,100.60,VABB 270530Z 29006KT 4000 FU NSC 36/19 Q1008 NOSIG,M
VABB,2022-04-27 06:00,96.80,73.40,47.19,320.00,6.00,0.00,29.77,M,2.49,M,NSC,M,M,M,M,M,M,M,FU,M,M,M,M,M,M,107.45,VABB 270600Z 32006KT 4000 FU NSC 36/23 Q1008 BECMG 5000 FU,M
VABB,2022-04-27 06:30,96.80,78.80,56.48,290.00,10.00,0.00,29.74,M,3.11,M,NSC,M,M,M,M,M,M,M,FU,M,M,M,M,M,M,115.28,VABB 270630Z 29010KT 5000 FU NSC 36/26 Q1007 NOSIG,M
VABB,2022-04-27 07:00,95.00,78.80,59.69,280.00,11.00,0.00,29.74,M,3.11,M,NSC,M,M,M,M,M,M,M,FU,M,M,M,M,M,M,112.83,VABB 270700Z 28011KT 5000 FU NSC 35/26 Q1007 NOSIG,M
VABB,2022-04-27 07:30,96.80,78.80,56.48,300.00,12.00,0.00,29.71,M,3.11,M,NSC,M,M,M,M,M,M,M,FU,M,M,M,M,M,M,115.28,VABB 270730Z 30012KT 5000 FU NSC 36/26 Q1006 NOSIG,M
VABB,2022-04-27 08:00,96.80,78.80,56.48,290.00,9.00,0.00,29.71,M,3.11,M,NSC,M,M,M,M,M,M,M,FU,M,M,M,M,M,M,115.28,VABB 270800Z 29009KT 5000 FU NSC 36/26 Q1006 NOSIG,M
VABB,2022-04-27 08:30,96.80,78.80,56.48,280.00,12.00,0.00,29.68,M,3.11,M,NSC,M,M,M,M,M,M,M,FU,M,M,M,M,M,M,115.28,VABB 270830Z 28012KT 5000 FU NSC 36/26 Q1005 NOSIG,M
VABB,2022-04-27 09:00,98.60,75.20,47.45,300.00,10.00,0.00,29.65,M,3.11,M,NSC,M,M,M,M,M,M,M,FU,M,M,M,M,M,M,112.12,VABB 270900Z 30010KT 5000 FU NSC 37/24 Q1004 NOSIG,M
VABB,2022-04-27 09:30,98.60,73.40,44.67,280.00,12.00,0.00,29.65,M,3.73,M,NSC,M,M,M,M,M,M,M,M,M,M,M,M,M,M,109.77,VABB 270930Z 28012KT 6000 NSC 37/23 Q1004 NOSIG,M
VABB,2022-04-27 10:00,98.60,73.40,44.67,280.00,11.00,0.00,29.65,M,3.73,M,NSC,M,M,M,M,M,M,M,M,M,M,M,M,M,M,109.77,VABB 271000Z 28011KT 6000 NSC 37/23 Q1004 NOSIG,M
VABB,2022-04-27 10:30,98.60,69.80,39.54,300.00,7.00,0.00,29.62,M,3.73,M,NSC,M,M,M,M,M,M,M,M,M,M,M,M,M,M,105.85,VABB 271030Z 30007KT 6000 NSC 37/21 Q1003 NOSIG,M
VABB,2022-04-27 11:00,98.60,66.20,34.93,300.00,12.00,0.00,29.62,M,3.73,M,NSC,M,M,M,M,M,M,M,M,M,M,M,M,M,M,102.78,VABB 271100Z 30012KT 6000 NSC 37/19 Q1003 NOSIG,M
VABB,2022-04-27 11:30,96.80,64.40,34.66,300.00,11.00,0.00,29.62,M,3.73,M,NSC,M,M,M,M,M,M,M,M,M,M,M,M,M,M,99.37,VABB 271130Z 30011KT 6000 NSC 36/18 Q1003 NOSIG,M
VABB,2022-04-27 12:00,96.80,66.20,36.90,300.00,9.00,0.00,29.62,M,3.73,M,NSC,M,M,M,M,M,M,M,M,M,M,M,M,M,M,100.60,VABB 271200Z 30009KT 6000 NSC 36/19 Q1003 NOSIG,M
VABB,2022-04-27 12:30,96.80,64.40,34.66,300.00,11.00,0.00,29.62,M,3.73,M,NSC,M,M,M,M,M,M,M,M,M,M,M,M,M,M,99.37,VABB 271230Z 30011KT 6000 NSC 36/18 Q1003 NOSIG,M
VABB,2022-04-27 13:00,95.00,66.20,39.00,300.00,8.00,0.00,29.62,M,3.11,M,NSC,M,M,M,M,M,M,M,M,M,M,M,M,M,M,98.46,VABB 271300Z 30008KT 5000 NSC 35/19 Q1003 NOSIG,M
VABB,2022-04-27 13:30,95.00,64.40,36.63,310.00,5.00,0.00,29.62,M,2.80,M,NSC,M,M,M,M,M,M,M,FU,M,M,M,M,M,M,97.26,VABB 271330Z 31005KT 4500 FU NSC 35/18 Q1003 NOSIG,M
VABB,2022-04-27 14:00,93.20,64.40,38.73,340.00,5.00,0.00,29.65,M,2.49,M,NSC,M,M,M,M,M,M,M,FU,M,M,M,M,M,M,95.20,VABB 271400Z 34005KT 4000 FU NSC 34/18 Q1004 NOSIG,M
VABB,2022-04-27 14:30,93.20,64.40,38.73,M,3.00,0.00,29.65,M,2.49,M,NSC,M,M,M,M,M,M,M,FU,M,M,M,M,M,M,95.20,VABB 271430Z VRB03KT 4000 FU NSC 34/18 Q1004 NOSIG,M
VABB,2022-04-27 15:00,93.20,62.60,36.35,340.00,3.00,0.00,29.68,M,2.49,M,NSC,M,M,M,M,M,M,M,FU,M,M,M,M,M,M,94.20,VABB 271500Z 34003KT 4000 FU NSC 34/17 Q1005 NOSIG,M
VABB,2022-04-27 15:30,93.20,59.00,31.99,340.00,5.00,0.00,29.68,M,2.17,M,FEW,M,M,M,10000.00,M,M,M,FU,M,M,M,M,M,M,92.57,VABB 271530Z 34005KT 3500 FU FEW100 34/15 Q1005 NOSIG,M
VABB,2022-04-27 16:00,93.20,59.00,31.99,320.00,6.00,0.00,29.68,M,2.17,M,SCT,M,M,M,10000.00,M,M,M,FU,M,M,M,M,M,M,92.57,VABB 271600Z 32006KT 3500 FU SCT100 34/15 Q1005 NOSIG,M
VABB,2022-04-27 16:30,93.20,57.20,29.99,320.00,6.00,0.00,29.71,M,2.17,M,SCT,M,M,M,10000.00,M,M,M,FU,M,M,M,M,M,M,91.91,VABB 271630Z 32006KT 3500 FU SCT100 34/14 Q1006 NOSIG,M
VABB,2022-04-27 17:00,93.20,59.00,31.99,280.00,5.00,0.00,29.71,M,2.17,M,SCT,M,M,M,10000.00,M,M,M,FU,M,M,M,M,M,M,92.57,VABB 271700Z 28005KT 3500 FU SCT100 34/15 Q1006 NOSIG,M
VABB,2022-04-27 17:30,91.40,60.80,36.08,280.00,5.00,0.00,29.71,M,2.17,M,SCT,M,M,M,10000.00,M,M,M,FU,M,M,M,M,M,M,91.40,VABB 271730Z 28005KT 3500 FU SCT100 33/16 Q1006 NOSIG,M
VABB,2022-04-27 18:00,91.40,62.60,38.45,320.00,6.00,0.00,29.71,M,2.17,M,SCT,M,M,M,10000.00,M,M,M,FU,M,M,M,M,M,M,92.23,VABB 271800Z 32006KT 3500 FU SCT100 33/17 Q1006 NOSIG,M
VABB,2022-04-27 18:30,89.60,73.40,59.01,300.00,5.00,0.00,29.71,M,2.17,M,FEW,M,M,M,2000.00,M,M,M,FU,M,M,M,M,M,M,98.20,VABB 271830Z 30005KT 3500 FU FEW020 32/23 Q1006 NOSIG,M
VABB,2022-04-27 19:00,87.80,77.00,70.45,290.00,4.00,0.00,29.71,M,2.17,M,SCT,M,M,M,2000.00,M,M,M,HZ,M,M,M,M,M,M,99.92,VABB 271900Z 29004KT 3500 HZ SCT020 31/25 Q1006 NOSIG,M
VABB,2022-04-27 19:30,87.80,77.00,70.45,290.00,4.00,0.00,29.71,M,2.17,M,SCT,M,M,M,2000.00,M,M,M,HZ,M,M,M,M,M,M,99.92,VABB 271930Z 29004KT 3500 HZ SCT020 31/25 Q1006 NOSIG,M
VABB,2022-04-27 20:00,87.80,77.00,70.45,310.00,4.00,0.00,29.71,M,2.17,M,SCT,M,M,M,2000.00,M,M,M,HZ,M,M,M,M,M,M,99.92,VABB 272000Z 31004KT 3500 HZ SCT020 31/25 Q1006 NOSIG,M
VABB,2022-04-27 20:30,87.80,75.20,66.35,300.00,6.00,0.00,29.68,M,2.17,M,SCT,M,M,M,2000.00,M,M,M,HZ,M,M,M,M,M,M,97.76,VABB 272030Z 30006KT 3500 HZ SCT020 31/24 Q1005 NOSIG,M
VABB,2022-04-27 21:00,87.80,75.20,66.35,310.00,6.00,0.00,29.68,M,2.17,M,SCT,M,M,M,2000.00,M,M,M,HZ,M,M,M,M,M,M,97.76,VABB 272100Z 31006KT 3500 HZ SCT020 31/24 Q1005 NOSIG,M
VABB,2022-04-27 21:30,87.80,75.20,66.35,330.00,6.00,0.00,29.68,M,2.17,M,SCT,M,M,M,2000.00,M,M,M,HZ,M,M,M,M,M,M,97.76,VABB 272130Z 33006KT 3500 HZ SCT020 31/24 Q1005 NOSIG,M
VABB,2022-04-27 22:00,87.80,73.40,62.47,330.00,7.00,0.00,29.68,M,2.17,M,SCT,M,M,M,2000.00,M,M,M,HZ,M,M,M,M,M,M,95.86,VABB 272200Z 33007KT 3500 HZ SCT020 31/23 Q1005 NOSIG,M
VABB,2022-04-27 22:30,86.00,71.60,62.25,50.00,5.00,0.00,29.68,M,2.17,M,SCT,M,M,M,2000.00,M,M,M,HZ,M,M,M,M,M,M,91.92,VABB 272230Z 05005KT 3500 HZ SCT020 30/22 Q1005 NOSIG,M
VABB,2022-04-27 23:00,87.80,68.00,51.98,310.00,4.00,0.00,29.68,M,2.17,M,SCT,M,M,M,2000.00,M,M,M,HZ,M,M,M,M,M,M,91.43,VABB 272300Z 31004KT 3500 HZ SCT020 31/20 Q1005 NOSIG,M
VABB,2022-04-27 23:30,87.80,68.00,51.98,310.00,3.00,0.00,29.68,M,2.17,M,SCT,M,M,M,2000.00,M,M,M,HZ,M,M,M,M,M,M,91.43,VABB 272330Z 31003KT 3500 HZ SCT020 31/20 Q1005 NOSIG,M
VABB,2022-04-28 00:00,87.80,68.00,51.98,0.00,0.00,0.00,29.68,M,1.86,M,SCT,M,M,M,2000.00,M,M,M,FU,M,M,M,M,M,M,91.43,VABB 280000Z 00000KT 3000 FU SCT020 31/20 Q1005 NOSIG,M
VABB,2022-04-28 00:30,86.00,69.80,58.55,0.00,0.00,0.00,29.71,M,1.86,M,FEW,SCT,M,M,2000.00,10000.00,M,M,FU,M,M,M,M,M,M,90.58,VABB 280030Z 00000KT 3000 FU FEW020 SCT100 30/21 Q1006 NOSIG,M
VABB,2022-04-28 01:00,86.00,73.40,66.15,210.00,3.00,0.00,29.71,M,1.86,M,FEW,SCT,M,M,2000.00,10000.00,M,M,FU,M,M,M,M,M,M,93.45,VABB 280100Z 21003KT 3000 FU FEW020 SCT100 30/23 Q1006 NOSIG,M
VABB,2022-04-28 01:30,86.00,73.40,66.15,210.00,3.00,0.00,29.71,M,1.86,M,SCT,M,M,M,10000.00,M,M,M,FU,M,M,M,M,M,M,93.45,VABB 280130Z 21003KT 3000 FU SCT100 30/23 Q1006 NOSIG,M
VABB,2022-04-28 02:00,87.80,71.60,58.78,40.00,6.00,0.00,29.74,M,1.86,M,SCT,M,M,M,10000.00,M,M,M,FU,M,M,M,M,M,M,94.18,VABB 280200Z 04006KT 3000 FU SCT100 31/22 Q1007 NOSIG,M
VABB,2022-04-28 02:30,89.60,71.60,55.53,120.00,3.00,0.00,29.74,M,1.86,M,SCT,M,M,M,10000.00,M,M,M,FU,M,M,M,M,M,M,96.41,VABB 280230Z 12003KT 3000 FU SCT100 32/22 Q1007 NOSIG,M
VABB,2022-04-28 03:00,89.60,66.20,46.14,130.00,3.00,0.00,29.77,M,1.86,M,SCT,M,M,M,10000.00,M,M,M,FU,M,M,M,M,M,M,92.27,VABB 280300Z 13003KT 3000 FU SCT100 32/19 Q1008 NOSIG,M
VABB,2022-04-28 03:30,93.20,68.00,43.88,110.00,5.00,0.00,29.77,M,1.86,M,FEW,M,M,M,10000.00,M,M,M,FU,M,M,M,M,M,M,97.67,VABB 280330Z 11005KT 3000 FU FEW100 34/20 Q1008 NOSIG,M
VABB,2022-04-28 04:00,93.20,68.00,43.88,150.00,4.00,0.00,29.77,M,1.86,M,FEW,M,M,M,10000.00,M,M,M,FU,M,M,M,M,M,M,97.67,VABB 280400Z 15004KT 3000 FU FEW100 34/20 Q1008 NOSIG,M
VABB,2022-04-28 04:30,95.00,62.60,34.39,150.00,3.00,0.00,29.77,M,2.17,M,FEW,M,M,M,10000.00,M,M,M,FU,M,M,M,M,M,M,96.22,VABB 280430Z 15003KT 3500 FU FEW100 35/17 Q1008 NOSIG,M
VABB,2022-04-28 05:00,98.60,60.80,28.90,70.00,4.00,0.00,29.77,M,2.17,M,FEW,M,M,M,10000.00,M,M,M,FU,M,M,M,M,M,M,99.39,VABB 280500Z 07004KT 3500 FU FEW100 37/16 Q1008 NOSIG,M
VABB,2022-04-28 05:30,100.40,60.80,27.37,60.00,6.00,0.00,29.77,M,2.49,M,NSC,M,M,M,M,M,M,M,FU,M,M,M,M,M,M,101.47,VABB 280530Z 06006KT 4000 FU NSC 38/16 Q1008 NOSIG,M
VABB,2022-04-28 06:00,98.60,73.40,44.67,260.00,9.00,0.00,29.77,M,2.49,M,NSC,M,M,M,M,M,M,M,FU,M,M,M,M,M,M,109.77,VABB 280600Z 26009KT 4000 FU NSC 37/23 Q1008 NOSIG,M
VABB,2022-04-28 06:30,95.00,77.00,56.25,260.00,10.00,0.00,29.77,M,2.49,M,NSC,M,M,M,M,M,M,M,FU,M,M,M,M,M,M,109.94,VABB 280630Z 26010KT 4000 FU NSC 35/25 Q1008 NOSIG,M
VABB,2022-04-28 07:00,95.00,78.80,59.69,270.00,9.00,0.00,29.74,M,2.49,M,NSC,M,M,M,M,M,M,M,FU,M,M,M,M,M,M,112.83,VABB 280700Z 27009KT 4000 FU NSC 35/26 Q1007 NOSIG,M
VABB,2022-04-28 07:30,95.00,78.80,59.69,270.00,11.00,0.00,29.74,M,2.49,M,NSC,M,M,M,M,M,M,M,FU,M,M,M,M,M,M,112.83,VABB 280730Z 27011KT 4000 FU NSC 35/26 Q1007 NOSIG,M
VABB,2022-04-28 08:00,95.00,77.00,56.25,230.00,10.00,0.00,29.74,M,2.49,M,FEW,M,M,M,10000.00,M,M,M,FU,M,M,M,M,M,M,109.94,VABB 280800Z 23010KT 4000 FU FEW100 35/25 Q1007 NOSIG,M
VABB,2022-04-28 08:30,93.20,77.00,59.47,220.00,10.00,0.00,29.71,M,2.49,M,FEW,M,M,M,10000.00,M,M,M,FU,M,M,M,M,M,M,107.52,VABB 280830Z 22010KT 4000 FU FEW100 34/25 Q1006 BECMG 5000 FU,M
VABB,2022-04-28 09:00,91.40,77.00,62.90,220.00,10.00,0.00,29.71,M,3.11,M,FEW,M,M,M,10000.00,M,M,M,FU,M,M,M,M,M,M,105.06,VABB 280900Z 22010KT 5000 FU FEW100 33/25 Q1006 NOSIG,M
VABB,2022-04-28 09:30,91.40,77.00,62.90,210.00,10.00,0.00,29.71,M,3.11,M,NSC,M,M,M,M,M,M,M,FU,M,M,M,M,M,M,105.06,VABB 280930Z 21010KT 5000 FU NSC 33/25 Q1006 NOSIG,M
VABB,2022-04-28 10:00,91.40,77.00,62.90,210.00,10.00,0.00,29.68,M,3.11,M,NSC,M,M,M,M,M,M,M,FU,M,M,M,M,M,M,105.06,VABB 281000Z 21010KT 5000 FU NSC 33/25 Q1005 NOSIG,M
VABB,2022-04-28 10:30,91.40,78.80,66.75,240.00,11.00,0.00,29.68,M,3.11,M,NSC,M,M,M,M,M,M,M,FU,M,M,M,M,M,M,107.79,VABB 281030Z 24011KT 5000 FU NSC 33/26 Q1005 NOSIG,M
VABB,2022-04-28 11:00,91.40,78.80,66.75,230.00,9.00,0.00,29.68,M,3.11,M,NSC,M,M,M,M,M,M,M,HZ,M,M,M,M,M,M,107.79,VABB 281100Z 23009KT 5000 HZ NSC 33/26 Q1005 NOSIG,M
VABB,2022-04-28 11:30,91.40,78.80,66.75,260.00,11.00,0.00,29.68,M,3.11,M,NSC,M,M,M,M,M,M,M,HZ,M,M,M,M,M,M,107.79,VABB 281130Z 26011KT 5000 HZ NSC 33/26 Q1005 NOSIG,M
VABB,2022-04-28 12:00,89.60,80.60,74.93,240.00,12.00,0.00,29.68,M,3.11,M,NSC,M,M,M,M,M,M,M,HZ,M,M,M,M,M,M,108.11,VABB 281200Z 24012KT 5000 HZ NSC 32/27 Q1005 NOSIG,M
VABB,2022-04-28 12:30,89.60,78.80,70.63,250.00,12.00,0.00,29.68,M,3.11,M,NSC,M,M,M,M,M,M,M,HZ,M,M,M,M,M,M,105.15,VABB 281230Z 25012KT 5000 HZ NSC 32/26 Q1005 NOSIG,M
VABB,2022-04-28 13:00,89.60,75.20,62.68,260.00,10.00,0.00,29.71,M,2.49,M,FEW,M,M,M,10000.00,M,M,M,HZ,M,M,M,M,M,M,100.23,VABB 281300Z 26010KT 4000 HZ FEW100 32/24 Q1006 NOSIG,M
VABB,2022-04-28 13:30,87.80,77.00,70.45,250.00,8.00,0.00,29.71,M,2.49,M,FEW,M,M,M,10000.00,M,M,M,HZ,M,M,M,M,M,M,99.92,VABB 281330Z 25008KT 4000 HZ FEW100 31/25 Q1006 NOSIG,M
VABB,2022-04-28 14:00,87.80,78.80,74.77,230.00,7.00,0.00,29.74,M,2.49,M,FEW,M,M,M,10000.00,M,M,M,HZ,M,M,M,M,M,M,102.37,VABB 281400Z 23007KT 4000 HZ FEW100 31/26 Q1007 NOSIG,M
VABB,2022-04-28 14:30,87.80,78.80,74.77,220.00,7.00,0.00,29.74,M,2.49,M,FEW,M,M,M,10000.00,M,M,M,HZ,M,M,M,M,M,M,102.37,VABB 281430Z 22007KT 4000 HZ FEW100 31/26 Q1007 NOSIG,M
VABB,2022-04-28 15:00,87.80,78.80,74.77,170.00,7.00,0.00,29.77,M,2.49,M,FEW,M,M,M,10000.00,M,M,M,HZ,M,M,M,M,M,M,102.37,VABB 281500Z 17007KT 4000 HZ FEW100 31/26 Q1008 NOSIG,M
VABB,2022-04-28 15:30,87.80,78.80,74.77,200.00,8.00,0.00,29.77,M,2.49,M,NSC,M,M,M,M,M,M,M,HZ,M,M,M,M,M,M,102.37,VABB 281530Z 20008KT 4000 HZ NSC 31/26 Q1008 NOSIG,M
VABB,2022-04-28 16:00,87.80,80.60,79.31,200.00,7.00,0.00,29.77,M,2.49,M,NSC,M,M,M,M,M,M,M,HZ,M,M,M,M,M,M,105.14,VABB 281600Z 20007KT 4000 HZ NSC 31/27 Q1008 NOSIG,M
VABB,2022-04-28 16:30,87.80,80.60,79.31,190.00,4.00,0.00,29.80,M,2.49,M,NSC,M,M,M,M,M,M,M,HZ,M,M,M,M,M,M,105.14,VABB 281630Z 19004KT 4000 HZ NSC 31/27 Q1009 NOSIG,M
VABB,2022-04-28 17:00,86.00,80.60,83.99,190.00,3.00,0.00,29.80,M,2.49,M,NSC,M,M,M,M,M,M,M,HZ,M,M,M,M,M,M,101.90,VABB 281700Z 19003KT 4000 HZ NSC 30/27 Q1009 NOSIG,M
VABB,2022-04-28 17:30,86.00,80.60,83.99,180.00,6.00,0.00,29.80,M,2.49,M,NSC,M,M,M,M,M,M,M,HZ,M,M,M,M,M,M,101.90,VABB 281730Z 18006KT 4000 HZ NSC 30/27 Q1009 NOSIG,M
VABB,2022-04-28 18:00,86.00,82.40,89.06,170.00,5.00,0.00,29.80,M,2.49,M,NSC,M,M,M,M,M,M,M,HZ,M,M,M,M,M,M,104.83,VABB 281800Z 17005KT 4000 HZ NSC 30/28 Q1009 NOSIG,M
VABB,2022-04-28 18:30,86.00,80.60,83.99,190.00,3.00,0.00,29.80,M,2.49,M,NSC,M,M,M,M,M,M,M,HZ,M,M,M,M,M,M,101.90,VABB 281830Z 19003KT 4000 HZ NSC 30/27 Q1009 NOSIG,M
VABB,2022-04-28 19:00,86.00,80.60,83.99,160.00,4.00,0.00,29.80,M,2.17,M,FEW,SCT,M,M,2000.00,10000.00,M,M,HZ,M,M,M,M,M,M,101.90,VABB 281900Z 16004KT 3500 HZ FEW020 SCT100 30/27 Q1009 NOSIG,M
VABB,2022-04-28 19:30,86.00,80.60,83.99,160.00,6.00,0.00,29.80,M,2.17,M,FEW,SCT,M,M,2000.00,10000.00,M,M,HZ,M,M,M,M,M,M,101.90,VABB 281930Z 16006KT 3500 HZ FEW020 SCT100 30/27 Q1009 NOSIG,M
VABB,2022-04-28 20:00,86.00,80.60,83.99,190.00,9.00,0.00,29.80,M,2.17,M,FEW,SCT,M,M,2000.00,10000.00,M,M,HZ,M,M,M,M,M,M,101.90,VABB 282000Z 19009KT 3500 HZ FEW020 SCT100 30/27 Q1009 NOSIG,M
VABB,2022-04-28 20:30,86.00,80.60,83.99,160.00,8.00,0.00,29.80,M,2.17,M,FEW,SCT,M,M,2000.00,10000.00,M,M,HZ,M,M,M,M,M,M,101.90,VABB 282030Z 16008KT 3500 HZ FEW020 SCT100 30/27 Q1009 NOSIG,M
VABB,2022-04-28 21:00,86.00,80.60,83.99,190.00,8.00,0.00,29.80,M,2.17,M,FEW,SCT,M,M,2000.00,10000.00,M,M,HZ,M,M,M,M,M,M,101.90,VABB 282100Z 19008KT 3500 HZ FEW020 SCT100 30/27 Q1009 NOSIG,M
VABB,2022-04-28 21:30,86.00,82.40,89.06,150.00,8.00,0.00,29.80,M,2.17,M,FEW,M,M,M,2000.00,M,M,M,HZ,M,M,M,M,M,M,104.83,VABB 282130Z 15008KT 3500 HZ FEW020 30/28 Q1009 NOSIG,M
VABB,2022-04-28 22:00,86.00,82.40,89.06,160.00,6.00,0.00,29.80,M,2.17,M,SCT,M,M,M,2000.00,M,M,M,HZ,M,M,M,M,M,M,104.83,VABB 282200Z 16006KT 3500 HZ SCT020 30/28 Q1009 NOSIG,M
VABB,2022-04-28 22:30,86.00,80.60,83.99,170.00,7.00,0.00,29.80,M,2.17,M,SCT,M,M,M,2000.00,M,M,M,HZ,M,M,M,M,M,M,101.90,VABB 282230Z 17007KT 3500 HZ SCT020 30/27 Q1009 NOSIG,M
VABB,2022-04-28 23:00,86.00,80.60,83.99,160.00,6.00,0.00,29.80,M,2.17,M,SCT,M,M,M,2000.00,M,M,M,HZ,M,M,M,M,M,M,101.90,VABB 282300Z 16006KT 3500 HZ SCT020 30/27 Q1009 BECMG 3000 HZ,M
VABB,2022-04-28 23:30,86.00,80.60,83.99,170.00,7.00,0.00,29.80,M,1.86,M,SCT,M,M,M,2000.00,M,M,M,HZ,M,M,M,M,M,M,101.90,VABB 282330Z 17007KT 3000 HZ SCT020 30/27 Q1009 NOSIG,M
VABB,2022-04-29 00:00,86.00,80.60,83.99,180.00,7.00,0.00,29.80,M,1.86,M,SCT,M,M,M,2000.00,M,M,M,HZ,M,M,M,M,M,M,101.90,VABB 290000Z 18007KT 3000 HZ SCT020 30/27 Q1009 NOSIG,M
VABB,2022-04-29 00:30,86.00,80.60,83.99,160.00,8.00,0.00,29.80,M,1.86,M,SCT,M,M,M,2000.00,M,M,M,HZ,M,M,M,M,M,M,101.90,VABB 290030Z 16008KT 3000 HZ SCT020 30/27 Q1009 NOSIG,M
VABB,2022-04-29 01:00,86.00,80.60,83.99,130.00,5.00,0.00,29.83,M,1.86,M,SCT,M,M,M,2000.00,M,M,M,HZ,M,M,M,M,M,M,101.90,VABB 290100Z 13005KT 3000 HZ SCT020 30/27 Q1010 NOSIG,M
VABB,2022-04-29 01:30,86.00,80.60,83.99,140.00,4.00,0.00,29.83,M,1.86,M,SCT,M,M,M,2000.00,M,M,M,HZ,M,M,M,M,M,M,101.90,VABB 290130Z 14004KT 3000 HZ SCT020 30/27 Q1010 NOSIG,M
VABB,2022-04-29 02:00,86.00,80.60,83.99,180.00,5.00,0.00,29.83,M,1.86,M,SCT,M,M,M,2000.00,M,M,M,HZ,M,M,M,M,M,M,101.90,VABB 290200Z 18005KT 3000 HZ SCT020 30/27 Q1010 NOSIG,M
VABB,2022-04-29 02:30,87.80,80.60,79.31,140.00,8.00,0.00,29.85,M,1.55,M,FEW,SCT,M,M,2000.00,10000.00,M,M,HZ,M,M,M,M,M,M,105.14,VABB 290230Z 14008KT 2500 HZ FEW020 SCT100 31/27 Q1011 NOSIG,M
VABB,2022-04-29 03:00,87.80,78.80,74.77,200.00,6.00,0.00,29.85,M,1.55,M,FEW,SCT,M,M,2000.00,10000.00,M,M,HZ,M,M,M,M,M,M,102.37,VABB 290300Z 20006KT 2500 HZ FEW020 SCT100 31/26 Q1011 NOSIG,M
VABB,2022-04-29 03:30,89.60,80.60,74.93,170.00,6.00,0.00,29.85,M,1.55,M,FEW,SCT,M,M,2000.00,10000.00,M,M,HZ,M,M,M,M,M,M,108.11,VABB 290330Z 17006KT 2500 HZ FEW020 SCT100 32/27 Q1011 BECMG 3000 HZ,M
VABB,2022-04-29 04:00,89.60,80.60,74.93,160.00,6.00,0.00,29.85,M,1.86,M,SCT,M,M,M,2000.00,M,M,M,HZ,M,M,M,M,M,M,108.11,VABB 290400Z 16006KT 3000 HZ SCT020 32/27 Q1011 NOSIG,M
VABB,2022-04-29 04:30,91.40,80.60,70.81,210.00,6.00,0.00,29.85,M,1.86,M,SCT,M,M,M,2000.00,M,M,M,HZ,M,M,M,M,M,M,110.88,VABB 290430Z 21006KT 3000 HZ SCT020 33/27 Q1011 NOSIG,M
VABB,2022-04-29 05:00,91.40,78.80,66.75,170.00,5.00,0.00,29.85,M,2.17,M,SCT,M,M,M,2000.00,M,M,M,HZ,M,M,M,M,M,M,107.79,VABB 290500Z 17005KT 3500 HZ SCT020 33/26 Q1011 NOSIG,M
VABB,2022-04-29 05:30,93.20,80.60,66.95,250.00,9.00,0.00,29.83,M,2.17,M,SCT,M,M,M,2000.00,M,M,M,HZ,M,M,M,M,M,M,113.52,VABB 290530Z 25009KT 3500 HZ SCT020 34/27 Q1010 NOSIG,M
VABB,2022-04-29 06:00,93.20,80.60,66.95,250.00,11.00,0.00,29.83,M,2.49,M,FEW,M,M,M,2000.00,M,M,M,HZ,M,M,M,M,M,M,113.52,VABB 290600Z 25011KT 4000 HZ FEW020 34/27 Q1010 NOSIG,M
VABB,2022-04-29 06:30,91.40,80.60,70.81,270.00,12.00,0.00,29.83,M,2.49,M,FEW,M,M,M,2000.00,M,M,M,HZ,M,M,M,M,M,M,110.88,VABB 290630Z 27012KT 4000 HZ FEW020 33/27 Q1010 BECMG 5000 HZ,M
VABB,2022-04-29 07:00,91.40,80.60,70.81,260.00,12.00,0.00,29.80,M,3.11,M,FEW,M,M,M,2000.00,M,M,M,HZ,M,M,M,M,M,M,110.88,VABB 290700Z 26012KT 5000 HZ FEW020 33/27 Q1009 NOSIG,M
VABB,2022-04-29 07:30,91.40,80.60,70.81,270.00,12.00,0.00,29.80,M,3.11,M,FEW,M,M,M,2000.00,M,M,M,HZ,M,M,M,M,M,M,110.88,VABB 290730Z 27012KT 5000 HZ FEW020 33/27 Q1009 NOSIG,M
VABB,2022-04-29 08:00,91.40,80.60,70.81,250.00,12.00,0.00,29.80,M,3.11,M,FEW,M,M,M,2000.00,M,M,M,HZ,M,M,M,M,M,M,110.88,VABB 290800Z 25012KT 5000 HZ FEW020 33/27 Q1009 NOSIG,M
VABB,2022-04-29 08:30,91.40,80.60,70.81,270.00,11.00,0.00,29.77,M,3.11,M,FEW,M,M,M,2000.00,M,M,M,HZ,M,M,M,M,M,M,110.88,VABB 290830Z 27011KT 5000 HZ FEW020 33/27 Q1008 NOSIG,M
VABB,2022-04-29 09:00,91.40,80.60,70.81,260.00,10.00,0.00,29.77,M,3.11,M,FEW,M,M,M,2000.00,M,M,M,HZ,M,M,M,M,M,M,110.88,VABB 290900Z 26010KT 5000 HZ FEW020 33/27 Q1008 NOSIG,M
VABB,2022-04-29 09:30,91.40,80.60,70.81,270.00,10.00,0.00,29.74,M,3.11,M,SCT,M,M,M,2000.00,M,M,M,HZ,M,M,M,M,M,M,110.88,VABB 290930Z 27010KT 5000 HZ SCT020 33/27 Q1007 NOSIG,M
VABB,2022-04-29 10:00,89.60,80.60,74.93,270.00,12.00,0.00,29.74,M,3.11,M,SCT,M,M,M,2000.00,M,M,M,HZ,M,M,M,M,M,M,108.11,VABB 291000Z 27012KT 5000 HZ SCT020 32/27 Q1007 NOSIG,M
VABB,2022-04-29 10:30,91.40,80.60,70.81,270.00,13.00,0.00,29.71,M,3.11,M,FEW,M,M,M,2000.00,M,M,M,HZ,M,M,M,M,M,M,110.88,VABB 291030Z 27013KT 5000 HZ FEW020 33/27 Q1006 NOSIG,M
VABB,2022-04-29 11:00,91.40,78.80,66.75,290.00,9.00,0.00,29.71,M,3.11,M,FEW,M,M,M,2000.00,M,M,M,HZ,M,M,M,M,M,M,107.79,VABB 291100Z 29009KT 5000 HZ FEW020 33/26 Q1006 NOSIG,M
VABB,2022-04-29 11:30,91.40,73.40,55.77,310.00,9.00,0.00,29.71,M,3.11,M,FEW,M,M,M,2000.00,M,M,M,HZ,M,M,M,M,M,M,100.52,VABB 291130Z 31009KT 5000 HZ FEW020 33/23 Q1006 NOSIG,M
VABB,2022-04-29 12:00,91.40,71.60,52.48,300.00,7.00,0.00,29.71,M,3.11,M,FEW,M,M,M,2000.00,M,M,M,FU,M,M,M,M,M,M,98.64,VABB 291200Z 30007KT 5000 FU FEW020 33/22 Q1006 NOSIG,M
VABB,2022-04-29 12:30,89.60,75.20,62.68,300.00,9.00,0.00,29.71,M,2.49,M,FEW,M,M,M,2000.00,M,M,M,FU,M,M,M,M,M,M,100.23,VABB 291230Z 30009KT 4000 FU FEW020 32/24 Q1006 NOSIG,M
VABB,2022-04-29 13:00,89.60,77.00,66.55,320.00,7.00,0.00,29.71,M,2.49,M,FEW,M,M,M,10000.00,M,M,M,FU,M,M,M,M,M,M,102.54,VABB 291300Z 32007KT 4000 FU FEW100 32/25 Q1006 NOSIG,M
VABB,2022-04-29 13:30,87.80,77.00,70.45,310.00,6.00,0.00,29.71,M,2.17,M,FEW,M,M,M,10000.00,M,M,M,HZ,M,M,M,M,M,M,99.92,VABB 291330Z 31006KT 3500 HZ FEW100 31/25 Q1006 NOSIG,M
VABB,2022-04-29 14:00,87.80,78.80,74.77,300.00,6.00,0.00,29.74,M,2.17,M,FEW,M,M,M,10000.00,M,M,M,HZ,M,M,M,M,M,M,102.37,VABB 291400Z 30006KT 3500 HZ FEW100 31/26 Q1007 NOSIG,M
VABB,2022-04-29 14:30,87.80,78.80,74.77,320.00,4.00,0.00,29.74,M,2.17,M,FEW,M,M,M,10000.00,M,M,M,HZ,M,M,M,M,M,M,102.37,VABB 291430Z 32004KT 3500 HZ FEW100 31/26 Q1007 NOSIG,M
VABB,2022-04-29 15:00,87.80,78.80,74.77,0.00,0.00,0.00,29.74,M,2.17,M,FEW,M,M,M,10000.00,M,M,M,HZ,M,M,M,M,M,M,102.37,VABB 291500Z 00000KT 3500 HZ FEW100 31/26 Q1007 NOSIG,M
VABB,2022-04-29 15:30,87.80,77.00,70.45,0.00,0.00,0.00,29.74,M,2.17,M,FEW,M,M,M,10000.00,M,M,M,HZ,M,M,M,M,M,M,99.92,VABB 291530Z 00000KT 3500 HZ FEW100 31/25 Q1007 NOSIG,M
VABB,2022-04-29 16:00,87.80,78.80,74.77,300.00,4.00,0.00,29.74,M,2.17,M,NSC,M,M,M,M,M,M,M,HZ,M,M,M,M,M,M,102.37,VABB 291600Z 30004KT 3500 HZ NSC 31/26 Q1007 NOSIG,M
VABB,2022-04-29 16:30,87.80,78.80,74.77,320.00,4.00,0.00,29.74,M,2.17,M,NSC,M,M,M,M,M,M,M,HZ,M,M,M,M,M,M,102.37,VABB 291630Z 32004KT 3500 HZ NSC 31/26 Q1007 NOSIG,M
VABB,2022-04-29 17:00,86.00,78.80,79.18,0.00,0.00,0.00,29.74,M,2.17,M,NSC,M,M,M,M,M,M,M,HZ,M,M,M,M,M,M,99.38,VABB 291700Z 00000KT 3500 HZ NSC 30/26 Q1007 NOSIG,M
VABB,2022-04-29 17:30,86.00,78.80,79.18,290.00,4.00,0.00,29.74,M,2.17,M,NSC,M,M,M,M,M,M,M,HZ,M,M,M,M,M,M,99.38,VABB 291730Z 29004KT 3500 HZ NSC 30/26 Q1007 NOSIG,M
VABB,2022-04-29 18:00,86.00,78.80,79.18,0.00,0.00,0.00,29.74,M,2.17,M,NSC,M,M,M,M,M,M,M,HZ,M,M,M,M,M,M,99.38,VABB 291800Z 00000KT 3500 HZ NSC 30/26 Q1007 NOSIG,M
VABB,2022-04-29 18:30,86.00,78.80,79.18,0.00,0.00,0.00,29.74,M,2.17,M,NSC,M,M,M,M,M,M,M,HZ,M,M,M,M,M,M,99.38,VABB 291830Z 00000KT 3500 HZ NSC 30/26 Q1007 NOSIG,M
VABB,2022-04-29 19:00,86.00,80.60,83.99,310.00,4.00,0.00,29.74,M,2.17,M,NSC,M,M,M,M,M,M,M,HZ,M,M,M,M,M,M,101.90,VABB 291900Z 31004KT 3500 HZ NSC 30/27 Q1007 NOSIG,M
VABB,2022-04-29 19:30,86.00,80.60,83.99,0.00,0.00,0.00,29.71,M,2.17,M,NSC,M,M,M,M,M,M,M,HZ,M,M,M,M,M,M,101.90,VABB 291930Z 00000KT 3500 HZ NSC 30/27 Q1006 NOSIG,M
VABB,2022-04-29 20:00,86.00,80.60,83.99,340.00,5.00,0.00,29.71,M,2.17,M,NSC,M,M,M,M,M,M,M,HZ,M,M,M,M,M,M,101.90,VABB 292000Z 34005KT 3500 HZ NSC 30/27 Q1006 BECMG 3000 HZ,M
VABB,2022-04-29 20:30,86.00,80.60,83.99,340.00,5.00,0.00,29.71,M,1.86,M,NSC,M,M,M,M,M,M,M,HZ,M,M,M,M,M,M,101.90,VABB 292030Z 34005KT 3000 HZ NSC 30/27 Q1006 NOSIG,M
VABB,2022-04-29 21:00,84.20,80.60,88.98,340.00,5.00,0.00,29.71,M,1.86,M,NSC,M,M,M,M,M,M,M,HZ,M,M,M,M,M,M,98.50,VABB 292100Z 34005KT 3000 HZ NSC 29/27 Q1006 NOSIG,M
VABB,2022-04-29 21:30,84.20,80.60,88.98,10.00,5.00,0.00,29.71,M,1.86,M,NSC,M,M,M,M,M,M,M,HZ,M,M,M,M,M,M,98.50,VABB 292130Z 01005KT 3000 HZ NSC 29/27 Q1006 NOSIG,M
VABB,2022-04-29 22:00,84.20,80.60,88.98,40.00,3.00,0.00,29.71,M,1.86,M,NSC,M,M,M,M,M,M,M,HZ,M,M,M,M,M,M,98.50,VABB 292200Z 04003KT 3000 HZ NSC 29/27 Q1006 NOSIG,M
VABB,2022-04-29 22:30,84.20,78.80,83.88,0.00,0.00,0.00,29.71,M,1.86,M,NSC,M,M,M,M,M,M,M,HZ,M,M,M,M,M,M,96.10,VABB 292230Z 00000KT 3000 HZ NSC 29/26 Q1006 NOSIG,M
VABB,2022-04-29 23:00,84.20,78.80,83.88,30.00,3.00,0.00,29.71,M,1.86,M,NSC,M,M,M,M,M,M,M,HZ,M,M,M,M,M,M,96.10,VABB 292300Z 03003KT 3000 HZ NSC 29/26 Q1006 NOSIG,M
VABB,2022-04-29 23:30,84.20,77.00,79.04,20.00,5.00,0.00,29.71,M,1.86,M,NSC,M,M,M,M,M,M,M,HZ,M,M,M,M,M,M,94.16,VABB 292330Z 02005KT 3000 HZ NSC 29/25 Q1006 NOSIG,M
VABB,2022-04-30 00:00,84.20,77.00,79.04,10.00,4.00,0.00,29.71,M,1.86,M,NSC,M,M,M,M,M,M,M,HZ,M,M,M,M,M,M,94.16,VABB 300000Z 01004KT 3000 HZ NSC 29/25 Q1006 NOSIG,M
VABB,2022-04-30 00:30,84.20,77.00,79.04,40.00,3.00,0.00,29.71,M,1.86,M,NSC,M,M,M,M,M,M,M,HZ,M,M,M,M,M,M,94.16,VABB 300030Z 04003KT 3000 HZ NSC 29/25 Q1006 NOSIG,M
VABB,2022-04-30 01:00,84.20,75.20,74.44,0.00,0.00,0.00,29.74,M,1.86,M,NSC,M,M,M,M,M,M,M,HZ,M,M,M,M,M,M,92.45,VABB 300100Z 00000KT 3000 HZ NSC 29/24 Q1007 NOSIG,M
VABB,2022-04-30 01:30,84.20,77.00,79.04,0.00,0.00,0.00,29.74,M,1.86,M,NSC,M,M,M,M,M,M,M,HZ,M,M,M,M,M,M,94.16,VABB 300130Z 00000KT 3000 HZ NSC 29/25 Q1007 NOSIG,M
VABB,2022-04-30 02:00,86.00,77.00,74.61,180.00,5.00,0.00,29.77,M,1.86,M,NSC,M,M,M,M,M,M,M,HZ,M,M,M,M,M,M,97.15,VABB 300200Z 18005KT 3000 HZ NSC 30/25 Q1008 NOSIG,M
VABB,2022-04-30 02:30,86.00,75.20,70.27,200.00,4.00,0.00,29.77,M,1.86,M,NSC,M,M,M,M,M,M,M,HZ,M,M,M,M,M,M,95.19,VABB 300230Z 20004KT 3000 HZ NSC 30/24 Q1008 NOSIG,M
VABB,2022-04-30 03:00,87.80,75.20,66.35,230.00,4.00,0.00,29.77,M,1.86,M,NSC,M,M,M,M,M,M,M,HZ,M,M,M,M,M,M,97.76,VABB 300300Z 23004KT 3000 HZ NSC 31/24 Q1008 NOSIG,M
VABB,2022-04-30 03:30,89.60,73.40,59.01,210.00,3.00,0.00,29.80,M,2.17,M,NSC,M,M,M,M,M,M,M,HZ,M,M,M,M,M,M,98.20,VABB 300330Z 21003KT 3500 HZ NSC 32/23 Q1009 NOSIG,M
VABB,2022-04-30 04:00,89.60,73.40,59.01,240.00,4.00,0.00,29.80,M,2.17,M,NSC,M,M,M,M,M,M,M,HZ,M,M,M,M,M,M,98.20,VABB 300400Z 24004KT 3500 HZ NSC 32/23 Q1009 NOSIG,M
VABB,2022-04-30 04:30,91.40,75.20,59.24,210.00,6.00,0.00,29.80,M,2.17,M,NSC,M,M,M,M,M,M,M,FU,M,M,M,M,M,M,102.65,VABB 300430Z 21006KT 3500 FU NSC 33/24 Q1009 NOSIG,M
VABB,2022-04-30 05:00,93.20,77.00,59.47,270.00,8.00,0.00,29.80,M,2.49,M,FEW,M,M,M,10000.00,M,M,M,FU,M,M,M,M,M,M,107.52,VABB 300500Z 27008KT 4000 FU FEW100 34/25 Q1009 NOSIG,M
VABB,2022-04-30 05:30,91.40,77.00,62.90,220.00,8.00,0.00,29.80,M,2.49,M,FEW,M,M,M,10000.00,M,M,M,HZ,M,M,M,M,M,M,105.06,VABB 300530Z 22008KT 4000 HZ FEW100 33/25 Q1009 NOSIG,M
VABB,2022-04-30 06:00,93.20,77.00,59.47,230.00,10.00,0.00,29.80,M,2.49,M,M,M,M,M,M,M,M,M,HZ,M,M,M,M,M,M,107.52,VABB 300600Z 23010KT 4000 HZ 34/25 Q1009 NOSIG,M
VABB,2022-04-30 06:30,91.40,77.00,62.90,260.00,12.00,0.00,29.80,M,2.49,M,NSC,M,M,M,M,M,M,M,HZ,M,M,M,M,M,M,105.06,VABB 300630Z 26012KT 4000 HZ NSC 33/25 Q1009 BECMG 5000 HZ,M
VABB,2022-04-30 07:00,93.20,75.20,56.01,260.00,12.00,0.00,29.77,M,3.11,M,NSC,M,M,M,M,M,M,M,FU,M,M,M,M,M,M,105.02,VABB 300700Z 26012KT 5000 FU NSC 34/24 Q1008 NOSIG,M
VABB,2022-04-30 07:30,93.20,77.00,59.47,240.00,10.00,0.00,29.77,M,3.11,M,NSC,M,M,M,M,M,M,M,FU,M,M,M,M,M,M,107.52,VABB 300730Z 24010KT 5000 FU NSC 34/25 Q1008 NOSIG,M
VABB,2022-04-30 08:00,93.20,77.00,59.47,240.00,9.00,0.00,29.74,M,3.11,M,NSC,M,M,M,M,M,M,M,FU,M,M,M,M,M,M,107.52,VABB 300800Z 24009KT 5000 FU NSC 34/25 Q1007 NOSIG,M
VABB,2022-04-30 08:30,93.20,75.20,56.01,240.00,12.00,0.00,29.74,M,3.11,M,NSC,M,M,M,M,M,M,M,FU,M,M,M,M,M,M,105.02,VABB 300830Z 24012KT 5000 FU NSC 34/24 Q1007 NOSIG,M
VABB,2022-04-30 09:00,93.20,73.40,52.73,250.00,7.00,0.00,29.74,M,3.11,17.00,NSC,M,M,M,M,M,M,M,FU,M,M,M,M,M,M,102.82,VABB 300900Z 25007G17KT 5000 FU NSC 34/23 Q1007 NOSIG,M
VABB,2022-04-30 09:30,91.40,71.60,52.48,240.00,12.00,0.00,29.71,M,3.11,M,NSC,M,M,M,M,M,M,M,FU,M,M,M,M,M,M,98.64,VABB 300930Z 24012KT 5000 FU NSC 33/22 Q1006 NOSIG,M
VABB,2022-04-30 10:00,91.40,71.60,52.48,250.00,12.00,0.00,29.71,M,3.11,M,NSC,M,M,M,M,M,M,M,FU,M,M,M,M,M,M,98.64,VABB 301000Z 25012KT 5000 FU NSC 33/22 Q1006 NOSIG,M
VABB,2022-04-30 10:30,91.40,69.80,49.36,250.00,12.00,0.00,29.68,M,3.11,M,NSC,M,M,M,M,M,M,M,FU,M,M,M,M,M,M,96.99,VABB 301030Z 25012KT 5000 FU NSC 33/21 Q1005 NOSIG,M
VABB,2022-04-30 11:00,91.40,75.20,59.24,240.00,7.00,0.00,29.68,M,3.11,17.00,NSC,M,M,M,M,M,M,M,FU,M,M,M,M,M,M,102.65,VABB 301100Z 24007G17KT 5000 FU NSC 33/24 Q1005 NOSIG,M
VABB,2022-04-30 11:30,89.60,73.40,59.01,240.00,10.00,0.00,29.68,M,3.11,M,NSC,M,M,M,M,M,M,M,FU,M,M,M,M,M,M,98.20,VABB 301130Z 24010KT 5000 FU NSC 32/23 Q1005 NOSIG,M
VABB,2022-04-30 12:00,89.60,75.20,62.68,250.00,12.00,0.00,29.68,M,3.11,M,NSC,M,M,M,M,M,M,M,HZ,M,M,M,M,M,M,100.23,VABB 301200Z 25012KT 5000 HZ NSC 32/24 Q1005 NOSIG,M
VABB,2022-04-30 12:30,87.80,77.00,70.45,240.00,8.00,0.00,29.68,M,3.11,18.00,FEW,M,M,M,2000.00,M,M,M,HZ,M,M,M,M,M,M,99.92,VABB 301230Z 24008G18KT 5000 HZ FEW020 31/25 Q1005 NOSIG,M
VABB,2022-04-30 13:00,87.80,78.80,74.77,240.00,11.00,0.00,29.68,M,3.11,M,FEW,M,M,M,2000.00,M,M,M,HZ,M,M,M,M,M,M,102.37,VABB 301300Z 24011KT 5000 HZ FEW020 31/26 Q1005 NOSIG,M
VABB,2022-04-30 13:30,87.80,78.80,74.77,240.00,9.00,0.00,29.71,M,2.49,M,FEW,M,M,M,2000.00,M,M,M,HZ,M,M,M,M,M,M,102.37,VABB 301330Z 24009KT 4000 HZ FEW020 31/26 Q1006 NOSIG,M
VABB,2022-04-30 14:00,86.00,78.80,79.18,250.00,9.00,0.00,29.71,M,2.49,M,SCT,M,M,M,2000.00,M,M,M,HZ,M,M,M,M,M,M,99.38,VABB 301400Z 25009KT 4000 HZ SCT020 30/26 Q1006 NOSIG,M
VABB,2022-04-30 14:30,86.00,78.80,79.18,240.00,7.00,0.00,29.71,M,2.49,M,SCT,M,M,M,2000.00,M,M,M,HZ,M,M,M,M,M,M,99.38,VABB 301430Z 24007KT 4000 HZ SCT020 30/26 Q1006 NOSIG,M
VABB,2022-04-30 15:00,86.00,78.80,79.18,230.00,8.00,0.00,29.71,M,2.17,M,SCT,M,M,M,2000.00,M,M,M,HZ,M,M,M,M,M,M,99.38,VABB 301500Z 23008KT 3500 HZ SCT020 30/26 Q1006 NOSIG,M
VABB,2022-04-30 15:30,86.00,78.80,79.18,230.00,6.00,0.00,29.74,M,2.17,M,FEW,M,M,M,2000.00,M,M,M,HZ,M,M,M,M,M,M,99.38,VABB 301530Z 23006KT 3500 HZ FEW020 30/26 Q1007 NOSIG,M
VABB,2022-04-30 16:00,86.00,78.80,79.18,230.00,7.00,0.00,29.74,M,2.17,M,FEW,M,M,M,2000.00,M,M,M,HZ,M,M,M,M,M,M,99.38,VABB 301600Z 23007KT 3500 HZ FEW020 30/26 Q1007 NOSIG,M
VABB,2022-04-30 16:30,86.00,78.80,79.18,210.00,8.00,0.00,29.74,M,2.17,M,FEW,M,M,M,2000.00,M,M,M,HZ,M,M,M,M,M,M,99.38,VABB 301630Z 21008KT 3500 HZ FEW020 30/26 Q1007 NOSIG,M
VABB,2022-04-30 17:00,86.00,78.80,79.18,220.00,7.00,0.00,29.74,M,2.17,M,FEW,M,M,M,2000.00,M,M,M,HZ,M,M,M,M,M,M,99.38,VABB 301700Z 22007KT 3500 HZ FEW020 30/26 Q1007 NOSIG,M
VABB,2022-04-30 17:30,86.00,78.80,79.18,230.00,8.00,0.00,29.74,M,2.17,M,FEW,M,M,M,2000.00,M,M,M,HZ,M,M,M,M,M,M,99.38,VABB 301730Z 23008KT 3500 HZ FEW020 30/26 Q1007 NOSIG,M
VABB,2022-04-30 18:00,84.20,78.80,83.88,230.00,6.00,0.00,29.74,M,2.17,M,FEW,M,M,M,2000.00,M,M,M,HZ,M,M,M,M,M,M,96.10,VABB 301800Z 23006KT 3500 HZ FEW020 29/26 Q1007 NOSIG,M
VABB,2022-04-30 18:30,84.20,78.80,83.88,200.00,5.00,0.00,29.74,M,2.17,M,FEW,M,M,M,2000.00,M,M,M,HZ,M,M,M,M,M,M,96.10,VABB 301830Z 20005KT 3500 HZ FEW020 29/26 Q1007 NOSIG,M
VABB,2022-04-30 19:00,84.20,78.80,83.88,200.00,4.00,0.00,29.71,M,2.17,M,FEW,M,M,M,2000.00,M,M,M,HZ,M,M,M,M,M,M,96.10,VABB 301900Z 20004KT 3500 HZ FEW020 29/26 Q1006 NOSIG,M
VABB,2022-04-30 19:30,84.20,78.80,83.88,200.00,4.00,0.00,29.71,M,2.17,M,FEW,M,M,M,2000.00,M,M,M,HZ,M,M,M,M,M,M,96.10,VABB 301930Z 20004KT 3500 HZ FEW020 29/26 Q1006 NOSIG,M
VABB,2022-04-30 20:00,84.20,78.80,83.88,220.00,4.00,0.00,29.71,M,2.17,M,FEW,M,M,M,2000.00,M,M,M,HZ,M,M,M,M,M,M,96.10,VABB 302000Z 22004KT 3500 HZ FEW020 29/26 Q1006 BECMG 3000 HZ,M
VABB,2022-04-30 20:30,84.20,78.80,83.88,0.00,0.00,0.00,29.68,M,2.17,M,FEW,M,M,M,2000.00,M,M,M,HZ,M,M,M,M,M,M,96.10,VABB 302030Z 00000KT 3500 HZ FEW020 29/26 Q1005 BECMG 3000 HZ,M
VABB,2022-04-30 21:00,84.20,78.80,83.88,190.00,3.00,0.00,29.68,M,1.86,M,FEW,M,M,M,2000.00,M,M,M,HZ,M,M,M,M,M,M,96.10,VABB 302100Z 19003KT 3000 HZ FEW020 29/26 Q1005 NOSIG,M
VABB,2022-04-30 21:30,84.20,78.80,83.88,240.00,3.00,0.00,29.68,M,1.86,M,FEW,M,M,M,2000.00,M,M,M,HZ,M,M,M,M,M,M,96.10,VABB 302130Z 24003KT 3000 HZ FEW020 29/26 Q1005 NOSIG,M
VABB,2022-04-30 22:00,84.20,78.80,83.88,0.00,0.00,0.00,29.68,M,1.86,M,FEW,M,M,M,2000.00,M,M,M,HZ,M,M,M,M,M,M,96.10,VABB 302200Z 00000KT 3000 HZ FEW020 29/26 Q1005 NOSIG,M
VABB,2022-04-30 22:30,84.20,78.80,83.88,0.00,0.00,0.00,29.68,M,1.86,M,FEW,M,M,M,2000.00,M,M,M,HZ,M,M,M,M,M,M,96.10,VABB 302230Z 00000KT 3000 HZ FEW020 29/26 Q1005 NOSIG,M
VABB,2022-04-30 23:00,84.20,78.80,83.88,170.00,5.00,0.00,29.68,M,1.86,M,FEW,M,M,M,2000.00,M,M,M,HZ,M,M,M,M,M,M,96.10,VABB 302300Z 17005KT 3000 HZ FEW020 29/26 Q1005 NOSIG,M
VABB,2022-04-30 23:30,84.20,78.80,83.88,140.00,4.00,0.00,29.68,M,1.86,M,FEW,M,M,M,2000.00,M,M,M,HZ,M,M,M,M,M,M,96.10,VABB 302330Z 14004KT 3000 HZ FEW020 29/26 Q1005 NOSIG,M
VABB,2022-05-01 00:00,82.40,78.80,88.90,110.00,4.00,0.00,29.68,M,1.86,M,FEW,M,M,M,2000.00,M,M,M,HZ,M,M,M,M,M,M,92.76,VABB 010000Z 11004KT 3000 HZ FEW020 28/26 Q1005 NOSIG,M
VABB,2022-05-01 00:30,82.40,78.80,88.90,140.00,4.00,0.00,29.71,M,1.86,M,FEW,SCT,M,M,2000.00,10000.00,M,M,HZ,M,M,M,M,M,M,92.76,VABB 010030Z 14004KT 3000 HZ FEW020 SCT100 28/26 Q1006 NOSIG,M
VABB,2022-05-01 01:00,84.20,78.80,83.88,170.00,3.00,0.00,29.71,M,1.86,M,SCT,SCT,M,M,2000.00,10000.00,M,M,HZ,M,M,M,M,M,M,96.10,VABB 010100Z 17003KT 3000 HZ SCT020 SCT100 29/26 Q1006 NOSIG,M
VABB,2022-05-01 01:30,84.20,78.80,83.88,180.00,4.00,0.00,29.71,M,1.55,M,SCT,M,M,M,2000.00,M,M,M,HZ,M,M,M,M,M,M,96.10,VABB 010130Z 18004KT 2500 HZ SCT020 29/26 Q1006 NOSIG,M
VABB,2022-05-01 02:00,84.20,78.80,83.88,180.00,6.00,0.00,29.74,M,1.55,M,SCT,SCT,M,M,2000.00,10000.00,M,M,HZ,M,M,M,M,M,M,96.10,VABB 010200Z 18006KT 2500 HZ SCT020 SCT100 29/26 Q1007 NOSIG,M
VABB,2022-05-01 02:30,84.20,78.80,83.88,160.00,6.00,0.00,29.74,M,1.55,M,SCT,SCT,M,M,2000.00,10000.00,M,M,HZ,M,M,M,M,M,M,96.10,VABB 010230Z 16006KT 2500 HZ SCT020 SCT100 29/26 Q1007 NOSIG,M
VABB,2022-05-01 03:00,87.80,78.80,74.77,170.00,5.00,0.00,29.74,M,1.55,M,SCT,SCT,M,M,2000.00,10000.00,M,M,HZ,M,M,M,M,M,M,102.37,VABB 010300Z 17005KT 2500 HZ SCT020 SCT100 31/26 Q1007 NOSIG,M
VABB,2022-05-01 03:30,87.80,78.80,74.77,190.00,6.00,0.00,29.77,M,1.55,M,FEW,SCT,M,M,2000.00,2500.00,M,M,HZ,M,M,M,M,M,M,102.37,VABB 010330Z 19006KT 2500 HZ FEW020 SCT025 31/26 Q1008 BECMG 3000 HZ,M
VABB,2022-05-01 04:00,87.80,78.80,74.77,240.00,8.00,0.00,29.77,M,1.86,M,FEW,SCT,M,M,2000.00,2500.00,M,M,HZ,M,M,M,M,M,M,102.37,VABB 010400Z 24008KT 3000 HZ FEW020 SCT025 31/26 Q1008 NOSIG,M
VABB,2022-05-01 04:30,89.60,77.00,66.55,180.00,6.00,0.00,29.77,M,1.86,M,FEW,SCT,M,M,2000.00,2500.00,M,M,HZ,M,M,M,M,M,M,102.54,VABB 010430Z 18006KT 3000 HZ FEW020 SCT025 32/25 Q1008 NOSIG,M
VABB,2022-05-01 05:00,91.40,77.00,62.90,230.00,8.00,0.00,29.77,M,1.86,M,FEW,SCT,M,M,2000.00,2500.00,M,M,HZ,M,M,M,M,M,M,105.06,VABB 010500Z 23008KT 3000 HZ FEW020 SCT025 33/25 Q1008 NOSIG,M
VABB,2022-05-01 05:30,91.40,78.80,66.75,220.00,7.00,0.00,29.77,M,1.86,M,SCT,M,M,M,2000.00,M,M,M,HZ,M,M,M,M,M,M,107.79,VABB 010530Z 22007KT 3000 HZ SCT020 33/26 Q1008 NOSIG,M
VABB,2022-05-01 06:00,91.40,78.80,66.75,260.00,10.00,0.00,29.74,M,2.49,M,SCT,M,M,M,2000.00,M,M,M,HZ,M,M,M,M,M,M,107.79,VABB 010600Z 26010KT 4000 HZ SCT020 33/26 Q1007 NOSIG,M
VABB,2022-05-01 06:30,91.40,78.80,66.75,250.00,10.00,0.00,29.74,M,2.49,M,FEW,M,M,M,2000.00,M,M,M,HZ,M,M,M,M,M,M,107.79,VABB 010630Z 25010KT 4000 HZ FEW020 33/26 Q1007 NOSIG,M
VABB,2022-05-01 07:00,91.40,78.80,66.75,240.00,12.00,0.00,29.74,M,2.49,M,FEW,M,M,M,2000.00,M,M,M,HZ,M,M,M,M,M,M,107.79,VABB 010700Z 24012KT 4000 HZ FEW020 33/26 Q1007 NOSIG,M
VABB,2022-05-01 07:30,91.40,77.00,62.90,250.00,12.00,0.00,29.74,M,2.49,M,FEW,M,M,M,2000.00,M,M,M,HZ,M,M,M,M,M,M,105.06,VABB 010730Z 25012KT 4000 HZ FEW020 33/25 Q1007 BECMG 5000 FU,M
VABB,2022-05-01 08:00,91.40,77.00,62.90,260.00,12.00,0.00,29.71,M,3.11,M,FEW,M,M,M,2000.00,M,M,M,FU,M,M,M,M,M,M,105.06,VABB 010800Z 26012KT 5000 FU FEW020 33/25 Q1006 NOSIG,M
VABB,2022-05-01 08:30,89.60,77.00,66.55,240.00,13.00,0.00,29.71,M,3.73,M,FEW,M,M,M,2000.00,M,M,M,M,M,M,M,M,M,M,102.54,VABB 010830Z 24013KT 6000 FEW020 32/25 Q1006 NOSIG,M
VABB,2022-05-01 09:00,91.40,78.80,66.75,250.00,7.00,0.00,29.68,M,3.73,17.00,FEW,M,M,M,2000.00,M,M,M,M,M,M,M,M,M,M,107.79,VABB 010900Z 25007G17KT 6000 FEW020 33/26 Q1005 NOSIG,M
VABB,2022-05-01 09:30,91.40,78.80,66.75,260.00,7.00,0.00,29.68,M,3.73,17.00,FEW,M,M,M,2000.00,M,M,M,M,M,M,M,M,M,M,107.79,VABB 010930Z 26007G17KT 6000 FEW020 33/26 Q1005 NOSIG,M
VABB,2022-05-01 10:00,91.40,77.00,62.90,240.00,11.00,0.00,29.68,M,3.73,M,FEW,M,M,M,2000.00,M,M,M,M,M,M,M,M,M,M,105.06,VABB 011000Z 24011KT 6000 FEW020 33/25 Q1005 NOSIG,M
VABB,2022-05-01 10:30,89.60,78.80,70.63,250.00,11.00,0.00,29.68,M,3.73,M,FEW,M,M,M,2000.00,M,M,M,M,M,M,M,M,M,M,105.15,VABB 011030Z 25011KT 6000 FEW020 32/26 Q1005 NOSIG,M
VABB,2022-05-01 11:00,89.60,78.80,70.63,260.00,7.00,0.00,29.65,M,3.73,17.00,SCT,M,M,M,2000.00,M,M,M,M,M,M,M,M,M,M,105.15,VABB 011100Z 26007G17KT 6000 SCT020 32/26 Q1004 NOSIG,M
VABB,2022-05-01 11:30,89.60,80.60,74.93,260.00,7.00,0.00,29.65,M,3.73,17.00,SCT,M,M,M,2000.00,M,M,M,M,M,M,M,M,M,M,108.11,VABB 011130Z 26007G17KT 6000 SCT020 32/27 Q1004 BECMG 5000 HZ,M
VABB,2022-05-01 12:00,87.80,80.60,79.31,250.00,12.00,0.00,29.65,M,3.11,M,SCT,M,M,M,2000.00,M,M,M,HZ,M,M,M,M,M,M,105.14,VABB 011200Z 25012KT 5000 HZ SCT020 31/27 Q1004 NOSIG,M
VABB,2022-05-01 12:30,87.80,80.60,79.31,250.00,10.00,0.00,29.65,M,3.11,M,SCT,M,M,M,2000.00,M,M,M,HZ,M,M,M,M,M,M,105.14,VABB 011230Z 25010KT 5000 HZ SCT020 31/27 Q1004 NOSIG,M
VABB,2022-05-01 13:00,87.80,80.60,79.31,240.00,11.00,0.00,29.68,M,3.11,M,SCT,M,M,M,2000.00,M,M,M,HZ,M,M,M,M,M,M,105.14,VABB 011300Z 24011KT 5000 HZ SCT020 31/27 Q1005 NOSIG,M
VABB,2022-05-01 13:30,87.80,80.60,79.31,250.00,12.00,0.00,29.68,M,2.49,M,SCT,SCT,M,M,2000.00,2500.00,M,M,HZ,M,M,M,M,M,M,105.14,VABB 011330Z 25012KT 4000 HZ SCT020 SCT025 31/27 Q1005 NOSIG,M
VABB,2022-05-01 14:00,86.00,80.60,83.99,260.00,9.00,0.00,29.68,M,2.49,M,SCT,SCT,M,M,2000.00,2500.00,M,M,HZ,M,M,M,M,M,M,101.90,VABB 011400Z 26009KT 4000 HZ SCT020 SCT025 30/27 Q1005 NOSIG,M
VABB,2022-05-01 14:30,86.00,80.60,83.99,260.00,9.00,0.00,29.68,M,2.49,M,FEW,SCT,M,M,2000.00,2500.00,M,M,HZ,M,M,M,M,M,M,101.90,VABB 011430Z 26009KT 4000 HZ FEW020 SCT025 30/27 Q1005 NOSIG,M
VABB,2022-05-01 15:00,86.00,78.80,79.18,250.00,10.00,0.00,29.71,M,2.49,M,FEW,SCT,M,M,2000.00,2500.00,M,M,HZ,M,M,M,M,M,M,99.38,VABB 011500Z 25010KT 4000 HZ FEW020 SCT025 30/26 Q1006 NOSIG,M
VABB,2022-05-01 15:30,86.00,78.80,79.18,260.00,9.00,0.00,29.71,M,2.49,M,SCT,SCT,M,M,2000.00,2500.00,M,M,HZ,M,M,M,M,M,M,99.38,VABB 011530Z 26009KT 4000 HZ SCT020 SCT025 30/26 Q1006 NOSIG,M
VABB,2022-05-01 16:00,86.00,80.60,83.99,260.00,8.00,0.00,29.71,M,2.49,M,SCT,SCT,M,M,2000.00,2500.00,M,M,HZ,M,M,M,M,M,M,101.90,VABB 011600Z 26008KT 4000 HZ SCT020 SCT025 30/27 Q1006 NOSIG,M
VABB,2022-05-01 16:30,86.00,80.60,83.99,240.00,8.00,0.00,29.71,M,2.49,M,SCT,SCT,M,M,2000.00,2500.00,M,M,HZ,M,M,M,M,M,M,101.90,VABB 011630Z 24008KT 4000 HZ SCT020 SCT025 30/27 Q1006 NOSIG,M
VABB,2022-05-01 17:00,86.00,78.80,79.18,230.00,8.00,0.00,29.74,M,2.17,M,SCT,SCT,M,M,2000.00,2500.00,M,M,HZ,M,M,M,M,M,M,99.38,VABB 011700Z 23008KT 3500 HZ SCT020 SCT025 30/26 Q1007 BECMG 3000 HZ,M
VABB,2022-05-01 17:30,86.00,78.80,79.18,210.00,8.00,0.00,29.71,M,1.86,M,SCT,SCT,M,M,2000.00,2500.00,M,M,HZ,M,M,M,M,M,M,99.38,VABB 011730Z 21008KT 3000 HZ SCT020 SCT025 30/26 Q1006 NOSIG,M
VABB,2022-05-01 18:00,86.00,78.80,79.18,210.00,6.00,0.00,29.71,M,1.86,M,SCT,SCT,M,M,2000.00,2500.00,M,M,HZ,M,M,M,M,M,M,99.38,VABB 011800Z 21006KT 3000 HZ SCT020 SCT025 30/26 Q1006 NOSIG,M
VABB,2022-05-01 18:30,86.00,78.80,79.18,210.00,8.00,0.00,29.71,M,1.86,M,SCT,SCT,M,M,2000.00,2500.00,M,M,HZ,M,M,M,M,M,M,99.38,VABB 011830Z 21008KT 3000 HZ SCT020 SCT025 30/26 Q1006 NOSIG,M
VABB,2022-05-01 19:00,86.00,78.80,79.18,210.00,6.00,0.00,29.71,M,1.86,M,SCT,SCT,M,M,2000.00,2500.00,M,M,HZ,M,M,M,M,M,M,99.38,VABB 011900Z 21006KT 3000 HZ SCT020 SCT025 30/26 Q1006 NOSIG,M
VABB,2022-05-01 19:30,86.00,78.80,79.18,210.00,5.00,0.00,29.71,M,1.86,M,SCT,SCT,M,M,2000.00,2500.00,M,M,HZ,M,M,M,M,M,M,99.38,VABB 011930Z 21005KT 3000 HZ SCT020 SCT025 30/26 Q1006 NOSIG,M
VABB,2022-05-01 20:00,86.00,78.80,79.18,230.00,5.00,0.00,29.71,M,1.86,M,SCT,SCT,M,M,2000.00,2500.00,M,M,HZ,M,M,M,M,M,M,99.38,VABB 012000Z 23005KT 3000 HZ SCT020 SCT025 30/26 Q1006 NOSIG,M
VABB,2022-05-01 20:30,86.00,78.80,79.18,220.00,4.00,0.00,29.68,M,1.86,M,SCT,M,M,M,2000.00,M,M,M,HZ,M,M,M,M,M,M,99.38,VABB 012030Z 22004KT 3000 HZ SCT020 30/26 Q1005 NOSIG,M
VABB,2022-05-01 21:00,84.20,78.80,83.88,220.00,5.00,0.00,29.68,M,1.86,M,SCT,M,M,M,2000.00,M,M,M,HZ,M,M,M,M,M,M,96.10,VABB 012100Z 22005KT 3000 HZ SCT020 29/26 Q1005 NOSIG,M
VABB,2022-05-01 21:30,84.20,78.80,83.88,220.00,5.00,0.00,29.68,M,1.86,M,SCT,M,M,M,2000.00,M,M,M,HZ,M,M,M,M,M,M,96.10,VABB 012130Z 22005KT 3000 HZ SCT020 29/26 Q1005 NOSIG,M
VABB,2022-05-01 22:00,84.20,78.80,83.88,210.00,5.00,0.00,29.68,M,1.86,M,SCT,SCT,M,M,2000.00,2500.00,M,M,HZ,M,M,M,M,M,M,96.10,VABB 012200Z 21005KT 3000 HZ SCT020 SCT025 29/26 Q1005 NOSIG,M
VABB,2022-05-01 22:30,84.20,78.80,83.88,230.00,3.00,0.00,29.68,M,1.86,M,SCT,SCT,M,M,2000.00,2500.00,M,M,HZ,M,M,M,M,M,M,96.10,VABB 012230Z 23003KT 3000 HZ SCT020 SCT025 29/26 Q1005 NOSIG,M
VABB,2022-05-01 23:00,84.20,78.80,83.88,210.00,3.00,0.00,29.68,M,1.86,M,SCT,M,M,M,2000.00,M,M,M,HZ,M,M,M,M,M,M,96.10,VABB 012300Z 21003KT 3000 HZ SCT020 29/26 Q1005 NOSIG,M
VABB,2022-05-01 23:30,84.20,78.80,83.88,180.00,3.00,0.00,29.71,M,1.86,M,SCT,M,M,M,2000.00,M,M,M,HZ,M,M,M,M,M,M,96.10,VABB 012330Z 18003KT 3000 HZ SCT020 29/26 Q1006 NOSIG,M
VABB,2022-05-02 00:00,84.20,78.80,83.88,210.00,4.00,0.00,29.71,M,1.86,M,SCT,M,M,M,2000.00,M,M,M,HZ,M,M,M,M,M,M,96.10,VABB 020000Z 21004KT 3000 HZ SCT020 29/26 Q1006 NOSIG,M
VABB,2022-05-02 00:30,84.20,78.80,83.88,200.00,5.00,0.00,29.71,M,1.86,M,SCT,SCT,M,M,2000.00,2500.00,M,M,HZ,M,M,M,M,M,M,96.10,VABB 020030Z 20005KT 3000 HZ SCT020 SCT025 29/26 Q1006 NOSIG,M
VABB,2022-05-02 01:00,84.20,78.80,83.88,190.00,3.00,0.00,29.71,M,1.86,M,SCT,SCT,M,M,2000.00,2500.00,M,M,HZ,M,M,M,M,M,M,96.10,VABB 020100Z 19003KT 3000 HZ SCT020 SCT025 29/26 Q1006 NOSIG,M
VABB,2022-05-02 01:30,84.20,78.80,83.88,110.00,4.00,0.00,29.74,M,1.86,M,SCT,M,M,M,2000.00,M,M,M,HZ,M,M,M,M,M,M,96.10,VABB 020130Z 11004KT 3000 HZ SCT020 29/26 Q1007 NOSIG,M
VABB,2022-05-02 02:00,86.00,80.60,83.99,130.00,3.00,0.00,29.74,M,1.86,M,FEW,SCT,M,M,2000.00,2500.00,M,M,HZ,M,M,M,M,M,M,101.90,VABB 020200Z 13003KT 3000 HZ FEW020 SCT025 30/27 Q1007 NOSIG,M
VABB,2022-05-02 02:30,86.00,80.60,83.99,140.00,6.00,0.00,29.74,M,1.86,M,FEW,SCT,M,M,2000.00,2500.00,M,M,HZ,M,M,M,M,M,M,101.90,VABB 020230Z 14006KT 3000 HZ FEW020 SCT025 30/27 Q1007 NOSIG,M
VABB,2022-05-02 03:00,86.00,78.80,79.18,140.00,4.00,0.00,29.77,M,1.86,M,FEW,SCT,M,M,2000.00,2500.00,M,M,HZ,M,M,M,M,M,M,99.38,VABB 020300Z 14004KT 3000 HZ FEW020 SCT025 30/26 Q1008 NOSIG,M
VABB,2022-05-02 03:30,89.60,78.80,70.63,140.00,3.00,0.00,29.77,M,2.17,M,SCT,SCT,M,M,2000.00,2500.00,M,M,HZ,M,M,M,M,M,M,105.15,VABB 020330Z 14003KT 3500 HZ SCT020 SCT025 32/26 Q1008 NOSIG,M
VABB,2022-05-02 04:00,89.60,78.80,70.63,240.00,8.00,0.00,29.77,M,2.17,M,SCT,SCT,M,M,2000.00,2500.00,M,M,HZ,M,M,M,M,M,M,105.15,VABB 020400Z 24008KT 3500 HZ SCT020 SCT025 32/26 Q1008 NOSIG,M
VABB,2022-05-02 04:30,89.60,78.80,70.63,220.00,6.00,0.00,29.77,M,2.17,M,SCT,SCT,M,M,2000.00,2500.00,M,M,HZ,M,M,M,M,M,M,105.15,VABB 020430Z 22006KT 3500 HZ SCT020 SCT025 32/26 Q1008 NOSIG,M
VABB,2022-05-02 05:00,91.40,78.80,66.75,230.00,7.00,0.00,29.77,M,2.17,M,SCT,SCT,M,M,2000.00,2500.00,M,M,HZ,M,M,M,M,M,M,107.79,VABB 020500Z 23007KT 3500 HZ SCT020 SCT025 33/26 Q1008 NOSIG,M
VABB,2022-05-02 05:30,89.60,78.80,70.63,250.00,11.00,0.00,29.77,M,2.49,M,SCT,SCT,M,M,2000.00,2500.00,M,M,HZ,M,M,M,M,M,M,105.15,VABB 020530Z 25011KT 4000 HZ SCT020 SCT025 32/26 Q1008 NOSIG,M
VABB,2022-05-02 06:00,91.40,78.80,66.75,240.00,7.00,0.00,29.74,M,2.80,17.00,FEW,SCT,M,M,2000.00,2500.00,M,M,HZ,M,M,M,M,M,M,107.79,VABB 020600Z 24007G17KT 4500 HZ FEW020 SCT025 33/26 Q1007 BECMG 5000 HZ,M
VABB,2022-05-02 06:30,91.40,78.80,66.75,260.00,7.00,0.00,29.74,M,3.11,17.00,FEW,SCT,M,M,2000.00,2500.00,M,M,HZ,M,M,M,M,M,M,107.79,VABB 020630Z 26007G17KT 5000 HZ FEW020 SCT025 33/26 Q1007 NOSIG,M
VABB,2022-05-02 07:00,91.40,78.80,66.75,260.00,12.00,0.00,29.74,M,3.11,M,FEW,SCT,M,M,2000.00,2500.00,M,M,HZ,M,M,M,M,M,M,107.79,VABB 020700Z 26012KT 5000 HZ FEW020 SCT025 33/26 Q1007 NOSIG,M
VABB,2022-05-02 07:30,91.40,77.00,62.90,250.00,11.00,0.00,29.71,M,3.11,M,SCT,M,M,M,2000.00,M,M,M,HZ,M,M,M,M,M,M,105.06,VABB 020730Z 25011KT 5000 HZ SCT020 33/25 Q1006 NOSIG,M
VABB,2022-05-02 08:00,91.40,78.80,66.75,230.00,11.00,0.00,29.71,M,3.11,M,SCT,M,M,M,2000.00,M,M,M,HZ,M,M,M,M,M,M,107.79,VABB 020800Z 23011KT 5000 HZ SCT020 33/26 Q1006 NOSIG,M
VABB,2022-05-02 08:30,89.60,75.20,62.68,230.00,8.00,0.00,29.68,M,3.11,M,SCT,M,M,M,2000.00,M,M,M,HZ,M,M,M,M,M,M,100.23,VABB 020830Z 23008KT 5000 HZ SCT020 32/24 Q1005 NOSIG,M
VABB,2022-05-02 09:00,89.60,75.20,62.68,220.00,9.00,0.00,29.68,M,3.11,M,SCT,M,M,M,2000.00,M,M,M,HZ,M,M,M,M,M,M,100.23,VABB 020900Z 22009KT 5000 HZ SCT020 32/24 Q1005 NOSIG,M
VABB,2022-05-02 09:30,89.60,77.00,66.55,220.00,10.00,0.00,29.68,M,3.11,M,SCT,M,M,M,2000.00,M,M,M,HZ,M,M,M,M,M,M,102.54,VABB 020930Z 22010KT 5000 HZ SCT020 32/25 Q1005 NOSIG,M
VABB,2022-05-02 10:00,89.60,75.20,62.68,250.00,10.00,0.00,29.68,M,3.11,M,SCT,M,M,M,2000.00,M,M,M,HZ,M,M,M,M,M,M,100.23,VABB 021000Z 25010KT 5000 HZ SCT020 32/24 Q1005 NOSIG,M
VABB,2022-05-02 10:30,89.60,78.80,70.63,280.00,13.00,0.00,29.68,M,3.11,M,SCT,M,M,M,2000.00,M,M,M,HZ,M,M,M,M,M,M,105.15,VABB 021030Z 28013KT 5000 HZ SCT020 32/26 Q1005 NOSIG,M
VABB,2022-05-02 11:00,89.60,78.80,70.63,270.00,11.00,0.00,29.68,M,3.11,M,SCT,M,M,M,2000.00,M,M,M,HZ,M,M,M,M,M,M,105.15,VABB 021100Z 27011KT 5000 HZ SCT020 32/26 Q1005 NOSIG,M
VABB,2022-05-02 11:30,89.60,78.80,70.63,260.00,11.00,0.00,29.68,M,3.11,M,SCT,M,M,M,2000.00,M,M,M,HZ,M,M,M,M,M,M,105.15,VABB 021130Z 26011KT 5000 HZ SCT020 32/26 Q1005 NOSIG,M
VABB,2022-05-02 12:00,89.60,78.80,70.63,280.00,9.00,0.00,29.68,M,3.11,M,SCT,M,M,M,2000.00,M,M,M,HZ,M,M,M,M,M,M,105.15,VABB 021200Z 28009KT 5000 HZ SCT020 32/26 Q1005 NOSIG,M
VABB,2022-05-02 12:30,87.80,78.80,74.77,260.00,10.00,0.00,29.68,M,3.11,M,SCT,M,M,M,2000.00,M,M,M,HZ,M,M,M,M,M,M,102.37,VABB 021230Z 26010KT 5000 HZ SCT020 31/26 Q1005 NOSIG,M
VABB,2022-05-02 13:00,87.80,78.80,74.77,240.00,12.00,0.00,29.68,M,3.11,M,SCT,M,M,M,2000.00,M,M,M,HZ,M,M,M,M,M,M,102.37,VABB 021300Z 24012KT 5000 HZ SCT020 31/26 Q1005 BECMG 4000 HZ,M
VABB,2022-05-02 13:30,86.00,78.80,79.18,250.00,11.00,0.00,29.68,M,2.49,M,SCT,M,M,M,2000.00,M,M,M,HZ,M,M,M,M,M,M,99.38,VABB 021330Z 25011KT 4000 HZ SCT020 30/26 Q1005 NOSIG,M
VABB,2022-05-02 14:00,86.00,78.80,79.18,270.00,10.00,0.00,29.68,M,2.17,M,SCT,SCT,M,M,2000.00,2500.00,M,M,HZ,M,M,M,M,M,M,99.38,VABB 021400Z 27010KT 3500 HZ SCT020 SCT025 30/26 Q1005 NOSIG,M
VABB,2022-05-02 14:30,86.00,78.80,79.18,260.00,9.00,0.00,29.68,M,2.17,M,SCT,SCT,M,M,2000.00,2500.00,M,M,HZ,M,M,M,M,M,M,99.38,VABB 021430Z 26009KT 3500 HZ SCT020 SCT025 30/26 Q1005 NOSIG,M
VABB,2022-05-02 15:00,86.00,78.80,79.18,270.00,7.00,0.00,29.71,M,2.17,M,SCT,SCT,M,M,2000.00,2500.00,M,M,HZ,M,M,M,M,M,M,99.38,VABB 021500Z 27007KT 3500 HZ SCT020 SCT025 30/26 Q1006 NOSIG,M
VABB,2022-05-02 15:30,86.00,78.80,79.18,250.00,8.00,0.00,29.71,M,2.17,M,SCT,SCT,M,M,2000.00,2500.00,M,M,HZ,M,M,M,M,M,M,99.38,VABB 021530Z 25008KT 3500 HZ SCT020 SCT025 30/26 Q1006 NOSIG,M
VABB,2022-05-02 16:00,86.00,78.80,79.18,240.00,7.00,0.00,29.71,M,2.17,M,SCT,M,M,M,2000.00,M,M,M,HZ,M,M,M,M,M,M,99.38,VABB 021600Z 24007KT 3500 HZ SCT020 30/26 Q1006 NOSIG,M
VABB,2022-05-02 16:30,86.00,78.80,79.18,250.00,5.00,0.00,29.71,M,2.17,M,SCT,M,M,M,2000.00,M,M,M,HZ,M,M,M,M,M,M,99.38,VABB 021630Z 25005KT 3500 HZ SCT020 30/26 Q1006 NOSIG,M
VABB,2022-05-02 17:00,86.00,78.80,79.18,230.00,6.00,0.00,29.74,M,2.17,M,SCT,M,M,M,2000.00,M,M,M,HZ,M,M,M,M,M,M,99.38,VABB 021700Z 23006KT 3500 HZ SCT020 30/26 Q1007 NOSIG,M
VABB,2022-05-02 17:30,86.00,78.80,79.18,210.00,5.00,0.00,29.74,M,2.17,M,SCT,M,M,M,2000.00,M,M,M,HZ,M,M,M,M,M,M,99.38,VABB 021730Z 21005KT 3500 HZ SCT020 30/26 Q1007 NOSIG,M
VABB,2022-05-02 18:00,86.00,78.80,79.18,220.00,5.00,0.00,29.74,M,2.17,M,SCT,M,M,M,2000.00,M,M,M,HZ,M,M,M,M,M,M,99.38,VABB 021800Z 22005KT 3500 HZ SCT020 30/26 Q1007 NOSIG,M
VABB,2022-05-02 18:30,86.00,78.80,79.18,230.00,6.00,0.00,29.71,M,2.17,M,SCT,M,M,M,2000.00,M,M,M,HZ,M,M,M,M,M,M,99.38,VABB 021830Z 23006KT 3500 HZ SCT020 30/26 Q1006 NOSIG,M
VABB,2022-05-02 19:00,84.20,78.80,83.88,210.00,5.00,0.00,29.71,M,2.17,M,SCT,M,M,M,2000.00,M,M,M,HZ,M,M,M,M,M,M,96.10,VABB 021900Z 21005KT 3500 HZ SCT020 29/26 Q1006 NOSIG,M
VABB,2022-05-02 19:30,86.00,78.80,79.18,220.00,3.00,0.00,29.71,M,2.17,M,SCT,M,M,M,2000.00,M,M,M,HZ,M,M,M,M,M,M,99.38,VABB 021930Z 22003KT 3500 HZ SCT020 30/26 Q1006 NOSIG,M
VABB,2022-05-02 20:00,84.20,78.80,83.88,230.00,3.00,0.00,29.71,M,2.17,M,SCT,M,M,M,2000.00,M,M,M,HZ,M,M,M,M,M,M,96.10,VABB 022000Z 23003KT 3500 HZ SCT020 29/26 Q1006 NOSIG,M
VABB,2022-05-02 20:30,84.20,78.80,83.88,220.00,6.00,0.00,29.71,M,2.17,M,SCT,M,M,M,2000.00,M,M,M,HZ,M,M,M,M,M,M,96.10,VABB 022030Z 22006KT 3500 HZ SCT020 29/26 Q1006 NOSIG,M
VABB,2022-05-02 21:00,86.00,78.80,79.18,220.00,5.00,0.00,29.71,M,2.17,M,SCT,M,M,M,2000.00,M,M,M,HZ,M,M,M,M,M,M,99.38,VABB 022100Z 22005KT 3500 HZ SCT020 30/26 Q1006 NOSIG,M
VABB,2022-05-02 21:30,84.20,77.00,79.04,210.00,3.00,0.00,29.71,M,2.17,M,SCT,M,M,M,2000.00,M,M,M,HZ,M,M,M,M,M,M,94.16,VABB 022130Z 21003KT 3500 HZ SCT020 29/25 Q1006 NOSIG,M
VABB,2022-05-02 22:00,84.20,77.00,79.04,220.00,3.00,0.00,29.71,M,2.17,M,FEW,M,M,M,2000.00,M,M,M,HZ,M,M,M,M,M,M,94.16,VABB 022200Z 22003KT 3500 HZ FEW020 29/25 Q1006 NOSIG,M
VABB,2022-05-02 22:30,84.20,78.80,83.88,210.00,4.00,0.00,29.71,M,2.17,M,FEW,M,M,M,2000.00,M,M,M,HZ,M,M,M,M,M,M,96.10,VABB 022230Z 21004KT 3500 HZ FEW020 29/26 Q1006 NOSIG,M
VABB,2022-05-02 23:00,84.20,78.80,83.88,210.00,5.00,0.00,29.71,M,2.17,M,FEW,M,M,M,2000.00,M,M,M,HZ,M,M,M,M,M,M,96.10,VABB 022300Z 21005KT 3500 HZ FEW020 29/26 Q1006 NOSIG,M
VABB,2022-05-02 23:30,84.20,78.80,83.88,210.00,3.00,0.00,29.71,M,2.17,M,SCT,M,M,M,2000.00,M,M,M,HZ,M,M,M,M,M,M,96.10,VABB 022330Z 21003KT 3500 HZ SCT020 29/26 Q1006 BECMG 3000 HZ,M
VABB,2022-05-03 00:00,84.20,78.80,83.88,0.00,0.00,0.00,29.74,M,1.86,M,SCT,M,M,M,2000.00,M,M,M,HZ,M,M,M,M,M,M,96.10,VABB 030000Z 00000KT 3000 HZ SCT020 29/26 Q1007 NOSIG,M
VABB,2022-05-03 00:30,84.20,78.80,83.88,0.00,0.00,0.00,29.74,M,1.86,M,SCT,M,M,M,2000.00,M,M,M,HZ,M,M,M,M,M,M,96.10,VABB 030030Z 00000KT 3000 HZ SCT020 29/26 Q1007 NOSIG,M
VABB,2022-05-03 01:00,84.20,78.80,83.88,0.00,0.00,0.00,29.74,M,1.86,M,SCT,M,M,M,2000.00,M,M,M,HZ,M,M,M,M,M,M,96.10,VABB 030100Z 00000KT 3000 HZ SCT020 29/26 Q1007 NOSIG,M
VABB,2022-05-03 01:30,86.00,78.80,79.18,120.00,3.00,0.00,29.74,M,1.86,M,SCT,M,M,M,2000.00,M,M,M,HZ,M,M,M,M,M,M,99.38,VABB 030130Z 12003KT 3000 HZ SCT020 30/26 Q1007 NOSIG,M
VABB,2022-05-03 02:00,86.00,78.80,79.18,120.00,5.00,0.00,29.77,M,1.86,M,SCT,M,M,M,2000.00,M,M,M,HZ,M,M,M,M,M,M,99.38,VABB 030200Z 12005KT 3000 HZ SCT020 30/26 Q1008 NOSIG,M
VABB,2022-05-03 02:30,87.80,78.80,74.77,120.00,5.00,0.00,29.77,M,1.86,M,SCT,M,M,M,2000.00,M,M,M,HZ,M,M,M,M,M,M,102.37,VABB 030230Z 12005KT 3000 HZ SCT020 31/26 Q1008 NOSIG,M
VABB,2022-05-03 03:00,86.00,78.80,79.18,180.00,3.00,0.00,29.77,M,1.86,M,SCT,M,M,M,2000.00,M,M,M,HZ,M,M,M,M,M,M,99.38,VABB 030300Z 18003KT 3000 HZ SCT020 30/26 Q1008 NOSIG,M
VABB,2022-05-03 03:30,87.80,78.80,74.77,220.00,5.00,0.00,29.77,M,1.86,M,SCT,M,M,M,2000.00,M,M,M,HZ,M,M,M,M,M,M,102.37,VABB 030330Z 22005KT 3000 HZ SCT020 31/26 Q1008 NOSIG,M
VABB,2022-05-03 04:00,87.80,78.80,74.77,240.00,7.00,0.00,29.80,M,1.86,M,SCT,M,M,M,2000.00,M,M,M,HZ,M,M,M,M,M,M,102.37,VABB 030400Z 24007KT 3000 HZ SCT020 31/26 Q1009 NOSIG,M
VABB,2022-05-03 04:30,87.80,78.80,74.77,250.00,7.00,0.00,29.80,M,2.49,M,SCT,M,M,M,2000.00,M,M,M,HZ,M,M,M,M,M,M,102.37,VABB 030430Z 25007KT 4000 HZ SCT020 31/26 Q1009 NOSIG,M
VABB,2022-05-03 05:00,91.40,77.00,62.90,210.00,9.00,0.00,29.80,M,2.49,M,SCT,M,M,M,2000.00,M,M,M,HZ,M,M,M,M,M,M,105.06,VABB 030500Z 21009KT 4000 HZ SCT020 33/25 Q1009 NOSIG,M
VABB,2022-05-03 05:30,91.40,78.80,66.75,250.00,9.00,0.00,29.77,M,2.49,M,SCT,M,M,M,2000.00,M,M,M,HZ,M,M,M,M,M,M,107.79,VABB 030530Z 25009KT 4000 HZ SCT020 33/26 Q1008 NOSIG,M
VABB,2022-05-03 06:00,93.20,77.00,59.47,260.00,10.00,0.00,29.77,M,2.49,M,SCT,M,M,M,2000.00,M,M,M,HZ,M,M,M,M,M,M,107.52,VABB 030600Z 26010KT 4000 HZ SCT020 34/25 Q1008 NOSIG,M
VABB,2022-05-03 06:30,91.40,77.00,62.90,270.00,9.00,0.00,29.77,M,2.49,M,SCT,M,M,M,2000.00,M,M,M,HZ,M,M,M,M,M,M,105.06,VABB 030630Z 27009KT 4000 HZ SCT020 33/25 Q1008 BECMG 5000 HZ,M
VABB,2022-05-03 07:00,91.40,77.00,62.90,260.00,10.00,0.00,29.77,M,3.11,M,SCT,M,M,M,2000.00,M,M,M,HZ,M,M,M,M,M,M,105.06,VABB 030700Z 26010KT 5000 HZ SCT020 33/25 Q1008 NOSIG,M
VABB,2022-05-03 07:30,93.20,78.80,63.11,270.00,9.00,0.00,29.74,M,3.11,M,FEW,M,M,M,2000.00,M,M,M,HZ,M,M,M,M,M,M,110.34,VABB 030730Z 27009KT 5000 HZ FEW020 34/26 Q1007 NOSIG,M
VABB,2022-05-03 08:00,91.40,77.00,62.90,270.00,10.00,0.00,29.74,M,3.11,M,FEW,M,M,M,2000.00,M,M,M,HZ,M,M,M,M,M,M,105.06,VABB 030800Z 27010KT 5000 HZ FEW020 33/25 Q1007 NOSIG,M
VABB,2022-05-03 08:30,91.40,77.00,62.90,270.00,13.00,0.00,29.74,M,3.73,M,FEW,SCT,M,M,2000.00,2500.00,M,M,M,M,M,M,M,M,M,105.06,VABB 030830Z 27013KT 6000 FEW020 SCT025 33/25 Q1007 NOSIG,M
VABB,2022-05-03 09:00,91.40,77.00,62.90,260.00,12.00,0.00,29.71,M,3.73,M,FEW,M,M,M,2000.00,M,M,M,M,M,M,M,M,M,M,105.06,VABB 030900Z 26012KT 6000 FEW020 33/25 Q1006 NOSIG,M
VABB,2022-05-03 09:30,91.40,77.00,62.90,270.00,13.00,0.00,29.71,M,3.73,M,FEW,M,M,M,2000.00,M,M,M,M,M,M,M,M,M,M,105.06,VABB 030930Z 27013KT 6000 FEW020 33/25 Q1006 NOSIG,M
VABB,2022-05-03 10:00,91.40,78.80,66.75,270.00,7.00,0.00,29.71,M,3.73,17.00,FEW,M,M,M,2000.00,M,M,M,M,M,M,M,M,M,M,107.79,VABB 031000Z 27007G17KT 6000 FEW020 33/26 Q1006 NOSIG,M
VABB,2022-05-03 10:30,91.40,78.80,66.75,290.00,7.00,0.00,29.71,M,3.73,17.00,FEW,SCT,M,M,2000.00,2500.00,M,M,M,M,M,M,M,M,M,107.79,VABB 031030Z 29007G17KT 6000 FEW020 SCT025 33/26 Q1006 NOSIG,M
VABB,2022-05-03 11:00,89.60,78.80,70.63,290.00,11.00,0.00,29.71,M,3.73,M,SCT,SCT,M,M,2000.00,2500.00,M,M,M,M,M,M,M,M,M,105.15,VABB 031100Z 29011KT 6000 SCT020 SCT025 32/26 Q1006 BECMG 5000 HZ,M
VABB,2022-05-03 11:30,89.60,78.80,70.63,280.00,12.00,0.00,29.71,M,3.11,M,FEW,SCT,M,M,2000.00,2500.00,M,M,HZ,M,M,M,M,M,M,105.15,VABB 031130Z 28012KT 5000 HZ FEW020 SCT025 32/26 Q1006 NOSIG,M
VABB,2022-05-03 12:00,89.60,78.80,70.63,270.00,8.00,0.00,29.71,M,3.11,18.00,FEW,SCT,M,M,2000.00,2500.00,M,M,HZ,M,M,M,M,M,M,105.15,VABB 031200Z 27008G18KT 5000 HZ FEW020 SCT025 32/26 Q1006 NOSIG,M
VABB,2022-05-03 12:30,87.80,78.80,74.77,270.00,12.00,0.00,29.71,M,3.11,M,SCT,SCT,M,M,2000.00,2500.00,M,M,HZ,M,M,M,M,M,M,102.37,VABB 031230Z 27012KT 5000 HZ SCT020 SCT025 31/26 Q1006 NOSIG,M
VABB,2022-05-03 13:00,87.80,78.80,74.77,280.00,8.00,0.00,29.71,M,2.80,M,SCT,M,M,M,2000.00,M,M,M,HZ,M,M,M,M,M,M,102.37,VABB 031300Z 28008KT 4500 HZ SCT020 31/26 Q1006 NOSIG,M
VABB,2022-05-03 13:30,87.80,78.80,74.77,300.00,10.00,0.00,29.71,M,2.49,M,SCT,M,M,M,2000.00,M,M,M,HZ,M,M,M,M,M,M,102.37,VABB 031330Z 30010KT 4000 HZ SCT020 31/26 Q1006 NOSIG,M
VABB,2022-05-03 14:00,87.80,78.80,74.77,280.00,7.00,0.00,29.71,M,2.49,M,SCT,M,M,M,2000.00,M,M,M,HZ,M,M,M,M,M,M,102.37,VABB 031400Z 28007KT 4000 HZ SCT020 31/26 Q1006 NOSIG,M
VABB,2022-05-03 14:30,87.80,78.80,74.77,290.00,6.00,0.00,29.71,M,2.49,M,SCT,M,M,M,2000.00,M,M,M,HZ,M,M,M,M,M,M,102.37,VABB 031430Z 29006KT 4000 HZ SCT020 31/26 Q1006 NOSIG,M
VABB,2022-05-03 15:00,86.00,78.80,79.18,270.00,7.00,0.00,29.74,M,2.49,M,SCT,M,M,M,2000.00,M,M,M,HZ,M,M,M,M,M,M,99.38,VABB 031500Z 27007KT 4000 HZ SCT020 30/26 Q1007 NOSIG,M
VABB,2022-05-03 15:30,86.00,78.80,79.18,270.00,5.00,0.00,29.74,M,2.49,M,SCT,M,M,M,2000.00,M,M,M,HZ,M,M,M,M,M,M,99.38,VABB 031530Z 27005KT 4000 HZ SCT020 30/26 Q1007 NOSIG,M
VABB,2022-05-03 16:00,86.00,78.80,79.18,270.00,6.00,0.00,29.74,M,2.49,M,SCT,M,M,M,2000.00,M,M,M,HZ,M,M,M,M,M,M,99.38,VABB 031600Z 27006KT 4000 HZ SCT020 30/26 Q1007 NOSIG,M
VABB,2022-05-03 16:30,86.00,78.80,79.18,270.00,7.00,0.00,29.74,M,2.49,M,SCT,M,M,M,2000.00,M,M,M,HZ,M,M,M,M,M,M,99.38,VABB 031630Z 27007KT 4000 HZ SCT020 30/26 Q1007 NOSIG,M
VABB,2022-05-03 17:00,86.00,80.60,83.99,310.00,5.00,0.00,29.77,M,2.49,M,SCT,M,M,M,2000.00,M,M,M,HZ,M,M,M,M,M,M,101.90,VABB 031700Z 31005KT 4000 HZ SCT020 30/27 Q1008 NOSIG,M
VABB,2022-05-03 17:30,86.00,78.80,79.18,290.00,7.00,0.00,29.77,M,2.17,M,SCT,M,M,M,2000.00,M,M,M,HZ,M,M,M,M,M,M,99.38,VABB 031730Z 29007KT 3500 HZ SCT020 30/26 Q1008 NOSIG,M
VABB,2022-05-03 18:00,86.00,78.80,79.18,300.00,5.00,0.00,29.77,M,2.17,M,SCT,M,M,M,2000.00,M,M,M,HZ,M,M,M,M,M,M,99.38,VABB 031800Z 30005KT 3500 HZ SCT020 30/26 Q1008 NOSIG,M
VABB,2022-05-03 18:30,86.00,78.80,79.18,320.00,5.00,0.00,29.77,M,2.17,M,SCT,M,M,M,2000.00,M,M,M,HZ,M,M,M,M,M,M,99.38,VABB 031830Z 32005KT 3500 HZ SCT020 30/26 Q1008 NOSIG,M
VABB,2022-05-03 19:00,86.00,78.80,79.18,310.00,4.00,0.00,29.74,M,2.17,M,SCT,M,M,M,2000.00,M,M,M,HZ,M,M,M,M,M,M,99.38,VABB 031900Z 31004KT 3500 HZ SCT020 30/26 Q1007 NOSIG,M
VABB,2022-05-03 19:30,86.00,78.80,79.18,300.00,5.00,0.00,29.74,M,2.17,M,SCT,M,M,M,2000.00,M,M,M,HZ,M,M,M,M,M,M,99.38,VABB 031930Z 30005KT 3500 HZ SCT020 30/26 Q1007 NOSIG,M
VABB,2022-05-03 20:00,86.00,78.80,79.18,320.00,4.00,0.00,29.74,M,2.17,M,SCT,M,M,M,2000.00,M,M,M,HZ,M,M,M,M,M,M,99.38,VABB 032000Z 32004KT 3500 HZ SCT020 30/26 Q1007 NOSIG,M
VABB,2022-05-03 20:30,86.00,78.80,79.18,280.00,6.00,0.00,29.74,M,2.17,M,SCT,M,M,M,2000.00,M,M,M,HZ,M,M,M,M,M,M,99.38,VABB 032030Z 28006KT 3500 HZ SCT020 30/26 Q1007 NOSIG,M
VABB,2022-05-03 21:00,86.00,77.00,74.61,320.00,4.00,0.00,29.74,M,2.17,M,SCT,M,M,M,2000.00,M,M,M,HZ,M,M,M,M,M,M,97.15,VABB 032100Z 32004KT 3500 HZ SCT020 30/25 Q1007 NOSIG,M
VABB,2022-05-03 21:30,84.20,77.00,79.04,310.00,4.00,0.00,29.71,M,2.17,M,SCT,M,M,M,2000.00,M,M,M,HZ,M,M,M,M,M,M,94.16,VABB 032130Z 31004KT 3500 HZ SCT020 29/25 Q1006 NOSIG,M
VABB,2022-05-03 22:00,84.20,77.00,79.04,310.00,3.00,0.00,29.71,M,2.17,M,SCT,M,M,M,2000.00,M,M,M,HZ,M,M,M,M,M,M,94.16,VABB 032200Z 31003KT 3500 HZ SCT020 29/25 Q1006 NOSIG,M
VABB,2022-05-03 22:30,84.20,77.00,79.04,310.00,5.00,0.00,29.71,M,2.17,M,SCT,M,M,M,2000.00,M,M,M,HZ,M,M,M,M,M,M,94.16,VABB 032230Z 31005KT 3500 HZ SCT020 29/25 Q1006 NOSIG,M
VABB,2022-05-03 23:00,84.20,77.00,79.04,320.00,4.00,0.00,29.71,M,2.17,M,SCT,M,M,M,2000.00,M,M,M,HZ,M,M,M,M,M,M,94.16,VABB 032300Z 32004KT 3500 HZ SCT020 29/25 Q1006 NOSIG,M
VABB,2022-05-03 23:30,84.20,77.00,79.04,290.00,4.00,0.00,29.74,M,2.17,M,SCT,M,M,M,2000.00,M,M,M,HZ,M,M,M,M,M,M,94.16,VABB 032330Z 29004KT 3500 HZ SCT020 29/25 Q1007 NOSIG,M
VABB,2022-05-04 00:00,84.20,75.20,74.44,20.00,4.00,0.00,29.74,M,2.17,M,SCT,M,M,M,2000.00,M,M,M,HZ,M,M,M,M,M,M,92.45,VABB 040000Z 02004KT 3500 HZ SCT020 29/24 Q1007 NOSIG,M
VABB,2022-05-04 00:30,84.20,75.20,74.44,30.00,6.00,0.00,29.74,M,2.17,M,SCT,M,M,M,2000.00,M,M,M,HZ,M,M,M,M,M,M,92.45,VABB 040030Z 03006KT 3500 HZ SCT020 29/24 Q1007 NOSIG,M
VABB,2022-05-04 01:00,84.20,77.00,79.04,50.00,5.00,0.00,29.74,M,2.17,M,SCT,M,M,M,2000.00,M,M,M,HZ,M,M,M,M,M,M,94.16,VABB 040100Z 05005KT 3500 HZ SCT020 29/25 Q1007 NOSIG,M
VABB,2022-05-04 01:30,84.20,77.00,79.04,40.00,4.00,0.00,29.77,M,2.17,M,SCT,M,M,M,2000.00,M,M,M,HZ,M,M,M,M,M,M,94.16,VABB 040130Z 04004KT 3500 HZ SCT020 29/25 Q1008 BECMG 3000 HZ,M
VABB,2022-05-04 02:00,86.00,77.00,74.61,20.00,3.00,0.00,29.77,M,1.86,M,SCT,M,M,M,2000.00,M,M,M,HZ,M,M,M,M,M,M,97.15,VABB 040200Z 02003KT 3000 HZ SCT020 30/25 Q1008 NOSIG,M
VABB,2022-05-04 02:30,86.00,75.20,70.27,0.00,0.00,0.00,29.80,M,1.86,M,SCT,SCT,M,M,2000.00,2500.00,M,M,HZ,M,M,M,M,M,M,95.19,VABB 040230Z 00000KT 3000 HZ SCT020 SCT025 30/24 Q1009 NOSIG,M
VABB,2022-05-04 03:00,86.00,73.40,66.15,300.00,3.00,0.00,29.80,M,1.86,M,SCT,SCT,M,M,2000.00,2500.00,M,M,HZ,M,M,M,M,M,M,93.45,VABB 040300Z 30003KT 3000 HZ SCT020 SCT025 30/23 Q1009 NOSIG,M
VABB,2022-05-04 03:30,87.80,73.40,62.47,0.00,0.00,0.00,29.83,M,1.86,M,SCT,SCT,M,M,2000.00,2500.00,M,M,HZ,M,M,M,M,M,M,95.86,VABB 040330Z 00000KT 3000 HZ SCT020 SCT025 31/23 Q1010 NOSIG,M
VABB,2022-05-04 04:00,89.60,73.40,59.01,290.00,4.00,0.00,29.83,M,1.86,M,SCT,M,M,M,2000.00,M,M,M,HZ,M,M,M,M,M,M,98.20,VABB 040400Z 29004KT 3000 HZ SCT020 32/23 Q1010 NOSIG,M
VABB,2022-05-04 04:30,89.60,73.40,59.01,30.00,3.00,0.00,29.83,M,2.17,M,SCT,M,M,M,2000.00,M,M,M,HZ,M,M,M,M,M,M,98.20,VABB 040430Z 03003KT 3500 HZ SCT020 32/23 Q1010 NOSIG,M
VABB,2022-05-04 05:00,89.60,75.20,62.68,270.00,8.00,0.00,29.83,M,2.17,M,SCT,M,M,M,2000.00,M,M,M,HZ,M,M,M,M,M,M,100.23,VABB 040500Z 27008KT 3500 HZ SCT020 32/24 Q1010 NOSIG,M
VABB,2022-05-04 05:30,91.40,77.00,62.90,260.00,10.00,0.00,29.83,M,2.17,M,SCT,M,M,M,2000.00,M,M,M,HZ,M,M,M,M,M,M,105.06,VABB 040530Z 26010KT 3500 HZ SCT020 33/25 Q1010 NOSIG,M
VABB,2022-05-04 06:00,91.40,75.20,59.24,260.00,9.00,0.00,29.83,M,2.17,M,SCT,M,M,M,2000.00,M,M,M,HZ,M,M,M,M,M,M,102.65,VABB 040600Z 26009KT 3500 HZ SCT020 33/24 Q1010 NOSIG,M
VABB,2022-05-04 06:30,91.40,75.20,59.24,240.00,12.00,0.00,29.83,M,2.49,M,FEW,M,M,M,2000.00,M,M,M,HZ,M,M,M,M,M,M,102.65,VABB 040630Z 24012KT 4000 HZ FEW020 33/24 Q1010 NOSIG,M
VABB,2022-05-04 07:00,91.40,75.20,59.24,280.00,10.00,0.00,29.80,M,2.49,M,FEW,M,M,M,2000.00,M,M,M,FU,M,M,M,M,M,M,102.65,VABB 040700Z 28010KT 4000 FU FEW020 33/24 Q1009 NOSIG,M
VABB,2022-05-04 07:30,91.40,75.20,59.24,270.00,10.00,0.00,29.80,M,2.49,M,FEW,M,M,M,2000.00,M,M,M,FU,M,M,M,M,M,M,102.65,VABB 040730Z 27010KT 4000 FU FEW020 33/24 Q1009 BECMG 5000 FU,M
VABB,2022-05-04 08:00,91.40,77.00,62.90,280.00,12.00,0.00,29.80,M,3.11,M,FEW,M,M,M,2000.00,M,M,M,FU,M,M,M,M,M,M,105.06,VABB 040800Z 28012KT 5000 FU FEW020 33/25 Q1009 NOSIG,M
VABB,2022-05-04 08:30,91.40,77.00,62.90,270.00,13.00,0.00,29.77,M,3.11,M,FEW,M,M,M,2000.00,M,M,M,HZ,M,M,M,M,M,M,105.06,VABB 040830Z 27013KT 5000 HZ FEW020 33/25 Q1008 NOSIG,M
VABB,2022-05-04 09:00,89.60,77.00,66.55,250.00,12.00,0.00,29.77,M,3.11,M,FEW,M,M,M,2000.00,M,M,M,HZ,M,M,M,M,M,M,102.54,VABB 040900Z 25012KT 5000 HZ FEW020 32/25 Q1008 NOSIG,M
VABB,2022-05-04 09:30,91.40,77.00,62.90,250.00,12.00,0.00,29.74,M,3.11,M,FEW,M,M,M,2000.00,M,M,M,HZ,M,M,M,M,M,M,105.06,VABB 040930Z 25012KT 5000 HZ FEW020 33/25 Q1007 NOSIG,M
VABB,2022-05-04 10:00,91.40,75.20,59.24,270.00,13.00,0.00,29.74,M,3.11,M,NSC,M,M,M,M,M,M,M,HZ,M,M,M,M,M,M,102.65,VABB 041000Z 27013KT 5000 HZ NSC 33/24 Q1007,M
VABB,2022-05-04 10:30,89.60,77.00,66.55,290.00,12.00,0.00,29.74,M,3.11,M,NSC,M,M,M,M,M,M,M,HZ,M,M,M,M,M,M,102.54,VABB 041030Z 29012KT 5000 HZ NSC 32/25 Q1007 NOSIG,M
VABB,2022-05-04 11:00,89.60,77.00,66.55,270.00,14.00,0.00,29.71,M,3.11,M,NSC,M,M,M,M,M,M,M,HZ,M,M,M,M,M,M,102.54,VABB 041100Z 27014KT 5000 HZ NSC 32/25 Q1006 NOSIG,M
VABB,2022-05-04 11:30,89.60,75.20,62.68,290.00,12.00,0.00,29.71,M,3.11,M,NSC,M,M,M,M,M,M,M,HZ,M,M,M,M,M,M,100.23,VABB 041130Z 29012KT 5000 HZ NSC 32/24 Q1006 NOSIG,M
VABB,2022-05-04 12:00,89.60,77.00,66.55,270.00,13.00,0.00,29.71,M,3.11,M,NSC,M,M,M,M,M,M,M,HZ,M,M,M,M,M,M,102.54,VABB 041200Z 27013KT 5000 HZ NSC 32/25 Q1006 NOSIG,M
VABB,2022-05-04 12:30,89.60,77.00,66.55,300.00,10.00,0.00,29.71,M,3.11,M,NSC,M,M,M,M,M,M,M,HZ,M,M,M,M,M,M,102.54,VABB 041230Z 30010KT 5000 HZ NSC 32/25 Q1006 NOSIG,M
VABB,2022-05-04 13:00,87.80,77.00,70.45,300.00,8.00,0.00,29.74,M,3.11,M,NSC,M,M,M,M,M,M,M,HZ,M,M,M,M,M,M,99.92,VABB 041300Z 30008KT 5000 HZ NSC 31/25 Q1007 BECMG 4000 HZ,M
VABB,2022-05-04 13:30,87.80,77.00,70.45,300.00,10.00,0.00,29.74,M,2.49,M,NSC,M,M,M,M,M,M,M,HZ,M,M,M,M,M,M,99.92,VABB 041330Z 30010KT 4000 HZ NSC 31/25 Q1007 NOSIG,M
VABB,2022-05-04 14:00,87.80,78.80,74.77,280.00,8.00,0.00,29.74,M,2.49,M,NSC,M,M,M,M,M,M,M,HZ,M,M,M,M,M,M,102.37,VABB 041400Z 28008KT 4000 HZ NSC 31/26 Q1007 NOSIG,M
VABB,2022-05-04 14:30,86.00,77.00,74.61,300.00,8.00,0.00,29.74,M,2.49,M,NSC,M,M,M,M,M,M,M,HZ,M,M,M,M,M,M,97.15,VABB 041430Z 30008KT 4000 HZ NSC 30/25 Q1007 NOSIG,M
VABB,2022-05-04 15:00,86.00,78.80,79.18,290.00,7.00,0.00,29.77,M,2.49,M,NSC,M,M,M,M,M,M,M,HZ,M,M,M,M,M,M,99.38,VABB 041500Z 29007KT 4000 HZ NSC 30/26 Q1008 NOSIG,M
VABB,2022-05-04 15:30,86.00,78.80,79.18,290.00,8.00,0.00,29.77,M,2.49,M,NSC,M,M,M,M,M,M,M,HZ,M,M,M,M,M,M,99.38,VABB 041530Z 29008KT 4000 HZ NSC 30/26 Q1008 NOSIG,M
VABB,2022-05-04 16:00,86.00,78.80,79.18,260.00,7.00,0.00,29.77,M,2.49,M,SCT,M,M,M,2000.00,M,M,M,HZ,M,M,M,M,M,M,99.38,VABB 041600Z 26007KT 4000 HZ SCT020 30/26 Q1008 NOSIG,M
VABB,2022-05-04 16:30,86.00,78.80,79.18,300.00,5.00,0.00,29.80,M,2.49,M,SCT,M,M,M,2000.00,M,M,M,HZ,M,M,M,M,M,M,99.38,VABB 041630Z 30005KT 4000 HZ SCT020 30/26 Q1009 NOSIG,M
VABB,2022-05-04 17:00,86.00,78.80,79.18,260.00,6.00,0.00,29.80,M,2.49,M,SCT,M,M,M,2000.00,M,M,M,HZ,M,M,M,M,M,M,99.38,VABB 041700Z 26006KT 4000 HZ SCT020 30/26 Q1009 NOSIG,M
VABB,2022-05-04 17:30,86.00,78.80,79.18,270.00,6.00,0.00,29.80,M,2.49,M,SCT,M,M,M,2000.00,M,M,M,HZ,M,M,M,M,M,M,99.38,VABB 041730Z 27006KT 4000 HZ SCT020 30/26 Q1009 NOSIG,M
VABB,2022-05-04 18:00,86.00,78.80,79.18,280.00,7.00,0.00,29.80,M,2.49,M,SCT,M,M,M,2000.00,M,M,M,HZ,M,M,M,M,M,M,99.38,VABB 041800Z 28007KT 4000 HZ SCT020 30/26 Q1009 NOSIG,M
VABB,2022-05-04 18:30,86.00,77.00,74.61,240.00,5.00,0.00,29.80,M,2.49,M,SCT,M,M,M,2000.00,M,M,M,HZ,M,M,M,M,M,M,97.15,VABB 041830Z 24005KT 4000 HZ SCT020 30/25 Q1009 NOSIG,M
VABB,2022-05-04 19:00,86.00,77.00,74.61,260.00,6.00,0.00,29.80,M,2.49,M,SCT,M,M,M,2000.00,M,M,M,HZ,M,M,M,M,M,M,97.15,VABB 041900Z 26006KT 4000 HZ SCT020 30/25 Q1009 NOSIG,M
VABB,2022-05-04 19:30,86.00,77.00,74.61,280.00,4.00,0.00,29.77,M,2.49,M,BKN,M,M,M,2000.00,M,M,M,HZ,M,M,M,M,M,M,97.15,VABB 041930Z 28004KT 4000 HZ BKN020 30/25 Q1008 NOSIG,M
VABB,2022-05-04 20:00,86.00,77.00,74.61,310.00,3.00,0.00,29.77,M,2.49,M,BKN,M,M,M,2000.00,M,M,M,HZ,M,M,M,M,M,M,97.15,VABB 042000Z 31003KT 4000 HZ BKN020 30/25 Q1008 NOSIG,M
VABB,2022-05-04 20:30,86.00,77.00,74.61,300.00,3.00,0.00,29.77,M,2.49,M,BKN,M,M,M,2000.00,M,M,M,HZ,M,M,M,M,M,M,97.15,VABB 042030Z 30003KT 4000 HZ BKN020 30/25 Q1008 NOSIG,M
VABB,2022-05-04 21:00,84.20,77.00,79.04,300.00,4.00,0.00,29.77,M,2.49,M,BKN,M,M,M,2000.00,M,M,M,HZ,M,M,M,M,M,M,94.16,VABB 042100Z 30004KT 4000 HZ BKN020 29/25 Q1008 NOSIG,M
VABB,2022-05-04 21:30,84.20,75.20,74.44,300.00,4.00,0.00,29.77,M,2.49,M,SCT,M,M,M,2000.00,M,M,M,HZ,M,M,M,M,M,M,92.45,VABB 042130Z 30004KT 4000 HZ SCT020 29/24 Q1008 NOSIG,M
VABB,2022-05-04 22:00,84.20,77.00,79.04,310.00,3.00,0.00,29.77,M,2.49,M,SCT,M,M,M,2000.00,M,M,M,HZ,M,M,M,M,M,M,94.16,VABB 042200Z 31003KT 4000 HZ SCT020 29/25 Q1008 NOSIG,M
VABB,2022-05-04 22:30,84.20,75.20,74.44,310.00,4.00,0.00,29.77,M,2.49,M,SCT,M,M,M,2000.00,M,M,M,HZ,M,M,M,M,M,M,92.45,VABB 042230Z 31004KT 4000 HZ SCT020 29/24 Q1008 NOSIG,M
VABB,2022-05-04 23:00,84.20,77.00,79.04,300.00,4.00,0.00,29.77,M,2.49,M,SCT,M,M,M,2000.00,M,M,M,HZ,M,M,M,M,M,M,94.16,VABB 042300Z 30004KT 4000 HZ SCT020 29/25 Q1008 BECMG 3000 HZ,M
VABB,2022-05-04 23:30,84.20,75.20,74.44,300.00,4.00,0.00,29.77,M,1.86,M,FEW,M,M,M,2000.00,M,M,M,HZ,M,M,M,M,M,M,92.45,VABB 042330Z 30004KT 3000 HZ FEW020 29/24 Q1008 NOSIG,M
VABB,2022-05-05 00:00,84.20,77.00,79.04,320.00,4.00,0.00,29.77,M,1.86,M,FEW,M,M,M,2000.00,M,M,M,HZ,M,M,M,M,M,M,94.16,VABB 050000Z 32004KT 3000 HZ FEW020 29/25 Q1008 NOSIG,M
VABB,2022-05-05 00:30,84.20,77.00,79.04,330.00,3.00,0.00,29.77,M,1.86,M,SCT,M,M,M,2000.00,M,M,M,HZ,M,M,M,M,M,M,94.16,VABB 050030Z 33003KT 3000 HZ SCT020 29/25 Q1008 NOSIG,M
VABB,2022-05-05 01:00,84.20,77.00,79.04,50.00,5.00,0.00,29.80,M,1.86,M,SCT,M,M,M,2000.00,M,M,M,HZ,M,M,M,M,M,M,94.16,VABB 050100Z 05005KT 3000 HZ SCT020 29/25 Q1009 NOSIG,M
VABB,2022-05-05 01:30,84.20,77.00,79.04,30.00,5.00,0.00,29.80,M,1.86,M,SCT,M,M,M,2000.00,M,M,M,HZ,M,M,M,M,M,M,94.16,VABB 050130Z 03005KT 3000 HZ SCT020 29/25 Q1009 NOSIG,M
VABB,2022-05-05 02:00,84.20,77.00,79.04,40.00,3.00,0.00,29.80,M,1.86,M,SCT,M,M,M,2000.00,M,M,M,HZ,M,M,M,M,M,M,94.16,VABB 050200Z 04003KT 3000 HZ SCT020 29/25 Q1009 NOSIG,M
VABB,2022-05-05 02:30,86.00,77.00,74.61,60.00,4.00,0.00,29.80,M,1.86,M,SCT,M,M,M,2000.00,M,M,M,HZ,M,M,M,M,M,M,97.15,VABB 050230Z 06004KT 3000 HZ SCT020 30/25 Q1009 NOSIG,M
VABB,2022-05-05 03:00,86.00,77.00,74.61,40.00,3.00,0.00,29.83,M,1.86,M,FEW,SCT,M,M,2000.00,2500.00,M,M,HZ,M,M,M,M,M,M,97.15,VABB 050300Z 04003KT 3000 HZ FEW020 SCT025 30/25 Q1010 NOSIG,M
VABB,2022-05-05 03:30,86.00,77.00,74.61,30.00,3.00,0.00,29.83,M,1.86,M,FEW,SCT,M,M,2000.00,2500.00,M,M,HZ,M,M,M,M,M,M,97.15,VABB 050330Z 03003KT 3000 HZ FEW020 SCT025 30/25 Q1010 NOSIG,M
VABB,2022-05-05 04:00,87.80,77.00,70.45,220.00,4.00,0.00,29.83,M,1.86,M,FEW,SCT,M,M,2000.00,2500.00,M,M,HZ,M,M,M,M,M,M,99.92,VABB 050400Z 22004KT 3000 HZ FEW020 SCT025 31/25 Q1010 NOSIG,M
VABB,2022-05-05 04:30,89.60,75.20,62.68,280.00,4.00,0.00,29.83,M,1.86,M,SCT,M,M,M,2000.00,M,M,M,HZ,M,M,M,M,M,M,100.23,VABB 050430Z 28004KT 3000 HZ SCT020 32/24 Q1010 NOSIG,M
VABB,2022-05-05 05:00,89.60,77.00,66.55,250.00,7.00,0.00,29.80,M,1.86,M,FEW,M,M,M,2000.00,M,M,M,HZ,M,M,M,M,M,M,102.54,VABB 050500Z 25007KT 3000 HZ FEW020 32/25 Q1009 NOSIG,M
VABB,2022-05-05 05:30,89.60,77.00,66.55,260.00,8.00,0.00,29.80,M,2.49,M,FEW,M,M,M,2000.00,M,M,M,HZ,M,M,M,M,M,M,102.54,VABB 050530Z 26008KT 4000 HZ FEW020 32/25 Q1009 NOSIG,M
VABB,2022-05-05 06:00,91.40,77.00,62.90,250.00,9.00,0.00,29.80,M,2.49,M,NSC,M,M,M,M,M,M,M,HZ,M,M,M,M,M,M,105.06,VABB 050600Z 25009KT 4000 HZ NSC 33/25 Q1009 NOSIG,M
VABB,2022-05-05 06:30,91.40,77.00,62.90,250.00,10.00,0.00,29.80,M,2.49,M,NSC,M,M,M,M,M,M,M,HZ,M,M,M,M,M,M,105.06,VABB 050630Z 25010KT 4000 HZ NSC 33/25 Q1009 NOSIG,M
VABB,2022-05-05 07:00,89.60,77.00,66.55,250.00,13.00,0.00,29.77,M,2.49,M,FEW,M,M,M,2000.00,M,M,M,HZ,M,M,M,M,M,M,102.54,VABB 050700Z 25013KT 4000 HZ FEW020 32/25 Q1008 BECMG 5000 HZ,M
VABB,2022-05-05 07:30,89.60,77.00,66.55,260.00,14.00,0.00,29.77,M,2.49,M,FEW,M,M,M,2000.00,M,M,M,HZ,M,M,M,M,M,M,102.54,VABB 050730Z 26014KT 4000 HZ FEW020 32/25 Q1008 BECMG 5000 HZ,M
VABB,2022-05-05 08:00,89.60,77.00,66.55,260.00,14.00,0.00,29.77,M,3.11,M,NSC,M,M,M,M,M,M,M,HZ,M,M,M,M,M,M,102.54,VABB 050800Z 26014KT 5000 HZ NSC 32/25 Q1008 NOSIG,M
VABB,2022-05-05 08:30,91.40,75.20,59.24,250.00,10.00,0.00,29.74,M,3.11,M,NSC,M,M,M,M,M,M,M,HZ,M,M,M,M,M,M,102.65,VABB 050830Z 25010KT 5000 HZ NSC 33/24 Q1007 NOSIG,M
VABB,2022-05-05 09:00,91.40,75.20,59.24,260.00,13.00,0.00,29.74,M,3.11,M,NSC,M,M,M,M,M,M,M,HZ,M,M,M,M,M,M,102.65,VABB 050900Z 26013KT 5000 HZ NSC 33/24 Q1007 NOSIG,M
VABB,2022-05-05 09:30,91.40,75.20,59.24,260.00,14.00,0.00,29.71,M,3.11,M,NSC,M,M,M,M,M,M,M,HZ,M,M,M,M,M,M,102.65,VABB 050930Z 26014KT 5000 HZ NSC 33/24 Q1006 NOSIG,M
VABB,2022-05-05 10:00,91.40,77.00,62.90,250.00,10.00,0.00,29.71,M,3.11,M,NSC,M,M,M,M,M,M,M,HZ,M,M,M,M,M,M,105.06,VABB 051000Z 25010KT 5000 HZ NSC 33/25 Q1006 NOSIG,M
VABB,2022-05-05 10:30,91.40,78.80,66.75,280.00,12.00,0.00,29.71,M,3.73,M,FEW,M,M,M,2500.00,M,M,M,M,M,M,M,M,M,M,107.79,VABB 051030Z 28012KT 6000 FEW025 33/26 Q1006 NOSIG,M
VABB,2022-05-05 11:00,91.40,78.80,66.75,310.00,8.00,0.00,29.71,M,3.73,M,FEW,M,M,M,2500.00,M,M,M,M,M,M,M,M,M,M,107.79,VABB 051100Z 31008KT 6000 FEW025 33/26 Q1006 NOSIG,M
VABB,2022-05-05 11:30,89.60,78.80,70.63,280.00,10.00,0.00,29.71,M,3.73,M,NSC,M,M,M,M,M,M,M,M,M,M,M,M,M,M,105.15,VABB 051130Z 28010KT 6000 NSC 32/26 Q1006 NOSIG,M
VABB,2022-05-05 12:00,89.60,77.00,66.55,280.00,13.00,0.00,29.71,M,3.73,M,NSC,M,M,M,M,M,M,M,M,M,M,M,M,M,M,102.54,VABB 051200Z 28013KT 6000 NSC 32/25 Q1006 BECMG 5000 HZ,M
VABB,2022-05-05 12:30,89.60,77.00,66.55,290.00,12.00,0.00,29.68,M,3.11,M,NSC,M,M,M,M,M,M,M,HZ,M,M,M,M,M,M,102.54,VABB 051230Z 29012KT 5000 HZ NSC 32/25 Q1005 NOSIG,M
VABB,2022-05-05 13:00,87.80,77.00,70.45,320.00,10.00,0.00,29.71,M,3.11,M,NSC,M,M,M,M,M,M,M,HZ,M,M,M,M,M,M,99.92,VABB 051300Z 32010KT 5000 HZ NSC 31/25 Q1006 NOSIG,M
VABB,2022-05-05 13:30,86.00,78.80,79.18,300.00,12.00,0.00,29.71,M,3.11,M,NSC,M,M,M,M,M,M,M,HZ,M,M,M,M,M,M,99.38,VABB 051330Z 30012KT 5000 HZ NSC 30/26 Q1006 BECMG 3000 HZ,M
VABB,2022-05-05 14:00,86.00,78.80,79.18,310.00,7.00,0.00,29.71,M,2.49,M,NSC,M,M,M,M,M,M,M,HZ,M,M,M,M,M,M,99.38,VABB 051400Z 31007KT 4000 HZ NSC 30/26 Q1006 NOSIG,M
VABB,2022-05-05 14:30,86.00,78.80,79.18,300.00,10.00,0.00,29.71,M,2.49,M,NSC,M,M,M,M,M,M,M,HZ,M,M,M,M,M,M,99.38,VABB 051430Z 30010KT 4000 HZ NSC 30/26 Q1006 NOSIG,M
VABB,2022-05-05 15:00,86.00,78.80,79.18,310.00,8.00,0.00,29.74,M,2.49,M,NSC,M,M,M,M,M,M,M,HZ,M,M,M,M,M,M,99.38,VABB 051500Z 31008KT 4000 HZ NSC 30/26 Q1007 NOSIG,M
VABB,2022-05-05 15:30,86.00,78.80,79.18,300.00,9.00,0.00,29.74,M,2.49,M,FEW,M,M,M,2000.00,M,M,M,HZ,M,M,M,M,M,M,99.38,VABB 051530Z 30009KT 4000 HZ FEW020 30/26 Q1007 NOSIG,M
VABB,2022-05-05 16:00,86.00,78.80,79.18,300.00,7.00,0.00,29.74,M,2.17,M,FEW,M,M,M,2000.00,M,M,M,HZ,M,M,M,M,M,M,99.38,VABB 051600Z 30007KT 3500 HZ FEW020 30/26 Q1007 NOSIG,M
VABB,2022-05-05 16:30,86.00,78.80,79.18,330.00,5.00,0.00,29.74,M,2.17,M,FEW,M,M,M,2000.00,M,M,M,HZ,M,M,M,M,M,M,99.38,VABB 051630Z 33005KT 3500 HZ FEW020 30/26 Q1007 NOSIG,M
VABB,2022-05-05 17:00,86.00,78.80,79.18,310.00,5.00,0.00,29.77,M,2.17,M,FEW,M,M,M,2000.00,M,M,M,HZ,M,M,M,M,M,M,99.38,VABB 051700Z 31005KT 3500 HZ FEW020 30/26 Q1008 NOSIG,M
VABB,2022-05-05 17:30,84.20,78.80,83.88,300.00,7.00,0.00,29.77,M,2.17,M,FEW,M,M,M,2000.00,M,M,M,HZ,M,M,M,M,M,M,96.10,VABB 051730Z 30007KT 3500 HZ FEW020 29/26 Q1008 NOSIG,M
VABB,2022-05-05 18:00,84.20,78.80,83.88,330.00,5.00,0.00,29.77,M,2.17,M,FEW,M,M,M,2000.00,M,M,M,HZ,M,M,M,M,M,M,96.10,VABB 051800Z 33005KT 3500 HZ FEW020 29/26 Q1008 NOSIG,M
VABB,2022-05-05 18:30,84.20,78.80,83.88,300.00,6.00,0.00,29.74,M,2.17,M,FEW,M,M,M,2000.00,M,M,M,HZ,M,M,M,M,M,M,96.10,VABB 051830Z 30006KT 3500 HZ FEW020 29/26 Q1007 NOSIG,M
VABB,2022-05-05 19:00,84.20,78.80,83.88,310.00,5.00,0.00,29.74,M,2.17,M,FEW,M,M,M,2000.00,M,M,M,HZ,M,M,M,M,M,M,96.10,VABB 051900Z 31005KT 3500 HZ FEW020 29/26 Q1007 NOSIG,M
VABB,2022-05-05 19:30,84.20,77.00,79.04,290.00,7.00,0.00,29.74,M,2.17,M,FEW,M,M,M,2000.00,M,M,M,HZ,M,M,M,M,M,M,94.16,VABB 051930Z 29007KT 3500 HZ FEW020 29/25 Q1007 NOSIG,M
VABB,2022-05-05 20:00,84.20,77.00,79.04,290.00,5.00,0.00,29.74,M,2.17,M,FEW,M,M,M,2000.00,M,M,M,HZ,M,M,M,M,M,M,94.16,VABB 052000Z 29005KT 3500 HZ FEW020 29/25 Q1007 NOSIG,M
VABB,2022-05-05 20:30,84.20,77.00,79.04,290.00,4.00,0.00,29.74,M,2.17,M,FEW,M,M,M,2000.00,M,M,M,HZ,M,M,M,M,M,M,94.16,VABB 052030Z 29004KT 3500 HZ FEW020 29/25 Q1007 NOSIG,M
VABB,2022-05-05 21:00,84.20,77.00,79.04,300.00,4.00,0.00,29.74,M,2.17,M,FEW,M,M,M,2000.00,M,M,M,HZ,M,M,M,M,M,M,94.16,VABB 052100Z 30004KT 3500 HZ FEW020 29/25 Q1007 NOSIG,M
VABB,2022-05-05 21:30,84.20,77.00,79.04,340.00,4.00,0.00,29.74,M,2.17,M,SCT,M,M,M,2000.00,M,M,M,HZ,M,M,M,M,M,M,94.16,VABB 052130Z 34004KT 3500 HZ SCT020 29/25 Q1007 NOSIG,M
VABB,2022-05-05 22:00,84.20,77.00,79.04,310.00,5.00,0.00,29.74,M,2.17,M,SCT,M,M,M,2000.00,M,M,M,HZ,M,M,M,M,M,M,94.16,VABB 052200Z 31005KT 3500 HZ SCT020 29/25 Q1007 NOSIG,M
VABB,2022-05-05 22:30,84.20,77.00,79.04,340.00,3.00,0.00,29.74,M,2.17,M,SCT,M,M,M,2000.00,M,M,M,HZ,M,M,M,M,M,M,94.16,VABB 052230Z 34003KT 3500 HZ SCT020 29/25 Q1007 NOSIG,M
VABB,2022-05-05 23:00,84.20,77.00,79.04,40.00,4.00,0.00,29.74,M,2.17,M,SCT,M,M,M,2000.00,M,M,M,HZ,M,M,M,M,M,M,94.16,VABB 052300Z 04004KT 3500 HZ SCT020 29/25 Q1007 BECMG 3000 HZ,M
VABB,2022-05-05 23:30,84.20,77.00,79.04,40.00,4.00,0.00,29.74,M,1.86,M,SCT,M,M,M,2000.00,M,M,M,HZ,M,M,M,M,M,M,94.16,VABB 052330Z 04004KT 3000 HZ SCT020 29/25 Q1007 NOSIG,M
VABB,2022-05-06 00:00,84.20,77.00,79.04,40.00,5.00,0.00,29.74,M,1.86,M,SCT,M,M,M,2000.00,M,M,M,HZ,M,M,M,M,M,M,94.16,VABB 060000Z 04005KT 3000 HZ SCT020 29/25 Q1007 NOSIG,M
VABB,2022-05-06 00:30,84.20,77.00,79.04,50.00,4.00,0.00,29.77,M,1.86,M,SCT,M,M,M,2000.00,M,M,M,HZ,M,M,M,M,M,M,94.16,VABB 060030Z 05004KT 3000 HZ SCT020 29/25 Q1008 NOSIG,M
VABB,2022-05-06 01:00,84.20,77.00,79.04,90.00,4.00,0.00,29.77,M,1.86,M,SCT,M,M,M,2000.00,M,M,M,HZ,M,M,M,M,M,M,94.16,VABB 060100Z 09004KT 3000 HZ SCT020 29/25 Q1008 NOSIG,M
VABB,2022-05-06 01:30,84.20,77.00,79.04,110.00,3.00,0.00,29.77,M,1.86,M,FEW,M,M,M,2000.00,M,M,M,HZ,M,M,M,M,M,M,94.16,VABB 060130Z 11003KT 3000 HZ FEW020 29/25 Q1008 NOSIG,M
VABB,2022-05-06 02:00,84.20,77.00,79.04,110.00,4.00,0.00,29.80,M,1.86,M,FEW,M,M,M,2000.00,M,M,M,HZ,M,M,M,M,M,M,94.16,VABB 060200Z 11004KT 3000 HZ FEW020 29/25 Q1009 NOSIG,M
VABB,2022-05-06 02:30,86.00,77.00,74.61,60.00,6.00,0.00,29.80,M,1.86,M,FEW,M,M,M,2000.00,M,M,M,HZ,M,M,M,M,M,M,97.15,VABB 060230Z 06006KT 3000 HZ FEW020 30/25 Q1009 NOSIG,M
VABB,2022-05-06 03:00,86.00,78.80,79.18,30.00,3.00,0.00,29.80,M,1.86,M,SCT,M,M,M,2000.00,M,M,M,HZ,M,M,M,M,M,M,99.38,VABB 060300Z 03003KT 3000 HZ SCT020 30/26 Q1009 NOSIG,M
VABB,2022-05-06 03:30,86.00,77.00,74.61,20.00,3.00,0.00,29.80,M,1.86,M,SCT,M,M,M,2000.00,M,M,M,HZ,M,M,M,M,M,M,97.15,VABB 060330Z 02003KT 3000 HZ SCT020 30/25 Q1009 NOSIG,M
VABB,2022-05-06 04:00,87.80,77.00,70.45,160.00,6.00,0.00,29.80,M,1.86,M,SCT,M,M,M,2000.00,M,M,M,HZ,M,M,M,M,M,M,99.92,VABB 060400Z 16006KT 3000 HZ SCT020 31/25 Q1009 NOSIG,M
VABB,2022-05-06 04:30,89.60,77.00,66.55,280.00,7.00,0.00,29.80,M,1.86,M,SCT,M,M,M,2000.00,M,M,M,HZ,M,M,M,M,M,M,102.54,VABB 060430Z 28007KT 3000 HZ SCT020 32/25 Q1009 NOSIG,M
VABB,2022-05-06 05:00,89.60,77.00,66.55,260.00,9.00,0.00,29.80,M,1.86,M,FEW,M,M,M,2000.00,M,M,M,HZ,M,M,M,M,M,M,102.54,VABB 060500Z 26009KT 3000 HZ FEW020 32/25 Q1009 NOSIG,M
VABB,2022-05-06 05:30,91.40,77.00,62.90,260.00,11.00,0.00,29.80,M,2.17,M,FEW,M,M,M,2000.00,M,M,M,HZ,M,M,M,M,M,M,105.06,VABB 060530Z 26011KT 3500 HZ FEW020 33/25 Q1009 NOSIG,M
VABB,2022-05-06 06:00,91.40,77.00,62.90,290.00,10.00,0.00,29.77,M,2.17,M,FEW,M,M,M,2000.00,M,M,M,FU,M,M,M,M,M,M,105.06,VABB 060600Z 29010KT 3500 FU FEW020 33/25 Q1008 NOSIG,M
VABB,2022-05-06 06:30,93.20,78.80,63.11,280.00,10.00,0.00,29.77,M,2.17,M,NSC,M,M,M,M,M,M,M,HZ,M,M,M,M,M,M,110.34,VABB 060630Z 28010KT 3500 HZ NSC 34/26 Q1008 NOSIG,M
VABB,2022-05-06 07:00,91.40,77.00,62.90,270.00,9.00,0.00,29.77,M,2.17,19.00,NSC,M,M,M,M,M,M,M,FU,M,M,M,M,M,M,105.06,VABB 060700Z 27009G19KT 3500 FU NSC 33/25 Q1008 NOSIG,M
VABB,2022-05-06 07:30,91.40,77.00,62.90,280.00,8.00,0.00,29.74,M,2.17,18.00,NSC,M,M,M,M,M,M,M,FU,M,M,M,M,M,M,105.06,VABB 060730Z 28008G18KT 3500 FU NSC 33/25 Q1007 NOSIG,M
VABB,2022-05-06 08:00,91.40,77.00,62.90,270.00,10.00,0.00,29.74,M,2.17,20.00,NSC,M,M,M,M,M,M,M,FU,M,M,M,M,M,M,105.06,VABB 060800Z 27010G20KT 3500 FU NSC 33/25 Q1007 NOSIG,M
VABB,2022-05-06 08:30,93.20,77.00,59.47,280.00,9.00,0.00,29.71,M,2.17,19.00,NSC,M,M,M,M,M,M,M,FU,M,M,M,M,M,M,107.52,VABB 060830Z 28009G19KT 3500 FU NSC 34/25 Q1006 NOSIG,M
VABB,2022-05-06 09:00,91.40,77.00,62.90,280.00,14.00,0.00,29.71,M,2.17,M,NSC,M,M,M,M,M,M,M,FU,M,M,M,M,M,M,105.06,VABB 060900Z 28014KT 3500 FU NSC 33/25 Q1006 NOSIG,M
VABB,2022-05-06 09:30,91.40,77.00,62.90,290.00,10.00,0.00,29.71,M,2.49,20.00,NSC,M,M,M,M,M,M,M,FU,M,M,M,M,M,M,105.06,VABB 060930Z 29010G20KT 4000 FU NSC 33/25 Q1006 NOSIG,M
VABB,2022-05-06 10:00,91.40,78.80,66.75,290.00,8.00,0.00,29.71,M,2.49,18.00,NSC,M,M,M,M,M,M,M,FU,M,M,M,M,M,M,107.79,VABB 061000Z 29008G18KT 4000 FU NSC 33/26 Q1006 NOSIG,M
VABB,2022-05-06 10:30,91.40,77.00,62.90,290.00,9.00,0.00,29.71,M,2.49,19.00,FEW,M,M,M,2000.00,M,M,M,FU,M,M,M,M,M,M,105.06,VABB 061030Z 29009G19KT 4000 FU FEW020 33/25 Q1006 BECMG 5000 FU,M
VABB,2022-05-06 11:00,89.60,78.80,70.63,280.00,8.00,0.00,29.68,M,3.11,18.00,FEW,M,M,M,2000.00,M,M,M,FU,M,M,M,M,M,M,105.15,VABB 061100Z 28008G18KT 5000 FU FEW020 32/26 Q1005 NOSIG,M
VABB,2022-05-06 11:30,91.40,78.80,66.75,280.00,13.00,0.00,29.68,M,2.80,M,FEW,M,M,M,2000.00,M,M,M,FU,M,M,M,M,M,M,107.79,VABB 061130Z 28013KT 4500 FU FEW020 33/26 Q1005 NOSIG,M
VABB,2022-05-06 12:00,87.80,78.80,74.77,300.00,7.00,0.00,29.68,M,2.49,17.00,FEW,M,M,M,2000.00,M,M,M,HZ,M,M,M,M,M,M,102.37,VABB 061200Z 30007G17KT 4000 HZ FEW020 31/26 Q1005 NOSIG,M
VABB,2022-05-06 12:30,87.80,78.80,74.77,320.00,10.00,0.00,29.68,M,2.49,M,FEW,M,M,M,2000.00,M,M,M,HZ,M,M,M,M,M,M,102.37,VABB 061230Z 32010KT 4000 HZ FEW020 31/26 Q1005 NOSIG,M
VABB,2022-05-06 13:00,87.80,78.80,74.77,310.00,9.00,0.00,29.68,M,2.49,M,FEW,M,M,M,2000.00,M,M,M,HZ,M,M,M,M,M,M,102.37,VABB 061300Z 31009KT 4000 HZ FEW020 31/26 Q1005 NOSIG,M
VABB,2022-05-06 13:30,86.00,78.80,79.18,280.00,10.00,0.00,29.71,M,2.17,M,FEW,M,M,M,2000.00,M,M,M,HZ,M,M,M,M,M,M,99.38,VABB 061330Z 28010KT 3500 HZ FEW020 30/26 Q1006 NOSIG,M
VABB,2022-05-06 14:00,86.00,78.80,79.18,290.00,8.00,0.00,29.71,M,2.17,M,FEW,M,M,M,2000.00,M,M,M,HZ,M,M,M,M,M,M,99.38,VABB 061400Z 29008KT 3500 HZ FEW020 30/26 Q1006 NOSIG,M
VABB,2022-05-06 14:30,86.00,78.80,79.18,310.00,8.00,0.00,29.71,M,2.17,M,FEW,M,M,M,2000.00,M,M,M,HZ,M,M,M,M,M,M,99.38,VABB 061430Z 31008KT 3500 HZ FEW020 30/26 Q1006 NOSIG,M
VABB,2022-05-06 15:00,86.00,78.80,79.18,320.00,8.00,0.00,29.74,M,2.17,M,FEW,M,M,M,2000.00,M,M,M,HZ,M,M,M,M,M,M,99.38,VABB 061500Z 32008KT 3500 HZ FEW020 30/26 Q1007 NOSIG,M
VABB,2022-05-06 15:30,86.00,78.80,79.18,320.00,4.00,0.00,29.74,M,2.17,M,NSC,M,M,M,M,M,M,M,HZ,M,M,M,M,M,M,99.38,VABB 061530Z 32004KT 3500 HZ NSC 30/26 Q1007 NOSIG,M
VABB,2022-05-06 16:00,86.00,78.80,79.18,310.00,5.00,0.00,29.74,M,2.17,M,NSC,M,M,M,M,M,M,M,HZ,M,M,M,M,M,M,99.38,VABB 061600Z 31005KT 3500 HZ NSC 30/26 Q1007 NOSIG,M
VABB,2022-05-06 16:30,86.00,78.80,79.18,310.00,7.00,0.00,29.74,M,2.17,M,NSC,M,M,M,M,M,M,M,HZ,M,M,M,M,M,M,99.38,VABB 061630Z 31007KT 3500 HZ NSC 30/26 Q1007 NOSIG,M
VABB,2022-05-06 17:00,86.00,78.80,79.18,320.00,5.00,0.00,29.74,M,2.17,M,NSC,M,M,M,M,M,M,M,HZ,M,M,M,M,M,M,99.38,VABB 061700Z 32005KT 3500 HZ NSC 30/26 Q1007 NOSIG,M
VABB,2022-05-06 17:30,86.00,78.80,79.18,310.00,4.00,0.00,29.77,M,2.17,M,NSC,M,M,M,M,M,M,M,HZ,M,M,M,M,M,M,99.38,VABB 061730Z 31004KT 3500 HZ NSC 30/26 Q1008 NOSIG,M
VABB,2022-05-06 18:00,86.00,78.80,79.18,320.00,5.00,0.00,29.77,M,2.17,M,SCT,M,M,M,2000.00,M,M,M,HZ,M,M,M,M,M,M,99.38,VABB 061800Z 32005KT 3500 HZ SCT020 30/26 Q1008 NOSIG,M
VABB,2022-05-06 18:30,84.20,78.80,83.88,320.00,5.00,0.00,29.74,M,2.17,M,SCT,SCT,M,M,2000.00,2500.00,M,M,HZ,M,M,M,M,M,M,96.10,VABB 061830Z 32005KT 3500 HZ SCT020 SCT025 29/26 Q1007 NOSIG,M
VABB,2022-05-06 19:00,84.20,78.80,83.88,290.00,4.00,0.00,29.74,M,2.17,M,SCT,SCT,M,M,2000.00,2500.00,M,M,HZ,M,M,M,M,M,M,96.10,VABB 061900Z 29004KT 3500 HZ SCT020 SCT025 29/26 Q1007 NOSIG,M
VABB,2022-05-06 19:30,84.20,78.80,83.88,300.00,5.00,0.00,29.74,M,2.17,M,SCT,M,M,M,2000.00,M,M,M,HZ,M,M,M,M,M,M,96.10,VABB 061930Z 30005KT 3500 HZ SCT020 29/26 Q1007 NOSIG,M
VABB,2022-05-06 20:00,84.20,78.80,83.88,310.00,3.00,0.00,29.74,M,2.17,M,SCT,M,M,M,2000.00,M,M,M,HZ,M,M,M,M,M,M,96.10,VABB 062000Z 31003KT 3500 HZ SCT020 29/26 Q1007 NOSIG,M
VABB,2022-05-06 20:30,84.20,78.80,83.88,320.00,6.00,0.00,29.74,M,2.17,M,SCT,M,M,M,2000.00,M,M,M,HZ,M,M,M,M,M,M,96.10,VABB 062030Z 32006KT 3500 HZ SCT020 29/26 Q1007 NOSIG,M
VABB,2022-05-06 21:00,84.20,78.80,83.88,M,3.00,0.00,29.71,M,2.17,M,SCT,M,M,M,2000.00,M,M,M,HZ,M,M,M,M,M,M,96.10,VABB 062100Z VRB03KT 3500 HZ SCT020 29/26 Q1006 NOSIG,M
VABB,2022-05-06 21:30,84.20,78.80,83.88,330.00,4.00,0.00,29.71,M,2.17,M,SCT,M,M,M,2000.00,M,M,M,HZ,M,M,M,M,M,M,96.10,VABB 062130Z 33004KT 3500 HZ SCT020 29/26 Q1006 NOSIG,M
VABB,2022-05-06 22:00,84.20,78.80,83.88,340.00,3.00,0.00,29.71,M,2.17,M,SCT,M,M,M,2000.00,M,M,M,HZ,M,M,M,M,M,M,96.10,VABB 062200Z 34003KT 3500 HZ SCT020 29/26 Q1006 BECMG 3000 HZ,M
VABB,2022-05-06 22:30,84.20,78.80,83.88,0.00,0.00,0.00,29.71,M,1.86,M,SCT,M,M,M,2000.00,M,M,M,HZ,M,M,M,M,M,M,96.10,VABB 062230Z 00000KT 3000 HZ SCT020 29/26 Q1006 NOSIG,M
VABB,2022-05-06 23:00,84.20,78.80,83.88,50.00,3.00,0.00,29.71,M,1.86,M,SCT,M,M,M,2000.00,M,M,M,HZ,M,M,M,M,M,M,96.10,VABB 062300Z 05003KT 3000 HZ SCT020 29/26 Q1006 NOSIG,M
VABB,2022-05-06 23:30,84.20,78.80,83.88,0.00,0.00,0.00,29.71,M,1.86,M,SCT,M,M,M,2000.00,M,M,M,HZ,M,M,M,M,M,M,96.10,VABB 062330Z 00000KT 3000 HZ SCT020 29/26 Q1006 NOSIG,M
VABB,2022-05-07 00:00,82.40,78.80,88.90,0.00,0.00,0.00,29.74,M,1.86,M,SCT,M,M,M,2000.00,M,M,M,HZ,M,M,M,M,M,M,92.76,VABB 070000Z 00000KT 3000 HZ SCT020 28/26 Q1007 NOSIG,M
VABB,2022-05-07 00:30,82.40,78.80,88.90,0.00,0.00,0.00,29.74,M,1.86,M,SCT,M,M,M,2000.00,M,M,M,HZ,M,M,M,M,M,M,92.76,VABB 070030Z 00000KT 3000 HZ SCT020 28/26 Q1007 NOSIG,M
VABB,2022-05-07 01:00,84.20,78.80,83.88,0.00,0.00,0.00,29.74,M,1.86,M,SCT,M,M,M,2000.00,M,M,M,HZ,M,M,M,M,M,M,96.10,VABB 070100Z 00000KT 3000 HZ SCT020 29/26 Q1007 NOSIG,M
VABB,2022-05-07 01:30,84.20,78.80,83.88,120.00,3.00,0.00,29.77,M,1.55,M,FEW,M,M,M,2000.00,M,M,M,HZ,M,M,M,M,M,M,96.10,VABB 070130Z 12003KT 2500 HZ FEW020 29/26 Q1008 NOSIG,M
VABB,2022-05-07 02:00,86.00,78.80,79.18,0.00,0.00,0.00,29.77,M,1.55,M,FEW,M,M,M,2000.00,M,M,M,HZ,M,M,M,M,M,M,99.38,VABB 070200Z 00000KT 2500 HZ FEW020 30/26 Q1008 NOSIG,M
VABB,2022-05-07 02:30,86.00,78.80,79.18,0.00,0.00,0.00,29.77,M,1.55,M,SCT,M,M,M,2000.00,M,M,M,HZ,M,M,M,M,M,M,99.38,VABB 070230Z 00000KT 2500 HZ SCT020 30/26 Q1008 NOSIG,M
VABB,2022-05-07 03:00,86.00,80.60,83.99,0.00,0.00,0.00,29.77,M,1.55,M,SCT,M,M,M,2000.00,M,M,M,HZ,M,M,M,M,M,M,101.90,VABB 070300Z 00000KT 2500 HZ SCT020 30/27 Q1008 BECMG 3000 HZ,M
VABB,2022-05-07 03:30,87.80,78.80,74.77,260.00,7.00,0.00,29.80,M,1.86,M,SCT,M,M,M,2000.00,M,M,M,HZ,M,M,M,M,M,M,102.37,VABB 070330Z 26007KT 3000 HZ SCT020 31/26 Q1009 NOSIG,M
VABB,2022-05-07 04:00,89.60,78.80,70.63,280.00,8.00,0.00,29.80,M,1.86,M,SCT,M,M,M,2000.00,M,M,M,HZ,M,M,M,M,M,M,105.15,VABB 070400Z 28008KT 3000 HZ SCT020 32/26 Q1009 NOSIG,M
VABB,2022-05-07 04:30,89.60,78.80,70.63,250.00,6.00,0.00,29.80,M,1.86,M,SCT,M,M,M,2000.00,M,M,M,HZ,M,M,M,M,M,M,105.15,VABB 070430Z 25006KT 3000 HZ SCT020 32/26 Q1009 NOSIG,M
VABB,2022-05-07 05:00,91.40,78.80,66.75,250.00,11.00,0.00,29.80,M,1.86,M,SCT,M,M,M,2000.00,M,M,M,HZ,M,M,M,M,M,M,107.79,VABB 070500Z 25011KT 3000 HZ SCT020 33/26 Q1009 NOSIG,M
VABB,2022-05-07 05:30,89.60,80.60,74.93,260.00,11.00,0.00,29.77,M,1.86,M,SCT,M,M,M,2000.00,M,M,M,HZ,M,M,M,M,M,M,108.11,VABB 070530Z 26011KT 3000 HZ SCT020 32/27 Q1008 NOSIG,M
VABB,2022-05-07 06:00,91.40,80.60,70.81,280.00,11.00,0.00,29.77,M,1.86,M,FEW,M,M,M,2000.00,M,M,M,HZ,M,M,M,M,M,M,110.88,VABB 070600Z 28011KT 3000 HZ FEW020 33/27 Q1008 NOSIG,M
VABB,2022-05-07 06:30,89.60,78.80,70.63,270.00,10.00,0.00,29.77,M,2.17,M,NSC,M,M,M,M,M,M,M,HZ,M,M,M,M,M,M,105.15,VABB 070630Z 27010KT 3500 HZ NSC 32/26 Q1008 NOSIG,M
VABB,2022-05-07 07:00,91.40,80.60,70.81,260.00,8.00,0.00,29.74,M,2.17,18.00,FEW,M,M,M,2000.00,M,M,M,HZ,M,M,M,M,M,M,110.88,VABB 070700Z 26008G18KT 3500 HZ FEW020 33/27 Q1007 NOSIG,M
VABB,2022-05-07 07:30,91.40,80.60,70.81,270.00,7.00,0.00,29.74,M,2.17,17.00,NSC,M,M,M,M,M,M,M,HZ,M,M,M,M,M,M,110.88,VABB 070730Z 27007G17KT 3500 HZ NSC 33/27 Q1007 NOSIG,M
VABB,2022-05-07 08:00,91.40,78.80,66.75,260.00,8.00,0.00,29.74,M,2.17,18.00,NSC,M,M,M,M,M,M,M,HZ,M,M,M,M,M,M,107.79,VABB 070800Z 26008G18KT 3500 HZ NSC 33/26 Q1007 NOSIG,M
VABB,2022-05-07 08:30,91.40,80.60,70.81,270.00,9.00,0.00,29.71,M,2.17,19.00,NSC,M,M,M,M,M,M,M,HZ,M,M,M,M,M,M,110.88,VABB 070830Z 27009G19KT 3500 HZ NSC 33/27 Q1006 NOSIG,M
VABB,2022-05-07 09:00,91.40,78.80,66.75,270.00,8.00,0.00,29.71,M,2.49,18.00,NSC,M,M,M,M,M,M,M,HZ,M,M,M,M,M,M,107.79,VABB 070900Z 27008G18KT 4000 HZ NSC 33/26 Q1006 NOSIG,M
VABB,2022-05-07 09:30,91.40,78.80,66.75,290.00,11.00,0.00,29.68,M,2.49,M,NSC,M,M,M,M,M,M,M,HZ,M,M,M,M,M,M,107.79,VABB 070930Z 29011KT 4000 HZ NSC 33/26 Q1005 NOSIG,M
VABB,2022-05-07 10:00,91.40,78.80,66.75,300.00,10.00,0.00,29.68,M,2.49,M,NSC,M,M,M,M,M,M,M,HZ,M,M,M,M,M,M,107.79,VABB 071000Z 30010KT 4000 HZ NSC 33/26 Q1005 NOSIG,M
VABB,2022-05-07 10:30,91.40,78.80,66.75,290.00,10.00,0.00,29.68,M,2.49,M,NSC,M,M,M,M,M,M,M,HZ,M,M,M,M,M,M,107.79,VABB 071030Z 29010KT 4000 HZ NSC 33/26 Q1005 NOSIG,M
VABB,2022-05-07 11:00,91.40,77.00,62.90,300.00,12.00,0.00,29.68,M,2.17,M,NSC,M,M,M,M,M,M,M,FU,M,M,M,M,M,M,105.06,VABB 071100Z 30012KT 3500 FU NSC 33/25 Q1005 NOSIG,M
VABB,2022-05-07 11:30,91.40,77.00,62.90,290.00,7.00,0.00,29.68,M,2.17,17.00,NSC,M,M,M,M,M,M,M,FU,M,M,M,M,M,M,105.06,VABB 071130Z 29007G17KT 3500 FU NSC 33/25 Q1005 NOSIG,M
VABB,2022-05-07 12:00,89.60,75.20,62.68,300.00,10.00,0.00,29.68,M,2.17,M,NSC,M,M,M,M,M,M,M,FU,M,M,M,M,M,M,100.23,VABB 071200Z 30010KT 3500 FU NSC 32/24 Q1005 BECMG 3000 FU,M
VABB,2022-05-07 12:30,89.60,77.00,66.55,280.00,8.00,0.00,29.68,M,1.86,18.00,NSC,M,M,M,M,M,M,M,FU,M,M,M,M,M,M,102.54,VABB 071230Z 28008G18KT 3000 FU NSC 32/25 Q1005 NOSIG,M
VABB,2022-05-07 13:00,87.80,77.00,70.45,280.00,7.00,0.00,29.68,M,1.86,17.00,NSC,M,M,M,M,M,M,M,HZ,M,M,M,M,M,M,99.92,VABB 071300Z 28007G17KT 3000 HZ NSC 31/25 Q1005 NOSIG,M
VABB,2022-05-07 13:30,87.80,77.00,70.45,280.00,12.00,0.00,29.68,M,1.86,M,NSC,M,M,M,M,M,M,M,HZ,M,M,M,M,M,M,99.92,VABB 071330Z 28012KT 3000 HZ NSC 31/25 Q1005 NOSIG,M
VABB,2022-05-07 14:00,87.80,78.80,74.77,300.00,11.00,0.00,29.68,M,1.86,M,NSC,M,M,M,M,M,M,M,HZ,M,M,M,M,M,M,102.37,VABB 071400Z 30011KT 3000 HZ NSC 31/26 Q1005 NOSIG,M
VABB,2022-05-07 14:30,86.00,78.80,79.18,290.00,11.00,0.00,29.71,M,1.86,M,NSC,M,M,M,M,M,M,M,HZ,M,M,M,M,M,M,99.38,VABB 071430Z 29011KT 3000 HZ NSC 30/26 Q1006 NOSIG,M
VABB,2022-05-07 15:00,86.00,78.80,79.18,310.00,7.00,0.00,29.71,M,1.86,M,NSC,M,M,M,M,M,M,M,HZ,M,M,M,M,M,M,99.38,VABB 071500Z 31007KT 3000 HZ NSC 30/26 Q1006 NOSIG,M
VABB,2022-05-07 15:30,86.00,78.80,79.18,290.00,9.00,0.00,29.71,M,1.86,M,NSC,M,M,M,M,M,M,M,HZ,M,M,M,M,M,M,99.38,VABB 071530Z 29009KT 3000 HZ NSC 30/26 Q1006 NOSIG,M
VABB,2022-05-07 16:00,86.00,78.80,79.18,290.00,7.00,0.00,29.71,M,1.86,M,NSC,M,M,M,M,M,M,M,HZ,M,M,M,M,M,M,99.38,VABB 071600Z 29007KT 3000 HZ NSC 30/26 Q1006 NOSIG,M
VABB,2022-05-07 16:30,86.00,78.80,79.18,300.00,4.00,0.00,29.71,M,1.86,M,NSC,M,M,M,M,M,M,M,HZ,M,M,M,M,M,M,99.38,VABB 071630Z 30004KT 3000 HZ NSC 30/26 Q1006 NOSIG,M
VABB,2022-05-07 17:00,86.00,78.80,79.18,330.00,4.00,0.00,29.71,M,1.86,M,NSC,M,M,M,M,M,M,M,HZ,M,M,M,M,M,M,99.38,VABB 071700Z 33004KT 3000 HZ NSC 30/26 Q1006 NOSIG,M
VABB,2022-05-07 17:30,86.00,78.80,79.18,310.00,5.00,0.00,29.71,M,1.86,M,NSC,M,M,M,M,M,M,M,HZ,M,M,M,M,M,M,99.38,VABB 071730Z 31005KT 3000 HZ NSC 30/26 Q1006 NOSIG,M
VABB,2022-05-07 18:00,86.00,78.80,79.18,310.00,4.00,0.00,29.71,M,1.86,M,NSC,M,M,M,M,M,M,M,HZ,M,M,M,M,M,M,99.38,VABB 071800Z 31004KT 3000 HZ NSC 30/26 Q1006 NOSIG,M
VABB,2022-05-07 18:30,86.00,78.80,79.18,310.00,5.00,0.00,29.71,M,1.86,M,NSC,M,M,M,M,M,M,M,HZ,M,M,M,M,M,M,99.38,VABB 071830Z 31005KT 3000 HZ NSC 30/26 Q1006 NOSIG,M
VABB,2022-05-07 19:00,86.00,78.80,79.18,350.00,4.00,0.00,29.71,M,1.86,M,NSC,M,M,M,M,M,M,M,HZ,M,M,M,M,M,M,99.38,VABB 071900Z 35004KT 3000 HZ NSC 30/26 Q1006 NOSIG,M
VABB,2022-05-07 19:30,86.00,78.80,79.18,30.00,4.00,0.00,29.71,M,1.86,M,NSC,M,M,M,M,M,M,M,HZ,M,M,M,M,M,M,99.38,VABB 071930Z 03004KT 3000 HZ NSC 30/26 Q1006 NOSIG,M
VABB,2022-05-07 20:00,86.00,78.80,79.18,30.00,4.00,0.00,29.71,M,1.86,M,NSC,M,M,M,M,M,M,M,HZ,M,M,M,M,M,M,99.38,VABB 072000Z 03004KT 3000 HZ NSC 30/26 Q1006 NOSIG,M
VABB,2022-05-07 20:30,84.20,78.80,83.88,20.00,4.00,0.00,29.68,M,1.86,M,NSC,M,M,M,M,M,M,M,HZ,M,M,M,M,M,M,96.10,VABB 072030Z 02004KT 3000 HZ NSC 29/26 Q1005 NOSIG,M
VABB,2022-05-07 21:00,84.20,77.00,79.04,20.00,4.00,0.00,29.68,M,1.86,M,NSC,M,M,M,M,M,M,M,HZ,M,M,M,M,M,M,94.16,VABB 072100Z 02004KT 3000 HZ NSC 29/25 Q1005 NOSIG,M
VABB,2022-05-07 21:30,84.20,77.00,79.04,30.00,3.00,0.00,29.68,M,1.86,M,NSC,M,M,M,M,M,M,M,HZ,M,M,M,M,M,M,94.16,VABB 072130Z 03003KT 3000 HZ NSC 29/25 Q1005 NOSIG,M
VABB,2022-05-07 22:00,84.20,77.00,79.04,0.00,0.00,0.00,29.65,M,1.86,M,NSC,M,M,M,M,M,M,M,HZ,M,M,M,M,M,M,94.16,VABB 072200Z 00000KT 3000 HZ NSC 29/25 Q1004 NOSIG,M
VABB,2022-05-07 22:30,84.20,77.00,79.04,0.00,0.00,0.00,29.65,M,1.86,M,NSC,M,M,M,M,M,M,M,HZ,M,M,M,M,M,M,94.16,VABB 072230Z 00000KT 3000 HZ NSC 29/25 Q1004 NOSIG,M
VABB,2022-05-07 23:00,84.20,77.00,79.04,0.00,0.00,0.00,29.65,M,1.86,M,NSC,M,M,M,M,M,M,M,HZ,M,M,M,M,M,M,94.16,VABB 072300Z 00000KT 3000 HZ NSC 29/25 Q1004 NOSIG,M
VABB,2022-05-07 23:30,84.20,77.00,79.04,0.00,0.00,0.00,29.68,M,1.86,M,NSC,M,M,M,M,M,M,M,HZ,M,M,M,M,M,M,94.16,VABB 072330Z 00000KT 3000 HZ NSC 29/25 Q1005 NOSIG,M
VABB,2022-05-08 00:00,84.20,77.00,79.04,0.00,0.00,0.00,29.68,M,1.86,M,NSC,M,M,M,M,M,M,M,HZ,M,M,M,M,M,M,94.16,VABB 080000Z 00000KT 3000 HZ NSC 29/25 Q1005 NOSIG,M
VABB,2022-05-08 00:30,84.20,75.20,74.44,0.00,0.00,0.00,29.68,M,1.86,M,NSC,M,M,M,M,M,M,M,HZ,M,M,M,M,M,M,92.45,VABB 080030Z 00000KT 3000 HZ NSC 29/24 Q1005 NOSIG,M
VABB,2022-05-08 01:00,84.20,77.00,79.04,60.00,4.00,0.00,29.68,M,1.55,M,NSC,M,M,M,M,M,M,M,HZ,M,M,M,M,M,M,94.16,VABB 080100Z 06004KT 2500 HZ NSC 29/25 Q1005 NOSIG,M
VABB,2022-05-08 01:30,84.20,77.00,79.04,0.00,0.00,0.00,29.71,M,1.55,M,NSC,M,M,M,M,M,M,M,HZ,M,M,M,M,M,M,94.16,VABB 080130Z 00000KT 2500 HZ NSC 29/25 Q1006 NOSIG,M
VABB,2022-05-08 02:00,84.20,77.00,79.04,160.00,4.00,0.00,29.71,M,1.55,M,NSC,M,M,M,M,M,M,M,HZ,M,M,M,M,M,M,94.16,VABB 080200Z 16004KT 2500 HZ NSC 29/25 Q1006 NOSIG,M
VABB,2022-05-08 02:30,86.00,77.00,74.61,0.00,0.00,0.00,29.74,M,1.55,M,NSC,M,M,M,M,M,M,M,HZ,M,M,M,M,M,M,97.15,VABB 080230Z 00000KT 2500 HZ NSC 30/25 Q1007 NOSIG,M
VABB,2022-05-08 03:00,87.80,77.00,70.45,330.00,3.00,0.00,29.74,M,1.55,M,NSC,M,M,M,M,M,M,M,HZ,M,M,M,M,M,M,99.92,VABB 080300Z 33003KT 2500 HZ NSC 31/25 Q1007 NOSIG,M
VABB,2022-05-08 03:30,87.80,77.00,70.45,350.00,4.00,0.00,29.74,M,1.55,M,NSC,M,M,M,M,M,M,M,HZ,M,M,M,M,M,M,99.92,VABB 080330Z 35004KT 2500 HZ NSC 31/25 Q1007 NOSIG,M
VABB,2022-05-08 04:00,89.60,77.00,66.55,320.00,4.00,0.00,29.74,M,1.55,M,NSC,M,M,M,M,M,M,M,FU,M,M,M,M,M,M,102.54,VABB 080400Z 32004KT 2500 FU NSC 32/25 Q1007 BECMG 3000 FU,M
VABB,2022-05-08 04:30,91.40,75.20,59.24,280.00,7.00,0.00,29.74,M,1.86,M,NSC,M,M,M,M,M,M,M,FU,M,M,M,M,M,M,102.65,VABB 080430Z 28007KT 3000 FU NSC 33/24 Q1007 NOSIG,M
VABB,2022-05-08 05:00,91.40,78.80,66.75,240.00,11.00,0.00,29.74,M,1.86,M,NSC,M,M,M,M,M,M,M,FU,M,M,M,M,M,M,107.79,VABB 080500Z 24011KT 3000 FU NSC 33/26 Q1007 NOSIG,M
VABB,2022-05-08 05:30,91.40,78.80,66.75,270.00,12.00,0.00,29.71,M,1.86,M,NSC,M,M,M,M,M,M,M,HZ,M,M,M,M,M,M,107.79,VABB 080530Z 27012KT 3000 HZ NSC 33/26 Q1006 NOSIG,M
VABB,2022-05-08 06:00,91.40,78.80,66.75,270.00,11.00,0.00,29.71,M,1.86,M,NSC,M,M,M,M,M,M,M,HZ,M,M,M,M,M,M,107.79,VABB 080600Z 27011KT 3000 HZ NSC 33/26 Q1006 NOSIG,M
VABB,2022-05-08 06:30,91.40,80.60,70.81,280.00,7.00,0.00,29.71,M,1.86,17.00,FEW,M,M,M,2000.00,M,M,M,HZ,M,M,M,M,M,M,110.88,VABB 080630Z 28007G17KT 3000 HZ FEW020 33/27 Q1006 NOSIG,M
VABB,2022-05-08 07:00,93.20,80.60,66.95,280.00,11.00,0.00,29.71,M,1.86,M,FEW,M,M,M,2000.00,M,M,M,HZ,M,M,M,M,M,M,113.52,VABB 080700Z 28011KT 3000 HZ FEW020 34/27 Q1006 NOSIG,M
VABB,2022-05-08 07:30,93.20,80.60,66.95,290.00,12.00,0.00,29.68,M,2.49,M,NSC,M,M,M,M,M,M,M,HZ,M,M,M,M,M,M,113.52,VABB 080730Z 29012KT 4000 HZ NSC 34/27 Q1005 NOSIG,M
VABB,2022-05-08 08:00,93.20,80.60,66.95,270.00,9.00,0.00,29.68,M,2.49,19.00,NSC,M,M,M,M,M,M,M,HZ,M,M,M,M,M,M,113.52,VABB 080800Z 27009G19KT 4000 HZ NSC 34/27 Q1005 NOSIG,M
VABB,2022-05-08 08:30,95.00,77.00,56.25,290.00,12.00,0.00,29.65,M,2.49,M,NSC,M,M,M,M,M,M,M,HZ,M,M,M,M,M,M,109.94,VABB 080830Z 29012KT 4000 HZ NSC 35/25 Q1004 BECMG 5000 FU,M
VABB,2022-05-08 09:00,93.20,77.00,59.47,290.00,8.00,0.00,29.65,M,3.11,18.00,NSC,M,M,M,M,M,M,M,FU,M,M,M,M,M,M,107.52,VABB 080900Z 29008G18KT 5000 FU NSC 34/25 Q1004 NOSIG,M
VABB,2022-05-08 09:30,93.20,78.80,63.11,290.00,8.00,0.00,29.62,M,3.11,18.00,NSC,M,M,M,M,M,M,M,FU,M,M,M,M,M,M,110.34,VABB 080930Z 29008G18KT 5000 FU NSC 34/26 Q1003 NOSIG,M
VABB,2022-05-08 10:00,93.20,78.80,63.11,280.00,10.00,0.00,29.62,M,3.11,20.00,NSC,M,M,M,M,M,M,M,FU,M,M,M,M,M,M,110.34,VABB 081000Z 28010G20KT 5000 FU NSC 34/26 Q1003 NOSIG,M
VABB,2022-05-08 10:30,91.40,78.80,66.75,290.00,10.00,0.00,29.62,M,3.11,20.00,NSC,M,M,M,M,M,M,M,FU,M,M,M,M,M,M,107.79,VABB 081030Z 29010G20KT 5000 FU NSC 33/26 Q1003 NOSIG,M
VABB,2022-05-08 11:00,91.40,77.00,62.90,300.00,9.00,0.00,29.59,M,3.11,19.00,NSC,M,M,M,M,M,M,M,FU,M,M,M,M,M,M,105.06,VABB 081100Z 30009G19KT 5000 FU NSC 33/25 Q1002 NOSIG,M
VABB,2022-05-08 11:30,89.60,77.00,66.55,300.00,8.00,0.00,29.59,M,3.11,18.00,NSC,M,M,M,M,M,M,M,FU,M,M,M,M,M,M,102.54,VABB 081130Z 30008G18KT 5000 FU NSC 32/25 Q1002 NOSIG,M
VABB,2022-05-08 12:00,89.60,75.20,62.68,310.00,12.00,0.00,29.59,M,3.11,M,FEW,M,M,M,10000.00,M,M,M,HZ,M,M,M,M,M,M,100.23,VABB 081200Z 31012KT 5000 HZ FEW100 32/24 Q1002 NOSIG,M
VABB,2022-05-08 12:30,87.80,77.00,70.45,310.00,9.00,0.00,29.59,M,3.11,M,FEW,M,M,M,10000.00,M,M,M,HZ,M,M,M,M,M,M,99.92,VABB 081230Z 31009KT 5000 HZ FEW100 31/25 Q1002 NOSIG,M
VABB,2022-05-08 13:00,87.80,78.80,74.77,300.00,9.00,0.00,29.62,M,2.49,19.00,FEW,M,M,M,2000.00,M,M,M,HZ,M,M,M,M,M,M,102.37,VABB 081300Z 30009G19KT 4000 HZ FEW020 31/26 Q1003 NOSIG,M
VABB,2022-05-08 13:30,87.80,78.80,74.77,300.00,11.00,0.00,29.62,M,2.49,M,FEW,SCT,M,M,2000.00,10000.00,M,M,HZ,M,M,M,M,M,M,102.37,VABB 081330Z 30011KT 4000 HZ FEW020 SCT100 31/26 Q1003 NOSIG,M
VABB,2022-05-08 14:00,86.00,80.60,83.99,290.00,10.00,0.00,29.62,M,2.49,M,SCT,SCT,M,M,2000.00,10000.00,M,M,HZ,M,M,M,M,M,M,101.90,VABB 081400Z 29010KT 4000 HZ SCT020 SCT100 30/27 Q1003 NOSIG,M
VABB,2022-05-08 14:30,86.00,80.60,83.99,300.00,8.00,0.00,29.65,M,2.17,M,SCT,M,M,M,2000.00,M,M,M,HZ,M,M,M,M,M,M,101.90,VABB 081430Z 30008KT 3500 HZ SCT020 30/27 Q1004 NOSIG,M
VABB,2022-05-08 15:00,86.00,80.60,83.99,290.00,8.00,0.00,29.65,M,2.17,M,SCT,M,M,M,2000.00,M,M,M,HZ,M,M,M,M,M,M,101.90,VABB 081500Z 29008KT 3500 HZ SCT020 30/27 Q1004 NOSIG,M
VABB,2022-05-08 15:30,86.00,80.60,83.99,300.00,8.00,0.00,29.65,M,2.17,M,FEW,M,M,M,2000.00,M,M,M,HZ,M,M,M,M,M,M,101.90,VABB 081530Z 30008KT 3500 HZ FEW020 30/27 Q1004 NOSIG,M
VABB,2022-05-08 16:00,86.00,80.60,83.99,180.00,6.00,0.00,29.65,M,2.17,M,FEW,M,M,M,2000.00,M,M,M,HZ,M,M,M,M,M,M,101.90,VABB 081600Z 18006KT 3500 HZ FEW020 30/27 Q1004 NOSIG,M
VABB,2022-05-08 16:30,86.00,80.60,83.99,300.00,5.00,0.00,29.68,M,2.17,M,FEW,M,M,M,2000.00,M,M,M,HZ,M,M,M,M,M,M,101.90,VABB 081630Z 30005KT 3500 HZ FEW020 30/27 Q1005 NOSIG,M
VABB,2022-05-08 17:00,86.00,80.60,83.99,300.00,5.00,0.00,29.68,M,2.17,M,FEW,M,M,M,2000.00,M,M,M,HZ,M,M,M,M,M,M,101.90,VABB 081700Z 30005KT 3500 HZ FEW020 30/27 Q1005 NOSIG,M
VABB,2022-05-08 17:30,86.00,80.60,83.99,290.00,6.00,0.00,29.68,M,2.17,M,FEW,M,M,M,2000.00,M,M,M,HZ,M,M,M,M,M,M,101.90,VABB 081730Z 29006KT 3500 HZ FEW020 30/27 Q1005 NOSIG,M
VABB,2022-05-08 18:00,86.00,80.60,83.99,300.00,4.00,0.00,29.68,M,2.17,M,FEW,M,M,M,2000.00,M,M,M,HZ,M,M,M,M,M,M,101.90,VABB 081800Z 30004KT 3500 HZ FEW020 30/27 Q1005 NOSIG,M
VABB,2022-05-08 18:30,86.00,80.60,83.99,300.00,6.00,0.00,29.65,M,2.17,M,FEW,M,M,M,2000.00,M,M,M,HZ,M,M,M,M,M,M,101.90,VABB 081830Z 30006KT 3500 HZ FEW020 30/27 Q1004 NOSIG,M
VABB,2022-05-08 19:00,86.00,80.60,83.99,310.00,5.00,0.00,29.65,M,2.17,M,FEW,M,M,M,2000.00,M,M,M,HZ,M,M,M,M,M,M,101.90,VABB 081900Z 31005KT 3500 HZ FEW020 30/27 Q1004 NOSIG,M
VABB,2022-05-08 19:30,86.00,80.60,83.99,330.00,7.00,0.00,29.65,M,2.17,M,FEW,M,M,M,2000.00,M,M,M,HZ,M,M,M,M,M,M,101.90,VABB 081930Z 33007KT 3500 HZ FEW020 30/27 Q1004 NOSIG,M
VABB,2022-05-08 20:00,86.00,80.60,83.99,300.00,6.00,0.00,29.62,M,2.17,M,FEW,M,M,M,2000.00,M,M,M,HZ,M,M,M,M,M,M,101.90,VABB 082000Z 30006KT 3500 HZ FEW020 30/27 Q1003 NOSIG,M
VABB,2022-05-08 20:30,86.00,80.60,83.99,310.00,5.00,0.00,29.62,M,2.17,M,FEW,M,M,M,2000.00,M,M,M,HZ,M,M,M,M,M,M,101.90,VABB 082030Z 31005KT 3500 HZ FEW020 30/27 Q1003 NOSIG,M
VABB,2022-05-08 21:00,86.00,80.60,83.99,330.00,5.00,0.00,29.62,M,2.17,M,FEW,M,M,M,2000.00,M,M,M,HZ,M,M,M,M,M,M,101.90,VABB 082100Z 33005KT 3500 HZ FEW020 30/27 Q1003 NOSIG,M
VABB,2022-05-08 21:30,86.00,78.80,79.18,310.00,5.00,0.00,29.62,M,2.17,M,FEW,M,M,M,2000.00,M,M,M,HZ,M,M,M,M,M,M,99.38,VABB 082130Z 31005KT 3500 HZ FEW020 30/26 Q1003 NOSIG,M
VABB,2022-05-08 22:00,86.00,78.80,79.18,M,5.00,0.00,29.62,M,2.17,M,FEW,M,M,M,2000.00,M,M,M,HZ,M,M,M,M,M,M,99.38,VABB 082200Z VRB05KT 3500 HZ FEW020 30/26 Q1003 NOSIG,M
VABB,2022-05-08 22:30,84.20,78.80,83.88,0.00,0.00,0.00,29.62,M,2.17,M,SCT,M,M,M,2000.00,M,M,M,HZ,M,M,M,M,M,M,96.10,VABB 082230Z 00000KT 3500 HZ SCT020 29/26 Q1003 NOSIG,M
VABB,2022-05-08 23:00,84.20,78.80,83.88,0.00,0.00,0.00,29.62,M,2.17,M,SCT,M,M,M,2000.00,M,M,M,HZ,M,M,M,M,M,M,96.10,VABB 082300Z 00000KT 3500 HZ SCT020 29/26 Q1003 NOSIG,M
VABB,2022-05-08 23:30,84.20,78.80,83.88,0.00,0.00,0.00,29.62,M,2.17,M,FEW,M,M,M,2000.00,M,M,M,HZ,M,M,M,M,M,M,96.10,VABB 082330Z 00000KT 3500 HZ FEW020 29/26 Q1003 NOSIG,M
VABB,2022-05-09 00:00,84.20,78.80,83.88,0.00,0.00,0.00,29.62,M,2.17,M,FEW,M,M,M,2000.00,M,M,M,HZ,M,M,M,M,M,M,96.10,VABB 090000Z 00000KT 3500 HZ FEW020 29/26 Q1003 NOSIG,M
VABB,2022-05-09 00:30,84.20,78.80,83.88,0.00,0.00,0.00,29.65,M,2.17,M,FEW,M,M,M,2000.00,M,M,M,HZ,M,M,M,M,M,M,96.10,VABB 090030Z 00000KT 3500 HZ FEW020 29/26 Q1004 NOSIG,M
VABB,2022-05-09 01:00,84.20,78.80,83.88,0.00,0.00,0.00,29.65,M,2.17,M,FEW,SCT,M,M,2000.00,10000.00,M,M,HZ,M,M,M,M,M,M,96.10,VABB 090100Z 00000KT 3500 HZ FEW020 SCT100 29/26 Q1004 NOSIG,M
VABB,2022-05-09 01:30,84.20,78.80,83.88,0.00,0.00,0.00,29.65,M,2.17,M,FEW,SCT,M,M,2000.00,10000.00,M,M,HZ,M,M,M,M,M,M,96.10,VABB 090130Z 00000KT 3500 HZ FEW020 SCT100 29/26 Q1004 NOSIG,M
VABB,2022-05-09 02:00,86.00,78.80,79.18,260.00,3.00,0.00,29.68,M,2.17,M,FEW,SCT,M,M,2000.00,10000.00,M,M,HZ,M,M,M,M,M,M,99.38,VABB 090200Z 26003KT 3500 HZ FEW020 SCT100 30/26 Q1005 NOSIG,M
VABB,2022-05-09 02:30,86.00,78.80,79.18,290.00,5.00,0.00,29.68,M,2.17,M,SCT,SCT,M,M,2000.00,10000.00,M,M,HZ,M,M,M,M,M,M,99.38,VABB 090230Z 29005KT 3500 HZ SCT020 SCT100 30/26 Q1005 NOSIG,M
VABB,2022-05-09 03:00,87.80,78.80,74.77,290.00,4.00,0.00,29.71,M,1.86,M,SCT,SCT,M,M,2000.00,10000.00,M,M,HZ,M,M,M,M,M,M,102.37,VABB 090300Z 29004KT 3000 HZ SCT020 SCT100 31/26 Q1006 NOSIG,M
VABB,2022-05-09 03:30,87.80,78.80,74.77,280.00,5.00,0.00,29.71,M,1.86,M,SCT,SCT,M,M,2000.00,10000.00,M,M,HZ,M,M,M,M,M,M,102.37,VABB 090330Z 28005KT 3000 HZ SCT020 SCT100 31/26 Q1006 NOSIG,M
VABB,2022-05-09 04:00,89.60,78.80,70.63,310.00,4.00,0.00,29.71,M,2.17,M,FEW,SCT,BKN,M,2000.00,2500.00,10000.00,M,HZ,M,M,M,M,M,M,105.15,VABB 090400Z 31004KT 3500 HZ FEW020 SCT025 BKN100 32/26 Q1006 NOSIG,M
VABB,2022-05-09 04:30,89.60,78.80,70.63,280.00,5.00,0.00,29.71,M,2.17,M,SCT,SCT,M,M,2000.00,10000.00,M,M,HZ,M,M,M,M,M,M,105.15,VABB 090430Z 28005KT 3500 HZ SCT020 SCT100 32/26 Q1006 NOSIG,M
VABB,2022-05-09 05:00,89.60,78.80,70.63,270.00,10.00,0.00,29.71,M,2.49,M,SCT,SCT,M,M,2000.00,10000.00,M,M,HZ,M,M,M,M,M,M,105.15,VABB 090500Z 27010KT 4000 HZ SCT020 SCT100 32/26 Q1006 NOSIG,M
VABB,2022-05-09 05:30,89.60,78.80,70.63,270.00,7.00,0.00,29.68,M,2.49,17.00,SCT,SCT,M,M,2000.00,2500.00,M,M,HZ,M,M,M,M,M,M,105.15,VABB 090530Z 27007G17KT 4000 HZ SCT020 SCT025 32/26 Q1005 NOSIG,M
VABB,2022-05-09 06:00,89.60,78.80,70.63,270.00,7.00,0.00,29.68,M,2.49,17.00,SCT,SCT,M,M,2000.00,2500.00,M,M,HZ,M,M,M,M,M,M,105.15,VABB 090600Z 27007G17KT 4000 HZ SCT020 SCT025 32/26 Q1005 NOSIG,M
VABB,2022-05-09 06:30,89.60,78.80,70.63,270.00,7.00,0.00,29.68,M,2.49,17.00,FEW,SCT,M,M,2000.00,2500.00,M,M,HZ,M,M,M,M,M,M,105.15,VABB 090630Z 27007G17KT 4000 HZ FEW020 SCT025 32/26 Q1005 NOSIG,M
VABB,2022-05-09 07:00,89.60,78.80,70.63,270.00,7.00,0.00,29.68,M,2.80,17.00,FEW,SCT,M,M,2000.00,2500.00,M,M,HZ,M,M,M,M,M,M,105.15,VABB 090700Z 27007G17KT 4500 HZ FEW020 SCT025 32/26 Q1005 BECMG 5000 HZ,M
VABB,2022-05-09 07:30,89.60,78.80,70.63,270.00,7.00,0.00,29.65,M,3.11,17.00,SCT,BKN,M,M,2000.00,10000.00,M,M,HZ,M,M,M,M,M,M,105.15,VABB 090730Z 27007G17KT 5000 HZ SCT020 BKN100 32/26 Q1004 NOSIG,M
VABB,2022-05-09 08:00,89.60,80.60,74.93,260.00,7.00,0.00,29.65,M,3.11,17.00,SCT,BKN,M,M,2000.00,10000.00,M,M,HZ,M,M,M,M,M,M,108.11,VABB 090800Z 26007G17KT 5000 HZ SCT020 BKN100 32/27 Q1004 NOSIG,M
VABB,2022-05-09 08:30,89.60,78.80,70.63,280.00,10.00,0.00,29.62,M,3.11,20.00,FEW,BKN,M,M,2000.00,10000.00,M,M,HZ,M,M,M,M,M,M,105.15,VABB 090830Z 28010G20KT 5000 HZ FEW020 BKN100 32/26 Q1003 NOSIG,M
VABB,2022-05-09 09:00,89.60,78.80,70.63,270.00,9.00,0.00,29.62,M,3.11,19.00,FEW,SCT,M,M,2000.00,2500.00,M,M,HZ,M,M,M,M,M,M,105.15,COR VABB 090900Z 27009G19KT 5000 HZ FEW020 SCT025 32/26 Q1003 NOSIG,M
VABB,2022-05-09 09:30,89.60,78.80,70.63,270.00,9.00,0.00,29.62,M,3.11,19.00,FEW,SCT,M,M,2000.00,2500.00,M,M,HZ,M,M,M,M,M,M,105.15,VABB 090930Z 27009G19KT 5000 HZ FEW020 SCT025 32/26 Q1003 NOSIG,M
VABB,2022-05-09 10:00,89.60,78.80,70.63,270.00,9.00,0.00,29.59,M,3.11,19.00,FEW,SCT,M,M,2000.00,2500.00,M,M,HZ,M,M,M,M,M,M,105.15,VABB 091000Z 27009G19KT 5000 HZ FEW020 SCT025 32/26 Q1002 NOSIG,M
VABB,2022-05-09 10:30,89.60,80.60,74.93,270.00,8.00,0.00,29.59,M,3.11,18.00,SCT,SCT,M,M,2000.00,2500.00,M,M,HZ,M,M,M,M,M,M,108.11,VABB 091030Z 27008G18KT 5000 HZ SCT020 SCT025 32/27 Q1002 NOSIG,M
VABB,2022-05-09 11:00,89.60,80.60,74.93,280.00,9.00,0.00,29.59,M,3.11,19.00,SCT,SCT,M,M,2000.00,2500.00,M,M,HZ,M,M,M,M,M,M,108.11,VABB 091100Z 28009G19KT 5000 HZ SCT020 SCT025 32/27 Q1002 NOSIG,M
VABB,2022-05-09 11:30,87.80,78.80,74.77,280.00,7.00,0.00,29.59,M,3.11,17.00,FEW,SCT,M,M,2000.00,2500.00,M,M,HZ,M,M,M,M,M,M,102.37,VABB 091130Z 28007G17KT 5000 HZ FEW020 SCT025 31/26 Q1002 NOSIG,M
VABB,2022-05-09 12:00,87.80,78.80,74.77,290.00,9.00,0.00,29.59,M,3.11,M,FEW,SCT,M,M,2000.00,2500.00,M,M,HZ,M,M,M,M,M,M,102.37,VABB 091200Z 29009KT 5000 HZ FEW020 SCT025 31/26 Q1002 NOSIG,M
VABB,2022-05-09 12:30,87.80,78.80,74.77,300.00,11.00,0.00,29.59,M,3.11,M,FEW,SCT,M,M,2000.00,2500.00,M,M,HZ,M,M,M,M,M,M,102.37,VABB 091230Z 30011KT 5000 HZ FEW020 SCT025 31/26 Q1002 BECMG 4000 HZ,M
VABB,2022-05-09 13:00,87.80,80.60,79.31,290.00,10.00,0.00,29.59,M,2.49,M,FEW,SCT,M,M,2000.00,10000.00,M,M,HZ,M,M,M,M,M,M,105.14,VABB 091300Z 29010KT 4000 HZ FEW020 SCT100 31/27 Q1002 NOSIG,M
VABB,2022-05-09 13:30,86.00,80.60,83.99,280.00,11.00,0.00,29.62,M,2.49,M,FEW,SCT,M,M,2000.00,10000.00,M,M,HZ,M,M,M,M,M,M,101.90,VABB 091330Z 28011KT 4000 HZ FEW020 SCT100 30/27 Q1003 NOSIG,M
VABB,2022-05-09 14:00,86.00,80.60,83.99,280.00,9.00,0.00,29.62,M,2.17,M,FEW,SCT,M,M,2000.00,10000.00,M,M,HZ,M,M,M,M,M,M,101.90,VABB 091400Z 28009KT 3500 HZ FEW020 SCT100 30/27 Q1003 NOSIG,M
VABB,2022-05-09 14:30,86.00,80.60,83.99,280.00,8.00,0.00,29.65,M,2.17,M,FEW,SCT,M,M,2000.00,10000.00,M,M,HZ,M,M,M,M,M,M,101.90,VABB 091430Z 28008KT 3500 HZ FEW020 SCT100 30/27 Q1004 NOSIG,M
VABB,2022-05-09 15:00,86.00,80.60,83.99,290.00,8.00,0.00,29.65,M,2.17,M,FEW,SCT,M,M,2000.00,10000.00,M,M,HZ,M,M,M,M,M,M,101.90,VABB 091500Z 29008KT 3500 HZ FEW020 SCT100 30/27 Q1004 NOSIG,M
VABB,2022-05-09 15:30,86.00,80.60,83.99,280.00,10.00,0.00,29.65,M,2.17,M,FEW,SCT,M,M,2000.00,10000.00,M,M,HZ,M,M,M,M,M,M,101.90,VABB 091530Z 28010KT 3500 HZ FEW020 SCT100 30/27 Q1004 NOSIG,M
VABB,2022-05-09 16:00,86.00,80.60,83.99,280.00,8.00,0.00,29.65,M,2.17,M,FEW,SCT,M,M,2000.00,10000.00,M,M,HZ,M,M,M,M,M,M,101.90,VABB 091600Z 28008KT 3500 HZ FEW020 SCT100 30/27 Q1004 NOSIG,M
VABB,2022-05-09 16:30,86.00,80.60,83.99,280.00,6.00,0.00,29.65,M,2.17,M,SCT,M,M,M,2000.00,M,M,M,HZ,M,M,M,M,M,M,101.90,VABB 091630Z 28006KT 3500 HZ SCT020 30/27 Q1004 NOSIG,M
VABB,2022-05-09 17:00,86.00,80.60,83.99,290.00,6.00,0.00,29.65,M,2.17,M,SCT,M,M,M,2000.00,M,M,M,HZ,M,M,M,M,M,M,101.90,VABB 091700Z 29006KT 3500 HZ SCT020 30/27 Q1004 NOSIG,M
VABB,2022-05-09 17:30,86.00,80.60,83.99,280.00,8.00,0.00,29.65,M,2.17,M,SCT,SCT,M,M,2000.00,10000.00,M,M,HZ,M,M,M,M,M,M,101.90,VABB 091730Z 28008KT 3500 HZ SCT020 SCT100 30/27 Q1004 NOSIG,M
VABB,2022-05-09 18:00,86.00,80.60,83.99,300.00,6.00,0.00,29.65,M,2.17,M,SCT,SCT,M,M,2000.00,10000.00,M,M,HZ,M,M,M,M,M,M,101.90,VABB 091800Z 30006KT 3500 HZ SCT020 SCT100 30/27 Q1004 NOSIG,M
VABB,2022-05-09 18:30,86.00,78.80,79.18,300.00,7.00,0.00,29.65,M,2.17,M,SCT,SCT,M,M,2000.00,10000.00,M,M,HZ,M,M,M,M,M,M,99.38,VABB 091830Z 30007KT 3500 HZ SCT020 SCT100 30/26 Q1004 NOSIG,M
VABB,2022-05-09 19:00,86.00,80.60,83.99,280.00,8.00,0.00,29.65,M,2.17,M,SCT,SCT,M,M,2000.00,10000.00,M,M,HZ,M,M,M,M,M,M,101.90,VABB 091900Z 28008KT 3500 HZ SCT020 SCT100 30/27 Q1004 NOSIG,M
VABB,2022-05-09 19:30,86.00,78.80,79.18,300.00,8.00,0.00,29.65,M,2.17,M,SCT,SCT,M,M,2000.00,10000.00,M,M,HZ,M,M,M,M,M,M,99.38,VABB 091930Z 30008KT 3500 HZ SCT020 SCT100 30/26 Q1004 NOSIG,M
VABB,2022-05-09 20:00,86.00,80.60,83.99,290.00,7.00,0.00,29.62,M,2.17,M,SCT,SCT,M,M,2000.00,10000.00,M,M,HZ,M,M,M,M,M,M,101.90,VABB 092000Z 29007KT 3500 HZ SCT020 SCT100 30/27 Q1003 NOSIG,M
VABB,2022-05-09 20:30,86.00,78.80,79.18,300.00,7.00,0.00,29.62,M,2.17,M,SCT,SCT,M,M,2000.00,10000.00,M,M,HZ,M,M,M,M,M,M,99.38,VABB 092030Z 30007KT 3500 HZ SCT020 SCT100 30/26 Q1003 NOSIG,M
VABB,2022-05-09 21:00,86.00,78.80,79.18,300.00,6.00,0.00,29.62,M,2.17,M,SCT,SCT,M,M,2000.00,10000.00,M,M,HZ,M,M,M,M,M,M,99.38,VABB 092100Z 30006KT 3500 HZ SCT020 SCT100 30/26 Q1003 NOSIG,M
VABB,2022-05-09 21:30,86.00,78.80,79.18,330.00,5.00,0.00,29.62,M,2.17,M,SCT,SCT,M,M,2000.00,10000.00,M,M,HZ,M,M,M,M,M,M,99.38,VABB 092130Z 33005KT 3500 HZ SCT020 SCT100 30/26 Q1003 NOSIG,M
VABB,2022-05-09 22:00,86.00,78.80,79.18,320.00,5.00,0.00,29.62,M,2.17,M,SCT,SCT,M,M,2000.00,10000.00,M,M,HZ,M,M,M,M,M,M,99.38,VABB 092200Z 32005KT 3500 HZ SCT020 SCT100 30/26 Q1003 NOSIG,M
VABB,2022-05-09 22:30,86.00,78.80,79.18,330.00,5.00,0.00,29.62,M,2.17,M,FEW,SCT,M,M,2000.00,10000.00,M,M,HZ,M,M,M,M,M,M,99.38,VABB 092230Z 33005KT 3500 HZ FEW020 SCT100 30/26 Q1003 NOSIG,M
VABB,2022-05-09 23:00,86.00,78.80,79.18,300.00,4.00,0.00,29.62,M,2.17,M,FEW,SCT,M,M,2000.00,10000.00,M,M,HZ,M,M,M,M,M,M,99.38,VABB 092300Z 30004KT 3500 HZ FEW020 SCT100 30/26 Q1003 NOSIG,M
VABB,2022-05-09 23:30,86.00,78.80,79.18,350.00,4.00,0.00,29.62,M,2.17,M,FEW,SCT,M,M,2000.00,10000.00,M,M,HZ,M,M,M,M,M,M,99.38,VABB 092330Z 35004KT 3500 HZ FEW020 SCT100 30/26 Q1003 NOSIG,M
VABB,2022-05-10 00:00,86.00,78.80,79.18,10.00,4.00,0.00,29.62,M,2.17,M,FEW,SCT,M,M,2000.00,10000.00,M,M,HZ,M,M,M,M,M,M,99.38,VABB 100000Z 01004KT 3500 HZ FEW020 SCT100 30/26 Q1003 BECMG 3000 HZ,M
VABB,2022-05-10 00:30,86.00,78.80,79.18,30.00,4.00,0.00,29.62,M,1.86,M,FEW,SCT,M,M,2000.00,10000.00,M,M,HZ,M,M,M,M,M,M,99.38,VABB 100030Z 03004KT 3000 HZ FEW020 SCT100 30/26 Q1003 NOSIG,M
VABB,2022-05-10 01:00,86.00,78.80,79.18,70.00,3.00,0.00,29.65,M,1.86,M,FEW,BKN,M,M,2000.00,10000.00,M,M,HZ,M,M,M,M,M,M,99.38,VABB 100100Z 07003KT 3000 HZ FEW020 BKN100 30/26 Q1004 NOSIG,M
VABB,2022-05-10 01:30,86.00,78.80,79.18,330.00,4.00,0.00,29.65,M,1.86,M,FEW,BKN,M,M,2000.00,10000.00,M,M,HZ,M,M,M,M,M,M,99.38,VABB 100130Z 33004KT 3000 HZ FEW020 BKN100 30/26 Q1004 NOSIG,M
VABB,2022-05-10 02:00,86.00,78.80,79.18,320.00,5.00,0.00,29.68,M,1.86,M,FEW,BKN,M,M,2000.00,10000.00,M,M,HZ,M,M,M,M,M,M,99.38,VABB 100200Z 32005KT 3000 HZ FEW020 BKN100 30/26 Q1005 NOSIG,M
VABB,2022-05-10 02:30,86.00,78.80,79.18,310.00,6.00,0.00,29.68,M,1.86,M,SCT,BKN,M,M,2000.00,10000.00,M,M,HZ,M,M,M,M,M,M,99.38,VABB 100230Z 31006KT 3000 HZ SCT020 BKN100 30/26 Q1005 NOSIG,M
VABB,2022-05-10 03:00,87.80,78.80,74.77,330.00,5.00,0.00,29.71,M,1.86,M,SCT,BKN,M,M,2000.00,10000.00,M,M,HZ,M,M,M,M,M,M,102.37,VABB 100300Z 33005KT 3000 HZ SCT020 BKN100 31/26 Q1006 NOSIG,M
VABB,2022-05-10 03:30,87.80,78.80,74.77,330.00,6.00,0.00,29.71,M,1.86,M,SCT,BKN,M,M,2000.00,10000.00,M,M,HZ,M,M,M,M,M,M,102.37,VABB 100330Z 33006KT 3000 HZ SCT020 BKN100 31/26 Q1006 NOSIG,M
VABB,2022-05-10 04:00,87.80,78.80,74.77,300.00,5.00,0.00,29.71,M,1.86,M,SCT,SCT,BKN,M,2000.00,2500.00,10000.00,M,HZ,M,M,M,M,M,M,102.37,VABB 100400Z 30005KT 3000 HZ SCT020 SCT025 BKN100 31/26 Q1006 NOSIG,M
VABB,2022-05-10 04:30,89.60,77.00,66.55,300.00,7.00,0.00,29.71,M,1.86,M,SCT,SCT,BKN,M,2000.00,2500.00,10000.00,M,HZ,M,M,M,M,M,M,102.54,VABB 100430Z 30007KT 3000 HZ SCT020 SCT025 BKN100 32/25 Q1006 NOSIG,M
VABB,2022-05-10 05:00,89.60,78.80,70.63,280.00,9.00,0.00,29.68,M,1.86,M,FEW,SCT,BKN,M,2000.00,2500.00,10000.00,M,HZ,M,M,M,M,M,M,105.15,VABB 100500Z 28009KT 3000 HZ FEW020 SCT025 BKN100 32/26 Q1005 NOSIG,M
VABB,2022-05-10 05:30,89.60,77.00,66.55,290.00,9.00,0.00,29.68,M,1.86,M,FEW,SCT,BKN,M,2000.00,2500.00,10000.00,M,HZ,M,M,M,M,M,M,102.54,VABB 100530Z 29009KT 3000 HZ FEW020 SCT025 BKN100 32/25 Q1005 NOSIG,M
VABB,2022-05-10 06:00,89.60,78.80,70.63,260.00,12.00,0.00,29.68,M,2.17,M,FEW,SCT,M,M,2000.00,2500.00,M,M,HZ,M,M,M,M,M,M,105.15,VABB 100600Z 26012KT 3500 HZ FEW020 SCT025 32/26 Q1005 NOSIG,M
VABB,2022-05-10 06:30,89.60,78.80,70.63,270.00,7.00,0.00,29.68,M,2.17,17.00,FEW,SCT,M,M,2000.00,2500.00,M,M,HZ,M,M,M,M,M,M,105.15,VABB 100630Z 27007G17KT 3500 HZ FEW020 SCT025 32/26 Q1005 NOSIG,M
VABB,2022-05-10 07:00,89.60,78.80,70.63,260.00,12.00,0.00,29.65,M,2.49,M,FEW,SCT,M,M,2000.00,2500.00,M,M,HZ,M,M,M,M,M,M,105.15,VABB 100700Z 26012KT 4000 HZ FEW020 SCT025 32/26 Q1004 NOSIG,M
VABB,2022-05-10 07:30,89.60,78.80,70.63,280.00,13.00,0.00,29.65,M,2.49,M,SCT,BKN,M,M,2000.00,10000.00,M,M,HZ,M,M,M,M,M,M,105.15,VABB 100730Z 28013KT 4000 HZ SCT020 BKN100 32/26 Q1004 NOSIG,M
VABB,2022-05-10 08:00,89.60,78.80,70.63,270.00,11.00,0.00,29.65,M,2.49,M,SCT,BKN,M,M,2000.00,10000.00,M,M,HZ,M,M,M,M,M,M,105.15,VABB 100800Z 27011KT 4000 HZ SCT020 BKN100 32/26 Q1004 NOSIG,M
VABB,2022-05-10 08:30,89.60,78.80,70.63,280.00,14.00,0.00,29.62,M,2.49,M,SCT,BKN,M,M,2000.00,10000.00,M,M,HZ,M,M,M,M,M,M,105.15,VABB 100830Z 28014KT 4000 HZ SCT020 BKN100 32/26 Q1003 NOSIG,M
VABB,2022-05-10 09:00,89.60,78.80,70.63,270.00,8.00,0.00,29.62,M,2.49,18.00,SCT,BKN,M,M,2000.00,10000.00,M,M,HZ,M,M,M,M,M,M,105.15,VABB 100900Z 27008G18KT 4000 HZ SCT020 BKN100 32/26 Q1003 NOSIG,M
VABB,2022-05-10 09:30,89.60,78.80,70.63,270.00,10.00,0.00,29.62,M,2.49,20.00,SCT,BKN,M,M,2000.00,10000.00,M,M,HZ,M,M,M,M,M,M,105.15,VABB 100930Z 27010G20KT 4000 HZ SCT020 BKN100 32/26 Q1003 NOSIG,M
VABB,2022-05-10 10:00,89.60,78.80,70.63,270.00,8.00,0.00,29.59,M,2.49,18.00,SCT,BKN,M,M,2000.00,10000.00,M,M,HZ,M,M,M,M,M,M,105.15,VABB 101000Z 27008G18KT 4000 HZ SCT020 BKN100 32/26 Q1002 NOSIG,M
VABB,2022-05-10 10:30,87.80,78.80,74.77,260.00,8.00,0.00,29.59,M,2.49,18.00,SCT,BKN,M,M,2000.00,10000.00,M,M,HZ,M,M,M,M,M,M,102.37,VABB 101030Z 26008G18KT 4000 HZ SCT020 BKN100 31/26 Q1002 NOSIG,M
VABB,2022-05-10 11:00,87.80,77.00,70.45,260.00,14.00,0.00,29.59,M,2.49,M,SCT,BKN,M,M,2000.00,10000.00,M,M,HZ,M,M,M,M,M,M,99.92,VABB 101100Z 26014KT 4000 HZ SCT020 BKN100 31/25 Q1002 NOSIG,M
VABB,2022-05-10 11:30,87.80,78.80,74.77,260.00,13.00,0.00,29.59,M,2.49,M,SCT,BKN,M,M,2000.00,10000.00,M,M,HZ,M,M,M,M,M,M,102.37,VABB 101130Z 26013KT 4000 HZ SCT020 BKN100 31/26 Q1002 NOSIG,M
VABB,2022-05-10 12:00,87.80,78.80,74.77,280.00,10.00,0.00,29.59,M,2.49,M,SCT,BKN,M,M,2000.00,10000.00,M,M,HZ,M,M,M,M,M,M,102.37,VABB 101200Z 28010KT 4000 HZ SCT020 BKN100 31/26 Q1002 NOSIG,M
VABB,2022-05-10 12:30,87.80,78.80,74.77,280.00,9.00,0.00,29.59,M,2.49,M,SCT,BKN,M,M,2000.00,10000.00,M,M,HZ,M,M,M,M,M,M,102.37,VABB 101230Z 28009KT 4000 HZ SCT020 BKN100 31/26 Q1002 NOSIG,M
VABB,2022-05-10 13:00,86.00,78.80,79.18,270.00,12.00,0.00,29.62,M,2.49,M,SCT,BKN,M,M,2000.00,10000.00,M,M,HZ,M,M,M,M,M,M,99.38,VABB 101300Z 27012KT 4000 HZ SCT020 BKN100 30/26 Q1003 NOSIG,M
VABB,2022-05-10 13:30,86.00,78.80,79.18,280.00,10.00,0.00,29.62,M,2.49,M,SCT,BKN,M,M,2000.00,10000.00,M,M,HZ,M,M,M,M,M,M,99.38,VABB 101330Z 28010KT 4000 HZ SCT020 BKN100 30/26 Q1003 NOSIG,M
VABB,2022-05-10 14:00,86.00,78.80,79.18,300.00,5.00,0.00,29.62,M,2.17,M,SCT,BKN,M,M,2000.00,10000.00,M,M,HZ,M,M,M,M,M,M,99.38,VABB 101400Z 30005KT 3500 HZ SCT020 BKN100 30/26 Q1003 NOSIG,M
VABB,2022-05-10 14:30,86.00,78.80,79.18,300.00,6.00,0.00,29.62,M,2.17,M,SCT,BKN,M,M,2000.00,10000.00,M,M,HZ,M,M,M,M,M,M,99.38,VABB 101430Z 30006KT 3500 HZ SCT020 BKN100 30/26 Q1003 NOSIG,M
VABB,2022-05-10 15:00,84.20,78.80,83.88,270.00,7.00,0.00,29.62,M,2.17,M,SCT,BKN,M,M,2000.00,10000.00,M,M,HZ,M,M,M,M,M,M,96.10,VABB 101500Z 27007KT 3500 HZ SCT020 BKN100 29/26 Q1003 NOSIG,M
VABB,2022-05-10 15:30,86.00,78.80,79.18,270.00,7.00,0.00,29.65,M,2.17,M,SCT,SCT,M,M,2000.00,10000.00,M,M,HZ,M,M,M,M,M,M,99.38,VABB 101530Z 27007KT 3500 HZ SCT020 SCT100 30/26 Q1004 NOSIG,M
VABB,2022-05-10 16:00,86.00,78.80,79.18,280.00,7.00,0.00,29.65,M,2.17,M,SCT,M,M,M,2000.00,M,M,M,HZ,M,M,M,M,M,M,99.38,VABB 101600Z 28007KT 3500 HZ SCT020 30/26 Q1004 NOSIG,M
VABB,2022-05-10 16:30,86.00,78.80,79.18,300.00,6.00,0.00,29.65,M,2.17,M,SCT,M,M,M,2000.00,M,M,M,HZ,M,M,M,M,M,M,99.38,VABB 101630Z 30006KT 3500 HZ SCT020 30/26 Q1004 NOSIG,M
VABB,2022-05-10 17:00,86.00,78.80,79.18,290.00,6.00,0.00,29.65,M,2.17,M,SCT,M,M,M,2000.00,M,M,M,HZ,M,M,M,M,M,M,99.38,VABB 101700Z 29006KT 3500 HZ SCT020 30/26 Q1004 NOSIG,M
VABB,2022-05-10 17:30,86.00,78.80,79.18,300.00,5.00,0.00,29.65,M,2.17,M,SCT,M,M,M,2000.00,M,M,M,HZ,M,M,M,M,M,M,99.38,VABB 101730Z 30005KT 3500 HZ SCT020 30/26 Q1004 NOSIG,M
VABB,2022-05-10 18:00,86.00,78.80,79.18,280.00,7.00,0.00,29.62,M,2.17,M,SCT,M,M,M,2000.00,M,M,M,HZ,M,M,M,M,M,M,99.38,VABB 101800Z 28007KT 3500 HZ SCT020 30/26 Q1003 NOSIG,M
VABB,2022-05-10 18:30,86.00,78.80,79.18,310.00,4.00,0.00,29.62,M,2.17,M,FEW,SCT,M,M,2000.00,2500.00,M,M,HZ,M,M,M,M,M,M,99.38,VABB 101830Z 31004KT 3500 HZ FEW020 SCT025 30/26 Q1003 NOSIG,M
VABB,2022-05-10 19:00,86.00,78.80,79.18,330.00,5.00,0.00,29.62,M,2.17,M,FEW,SCT,M,M,2000.00,2500.00,M,M,HZ,M,M,M,M,M,M,99.38,VABB 101900Z 33005KT 3500 HZ FEW020 SCT025 30/26 Q1003 NOSIG,M
VABB,2022-05-10 19:30,86.00,78.80,79.18,290.00,5.00,0.00,29.62,M,2.17,M,SCT,SCT,M,M,2000.00,10000.00,M,M,HZ,M,M,M,M,M,M,99.38,VABB 101930Z 29005KT 3500 HZ SCT020 SCT100 30/26 Q1003 NOSIG,M
VABB,2022-05-10 20:00,86.00,78.80,79.18,350.00,3.00,0.00,29.59,M,2.17,M,SCT,SCT,M,M,2000.00,10000.00,M,M,HZ,M,M,M,M,M,M,99.38,VABB 102000Z 35003KT 3500 HZ SCT020 SCT100 30/26 Q1002 NOSIG,M
VABB,2022-05-10 20:30,84.20,78.80,83.88,340.00,4.00,0.00,29.59,M,2.17,M,SCT,SCT,M,M,2000.00,10000.00,M,M,HZ,M,M,M,M,M,M,96.10,VABB 102030Z 34004KT 3500 HZ SCT020 SCT100 29/26 Q1002 NOSIG,M
VABB,2022-05-10 21:00,84.20,78.80,83.88,360.00,3.00,0.00,29.59,M,2.17,M,SCT,SCT,M,M,2000.00,10000.00,M,M,HZ,M,M,M,M,M,M,96.10,VABB 102100Z 36003KT 3500 HZ SCT020 SCT100 29/26 Q1002 NOSIG,M
VABB,2022-05-10 21:30,84.20,78.80,83.88,30.00,5.00,0.00,29.59,M,2.17,M,SCT,SCT,M,M,2000.00,10000.00,M,M,HZ,M,M,M,M,M,M,96.10,VABB 102130Z 03005KT 3500 HZ SCT020 SCT100 29/26 Q1002 NOSIG,M
VABB,2022-05-10 22:00,84.20,78.80,83.88,0.00,0.00,0.00,29.59,M,2.17,M,SCT,SCT,M,M,2000.00,10000.00,M,M,HZ,M,M,M,M,M,M,96.10,VABB 102200Z 00000KT 3500 HZ SCT020 SCT100 29/26 Q1002 NOSIG,M
VABB,2022-05-10 22:30,84.20,78.80,83.88,290.00,4.00,0.00,29.59,M,2.17,M,SCT,SCT,M,M,2000.00,10000.00,M,M,HZ,M,M,M,M,M,M,96.10,VABB 102230Z 29004KT 3500 HZ SCT020 SCT100 29/26 Q1002 NOSIG,M
VABB,2022-05-10 23:00,84.20,78.80,83.88,300.00,3.00,0.00,29.59,M,2.17,M,SCT,SCT,M,M,2000.00,10000.00,M,M,HZ,M,M,M,M,M,M,96.10,VABB 102300Z 30003KT 3500 HZ SCT020 SCT100 29/26 Q1002 NOSIG,M
VABB,2022-05-10 23:30,84.20,78.80,83.88,310.00,3.00,0.00,29.59,M,2.17,M,SCT,SCT,M,M,2000.00,10000.00,M,M,HZ,M,M,M,M,M,M,96.10,VABB 102330Z 31003KT 3500 HZ SCT020 SCT100 29/26 Q1002 NOSIG,M
VABB,2022-05-11 00:00,84.20,78.80,83.88,310.00,4.00,0.00,29.59,M,2.17,M,SCT,SCT,M,M,2000.00,10000.00,M,M,HZ,M,M,M,M,M,M,96.10,VABB 110000Z 31004KT 3500 HZ SCT020 SCT100 29/26 Q1002 NOSIG,M
VABB,2022-05-11 00:30,84.20,78.80,83.88,260.00,3.00,0.00,29.62,M,2.17,M,SCT,BKN,M,M,2000.00,10000.00,M,M,HZ,M,M,M,M,M,M,96.10,VABB 110030Z 26003KT 3500 HZ SCT020 BKN100 29/26 Q1003 NOSIG,M
VABB,2022-05-11 01:00,86.00,78.80,79.18,250.00,4.00,0.00,29.62,M,2.49,M,SCT,BKN,M,M,2000.00,10000.00,M,M,HZ,M,M,M,M,M,M,99.38,VABB 110100Z 25004KT 4000 HZ SCT020 BKN100 30/26 Q1003 NOSIG,M
VABB,2022-05-11 01:30,86.00,78.80,79.18,220.00,4.00,0.00,29.65,M,2.49,M,FEW,SCT,BKN,M,2000.00,2500.00,10000.00,M,HZ,M,M,M,M,M,M,99.38,VABB 110130Z 22004KT 4000 HZ FEW020 SCT025 BKN100 30/26 Q1004 NOSIG,M
VABB,2022-05-11 02:00,86.00,78.80,79.18,250.00,5.00,0.00,29.65,M,2.49,M,FEW,SCT,BKN,M,2000.00,2500.00,10000.00,M,HZ,M,M,M,M,M,M,99.38,VABB 110200Z 25005KT 4000 HZ FEW020 SCT025 BKN100 30/26 Q1004 NOSIG,M
VABB,2022-05-11 02:30,86.00,78.80,79.18,290.00,4.00,0.00,29.65,M,2.49,M,FEW,SCT,BKN,M,2000.00,2500.00,10000.00,M,HZ,M,M,M,M,M,M,99.38,VABB 110230Z 29004KT 4000 HZ FEW020 SCT025 BKN100 30/26 Q1004 NOSIG,M
VABB,2022-05-11 03:00,86.00,78.80,79.18,270.00,6.00,0.00,29.68,M,2.49,M,FEW,SCT,BKN,M,2000.00,2500.00,10000.00,M,HZ,M,M,M,M,M,M,99.38,VABB 110300Z 27006KT 4000 HZ FEW020 SCT025 BKN100 30/26 Q1005 NOSIG,M
VABB,2022-05-11 03:30,86.00,78.80,79.18,290.00,5.00,0.00,29.68,M,2.49,M,FEW,SCT,BKN,M,2000.00,2500.00,10000.00,M,HZ,M,M,M,M,M,M,99.38,VABB 110330Z 29005KT 4000 HZ FEW020 SCT025 BKN100 30/26 Q1005 NOSIG,M
VABB,2022-05-11 04:00,86.00,78.80,79.18,270.00,5.00,0.00,29.68,M,2.49,M,FEW,SCT,BKN,M,2000.00,2500.00,10000.00,M,HZ,M,M,M,M,M,M,99.38,VABB 110400Z 27005KT 4000 HZ FEW020 SCT025 BKN100 30/26 Q1005 NOSIG,M
VABB,2022-05-11 04:30,87.80,78.80,74.77,280.00,7.00,0.00,29.68,M,2.49,M,FEW,SCT,BKN,M,2000.00,2500.00,10000.00,M,HZ,M,M,M,M,M,M,102.37,VABB 110430Z 28007KT 4000 HZ FEW020 SCT025 BKN100 31/26 Q1005 NOSIG,M
VABB,2022-05-11 05:00,87.80,78.80,74.77,280.00,4.00,0.00,29.68,M,2.49,M,FEW,SCT,BKN,M,2000.00,2500.00,10000.00,M,HZ,M,M,M,M,M,M,102.37,VABB 110500Z 28004KT 4000 HZ FEW020 SCT025 BKN100 31/26 Q1005 NOSIG,M
VABB,2022-05-11 05:30,89.60,78.80,70.63,260.00,8.00,0.00,29.68,M,2.49,M,FEW,SCT,BKN,M,2000.00,2500.00,10000.00,M,HZ,M,M,M,M,M,M,105.15,VABB 110530Z 26008KT 4000 HZ FEW020 SCT025 BKN100 32/26 Q1005 NOSIG,M
VABB,2022-05-11 06:00,89.60,78.80,70.63,260.00,6.00,0.00,29.68,M,2.49,M,FEW,SCT,BKN,M,2000.00,2500.00,10000.00,M,HZ,M,M,M,M,M,M,105.15,VABB 110600Z 26006KT 4000 HZ FEW020 SCT025 BKN100 32/26 Q1005 NOSIG,M
VABB,2022-05-11 06:30,89.60,78.80,70.63,250.00,10.00,0.00,29.68,M,2.49,M,FEW,SCT,BKN,M,2000.00,2500.00,10000.00,M,HZ,M,M,M,M,M,M,105.15,VABB 110630Z 25010KT 4000 HZ FEW020 SCT025 BKN100 32/26 Q1005 NOSIG,M
VABB,2022-05-11 07:00,89.60,78.80,70.63,270.00,9.00,0.00,29.65,M,2.49,M,FEW,SCT,BKN,M,2000.00,2500.00,10000.00,M,HZ,M,M,M,M,M,M,105.15,VABB 110700Z 27009KT 4000 HZ FEW020 SCT025 BKN100 32/26 Q1004 NOSIG,M
VABB,2022-05-11 07:30,89.60,78.80,70.63,260.00,10.00,0.00,29.65,M,2.49,M,FEW,BKN,M,M,2000.00,10000.00,M,M,HZ,M,M,M,M,M,M,105.15,VABB 110730Z 26010KT 4000 HZ FEW020 BKN100 32/26 Q1004 NOSIG,M
VABB,2022-05-11 08:00,89.60,78.80,70.63,240.00,11.00,0.00,29.65,M,2.49,M,SCT,BKN,M,M,2000.00,10000.00,M,M,HZ,M,M,M,M,M,M,105.15,VABB 110800Z 24011KT 4000 HZ SCT020 BKN100 32/26 Q1004 NOSIG,M
VABB,2022-05-11 08:30,89.60,78.80,70.63,240.00,13.00,0.00,29.62,M,2.49,M,SCT,BKN,M,M,2000.00,10000.00,M,M,HZ,M,M,M,M,M,M,105.15,VABB 110830Z 24013KT 4000 HZ SCT020 BKN100 32/26 Q1003 NOSIG,M
VABB,2022-05-11 09:00,89.60,78.80,70.63,240.00,11.00,0.00,29.62,M,2.49,M,SCT,SCT,BKN,M,2000.00,2500.00,10000.00,M,HZ,M,M,M,M,M,M,105.15,VABB 110900Z 24011KT 4000 HZ SCT020 SCT025 BKN100 32/26 Q1003 NOSIG,M
VABB,2022-05-11 09:30,89.60,78.80,70.63,280.00,11.00,0.00,29.62,M,2.49,M,SCT,SCT,BKN,M,2000.00,2500.00,10000.00,M,HZ,M,M,M,M,M,M,105.15,VABB 110930Z 28011KT 4000 HZ SCT020 SCT025 BKN100 32/26 Q1003 NOSIG,M
VABB,2022-05-11 10:00,87.80,80.60,79.31,240.00,8.00,0.00,29.59,M,2.49,18.00,SCT,SCT,BKN,M,2000.00,2500.00,10000.00,M,HZ,M,M,M,M,M,M,105.14,VABB 111000Z 24008G18KT 4000 HZ SCT020 SCT025 BKN100 31/27 Q1002 NOSIG,M
VABB,2022-05-11 10:30,89.60,78.80,70.63,270.00,11.00,0.00,29.59,M,2.49,M,SCT,SCT,BKN,M,2000.00,2500.00,10000.00,M,HZ,M,M,M,M,M,M,105.15,VABB 111030Z 27011KT 4000 HZ SCT020 SCT025 BKN100 32/26 Q1002 NOSIG,M
VABB,2022-05-11 11:00,87.80,78.80,74.77,250.00,12.00,0.00,29.59,M,2.49,M,SCT,SCT,M,M,2000.00,2500.00,M,M,HZ,M,M,M,M,M,M,102.37,VABB 111100Z 25012KT 4000 HZ SCT020 SCT025 31/26 Q1002 NOSIG,M
VABB,2022-05-11 11:30,87.80,78.80,74.77,240.00,11.00,0.00,29.59,M,2.49,M,SCT,SCT,M,M,2000.00,2500.00,M,M,HZ,M,M,M,M,M,M,102.37,VABB 111130Z 24011KT 4000 HZ SCT020 SCT025 31/26 Q1002 NOSIG,M
VABB,2022-05-11 12:00,87.80,78.80,74.77,230.00,11.00,0.00,29.59,M,2.49,M,SCT,SCT,M,M,2000.00,2500.00,M,M,HZ,M,M,M,M,M,M,102.37,VABB 111200Z 23011KT 4000 HZ SCT020 SCT025 31/26 Q1002 NOSIG,M
VABB,2022-05-11 12:30,87.80,78.80,74.77,260.00,10.00,0.00,29.59,M,2.49,M,SCT,SCT,M,M,2000.00,2500.00,M,M,HZ,M,M,M,M,M,M,102.37,VABB 111230Z 26010KT 4000 HZ SCT020 SCT025 31/26 Q1002 NOSIG,M
VABB,2022-05-11 13:00,87.80,78.80,74.77,250.00,11.00,0.00,29.62,M,2.17,M,SCT,SCT,M,M,2000.00,2500.00,M,M,HZ,M,M,M,M,M,M,102.37,VABB 111300Z 25011KT 3500 HZ SCT020 SCT025 31/26 Q1003 NOSIG,M
VABB,2022-05-11 13:30,86.00,78.80,79.18,240.00,9.00,0.00,29.62,M,2.17,M,SCT,SCT,M,M,2000.00,2500.00,M,M,HZ,M,M,M,M,M,M,99.38,VABB 111330Z 24009KT 3500 HZ SCT020 SCT025 30/26 Q1003 BECMG 3000 HZ,M
VABB,2022-05-11 14:00,86.00,78.80,79.18,230.00,7.00,0.00,29.62,M,1.86,M,FEW,SCT,M,M,2000.00,10000.00,M,M,HZ,M,M,M,M,M,M,99.38,VABB 111400Z 23007KT 3000 HZ FEW020 SCT100 30/26 Q1003 NOSIG,M
VABB,2022-05-11 14:30,86.00,78.80,79.18,240.00,10.00,0.00,29.65,M,1.86,M,SCT,SCT,M,M,2000.00,10000.00,M,M,HZ,M,M,M,M,M,M,99.38,VABB 111430Z 24010KT 3000 HZ SCT020 SCT100 30/26 Q1004 NOSIG,M
VABB,2022-05-11 15:00,86.00,78.80,79.18,250.00,8.00,0.00,29.65,M,1.86,M,SCT,SCT,M,M,2000.00,10000.00,M,M,HZ,M,M,M,M,M,M,99.38,VABB 111500Z 25008KT 3000 HZ SCT020 SCT100 30/26 Q1004 NOSIG,M
VABB,2022-05-11 15:30,86.00,78.80,79.18,250.00,10.00,0.00,29.65,M,1.86,M,SCT,M,M,M,2000.00,M,M,M,HZ,M,M,M,M,M,M,99.38,VABB 111530Z 25010KT 3000 HZ SCT020 30/26 Q1004 NOSIG,M
VABB,2022-05-11 16:00,86.00,78.80,79.18,250.00,9.00,0.00,29.65,M,1.86,M,SCT,M,M,M,2000.00,M,M,M,HZ,M,M,M,M,M,M,99.38,VABB 111600Z 25009KT 3000 HZ SCT020 30/26 Q1004 NOSIG,M
VABB,2022-05-11 16:30,86.00,78.80,79.18,260.00,9.00,0.00,29.68,M,1.86,M,SCT,M,M,M,2000.00,M,M,M,HZ,M,M,M,M,M,M,99.38,VABB 111630Z 26009KT 3000 HZ SCT020 30/26 Q1005 NOSIG,M
VABB,2022-05-11 17:00,86.00,78.80,79.18,240.00,10.00,0.00,29.68,M,1.86,M,SCT,M,M,M,2000.00,M,M,M,HZ,M,M,M,M,M,M,99.38,VABB 111700Z 24010KT 3000 HZ SCT020 30/26 Q1005 NOSIG,M
VABB,2022-05-11 17:30,86.00,78.80,79.18,230.00,6.00,0.00,29.68,M,1.86,M,SCT,M,M,M,2000.00,M,M,M,HZ,M,M,M,M,M,M,99.38,VABB 111730Z 23006KT 3000 HZ SCT020 30/26 Q1005 NOSIG,M
VABB,2022-05-11 18:00,86.00,78.80,79.18,230.00,7.00,0.00,29.65,M,1.86,M,SCT,M,M,M,2000.00,M,M,M,HZ,M,M,M,M,M,M,99.38,VABB 111800Z 23007KT 3000 HZ SCT020 30/26 Q1004 NOSIG,M
VABB,2022-05-11 18:30,86.00,78.80,79.18,220.00,7.00,0.00,29.65,M,1.86,M,SCT,M,M,M,2000.00,M,M,M,HZ,M,M,M,M,M,M,99.38,VABB 111830Z 22007KT 3000 HZ SCT020 30/26 Q1004 NOSIG,M
VABB,2022-05-11 19:00,86.00,78.80,79.18,230.00,6.00,0.00,29.65,M,1.86,M,SCT,M,M,M,2000.00,M,M,M,HZ,M,M,M,M,M,M,99.38,VABB 111900Z 23006KT 3000 HZ SCT020 30/26 Q1004 NOSIG,M
VABB,2022-05-11 19:30,86.00,78.80,79.18,230.00,8.00,0.00,29.65,M,1.86,M,SCT,M,M,M,2000.00,M,M,M,HZ,M,M,M,M,M,M,99.38,VABB 111930Z 23008KT 3000 HZ SCT020 30/26 Q1004 NOSIG,M
VABB,2022-05-11 20:00,86.00,78.80,79.18,230.00,8.00,0.00,29.62,M,1.86,M,SCT,M,M,M,2000.00,M,M,M,HZ,M,M,M,M,M,M,99.38,VABB 112000Z 23008KT 3000 HZ SCT020 30/26 Q1003 NOSIG,M
VABB,2022-05-11 20:30,86.00,78.80,79.18,240.00,8.00,0.00,29.62,M,1.86,M,SCT,M,M,M,2000.00,M,M,M,HZ,M,M,M,M,M,M,99.38,VABB 112030Z 24008KT 3000 HZ SCT020 30/26 Q1003 NOSIG,M
VABB,2022-05-11 21:00,86.00,78.80,79.18,240.00,7.00,0.00,29.62,M,1.86,M,SCT,M,M,M,2000.00,M,M,M,HZ,M,M,M,M,M,M,99.38,VABB 112100Z 24007KT 3000 HZ SCT020 30/26 Q1003 NOSIG,M
VABB,2022-05-11 21:30,86.00,78.80,79.18,210.00,6.00,0.00,29.62,M,1.86,M,FEW,M,M,M,2000.00,M,M,M,HZ,M,M,M,M,M,M,99.38,VABB 112130Z 21006KT 3000 HZ FEW020 30/26 Q1003 NOSIG,M
VABB,2022-05-11 22:00,84.20,78.80,83.88,230.00,5.00,0.00,29.62,M,1.86,M,FEW,SCT,M,M,2000.00,10000.00,M,M,HZ,M,M,M,M,M,M,96.10,VABB 112200Z 23005KT 3000 HZ FEW020 SCT100 29/26 Q1003 NOSIG,M
VABB,2022-05-11 22:30,84.20,78.80,83.88,220.00,6.00,0.00,29.62,M,1.86,M,FEW,SCT,M,M,2000.00,10000.00,M,M,HZ,M,M,M,M,M,M,96.10,VABB 112230Z 22006KT 3000 HZ FEW020 SCT100 29/26 Q1003 NOSIG,M
VABB,2022-05-11 23:00,86.00,78.80,79.18,240.00,5.00,0.00,29.62,M,1.86,M,FEW,SCT,M,M,2000.00,10000.00,M,M,HZ,M,M,M,M,M,M,99.38,VABB 112300Z 24005KT 3000 HZ FEW020 SCT100 30/26 Q1003 NOSIG,M
VABB,2022-05-11 23:30,84.20,78.80,83.88,210.00,6.00,0.00,29.65,M,1.86,M,FEW,SCT,M,M,2000.00,10000.00,M,M,HZ,M,M,M,M,M,M,96.10,VABB 112330Z 21006KT 3000 HZ FEW020 SCT100 29/26 Q1004 NOSIG,M
VABB,2022-05-12 00:00,86.00,78.80,79.18,200.00,7.00,0.00,29.65,M,1.86,M,SCT,SCT,M,M,2000.00,10000.00,M,M,HZ,M,M,M,M,M,M,99.38,VABB 120000Z 20007KT 3000 HZ SCT020 SCT100 30/26 Q1004 NOSIG,M
VABB,2022-05-12 00:30,86.00,78.80,79.18,210.00,5.00,0.00,29.65,M,1.86,M,SCT,SCT,M,M,2000.00,10000.00,M,M,HZ,M,M,M,M,M,M,99.38,VABB 120030Z 21005KT 3000 HZ SCT020 SCT100 30/26 Q1004 NOSIG,M
VABB,2022-05-12 01:00,86.00,78.80,79.18,230.00,7.00,0.00,29.68,M,2.17,M,FEW,SCT,BKN,M,2000.00,2500.00,10000.00,M,HZ,M,M,M,M,M,M,99.38,VABB 120100Z 23007KT 3500 HZ FEW020 SCT025 BKN100 30/26 Q1005 NOSIG,M
VABB,2022-05-12 01:30,86.00,78.80,79.18,230.00,7.00,0.00,29.68,M,2.17,M,FEW,SCT,BKN,M,2000.00,2500.00,10000.00,M,HZ,M,M,M,M,M,M,99.38,VABB 120130Z 23007KT 3500 HZ FEW020 SCT025 BKN100 30/26 Q1005 NOSIG,M
VABB,2022-05-12 02:00,86.00,78.80,79.18,220.00,9.00,0.00,29.71,M,2.17,M,FEW,SCT,BKN,M,2000.00,2500.00,10000.00,M,HZ,M,M,M,M,M,M,99.38,VABB 120200Z 22009KT 3500 HZ FEW020 SCT025 BKN100 30/26 Q1006 NOSIG,M
VABB,2022-05-12 02:30,86.00,78.80,79.18,230.00,8.00,0.00,29.71,M,2.17,M,FEW,SCT,BKN,M,2000.00,2500.00,10000.00,M,HZ,M,M,M,M,M,M,99.38,VABB 120230Z 23008KT 3500 HZ FEW020 SCT025 BKN100 30/26 Q1006 BECMG 3000 HZ,M
VABB,2022-05-12 03:00,86.00,78.80,79.18,220.00,9.00,0.00,29.71,M,1.86,M,FEW,SCT,BKN,M,2000.00,2500.00,10000.00,M,HZ,M,M,M,M,M,M,99.38,VABB 120300Z 22009KT 3000 HZ FEW020 SCT025 BKN100 30/26 Q1006 NOSIG,M
VABB,2022-05-12 03:30,87.80,78.80,74.77,210.00,10.00,0.00,29.71,M,1.86,M,FEW,SCT,BKN,M,2000.00,2500.00,10000.00,M,HZ,M,M,M,M,M,M,102.37,VABB 120330Z 21010KT 3000 HZ FEW020 SCT025 BKN100 31/26 Q1006 NOSIG,M
VABB,2022-05-12 04:00,87.80,78.80,74.77,210.00,9.00,0.00,29.74,M,1.86,M,FEW,SCT,BKN,M,2000.00,2500.00,10000.00,M,HZ,M,M,M,M,M,M,102.37,VABB 120400Z 21009KT 3000 HZ FEW020 SCT025 BKN100 31/26 Q1007 NOSIG,M
VABB,2022-05-12 04:30,89.60,78.80,70.63,230.00,10.00,0.00,29.71,M,1.86,20.00,FEW,SCT,BKN,M,2000.00,2500.00,10000.00,M,HZ,M,M,M,M,M,M,105.15,VABB 120430Z 23010G20KT 3000 HZ FEW020 SCT025 BKN100 32/26 Q1006 NOSIG,M
VABB,2022-05-12 05:00,89.60,78.80,70.63,240.00,8.00,0.00,29.71,M,1.86,18.00,FEW,SCT,BKN,M,2000.00,2500.00,10000.00,M,HZ,M,M,M,M,M,M,105.15,VABB 120500Z 24008G18KT 3000 HZ FEW020 SCT025 BKN100 32/26 Q1006 NOSIG,M
VABB,2022-05-12 05:30,91.40,78.80,66.75,240.00,7.00,0.00,29.71,M,1.86,17.00,FEW,SCT,BKN,M,2000.00,2500.00,10000.00,M,HZ,M,M,M,M,M,M,107.79,VABB 120530Z 24007G17KT 3000 HZ FEW020 SCT025 BKN100 33/26 Q1006 NOSIG,M
VABB,2022-05-12 06:00,89.60,78.80,70.63,240.00,12.00,0.00,29.71,M,2.17,M,FEW,SCT,BKN,M,2000.00,2500.00,10000.00,M,HZ,M,M,M,M,M,M,105.15,VABB 120600Z 24012KT 3500 HZ FEW020 SCT025 BKN100 32/26 Q1006 NOSIG,M
VABB,2022-05-12 06:30,89.60,78.80,70.63,230.00,11.00,0.00,29.71,M,2.17,M,FEW,SCT,BKN,M,2000.00,2500.00,10000.00,M,HZ,M,M,M,M,M,M,105.15,VABB 120630Z 23011KT 3500 HZ FEW020 SCT025 BKN100 32/26 Q1006 NOSIG,M
VABB,2022-05-12 07:00,89.60,78.80,70.63,240.00,7.00,0.00,29.71,M,2.17,17.00,FEW,SCT,M,M,2000.00,2500.00,M,M,HZ,M,M,M,M,M,M,105.15,VABB 120700Z 24007G17KT 3500 HZ FEW020 SCT025 32/26 Q1006 NOSIG,M
VABB,2022-05-12 07:30,89.60,77.00,66.55,240.00,10.00,0.00,29.68,M,2.17,M,SCT,SCT,M,M,2000.00,2500.00,M,M,HZ,M,M,M,M,M,M,102.54,VABB 120730Z 24010KT 3500 HZ SCT020 SCT025 32/25 Q1005 NOSIG,M
VABB,2022-05-12 08:00,91.40,78.80,66.75,270.00,10.00,0.00,29.68,M,2.17,M,SCT,SCT,M,M,2000.00,2500.00,M,M,HZ,M,M,M,M,M,M,107.79,VABB 120800Z 27010KT 3500 HZ SCT020 SCT025 33/26 Q1005 NOSIG,M
VABB,2022-05-12 08:30,89.60,75.20,62.68,240.00,11.00,0.00,29.65,M,2.49,M,SCT,SCT,M,M,2000.00,2500.00,M,M,HZ,M,M,M,M,M,M,100.23,VABB 120830Z 24011KT 4000 HZ SCT020 SCT025 32/24 Q1004 NOSIG,M
VABB,2022-05-12 09:00,89.60,75.20,62.68,240.00,10.00,0.00,29.65,M,2.49,M,FEW,SCT,BKN,M,2000.00,2500.00,10000.00,M,HZ,M,M,M,M,M,M,100.23,VABB 120900Z 24010KT 4000 HZ FEW020 SCT025 BKN100 32/24 Q1004 NOSIG,M
VABB,2022-05-12 09:30,89.60,77.00,66.55,220.00,8.00,0.00,29.62,M,2.49,M,FEW,SCT,BKN,M,2000.00,2500.00,10000.00,M,HZ,M,M,M,M,M,M,102.54,VABB 120930Z 22008KT 4000 HZ FEW020 SCT025 BKN100 32/25 Q1003 NOSIG,M
VABB,2022-05-12 10:00,89.60,77.00,66.55,240.00,9.00,0.00,29.62,M,2.49,M,SCT,BKN,M,M,2000.00,10000.00,M,M,HZ,M,M,M,M,M,M,102.54,VABB 121000Z 24009KT 4000 HZ SCT020 BKN100 32/25 Q1003 NOSIG,M
VABB,2022-05-12 10:30,87.80,78.80,74.77,240.00,10.00,0.00,29.62,M,2.49,M,SCT,BKN,M,M,2000.00,10000.00,M,M,HZ,M,M,M,M,M,M,102.37,VABB 121030Z 24010KT 4000 HZ SCT020 BKN100 31/26 Q1003 NOSIG,M
VABB,2022-05-12 11:00,87.80,78.80,74.77,250.00,11.00,0.00,29.62,M,2.49,M,SCT,BKN,M,M,2000.00,10000.00,M,M,HZ,M,M,M,M,M,M,102.37,VABB 121100Z 25011KT 4000 HZ SCT020 BKN100 31/26 Q1003 NOSIG,M
VABB,2022-05-12 11:30,87.80,78.80,74.77,260.00,12.00,0.00,29.62,M,2.49,M,SCT,SCT,M,M,2000.00,10000.00,M,M,HZ,M,M,M,M,M,M,102.37,VABB 121130Z 26012KT 4000 HZ SCT020 SCT100 31/26 Q1003 NOSIG,M
VABB,2022-05-12 12:00,89.60,78.80,70.63,260.00,11.00,0.00,29.62,M,2.49,M,SCT,SCT,M,M,2000.00,2500.00,M,M,HZ,M,M,M,M,M,M,105.15,VABB 121200Z 26011KT 4000 HZ SCT020 SCT025 32/26 Q1003 NOSIG,M
VABB,2022-05-12 12:30,87.80,78.80,74.77,250.00,12.00,0.00,29.62,M,2.49,M,SCT,SCT,M,M,2000.00,2500.00,M,M,HZ,M,M,M,M,M,M,102.37,VABB 121230Z 25012KT 4000 HZ SCT020 SCT025 31/26 Q1003 NOSIG,M
VABB,2022-05-12 13:00,87.80,77.00,70.45,250.00,11.00,0.00,29.62,M,2.17,M,SCT,SCT,M,M,2000.00,10000.00,M,M,HZ,M,M,M,M,M,M,99.92,VABB 121300Z 25011KT 3500 HZ SCT020 SCT100 31/25 Q1003 NOSIG,M
VABB,2022-05-12 13:30,86.00,78.80,79.18,260.00,10.00,0.00,29.62,M,2.17,M,SCT,SCT,M,M,2000.00,10000.00,M,M,HZ,M,M,M,M,M,M,99.38,VABB 121330Z 26010KT 3500 HZ SCT020 SCT100 30/26 Q1003 NOSIG,M
VABB,2022-05-12 14:00,86.00,78.80,79.18,250.00,9.00,0.00,29.62,M,2.17,M,SCT,SCT,M,M,2000.00,10000.00,M,M,HZ,M,M,M,M,M,M,99.38,VABB 121400Z 25009KT 3500 HZ SCT020 SCT100 30/26 Q1003 NOSIG,M
VABB,2022-05-12 14:30,86.00,78.80,79.18,240.00,11.00,0.00,29.65,M,2.17,M,SCT,SCT,M,M,2000.00,10000.00,M,M,HZ,M,M,M,M,M,M,99.38,VABB 121430Z 24011KT 3500 HZ SCT020 SCT100 30/26 Q1004 NOSIG,M
VABB,2022-05-12 15:00,86.00,78.80,79.18,250.00,10.00,0.00,29.65,M,2.17,M,SCT,SCT,M,M,2000.00,10000.00,M,M,HZ,M,M,M,M,M,M,99.38,VABB 121500Z 25010KT 3500 HZ SCT020 SCT100 30/26 Q1004 NOSIG,M
VABB,2022-05-12 15:30,86.00,78.80,79.18,260.00,10.00,0.00,29.65,M,2.17,M,SCT,SCT,M,M,2000.00,10000.00,M,M,HZ,M,M,M,M,M,M,99.38,VABB 121530Z 26010KT 3500 HZ SCT020 SCT100 30/26 Q1004 NOSIG,M
VABB,2022-05-12 16:00,86.00,78.80,79.18,260.00,9.00,0.00,29.68,M,2.17,M,FEW,SCT,M,M,2000.00,10000.00,M,M,HZ,M,M,M,M,M,M,99.38,VABB 121600Z 26009KT 3500 HZ FEW020 SCT100 30/26 Q1005 NOSIG,M
VABB,2022-05-12 16:30,86.00,78.80,79.18,240.00,10.00,0.00,29.68,M,2.17,M,FEW,SCT,M,M,2000.00,10000.00,M,M,HZ,M,M,M,M,M,M,99.38,VABB 121630Z 24010KT 3500 HZ FEW020 SCT100 30/26 Q1005 NOSIG,M
VABB,2022-05-12 17:00,86.00,78.80,79.18,260.00,10.00,0.00,29.68,M,2.17,M,FEW,SCT,M,M,2000.00,10000.00,M,M,HZ,M,M,M,M,M,M,99.38,VABB 121700Z 26010KT 3500 HZ FEW020 SCT100 30/26 Q1005 NOSIG,M
VABB,2022-05-12 17:30,86.00,78.80,79.18,260.00,10.00,0.00,29.68,M,2.17,M,FEW,SCT,M,M,2000.00,10000.00,M,M,HZ,M,M,M,M,M,M,99.38,VABB 121730Z 26010KT 3500 HZ FEW020 SCT100 30/26 Q1005 NOSIG,M
VABB,2022-05-12 18:00,86.00,78.80,79.18,270.00,9.00,0.00,29.68,M,1.86,M,FEW,SCT,M,M,2000.00,10000.00,M,M,HZ,M,M,M,M,M,M,99.38,VABB 121800Z 27009KT 3000 HZ FEW020 SCT100 30/26 Q1005 NOSIG,M
VABB,2022-05-12 18:30,86.00,78.80,79.18,260.00,8.00,0.00,29.68,M,1.86,M,FEW,SCT,M,M,2000.00,10000.00,M,M,HZ,M,M,M,M,M,M,99.38,VABB 121830Z 26008KT 3000 HZ FEW020 SCT100 30/26 Q1005 NOSIG,M
VABB,2022-05-12 19:00,86.00,78.80,79.18,270.00,8.00,0.00,29.65,M,1.86,M,FEW,SCT,M,M,2000.00,10000.00,M,M,HZ,M,M,M,M,M,M,99.38,VABB 121900Z 27008KT 3000 HZ FEW020 SCT100 30/26 Q1004 NOSIG,M
VABB,2022-05-12 19:30,86.00,78.80,79.18,270.00,10.00,0.00,29.65,M,1.86,M,FEW,SCT,M,M,2000.00,10000.00,M,M,HZ,M,M,M,M,M,M,99.38,VABB 121930Z 27010KT 3000 HZ FEW020 SCT100 30/26 Q1004 NOSIG,M
VABB,2022-05-12 20:00,86.00,78.80,79.18,270.00,9.00,0.00,29.65,M,1.86,M,FEW,SCT,M,M,2000.00,10000.00,M,M,HZ,M,M,M,M,M,M,99.38,VABB 122000Z 27009KT 3000 HZ FEW020 SCT100 30/26 Q1004 NOSIG,M
VABB,2022-05-12 20:30,86.00,78.80,79.18,260.00,7.00,0.00,29.65,M,1.86,M,FEW,SCT,M,M,2000.00,10000.00,M,M,HZ,M,M,M,M,M,M,99.38,VABB 122030Z 26007KT 3000 HZ FEW020 SCT100 30/26 Q1004 NOSIG,M
VABB,2022-05-12 21:00,86.00,77.00,74.61,250.00,7.00,0.00,29.62,M,1.86,M,FEW,SCT,M,M,2000.00,10000.00,M,M,HZ,M,M,M,M,M,M,97.15,VABB 122100Z 25007KT 3000 HZ FEW020 SCT100 30/25 Q1003 NOSIG,M
VABB,2022-05-12 21:30,86.00,77.00,74.61,230.00,7.00,0.00,29.62,M,1.86,M,FEW,SCT,M,M,2000.00,10000.00,M,M,HZ,M,M,M,M,M,M,97.15,VABB 122130Z 23007KT 3000 HZ FEW020 SCT100 30/25 Q1003 NOSIG,M
VABB,2022-05-12 22:00,84.20,77.00,79.04,240.00,6.00,0.00,29.62,M,1.86,M,FEW,SCT,M,M,2000.00,10000.00,M,M,HZ,M,M,M,M,M,M,94.16,VABB 122200Z 24006KT 3000 HZ FEW020 SCT100 29/25 Q1003 NOSIG,M
VABB,2022-05-12 22:30,86.00,77.00,74.61,230.00,4.00,0.00,29.62,M,1.86,M,FEW,SCT,M,M,2000.00,10000.00,M,M,HZ,M,M,M,M,M,M,97.15,VABB 122230Z 23004KT 3000 HZ FEW020 SCT100 30/25 Q1003 NOSIG,M
VABB,2022-05-12 23:00,86.00,77.00,74.61,240.00,7.00,0.00,29.62,M,1.86,M,FEW,SCT,M,M,2000.00,10000.00,M,M,HZ,M,M,M,M,M,M,97.15,VABB 122300Z 24007KT 3000 HZ FEW020 SCT100 30/25 Q1003 NOSIG,M
VABB,2022-05-12 23:30,86.00,77.00,74.61,240.00,7.00,0.00,29.65,M,1.86,M,FEW,SCT,M,M,2000.00,10000.00,M,M,HZ,M,M,M,M,M,M,97.15,VABB 122330Z 24007KT 3000 HZ FEW020 SCT100 30/25 Q1004 NOSIG,M
VABB,2022-05-13 00:00,86.00,77.00,74.61,230.00,7.00,0.00,29.65,M,1.86,M,FEW,SCT,M,M,2000.00,10000.00,M,M,HZ,M,M,M,M,M,M,97.15,VABB 130000Z 23007KT 3000 HZ FEW020 SCT100 30/25 Q1004 NOSIG,M
VABB,2022-05-13 00:30,84.20,77.00,79.04,230.00,7.00,0.00,29.65,M,1.86,M,SCT,SCT,M,M,2000.00,10000.00,M,M,HZ,M,M,M,M,M,M,94.16,VABB 130030Z 23007KT 3000 HZ SCT020 SCT100 29/25 Q1004 NOSIG,M
VABB,2022-05-13 01:00,86.00,77.00,74.61,240.00,7.00,0.00,29.68,M,1.86,M,SCT,SCT,M,M,2000.00,10000.00,M,M,HZ,M,M,M,M,M,M,97.15,VABB 130100Z 24007KT 3000 HZ SCT020 SCT100 30/25 Q1005 NOSIG,M
VABB,2022-05-13 01:30,86.00,77.00,74.61,210.00,6.00,0.00,29.68,M,1.86,M,FEW,SCT,M,M,2000.00,10000.00,M,M,HZ,M,M,M,M,M,M,97.15,VABB 130130Z 21006KT 3000 HZ FEW020 SCT100 30/25 Q1005 NOSIG,M
VABB,2022-05-13 02:00,86.00,77.00,74.61,210.00,8.00,0.00,29.68,M,1.86,M,FEW,SCT,M,M,2000.00,10000.00,M,M,HZ,M,M,M,M,M,M,97.15,VABB 130200Z 21008KT 3000 HZ FEW020 SCT100 30/25 Q1005 NOSIG,M
VABB,2022-05-13 02:30,86.00,77.00,74.61,220.00,10.00,0.00,29.68,M,1.86,M,FEW,SCT,M,M,2000.00,10000.00,M,M,HZ,M,M,M,M,M,M,97.15,VABB 130230Z 22010KT 3000 HZ FEW020 SCT100 30/25 Q1005 NOSIG,M
VABB,2022-05-13 03:00,87.80,78.80,74.77,220.00,10.00,0.00,29.71,M,1.86,M,FEW,SCT,M,M,2000.00,10000.00,M,M,HZ,M,M,M,M,M,M,102.37,VABB 130300Z 22010KT 3000 HZ FEW020 SCT100 31/26 Q1006 NOSIG,M
VABB,2022-05-13 03:30,87.80,77.00,70.45,240.00,9.00,0.00,29.71,M,1.86,M,FEW,SCT,BKN,M,2000.00,2500.00,10000.00,M,HZ,M,M,M,M,M,M,99.92,VABB 130330Z 24009KT 3000 HZ FEW020 SCT025 BKN100 31/25 Q1006 NOSIG,M
VABB,2022-05-13 04:00,87.80,77.00,70.45,230.00,11.00,0.00,29.71,M,2.17,M,FEW,SCT,BKN,M,2000.00,2500.00,10000.00,M,HZ,M,M,M,M,M,M,99.92,VABB 130400Z 23011KT 3500 HZ FEW020 SCT025 BKN100 31/25 Q1006 NOSIG,M
VABB,2022-05-13 04:30,87.80,77.00,70.45,210.00,11.00,0.00,29.71,M,2.17,M,SCT,SCT,M,M,2000.00,10000.00,M,M,HZ,M,M,M,M,M,M,99.92,VABB 130430Z 21011KT 3500 HZ SCT020 SCT100 31/25 Q1006 NOSIG,M
VABB,2022-05-13 05:00,89.60,77.00,66.55,230.00,10.00,0.00,29.71,M,2.17,M,FEW,SCT,M,M,2000.00,2500.00,M,M,HZ,M,M,M,M,M,M,102.54,VABB 130500Z 23010KT 3500 HZ FEW020 SCT025 32/25 Q1006 NOSIG,M
VABB,2022-05-13 05:30,91.40,77.00,62.90,230.00,11.00,0.00,29.71,M,2.49,M,FEW,SCT,M,M,2000.00,2500.00,M,M,HZ,M,M,M,M,M,M,105.06,VABB 130530Z 23011KT 4000 HZ FEW020 SCT025 33/25 Q1006 NOSIG,M
VABB,2022-05-13 06:00,89.60,77.00,66.55,220.00,13.00,0.00,29.71,M,2.49,M,SCT,M,M,M,2000.00,M,M,M,HZ,M,M,M,M,M,M,102.54,VABB 130600Z 22013KT 4000 HZ SCT020 32/25 Q1006 NOSIG,M
VABB,2022-05-13 06:30,91.40,75.20,59.24,230.00,12.00,0.00,29.71,M,2.49,M,SCT,M,M,M,2000.00,M,M,M,HZ,M,M,M,M,M,M,102.65,VABB 130630Z 23012KT 4000 HZ SCT020 33/24 Q1006 NOSIG,M
VABB,2022-05-13 07:00,91.40,77.00,62.90,230.00,11.00,0.00,29.68,M,2.49,M,SCT,M,M,M,2000.00,M,M,M,HZ,M,M,M,M,M,M,105.06,VABB 130700Z 23011KT 4000 HZ SCT020 33/25 Q1005 NOSIG,M
VABB,2022-05-13 07:30,91.40,75.20,59.24,230.00,7.00,0.00,29.68,M,2.49,17.00,SCT,M,M,M,2000.00,M,M,M,HZ,M,M,M,M,M,M,102.65,VABB 130730Z 23007G17KT 4000 HZ SCT020 33/24 Q1005 NOSIG,M
VABB,2022-05-13 08:00,91.40,77.00,62.90,220.00,12.00,0.00,29.65,M,2.49,M,SCT,M,M,M,2000.00,M,M,M,HZ,M,M,M,M,M,M,105.06,VABB 130800Z 22012KT 4000 HZ SCT020 33/25 Q1004 NOSIG,M
VABB,2022-05-13 08:30,91.40,77.00,62.90,210.00,9.00,0.00,29.65,M,2.49,19.00,SCT,M,M,M,2000.00,M,M,M,HZ,M,M,M,M,M,M,105.06,VABB 130830Z 21009G19KT 4000 HZ SCT020 33/25 Q1004 NOSIG,M
VABB,2022-05-13 09:00,89.60,77.00,66.55,220.00,10.00,0.00,29.62,M,2.49,M,SCT,M,M,M,2000.00,M,M,M,HZ,M,M,M,M,M,M,102.54,VABB 130900Z 22010KT 4000 HZ SCT020 32/25 Q1003 NOSIG,M
VABB,2022-05-13 09:30,89.60,77.00,66.55,240.00,8.00,0.00,29.62,M,2.49,18.00,SCT,M,M,M,2000.00,M,M,M,HZ,M,M,M,M,M,M,102.54,VABB 130930Z 24008G18KT 4000 HZ SCT020 32/25 Q1003 BECMG 5000 HZ,M
VABB,2022-05-13 10:00,89.60,77.00,66.55,220.00,12.00,0.00,29.62,M,3.11,M,SCT,M,M,M,2000.00,M,M,M,HZ,M,M,M,M,M,M,102.54,VABB 131000Z 22012KT 5000 HZ SCT020 32/25 Q1003 NOSIG,M
VABB,2022-05-13 10:30,91.40,77.00,62.90,220.00,11.00,0.00,29.62,M,3.11,M,SCT,M,M,M,2000.00,M,M,M,HZ,M,M,M,M,M,M,105.06,VABB 131030Z 22011KT 5000 HZ SCT020 33/25 Q1003 NOSIG,M
VABB,2022-05-13 11:00,89.60,78.80,70.63,250.00,12.00,0.00,29.59,M,3.11,M,SCT,M,M,M,2000.00,M,M,M,HZ,M,M,M,M,M,M,105.15,VABB 131100Z 25012KT 5000 HZ SCT020 32/26 Q1002 NOSIG,M
VABB,2022-05-13 11:30,89.60,77.00,66.55,240.00,7.00,0.00,29.59,M,3.11,17.00,SCT,M,M,M,2000.00,M,M,M,HZ,M,M,M,M,M,M,102.54,VABB 131130Z 24007G17KT 5000 HZ SCT020 32/25 Q1002 NOSIG,M
VABB,2022-05-13 12:00,87.80,77.00,70.45,240.00,10.00,0.00,29.59,M,3.11,M,SCT,M,M,M,2000.00,M,M,M,HZ,M,M,M,M,M,M,99.92,VABB 131200Z 24010KT 5000 HZ SCT020 31/25 Q1002 NOSIG,M
VABB,2022-05-13 12:30,87.80,77.00,70.45,220.00,8.00,0.00,29.59,M,3.11,M,SCT,M,M,M,2000.00,M,M,M,HZ,M,M,M,M,M,M,99.92,VABB 131230Z 22008KT 5000 HZ SCT020 31/25 Q1002 NOSIG,M
VABB,2022-05-13 13:00,87.80,78.80,74.77,260.00,8.00,0.00,29.62,M,2.49,M,SCT,M,M,M,2000.00,M,M,M,HZ,M,M,M,M,M,M,102.37,VABB 131300Z 26008KT 4000 HZ SCT020 31/26 Q1003 NOSIG,M
VABB,2022-05-13 13:30,86.00,77.00,74.61,240.00,10.00,0.00,29.62,M,2.17,M,SCT,M,M,M,2000.00,M,M,M,HZ,M,M,M,M,M,M,97.15,VABB 131330Z 24010KT 3500 HZ SCT020 30/25 Q1003 NOSIG,M
VABB,2022-05-13 14:00,86.00,77.00,74.61,250.00,8.00,0.00,29.62,M,2.17,M,SCT,M,M,M,2000.00,M,M,M,HZ,M,M,M,M,M,M,97.15,VABB 131400Z 25008KT 3500 HZ SCT020 30/25 Q1003 NOSIG,M
VABB,2022-05-13 14:30,86.00,77.00,74.61,240.00,8.00,0.00,29.62,M,2.17,M,SCT,M,M,M,2000.00,M,M,M,HZ,M,M,M,M,M,M,97.15,VABB 131430Z 24008KT 3500 HZ SCT020 30/25 Q1003 NOSIG,M
VABB,2022-05-13 15:00,86.00,77.00,74.61,260.00,8.00,0.00,29.62,M,2.17,M,SCT,M,M,M,2000.00,M,M,M,HZ,M,M,M,M,M,M,97.15,VABB 131500Z 26008KT 3500 HZ SCT020 30/25 Q1003 NOSIG,M
VABB,2022-05-13 15:30,86.00,77.00,74.61,270.00,8.00,0.00,29.65,M,2.17,M,SCT,M,M,M,2000.00,M,M,M,HZ,M,M,M,M,M,M,97.15,VABB 131530Z 27008KT 3500 HZ SCT020 30/25 Q1004 NOSIG,M
VABB,2022-05-13 16:00,86.00,77.00,74.61,240.00,8.00,0.00,29.65,M,2.17,M,SCT,M,M,M,2000.00,M,M,M,HZ,M,M,M,M,M,M,97.15,VABB 131600Z 24008KT 3500 HZ SCT020 30/25 Q1004 NOSIG,M
VABB,2022-05-13 16:30,86.00,77.00,74.61,240.00,7.00,0.00,29.65,M,2.17,M,SCT,M,M,M,2000.00,M,M,M,HZ,M,M,M,M,M,M,97.15,VABB 131630Z 24007KT 3500 HZ SCT020 30/25 Q1004 NOSIG,M
VABB,2022-05-13 17:00,86.00,77.00,74.61,250.00,7.00,0.00,29.65,M,2.17,M,SCT,M,M,M,2000.00,M,M,M,HZ,M,M,M,M,M,M,97.15,VABB 131700Z 25007KT 3500 HZ SCT020 30/25 Q1004 NOSIG,M
VABB,2022-05-13 17:30,86.00,77.00,74.61,250.00,9.00,0.00,29.65,M,2.17,M,SCT,M,M,M,2000.00,M,M,M,HZ,M,M,M,M,M,M,97.15,VABB 131730Z 25009KT 3500 HZ SCT020 30/25 Q1004 NOSIG,M
VABB,2022-05-13 18:00,86.00,78.80,79.18,220.00,6.00,0.00,29.65,M,2.17,M,SCT,M,M,M,2000.00,M,M,M,HZ,M,M,M,M,M,M,99.38,VABB 131800Z 22006KT 3500 HZ SCT020 30/26 Q1004 NOSIG,M
VABB,2022-05-13 18:30,86.00,78.80,79.18,250.00,8.00,0.00,29.65,M,2.17,M,SCT,M,M,M,2000.00,M,M,M,HZ,M,M,M,M,M,M,99.38,VABB 131830Z 25008KT 3500 HZ SCT020 30/26 Q1004 NOSIG,M
VABB,2022-05-13 19:00,86.00,77.00,74.61,230.00,6.00,0.00,29.65,M,2.17,M,SCT,M,M,M,2000.00,M,M,M,HZ,M,M,M,M,M,M,97.15,VABB 131900Z 23006KT 3500 HZ SCT020 30/25 Q1004 NOSIG,M
VABB,2022-05-13 19:30,86.00,77.00,74.61,240.00,7.00,0.00,29.62,M,2.17,M,SCT,M,M,M,2000.00,M,M,M,HZ,M,M,M,M,M,M,97.15,VABB 131930Z 24007KT 3500 HZ SCT020 30/25 Q1003 NOSIG,M
VABB,2022-05-13 20:00,86.00,77.00,74.61,240.00,8.00,0.00,29.62,M,2.17,M,SCT,M,M,M,2000.00,M,M,M,HZ,M,M,M,M,M,M,97.15,VABB 132000Z 24008KT 3500 HZ SCT020 30/25 Q1003 NOSIG,M
VABB,2022-05-13 20:30,84.20,77.00,79.04,240.00,6.00,0.00,29.62,M,2.17,M,SCT,M,M,M,2000.00,M,M,M,HZ,M,M,M,M,M,M,94.16,VABB 132030Z 24006KT 3500 HZ SCT020 29/25 Q1003 NOSIG,M
VABB,2022-05-13 21:00,84.20,77.00,79.04,230.00,6.00,0.00,29.62,M,2.17,M,SCT,M,M,M,2000.00,M,M,M,HZ,M,M,M,M,M,M,94.16,VABB 132100Z 23006KT 3500 HZ SCT020 29/25 Q1003 NOSIG,M
VABB,2022-05-13 21:30,84.20,77.00,79.04,230.00,5.00,0.00,29.62,M,2.17,M,SCT,M,M,M,2000.00,M,M,M,HZ,M,M,M,M,M,M,94.16,VABB 132130Z 23005KT 3500 HZ SCT020 29/25 Q1003 NOSIG,M
VABB,2022-05-13 22:00,86.00,77.00,74.61,240.00,8.00,0.00,29.62,M,2.17,M,FEW,SCT,M,M,2000.00,2500.00,M,M,HZ,M,M,M,M,M,M,97.15,VABB 132200Z 24008KT 3500 HZ FEW020 SCT025 30/25 Q1003 NOSIG,M
VABB,2022-05-13 22:30,84.20,77.00,79.04,250.00,7.00,0.00,29.62,M,2.17,M,FEW,SCT,M,M,2000.00,2500.00,M,M,HZ,M,M,M,M,M,M,94.16,VABB 132230Z 25007KT 3500 HZ FEW020 SCT025 29/25 Q1003 NOSIG,M
VABB,2022-05-13 23:00,84.20,77.00,79.04,230.00,5.00,0.00,29.62,M,2.17,M,FEW,SCT,M,M,2000.00,2500.00,M,M,HZ,M,M,M,M,M,M,94.16,VABB 132300Z 23005KT 3500 HZ FEW020 SCT025 29/25 Q1003 NOSIG,M
VABB,2022-05-13 23:30,84.20,77.00,79.04,250.00,8.00,0.00,29.62,M,2.17,M,FEW,SCT,M,M,2000.00,2500.00,M,M,HZ,M,M,M,M,M,M,94.16,VABB 132330Z 25008KT 3500 HZ FEW020 SCT025 29/25 Q1003 NOSIG,M
VABB,2022-05-14 00:00,84.20,77.00,79.04,210.00,5.00,0.00,29.65,M,2.17,M,SCT,M,M,M,2000.00,M,M,M,HZ,M,M,M,M,M,M,94.16,VABB 140000Z 21005KT 3500 HZ SCT020 29/25 Q1004 NOSIG,M
VABB,2022-05-14 00:30,84.20,77.00,79.04,220.00,3.00,0.00,29.65,M,2.17,M,SCT,M,M,M,2000.00,M,M,M,HZ,M,M,M,M,M,M,94.16,VABB 140030Z 22003KT 3500 HZ SCT020 29/25 Q1004 NOSIG,M
VABB,2022-05-14 01:00,84.20,77.00,79.04,230.00,3.00,0.00,29.65,M,2.17,M,SCT,SCT,M,M,2000.00,2500.00,M,M,HZ,M,M,M,M,M,M,94.16,VABB 140100Z 23003KT 3500 HZ SCT020 SCT025 29/25 Q1004 NOSIG,M
VABB,2022-05-14 01:30,86.00,77.00,74.61,240.00,6.00,0.00,29.68,M,2.17,M,SCT,SCT,M,M,2000.00,2500.00,M,M,HZ,M,M,M,M,M,M,97.15,VABB 140130Z 24006KT 3500 HZ SCT020 SCT025 30/25 Q1005 NOSIG,M
VABB,2022-05-14 02:00,86.00,77.00,74.61,220.00,6.00,0.00,29.68,M,1.86,M,SCT,SCT,M,M,2000.00,2500.00,M,M,HZ,M,M,M,M,M,M,97.15,VABB 140200Z 22006KT 3000 HZ SCT020 SCT025 30/25 Q1005 NOSIG,M
VABB,2022-05-14 02:30,86.00,77.00,74.61,210.00,7.00,0.00,29.68,M,1.86,M,SCT,M,M,M,2000.00,M,M,M,HZ,M,M,M,M,M,M,97.15,VABB 140230Z 21007KT 3000 HZ SCT020 30/25 Q1005 NOSIG,M
VABB,2022-05-14 03:00,86.00,77.00,74.61,220.00,8.00,0.00,29.71,M,1.86,M,SCT,M,M,M,2000.00,M,M,M,HZ,M,M,M,M,M,M,97.15,VABB 140300Z 22008KT 3000 HZ SCT020 30/25 Q1006 NOSIG,M
VABB,2022-05-14 03:30,87.80,75.20,66.35,230.00,5.00,0.00,29.71,M,2.17,M,SCT,M,M,M,2000.00,M,M,M,HZ,M,M,M,M,M,M,97.76,VABB 140330Z 23005KT 3500 HZ SCT020 31/24 Q1006 NOSIG,M
VABB,2022-05-14 04:00,87.80,77.00,70.45,250.00,8.00,0.00,29.71,M,2.17,M,SCT,M,M,M,2000.00,M,M,M,HZ,M,M,M,M,M,M,99.92,VABB 140400Z 25008KT 3500 HZ SCT020 31/25 Q1006 NOSIG,M
VABB,2022-05-14 04:30,89.60,77.00,66.55,220.00,7.00,0.00,29.71,M,2.17,M,SCT,M,M,M,2000.00,M,M,M,HZ,M,M,M,M,M,M,102.54,VABB 140430Z 22007KT 3500 HZ SCT020 32/25 Q1006 NOSIG,M
VABB,2022-05-14 05:00,89.60,77.00,66.55,240.00,11.00,0.00,29.71,M,2.17,M,SCT,M,M,M,2000.00,M,M,M,HZ,M,M,M,M,M,M,102.54,VABB 140500Z 24011KT 3500 HZ SCT020 32/25 Q1006 NOSIG,M
VABB,2022-05-14 05:30,89.60,77.00,66.55,260.00,7.00,0.00,29.71,M,2.17,M,SCT,M,M,M,2000.00,M,M,M,HZ,M,M,M,M,M,M,102.54,VABB 140530Z 26007KT 3500 HZ SCT020 32/25 Q1006 NOSIG,M
VABB,2022-05-14 06:00,89.60,75.20,62.68,240.00,9.00,0.00,29.71,M,2.49,M,SCT,M,M,M,2000.00,M,M,M,FU,M,M,M,M,M,M,100.23,VABB 140600Z 24009KT 4000 FU SCT020 32/24 Q1006 NOSIG,M
VABB,2022-05-14 06:30,89.60,75.20,62.68,290.00,7.00,0.00,29.71,M,2.49,M,SCT,M,M,M,2000.00,M,M,M,FU,M,M,M,M,M,M,100.23,VABB 140630Z 29007KT 4000 FU SCT020 32/24 Q1006 NOSIG,M
VABB,2022-05-14 07:00,89.60,75.20,62.68,250.00,10.00,0.00,29.71,M,2.49,M,SCT,M,M,M,2000.00,M,M,M,FU,M,M,M,M,M,M,100.23,VABB 140700Z 25010KT 4000 FU SCT020 32/24 Q1006 NOSIG,M
VABB,2022-05-14 07:30,89.60,77.00,66.55,230.00,9.00,0.00,29.68,M,3.11,M,SCT,M,M,M,2000.00,M,M,M,FU,M,M,M,M,M,M,102.54,VABB 140730Z 23009KT 5000 FU SCT020 32/25 Q1005 NOSIG,M
VABB,2022-05-14 08:00,89.60,75.20,62.68,250.00,9.00,0.00,29.68,M,3.11,M,SCT,M,M,M,2000.00,M,M,M,FU,M,M,M,M,M,M,100.23,VABB 140800Z 25009KT 5000 FU SCT020 32/24 Q1005 NOSIG,M
VABB,2022-05-14 08:30,91.40,77.00,62.90,240.00,12.00,0.00,29.65,M,3.11,M,SCT,M,M,M,2000.00,M,M,M,HZ,M,M,M,M,M,M,105.06,VABB 140830Z 24012KT 5000 HZ SCT020 33/25 Q1004 NOSIG,M
VABB,2022-05-14 09:00,91.40,75.20,59.24,270.00,9.00,0.00,29.65,M,3.11,M,SCT,M,M,M,2000.00,M,M,M,HZ,M,M,M,M,M,M,102.65,VABB 140900Z 27009KT 5000 HZ SCT020 33/24 Q1004 NOSIG,M
VABB,2022-05-14 09:30,91.40,77.00,62.90,270.00,11.00,0.00,29.65,M,3.11,M,SCT,M,M,M,2000.00,M,M,M,HZ,M,M,M,M,M,M,105.06,VABB 140930Z 27011KT 5000 HZ SCT020 33/25 Q1004 NOSIG,M
VABB,2022-05-14 10:00,91.40,77.00,62.90,240.00,11.00,0.00,29.62,M,3.11,M,SCT,M,M,M,2000.00,M,M,M,HZ,M,M,M,M,M,M,105.06,VABB 141000Z 24011KT 5000 HZ SCT020 33/25 Q1003 NOSIG,M
VABB,2022-05-14 10:30,89.60,77.00,66.55,270.00,10.00,0.00,29.62,M,3.11,M,SCT,M,M,M,2000.00,M,M,M,HZ,M,M,M,M,M,M,102.54,VABB 141030Z 27010KT 5000 HZ SCT020 32/25 Q1003 NOSIG,M
VABB,2022-05-14 11:00,89.60,77.00,66.55,250.00,11.00,0.00,29.62,M,3.11,M,SCT,M,M,M,2000.00,M,M,M,HZ,M,M,M,M,M,M,102.54,VABB 141100Z 25011KT 5000 HZ SCT020 32/25 Q1003 NOSIG,M
VABB,2022-05-14 11:30,89.60,78.80,70.63,260.00,10.00,0.00,29.62,M,3.11,M,SCT,M,M,M,2000.00,M,M,M,HZ,M,M,M,M,M,M,105.15,VABB 141130Z 26010KT 5000 HZ SCT020 32/26 Q1003 NOSIG,M
VABB,2022-05-14 12:00,87.80,77.00,70.45,240.00,9.00,0.00,29.62,M,3.11,M,SCT,M,M,M,2000.00,M,M,M,HZ,M,M,M,M,M,M,99.92,VABB 141200Z 24009KT 5000 HZ SCT020 31/25 Q1003 NOSIG,M
VABB,2022-05-14 12:30,87.80,77.00,70.45,240.00,10.00,0.00,29.62,M,2.49,M,SCT,M,M,M,2000.00,M,M,M,HZ,M,M,M,M,M,M,99.92,VABB 141230Z 24010KT 4000 HZ SCT020 31/25 Q1003 NOSIG,M
VABB,2022-05-14 13:00,87.80,77.00,70.45,240.00,10.00,0.00,29.65,M,2.49,M,SCT,M,M,M,2000.00,M,M,M,HZ,M,M,M,M,M,M,99.92,VABB 141300Z 24010KT 4000 HZ SCT020 31/25 Q1004 NOSIG,M
VABB,2022-05-14 13:30,86.00,77.00,74.61,240.00,8.00,0.00,29.65,M,2.17,M,SCT,M,M,M,2000.00,M,M,M,HZ,M,M,M,M,M,M,97.15,VABB 141330Z 24008KT 3500 HZ SCT020 30/25 Q1004 NOSIG,M
VABB,2022-05-14 14:00,86.00,77.00,74.61,230.00,10.00,0.00,29.68,M,2.17,M,SCT,M,M,M,2000.00,M,M,M,HZ,M,M,M,M,M,M,97.15,VABB 141400Z 23010KT 3500 HZ SCT020 30/25 Q1005 NOSIG,M
VABB,2022-05-14 14:30,86.00,77.00,74.61,230.00,9.00,0.00,29.68,M,2.17,M,SCT,M,M,M,2000.00,M,M,M,HZ,M,M,M,M,M,M,97.15,VABB 141430Z 23009KT 3500 HZ SCT020 30/25 Q1005 NOSIG,M
VABB,2022-05-14 15:00,86.00,77.00,74.61,230.00,7.00,0.00,29.68,M,2.17,M,SCT,M,M,M,2000.00,M,M,M,HZ,M,M,M,M,M,M,97.15,VABB 141500Z 23007KT 3500 HZ SCT020 30/25 Q1005 NOSIG,M
VABB,2022-05-14 15:30,86.00,77.00,74.61,230.00,8.00,0.00,29.71,M,2.17,M,SCT,M,M,M,2000.00,M,M,M,HZ,M,M,M,M,M,M,97.15,VABB 141530Z 23008KT 3500 HZ SCT020 30/25 Q1006 NOSIG,M
VABB,2022-05-14 16:00,86.00,78.80,79.18,220.00,9.00,0.00,29.71,M,2.17,M,SCT,M,M,M,2000.00,M,M,M,HZ,M,M,M,M,M,M,99.38,VABB 141600Z 22009KT 3500 HZ SCT020 30/26 Q1006 NOSIG,M
VABB,2022-05-14 16:30,86.00,77.00,74.61,230.00,8.00,0.00,29.71,M,2.17,M,SCT,M,M,M,2000.00,M,M,M,HZ,M,M,M,M,M,M,97.15,VABB 141630Z 23008KT 3500 HZ SCT020 30/25 Q1006 NOSIG,M
VABB,2022-05-14 17:00,86.00,78.80,79.18,210.00,9.00,0.00,29.71,M,2.17,M,SCT,M,M,M,2000.00,M,M,M,HZ,M,M,M,M,M,M,99.38,VABB 141700Z 21009KT 3500 HZ SCT020 30/26 Q1006 NOSIG,M
VABB,2022-05-14 17:30,86.00,77.00,74.61,220.00,9.00,0.00,29.71,M,2.17,M,SCT,M,M,M,2000.00,M,M,M,HZ,M,M,M,M,M,M,97.15,VABB 141730Z 22009KT 3500 HZ SCT020 30/25 Q1006 NOSIG,M
VABB,2022-05-14 18:00,86.00,77.00,74.61,220.00,6.00,0.00,29.71,M,2.17,M,SCT,M,M,M,2000.00,M,M,M,HZ,M,M,M,M,M,M,97.15,VABB 141800Z 22006KT 3500 HZ SCT020 30/25 Q1006 NOSIG,M
VABB,2022-05-14 18:30,86.00,77.00,74.61,210.00,6.00,0.00,29.71,M,2.17,M,SCT,M,M,M,2000.00,M,M,M,HZ,M,M,M,M,M,M,97.15,VABB 141830Z 21006KT 3500 HZ SCT020 30/25 Q1006 NOSIG,M
VABB,2022-05-14 19:00,86.00,77.00,74.61,230.00,5.00,0.00,29.68,M,2.17,M,SCT,M,M,M,2000.00,M,M,M,HZ,M,M,M,M,M,M,97.15,VABB 141900Z 23005KT 3500 HZ SCT020 30/25 Q1005 NOSIG,M
VABB,2022-05-14 19:30,86.00,77.00,74.61,230.00,6.00,0.00,29.68,M,2.17,M,SCT,M,M,M,2000.00,M,M,M,HZ,M,M,M,M,M,M,97.15,VABB 141930Z 23006KT 3500 HZ SCT020 30/25 Q1005 NOSIG,M
VABB,2022-05-14 20:00,86.00,78.80,79.18,230.00,5.00,0.00,29.68,M,2.17,M,SCT,M,M,M,2000.00,M,M,M,HZ,M,M,M,M,M,M,99.38,VABB 142000Z 23005KT 3500 HZ SCT020 30/26 Q1005 NOSIG,M
VABB,2022-05-14 20:30,86.00,77.00,74.61,220.00,6.00,0.00,29.68,M,2.17,M,SCT,M,M,M,2000.00,M,M,M,HZ,M,M,M,M,M,M,97.15,VABB 142030Z 22006KT 3500 HZ SCT020 30/25 Q1005 NOSIG,M
VABB,2022-05-14 21:00,86.00,77.00,74.61,220.00,5.00,0.00,29.65,M,2.17,M,SCT,M,M,M,2000.00,M,M,M,HZ,M,M,M,M,M,M,97.15,VABB 142100Z 22005KT 3500 HZ SCT020 30/25 Q1004 NOSIG,M
VABB,2022-05-14 21:30,86.00,78.80,79.18,220.00,7.00,0.00,29.65,M,2.17,M,FEW,SCT,M,M,2000.00,2500.00,M,M,HZ,M,M,M,M,M,M,99.38,VABB 142130Z 22007KT 3500 HZ FEW020 SCT025 30/26 Q1004 NOSIG,M
VABB,2022-05-14 22:00,86.00,77.00,74.61,230.00,5.00,0.00,29.65,M,2.17,M,SCT,M,M,M,2000.00,M,M,M,HZ,M,M,M,M,M,M,97.15,VABB 142200Z 23005KT 3500 HZ SCT020 30/25 Q1004 NOSIG,M
VABB,2022-05-14 22:30,86.00,78.80,79.18,240.00,7.00,0.00,29.65,M,2.17,M,SCT,M,M,M,2000.00,M,M,M,HZ,M,M,M,M,M,M,99.38,VABB 142230Z 24007KT 3500 HZ SCT020 30/26 Q1004 NOSIG,M
VABB,2022-05-14 23:00,86.00,77.00,74.61,240.00,7.00,0.00,29.68,M,2.17,M,SCT,M,M,M,2000.00,M,M,M,HZ,M,M,M,M,M,M,97.15,VABB 142300Z 24007KT 3500 HZ SCT020 30/25 Q1005 NOSIG,M
VABB,2022-05-14 23:30,86.00,78.80,79.18,230.00,5.00,0.00,29.68,M,2.17,M,SCT,M,M,M,2000.00,M,M,M,HZ,M,M,M,M,M,M,99.38,VABB 142330Z 23005KT 3500 HZ SCT020 30/26 Q1005 NOSIG,M
VABB,2022-05-15 00:00,86.00,77.00,74.61,230.00,5.00,0.00,29.68,M,2.17,M,SCT,M,M,M,2000.00,M,M,M,HZ,M,M,M,M,M,M,97.15,VABB 150000Z 23005KT 3500 HZ SCT020 30/25 Q1005 NOSIG,M
VABB,2022-05-15 00:30,86.00,77.00,74.61,250.00,7.00,0.00,29.68,M,2.17,M,FEW,SCT,M,M,2000.00,2500.00,M,M,HZ,M,M,M,M,M,M,97.15,VABB 150030Z 25007KT 3500 HZ FEW020 SCT025 30/25 Q1005 NOSIG,M
VABB,2022-05-15 01:00,86.00,77.00,74.61,250.00,9.00,0.00,29.71,M,2.17,M,FEW,SCT,M,M,2000.00,2500.00,M,M,HZ,M,M,M,M,M,M,97.15,VABB 150100Z 25009KT 3500 HZ FEW020 SCT025 30/25 Q1006 NOSIG,M
VABB,2022-05-15 01:30,86.00,77.00,74.61,250.00,7.00,0.00,29.71,M,2.17,M,FEW,SCT,M,M,2000.00,2500.00,M,M,HZ,M,M,M,M,M,M,97.15,VABB 150130Z 25007KT 3500 HZ FEW020 SCT025 30/25 Q1006 NOSIG,M
VABB,2022-05-15 02:00,86.00,77.00,74.61,240.00,7.00,0.00,29.71,M,2.17,M,FEW,SCT,M,M,2000.00,2500.00,M,M,HZ,M,M,M,M,M,M,97.15,VABB 150200Z 24007KT 3500 HZ FEW020 SCT025 30/25 Q1006 NOSIG,M
VABB,2022-05-15 02:30,86.00,77.00,74.61,240.00,8.00,0.00,29.74,M,2.17,M,FEW,SCT,M,M,2000.00,2500.00,M,M,HZ,M,M,M,M,M,M,97.15,VABB 150230Z 24008KT 3500 HZ FEW020 SCT025 30/25 Q1007 NOSIG,M
VABB,2022-05-15 03:00,86.00,78.80,79.18,260.00,7.00,0.00,29.74,M,1.86,M,FEW,SCT,M,M,2000.00,2500.00,M,M,HZ,M,M,M,M,M,M,99.38,VABB 150300Z 26007KT 3000 HZ FEW020 SCT025 30/26 Q1007 NOSIG,M
VABB,2022-05-15 03:30,87.80,77.00,70.45,280.00,7.00,0.00,29.74,M,1.86,M,SCT,SCT,M,M,2000.00,2500.00,M,M,HZ,M,M,M,M,M,M,99.92,VABB 150330Z 28007KT 3000 HZ SCT020 SCT025 31/25 Q1007 NOSIG,M
VABB,2022-05-15 04:00,87.80,77.00,70.45,270.00,7.00,0.00,29.77,M,1.86,M,FEW,SCT,M,M,2000.00,2500.00,M,M,HZ,M,M,M,M,M,M,99.92,VABB 150400Z 27007KT 3000 HZ FEW020 SCT025 31/25 Q1008 NOSIG,M
VABB,2022-05-15 04:30,87.80,77.00,70.45,280.00,6.00,0.00,29.77,M,1.86,M,FEW,SCT,M,M,2000.00,2500.00,M,M,HZ,M,M,M,M,M,M,99.92,VABB 150430Z 28006KT 3000 HZ FEW020 SCT025 31/25 Q1008 NOSIG,M
VABB,2022-05-15 05:00,89.60,77.00,66.55,240.00,10.00,0.00,29.77,M,1.86,M,FEW,SCT,M,M,2000.00,2500.00,M,M,HZ,M,M,M,M,M,M,102.54,VABB 150500Z 24010KT 3000 HZ FEW020 SCT025 32/25 Q1008 NOSIG,M
VABB,2022-05-15 05:30,91.40,78.80,66.75,260.00,10.00,0.00,29.74,M,2.17,M,FEW,SCT,M,M,2000.00,2500.00,M,M,HZ,M,M,M,M,M,M,107.79,VABB 150530Z 26010KT 3500 HZ FEW020 SCT025 33/26 Q1007 NOSIG,M
VABB,2022-05-15 06:00,91.40,77.00,62.90,250.00,9.00,0.00,29.74,M,2.17,M,FEW,SCT,M,M,2000.00,2500.00,M,M,HZ,M,M,M,M,M,M,105.06,VABB 150600Z 25009KT 3500 HZ FEW020 SCT025 33/25 Q1007 NOSIG,M
VABB,2022-05-15 06:30,91.40,77.00,62.90,270.00,12.00,0.00,29.74,M,2.17,M,FEW,SCT,M,M,2000.00,2500.00,M,M,HZ,M,M,M,M,M,M,105.06,VABB 150630Z 27012KT 3500 HZ FEW020 SCT025 33/25 Q1007 NOSIG,M
VABB,2022-05-15 07:00,91.40,77.00,62.90,280.00,10.00,0.00,29.74,M,2.49,M,FEW,SCT,M,M,2000.00,2500.00,M,M,HZ,M,M,M,M,M,M,105.06,VABB 150700Z 28010KT 4000 HZ FEW020 SCT025 33/25 Q1007 NOSIG,M
VABB,2022-05-15 07:30,91.40,77.00,62.90,260.00,11.00,0.00,29.71,M,2.49,M,FEW,SCT,M,M,2000.00,2500.00,M,M,HZ,M,M,M,M,M,M,105.06,VABB 150730Z 26011KT 4000 HZ FEW020 SCT025 33/25 Q1006 NOSIG,M
VABB,2022-05-15 08:00,89.60,77.00,66.55,270.00,12.00,0.00,29.71,M,2.49,M,SCT,M,M,M,2000.00,M,M,M,HZ,M,M,M,M,M,M,102.54,VABB 150800Z 27012KT 4000 HZ SCT020 32/25 Q1006 NOSIG,M
VABB,2022-05-15 08:30,91.40,77.00,62.90,250.00,9.00,0.00,29.68,M,2.49,M,SCT,M,M,M,2000.00,M,M,M,HZ,M,M,M,M,M,M,105.06,VABB 150830Z 25009KT 4000 HZ SCT020 33/25 Q1005 BECMG 5000 HZ,M
VABB,2022-05-15 09:00,91.40,77.00,62.90,270.00,12.00,0.00,29.68,M,3.11,M,SCT,M,M,M,2000.00,M,M,M,HZ,M,M,M,M,M,M,105.06,VABB 150900Z 27012KT 5000 HZ SCT020 33/25 Q1005 NOSIG,M
VABB,2022-05-15 09:30,91.40,78.80,66.75,270.00,10.00,0.00,29.68,M,3.11,M,SCT,M,M,M,2000.00,M,M,M,HZ,M,M,M,M,M,M,107.79,VABB 150930Z 27010KT 5000 HZ SCT020 33/26 Q1005 NOSIG,M
VABB,2022-05-15 10:00,89.60,77.00,66.55,260.00,10.00,0.00,29.68,M,3.11,M,FEW,M,M,M,2000.00,M,M,M,FU,M,M,M,M,M,M,102.54,VABB 151000Z 26010KT 5000 FU FEW020 32/25 Q1005 NOSIG,M
VABB,2022-05-15 10:30,89.60,78.80,70.63,260.00,11.00,0.00,29.65,M,3.11,M,FEW,M,M,M,2000.00,M,M,M,FU,M,M,M,M,M,M,105.15,VABB 151030Z 26011KT 5000 FU FEW020 32/26 Q1004 NOSIG,M
VABB,2022-05-15 11:00,89.60,75.20,62.68,270.00,10.00,0.00,29.65,M,3.11,M,FEW,M,M,M,2000.00,M,M,M,FU,M,M,M,M,M,M,100.23,VABB 151100Z 27010KT 5000 FU FEW020 32/24 Q1004 NOSIG,M
VABB,2022-05-15 11:30,89.60,77.00,66.55,270.00,11.00,0.00,29.65,M,3.11,M,FEW,M,M,M,2000.00,M,M,M,HZ,M,M,M,M,M,M,102.54,VABB 151130Z 27011KT 5000 HZ FEW020 32/25 Q1004 NOSIG,M
VABB,2022-05-15 12:00,89.60,77.00,66.55,270.00,11.00,0.00,29.65,M,3.11,M,FEW,M,M,M,2000.00,M,M,M,HZ,M,M,M,M,M,M,102.54,VABB 151200Z 27011KT 5000 HZ FEW020 32/25 Q1004 NOSIG,M
VABB,2022-05-15 12:30,87.80,78.80,74.77,270.00,10.00,0.00,29.65,M,3.11,M,FEW,M,M,M,2000.00,M,M,M,HZ,M,M,M,M,M,M,102.37,VABB 151230Z 27010KT 5000 HZ FEW020 31/26 Q1004 NOSIG,M
VABB,2022-05-15 13:00,87.80,78.80,74.77,290.00,10.00,0.00,29.68,M,2.80,M,SCT,M,M,M,2000.00,M,M,M,HZ,M,M,M,M,M,M,102.37,VABB 151300Z 29010KT 4500 HZ SCT020 31/26 Q1005 NOSIG,M
VABB,2022-05-15 13:30,87.80,78.80,74.77,280.00,10.00,0.00,29.68,M,2.80,M,SCT,M,M,M,2000.00,M,M,M,HZ,M,M,M,M,M,M,102.37,VABB 151330Z 28010KT 4500 HZ SCT020 31/26 Q1005 NOSIG,M
VABB,2022-05-15 14:00,87.80,78.80,74.77,280.00,10.00,0.00,29.68,M,2.49,M,SCT,M,M,M,2000.00,M,M,M,HZ,M,M,M,M,M,M,102.37,VABB 151400Z 28010KT 4000 HZ SCT020 31/26 Q1005 NOSIG,M
VABB,2022-05-15 14:30,87.80,78.80,74.77,290.00,6.00,0.00,29.71,M,2.17,M,SCT,M,M,M,2000.00,M,M,M,HZ,M,M,M,M,M,M,102.37,VABB 151430Z 29006KT 3500 HZ SCT020 31/26 Q1006 NOSIG,M
VABB,2022-05-15 15:00,86.00,78.80,79.18,270.00,10.00,0.00,29.71,M,2.17,M,SCT,M,M,M,2000.00,M,M,M,HZ,M,M,M,M,M,M,99.38,VABB 151500Z 27010KT 3500 HZ SCT020 30/26 Q1006 NOSIG,M
VABB,2022-05-15 15:30,86.00,78.80,79.18,280.00,8.00,0.00,29.71,M,2.17,M,SCT,M,M,M,2000.00,M,M,M,HZ,M,M,M,M,M,M,99.38,VABB 151530Z 28008KT 3500 HZ SCT020 30/26 Q1006 NOSIG,M
VABB,2022-05-15 16:00,87.80,78.80,74.77,280.00,7.00,0.00,29.71,M,2.17,M,SCT,M,M,M,2000.00,M,M,M,HZ,M,M,M,M,M,M,102.37,VABB 151600Z 28007KT 3500 HZ SCT020 31/26 Q1006 NOSIG,M
VABB,2022-05-15 16:30,86.00,78.80,79.18,280.00,8.00,0.00,29.74,M,2.17,M,SCT,M,M,M,2000.00,M,M,M,HZ,M,M,M,M,M,M,99.38,VABB 151630Z 28008KT 3500 HZ SCT020 30/26 Q1007 NOSIG,M
VABB,2022-05-15 17:00,86.00,78.80,79.18,270.00,6.00,0.00,29.74,M,2.17,M,SCT,M,M,M,2000.00,M,M,M,HZ,M,M,M,M,M,M,99.38,VABB 151700Z 27006KT 3500 HZ SCT020 30/26 Q1007 NOSIG,M
VABB,2022-05-15 17:30,86.00,78.80,79.18,270.00,7.00,0.00,29.74,M,2.17,M,SCT,M,M,M,2000.00,M,M,M,HZ,M,M,M,M,M,M,99.38,VABB 151730Z 27007KT 3500 HZ SCT020 30/26 Q1007 NOSIG,M
VABB,2022-05-15 18:00,86.00,77.00,74.61,270.00,8.00,0.00,29.74,M,2.17,M,SCT,M,M,M,2000.00,M,M,M,HZ,M,M,M,M,M,M,97.15,VABB 151800Z 27008KT 3500 HZ SCT020 30/25 Q1007 NOSIG,M
VABB,2022-05-15 18:30,86.00,77.00,74.61,260.00,7.00,0.00,29.74,M,2.17,M,SCT,M,M,M,2000.00,M,M,M,HZ,M,M,M,M,M,M,97.15,VABB 151830Z 26007KT 3500 HZ SCT020 30/25 Q1007 NOSIG,M
VABB,2022-05-15 19:00,86.00,77.00,74.61,270.00,8.00,0.00,29.71,M,2.17,M,SCT,M,M,M,2000.00,M,M,M,HZ,M,M,M,M,M,M,97.15,VABB 151900Z 27008KT 3500 HZ SCT020 30/25 Q1006 NOSIG,M
VABB,2022-05-15 19:30,86.00,78.80,79.18,260.00,7.00,0.00,29.71,M,2.17,M,SCT,M,M,M,2000.00,M,M,M,HZ,M,M,M,M,M,M,99.38,VABB 151930Z 26007KT 3500 HZ SCT020 30/26 Q1006 NOSIG,M
VABB,2022-05-15 20:00,86.00,78.80,79.18,270.00,5.00,0.00,29.71,M,2.17,M,SCT,M,M,M,2000.00,M,M,M,HZ,M,M,M,M,M,M,99.38,VABB 152000Z 27005KT 3500 HZ SCT020 30/26 Q1006 NOSIG,M
VABB,2022-05-15 20:30,86.00,78.80,79.18,260.00,8.00,0.00,29.71,M,2.17,M,SCT,M,M,M,2000.00,M,M,M,HZ,M,M,M,M,M,M,99.38,VABB 152030Z 26008KT 3500 HZ SCT020 30/26 Q1006 NOSIG,M
VABB,2022-05-15 21:00,86.00,78.80,79.18,280.00,7.00,0.00,29.71,M,2.17,M,SCT,M,M,M,2000.00,M,M,M,HZ,M,M,M,M,M,M,99.38,VABB 152100Z 28007KT 3500 HZ SCT020 30/26 Q1006 NOSIG,M
VABB,2022-05-15 21:30,86.00,78.80,79.18,270.00,5.00,0.00,29.71,M,2.17,M,SCT,M,M,M,2000.00,M,M,M,HZ,M,M,M,M,M,M,99.38,VABB 152130Z 27005KT 3500 HZ SCT020 30/26 Q1006 NOSIG,M
VABB,2022-05-15 22:00,84.20,77.00,79.04,280.00,7.00,0.00,29.71,M,2.17,M,SCT,M,M,M,2000.00,M,M,M,HZ,M,M,M,M,M,M,94.16,VABB 152200Z 28007KT 3500 HZ SCT020 29/25 Q1006 NOSIG,M
VABB,2022-05-15 22:30,84.20,78.80,83.88,280.00,6.00,0.00,29.71,M,2.17,M,SCT,M,M,M,2000.00,M,M,M,HZ,M,M,M,M,M,M,96.10,VABB 152230Z 28006KT 3500 HZ SCT020 29/26 Q1006 NOSIG,M
VABB,2022-05-15 23:00,84.20,77.00,79.04,280.00,4.00,0.00,29.71,M,2.17,M,SCT,M,M,M,2000.00,M,M,M,HZ,M,M,M,M,M,M,94.16,VABB 152300Z 28004KT 3500 HZ SCT020 29/25 Q1006 NOSIG,M
VABB,2022-05-15 23:30,84.20,77.00,79.04,280.00,5.00,0.00,29.71,M,2.17,M,SCT,M,M,M,2000.00,M,M,M,HZ,M,M,M,M,M,M,94.16,VABB 152330Z 28005KT 3500 HZ SCT020 29/25 Q1006 NOSIG,M
VABB,2022-05-16 00:00,84.20,77.00,79.04,290.00,3.00,0.00,29.71,M,2.17,M,SCT,M,M,M,2000.00,M,M,M,HZ,M,M,M,M,M,M,94.16,VABB 160000Z 29003KT 3500 HZ SCT020 29/25 Q1006 NOSIG,M
VABB,2022-05-16 00:30,84.20,78.80,83.88,230.00,4.00,0.00,29.71,M,2.17,M,SCT,M,M,M,2000.00,M,M,M,HZ,M,M,M,M,M,M,96.10,VABB 160030Z 23004KT 3500 HZ SCT020 29/26 Q1006 NOSIG,M
VABB,2022-05-16 01:00,84.20,77.00,79.04,230.00,6.00,0.00,29.71,M,2.17,M,SCT,M,M,M,2000.00,M,M,M,HZ,M,M,M,M,M,M,94.16,VABB 160100Z 23006KT 3500 HZ SCT020 29/25 Q1006 NOSIG,M
VABB,2022-05-16 01:30,86.00,77.00,74.61,240.00,4.00,0.00,29.71,M,2.17,M,SCT,M,M,M,2000.00,M,M,M,HZ,M,M,M,M,M,M,97.15,VABB 160130Z 24004KT 3500 HZ SCT020 30/25 Q1006 NOSIG,M
VABB,2022-05-16 02:00,86.00,77.00,74.61,220.00,3.00,0.00,29.71,M,2.17,M,SCT,M,M,M,2000.00,M,M,M,HZ,M,M,M,M,M,M,97.15,VABB 160200Z 22003KT 3500 HZ SCT020 30/25 Q1006 NOSIG,M
VABB,2022-05-16 02:30,86.00,77.00,74.61,220.00,5.00,0.00,29.74,M,2.17,M,SCT,M,M,M,2000.00,M,M,M,HZ,M,M,M,M,M,M,97.15,VABB 160230Z 22005KT 3500 HZ SCT020 30/25 Q1007 NOSIG,M
VABB,2022-05-16 03:00,87.80,77.00,70.45,290.00,3.00,0.00,29.74,M,2.17,M,FEW,SCT,M,M,2000.00,2500.00,M,M,HZ,M,M,M,M,M,M,99.92,VABB 160300Z 29003KT 3500 HZ FEW020 SCT025 31/25 Q1007 NOSIG,M
VABB,2022-05-16 03:30,87.80,77.00,70.45,300.00,3.00,0.00,29.74,M,2.17,M,FEW,SCT,M,M,2000.00,2500.00,M,M,HZ,M,M,M,M,M,M,99.92,VABB 160330Z 30003KT 3500 HZ FEW020 SCT025 31/25 Q1007 NOSIG,M
VABB,2022-05-16 04:00,89.60,77.00,66.55,240.00,7.00,0.00,29.74,M,2.17,M,FEW,SCT,M,M,2000.00,2500.00,M,M,HZ,M,M,M,M,M,M,102.54,VABB 160400Z 24007KT 3500 HZ FEW020 SCT025 32/25 Q1007 NOSIG,M
VABB,2022-05-16 04:30,89.60,77.00,66.55,260.00,9.00,0.00,29.74,M,2.49,M,FEW,SCT,M,M,2000.00,2500.00,M,M,HZ,M,M,M,M,M,M,102.54,VABB 160430Z 26009KT 4000 HZ FEW020 SCT025 32/25 Q1007 NOSIG,M
VABB,2022-05-16 05:00,89.60,77.00,66.55,260.00,7.00,0.00,29.74,M,2.49,M,FEW,SCT,M,M,2000.00,2500.00,M,M,HZ,M,M,M,M,M,M,102.54,VABB 160500Z 26007KT 4000 HZ FEW020 SCT025 32/25 Q1007 NOSIG,M
VABB,2022-05-16 05:30,91.40,77.00,62.90,240.00,8.00,0.00,29.74,M,2.49,M,FEW,SCT,M,M,2000.00,2500.00,M,M,HZ,M,M,M,M,M,M,105.06,VABB 160530Z 24008KT 4000 HZ FEW020 SCT025 33/25 Q1007 NOSIG,M
VABB,2022-05-16 06:00,91.40,77.00,62.90,260.00,9.00,0.00,29.74,M,2.49,M,FEW,SCT,M,M,2000.00,2500.00,M,M,HZ,M,M,M,M,M,M,105.06,VABB 160600Z 26009KT 4000 HZ FEW020 SCT025 33/25 Q1007 NOSIG,M
VABB,2022-05-16 06:30,91.40,77.00,62.90,270.00,10.00,0.00,29.71,M,2.49,M,FEW,SCT,M,M,2000.00,2500.00,M,M,HZ,M,M,M,M,M,M,105.06,VABB 160630Z 27010KT 4000 HZ FEW020 SCT025 33/25 Q1006 NOSIG,M
VABB,2022-05-16 07:00,91.40,75.20,59.24,270.00,11.00,0.00,29.71,M,2.49,M,FEW,M,M,M,2500.00,M,M,M,HZ,M,M,M,M,M,M,102.65,VABB 160700Z 27011KT 4000 HZ FEW025 33/24 Q1006 NOSIG,M
VABB,2022-05-16 07:30,91.40,77.00,62.90,260.00,12.00,0.00,29.71,M,2.49,M,FEW,M,M,M,10000.00,M,M,M,FU,M,M,M,M,M,M,105.06,VABB 160730Z 26012KT 4000 FU FEW100 33/25 Q1006 BECMG 5000 FU,M
VABB,2022-05-16 08:00,91.40,77.00,62.90,270.00,11.00,0.00,29.68,M,3.11,M,NSC,M,M,M,M,M,M,M,FU,M,M,M,M,M,M,105.06,VABB 160800Z 27011KT 5000 FU NSC 33/25 Q1005 NOSIG,M
VABB,2022-05-16 08:30,91.40,75.20,59.24,270.00,8.00,0.00,29.68,M,3.11,18.00,NSC,M,M,M,M,M,M,M,FU,M,M,M,M,M,M,102.65,VABB 160830Z 27008G18KT 5000 FU NSC 33/24 Q1005 NOSIG,M
VABB,2022-05-16 09:00,91.40,75.20,59.24,260.00,12.00,0.00,29.65,M,3.11,M,NSC,M,M,M,M,M,M,M,FU,M,M,M,M,M,M,102.65,VABB 160900Z 26012KT 5000 FU NSC 33/24 Q1004 NOSIG,M
VABB,2022-05-16 09:30,91.40,77.00,62.90,250.00,7.00,0.00,29.62,M,3.11,17.00,NSC,M,M,M,M,M,M,M,FU,M,M,M,M,M,M,105.06,VABB 160930Z 25007G17KT 5000 FU NSC 33/25 Q1003 NOSIG,M
VABB,2022-05-16 10:00,89.60,77.00,66.55,250.00,12.00,0.00,29.62,M,3.11,22.00,NSC,M,M,M,M,M,M,M,HZ,M,M,M,M,M,M,102.54,VABB 161000Z 25012G22KT 5000 HZ NSC 32/25 Q1003 NOSIG,M
VABB,2022-05-16 10:30,89.60,78.80,70.63,290.00,12.00,0.00,29.59,M,3.11,M,FEW,M,M,M,2000.00,M,M,M,HZ,M,M,M,M,M,M,105.15,VABB 161030Z 29012KT 5000 HZ FEW020 32/26 Q1002 NOSIG,M
VABB,2022-05-16 11:00,89.60,78.80,70.63,290.00,8.00,0.00,29.59,M,3.11,18.00,FEW,M,M,M,2000.00,M,M,M,HZ,M,M,M,M,M,M,105.15,VABB 161100Z 29008G18KT 5000 HZ FEW020 32/26 Q1002 NOSIG,M
VABB,2022-05-16 11:30,89.60,78.80,70.63,280.00,9.00,0.00,29.59,M,3.11,19.00,FEW,M,M,M,2000.00,M,M,M,HZ,M,M,M,M,M,M,105.15,VABB 161130Z 28009G19KT 5000 HZ FEW020 32/26 Q1002 NOSIG,M
VABB,2022-05-16 12:00,89.60,78.80,70.63,290.00,7.00,0.00,29.59,M,3.11,17.00,FEW,M,M,M,2000.00,M,M,M,HZ,M,M,M,M,M,M,105.15,VABB 161200Z 29007G17KT 5000 HZ FEW020 32/26 Q1002 NOSIG,M
VABB,2022-05-16 12:30,89.60,78.80,70.63,290.00,7.00,0.00,29.59,M,3.11,17.00,FEW,M,M,M,2000.00,M,M,M,HZ,M,M,M,M,M,M,105.15,VABB 161230Z 29007G17KT 5000 HZ FEW020 32/26 Q1002 NOSIG,M
VABB,2022-05-16 13:00,87.80,78.80,74.77,310.00,7.00,0.00,29.59,M,2.80,M,FEW,M,M,M,2000.00,M,M,M,HZ,M,M,M,M,M,M,102.37,VABB 161300Z 31007KT 4500 HZ FEW020 31/26 Q1002 NOSIG,M
VABB,2022-05-16 13:30,86.00,78.80,79.18,290.00,10.00,0.00,29.59,M,2.49,M,FEW,M,M,M,2000.00,M,M,M,HZ,M,M,M,M,M,M,99.38,VABB 161330Z 29010KT 4000 HZ FEW020 30/26 Q1002 NOSIG,M
VABB,2022-05-16 14:00,86.00,80.60,83.99,320.00,8.00,0.00,29.59,M,2.17,M,FEW,M,M,M,2000.00,M,M,M,HZ,M,M,M,M,M,M,101.90,VABB 161400Z 32008KT 3500 HZ FEW020 30/27 Q1002 NOSIG,M
VABB,2022-05-16 14:30,86.00,80.60,83.99,280.00,9.00,0.00,29.62,M,2.17,M,FEW,M,M,M,2000.00,M,M,M,HZ,M,M,M,M,M,M,101.90,VABB 161430Z 28009KT 3500 HZ FEW020 30/27 Q1003 NOSIG,M
VABB,2022-05-16 15:00,86.00,80.60,83.99,300.00,8.00,0.00,29.62,M,2.17,M,FEW,M,M,M,2000.00,M,M,M,HZ,M,M,M,M,M,M,101.90,VABB 161500Z 30008KT 3500 HZ FEW020 30/27 Q1003 NOSIG,M
VABB,2022-05-16 15:30,86.00,80.60,83.99,300.00,7.00,0.00,29.62,M,2.17,M,SCT,M,M,M,2000.00,M,M,M,HZ,M,M,M,M,M,M,101.90,VABB 161530Z 30007KT 3500 HZ SCT020 30/27 Q1003 NOSIG,M
VABB,2022-05-16 16:00,86.00,80.60,83.99,300.00,9.00,0.00,29.65,M,2.17,M,SCT,M,M,M,2000.00,M,M,M,HZ,M,M,M,M,M,M,101.90,VABB 161600Z 30009KT 3500 HZ SCT020 30/27 Q1004 NOSIG,M
VABB,2022-05-16 16:30,86.00,80.60,83.99,310.00,6.00,0.00,29.68,M,2.17,M,SCT,M,M,M,2000.00,M,M,M,HZ,M,M,M,M,M,M,101.90,VABB 161630Z 31006KT 3500 HZ SCT020 30/27 Q1005 NOSIG,M
VABB,2022-05-16 17:00,86.00,78.80,79.18,290.00,6.00,0.00,29.68,M,2.17,M,SCT,M,M,M,2000.00,M,M,M,HZ,M,M,M,M,M,M,99.38,VABB 161700Z 29006KT 3500 HZ SCT020 30/26 Q1005 NOSIG,M
VABB,2022-05-16 17:30,86.00,78.80,79.18,300.00,6.00,0.00,29.68,M,2.17,M,SCT,M,M,M,2000.00,M,M,M,HZ,M,M,M,M,M,M,99.38,VABB 161730Z 30006KT 3500 HZ SCT020 30/26 Q1005 NOSIG,M
VABB,2022-05-16 18:00,86.00,78.80,79.18,260.00,8.00,0.00,29.68,M,2.17,M,SCT,M,M,M,2000.00,M,M,M,HZ,M,M,M,M,M,M,99.38,VABB 161800Z 26008KT 3500 HZ SCT020 30/26 Q1005 NOSIG,M
VABB,2022-05-16 18:30,86.00,78.80,79.18,260.00,8.00,0.00,29.68,M,2.17,M,SCT,M,M,M,2000.00,M,M,M,HZ,M,M,M,M,M,M,99.38,VABB 161830Z 26008KT 3500 HZ SCT020 30/26 Q1005 NOSIG,M
VABB,2022-05-16 19:00,86.00,78.80,79.18,250.00,8.00,0.00,29.68,M,2.17,M,SCT,M,M,M,2000.00,M,M,M,HZ,M,M,M,M,M,M,99.38,VABB 161900Z 25008KT 3500 HZ SCT020 30/26 Q1005 NOSIG,M
VABB,2022-05-16 19:30,86.00,78.80,79.18,250.00,6.00,0.00,29.68,M,2.17,M,SCT,M,M,M,2000.00,M,M,M,HZ,M,M,M,M,M,M,99.38,VABB 161930Z 25006KT 3500 HZ SCT020 30/26 Q1005 NOSIG,M
VABB,2022-05-16 20:00,86.00,78.80,79.18,240.00,5.00,0.00,29.68,M,2.17,M,SCT,M,M,M,2000.00,M,M,M,HZ,M,M,M,M,M,M,99.38,VABB 162000Z 24005KT 3500 HZ SCT020 30/26 Q1005 NOSIG,M
VABB,2022-05-16 20:30,86.00,78.80,79.18,280.00,6.00,0.00,29.65,M,2.17,M,SCT,M,M,M,2000.00,M,M,M,HZ,M,M,M,M,M,M,99.38,VABB 162030Z 28006KT 3500 HZ SCT020 30/26 Q1004 NOSIG,M
VABB,2022-05-16 21:00,86.00,78.80,79.18,280.00,6.00,0.00,29.65,M,2.17,M,SCT,M,M,M,2000.00,M,M,M,HZ,M,M,M,M,M,M,99.38,VABB 162100Z 28006KT 3500 HZ SCT020 30/26 Q1004 NOSIG,M
VABB,2022-05-16 21:30,86.00,77.00,74.61,270.00,6.00,0.00,29.65,M,2.17,M,SCT,M,M,M,2000.00,M,M,M,HZ,M,M,M,M,M,M,97.15,VABB 162130Z 27006KT 3500 HZ SCT020 30/25 Q1004 NOSIG,M
VABB,2022-05-16 22:00,86.00,78.80,79.18,280.00,5.00,0.00,29.62,M,2.17,M,SCT,M,M,M,2000.00,M,M,M,HZ,M,M,M,M,M,M,99.38,VABB 162200Z 28005KT 3500 HZ SCT020 30/26 Q1003 NOSIG,M
VABB,2022-05-16 22:30,86.00,78.80,79.18,310.00,4.00,0.00,29.62,M,2.17,M,SCT,M,M,M,2000.00,M,M,M,HZ,M,M,M,M,M,M,99.38,VABB 162230Z 31004KT 3500 HZ SCT020 30/26 Q1003 NOSIG,M
VABB,2022-05-16 23:00,86.00,77.00,74.61,300.00,4.00,0.00,29.62,M,2.17,M,SCT,M,M,M,2000.00,M,M,M,HZ,M,M,M,M,M,M,97.15,VABB 162300Z 30004KT 3500 HZ SCT020 30/25 Q1003 NOSIG,M
VABB,2022-05-16 23:30,86.00,77.00,74.61,310.00,4.00,0.00,29.62,M,2.17,M,SCT,M,M,M,2000.00,M,M,M,HZ,M,M,M,M,M,M,97.15,VABB 162330Z 31004KT 3500 HZ SCT020 30/25 Q1003 NOSIG,M
VABB,2022-05-17 00:00,86.00,77.00,74.61,330.00,3.00,0.00,29.65,M,2.17,M,SCT,M,M,M,2000.00,M,M,M,HZ,M,M,M,M,M,M,97.15,VABB 170000Z 33003KT 3500 HZ SCT020 30/25 Q1004 NOSIG,M
VABB,2022-05-17 00:30,86.00,77.00,74.61,0.00,0.00,0.00,29.65,M,2.17,M,SCT,M,M,M,2000.00,M,M,M,HZ,M,M,M,M,M,M,97.15,VABB 170030Z 00000KT 3500 HZ SCT020 30/25 Q1004 NOSIG,M
VABB,2022-05-17 01:00,86.00,77.00,74.61,300.00,5.00,0.00,29.65,M,2.17,M,SCT,M,M,M,2000.00,M,M,M,HZ,M,M,M,M,M,M,97.15,VABB 170100Z 30005KT 3500 HZ SCT020 30/25 Q1004 BECMG 3000 HZ,M
VABB,2022-05-17 01:30,86.00,77.00,74.61,290.00,4.00,0.00,29.68,M,1.86,M,SCT,M,M,M,2000.00,M,M,M,HZ,M,M,M,M,M,M,97.15,VABB 170130Z 29004KT 3000 HZ SCT020 30/25 Q1005 NOSIG,M
VABB,2022-05-17 02:00,86.00,77.00,74.61,300.00,5.00,0.00,29.68,M,1.86,M,SCT,M,M,M,2000.00,M,M,M,HZ,M,M,M,M,M,M,97.15,VABB 170200Z 30005KT 3000 HZ SCT020 30/25 Q1005 NOSIG,M
VABB,2022-05-17 02:30,86.00,77.00,74.61,240.00,8.00,0.00,29.68,M,1.86,M,SCT,M,M,M,2000.00,M,M,M,HZ,M,M,M,M,M,M,97.15,VABB 170230Z 24008KT 3000 HZ SCT020 30/25 Q1005 NOSIG,M
VABB,2022-05-17 03:00,86.00,77.00,74.61,250.00,7.00,0.00,29.68,M,1.55,M,SCT,M,M,M,2000.00,M,M,M,HZ,M,M,M,M,M,M,97.15,VABB 170300Z 25007KT 2500 HZ SCT020 30/25 Q1005 NOSIG,M
VABB,2022-05-17 03:30,87.80,77.00,70.45,280.00,8.00,0.00,29.71,M,1.55,M,SCT,SCT,M,M,2000.00,2500.00,M,M,HZ,M,M,M,M,M,M,99.92,VABB 170330Z 28008KT 2500 HZ SCT020 SCT025 31/25 Q1006 NOSIG,M
VABB,2022-05-17 04:00,87.80,77.00,70.45,280.00,8.00,0.00,29.71,M,1.55,M,SCT,SCT,M,M,2000.00,2500.00,M,M,HZ,M,M,M,M,M,M,99.92,VABB 170400Z 28008KT 2500 HZ SCT020 SCT025 31/25 Q1006 NOSIG,M
VABB,2022-05-17 04:30,89.60,73.40,59.01,250.00,7.00,0.00,29.71,M,1.55,M,SCT,M,M,M,2000.00,M,M,M,HZ,M,M,M,M,M,M,98.20,VABB 170430Z 25007KT 2500 HZ SCT020 32/23 Q1006 NOSIG,M
VABB,2022-05-17 05:00,89.60,71.60,55.53,230.00,7.00,0.00,29.71,M,1.55,M,SCT,M,M,M,2000.00,M,M,M,FU,M,M,M,M,M,M,96.41,VABB 170500Z 23007KT 2500 FU SCT020 32/22 Q1006 NOSIG,M
VABB,2022-05-17 05:30,91.40,71.60,52.48,230.00,4.00,0.00,29.68,M,1.55,M,FEW,M,M,M,2000.00,M,M,M,FU,M,M,M,M,M,M,98.64,VABB 170530Z 23004KT 2500 FU FEW020 33/22 Q1005 BECMG 3000 FU,M
VABB,2022-05-17 06:00,93.20,73.40,52.73,270.00,10.00,0.00,29.68,M,1.86,M,FEW,M,M,M,2000.00,M,M,M,FU,M,M,M,M,M,M,102.82,VABB 170600Z 27010KT 3000 FU FEW020 34/23 Q1005 NOSIG,M
VABB,2022-05-17 06:30,93.20,75.20,56.01,270.00,11.00,0.00,29.68,M,1.86,M,FEW,M,M,M,2000.00,M,M,M,FU,M,M,M,M,M,M,105.02,VABB 170630Z 27011KT 3000 FU FEW020 34/24 Q1005 NOSIG,M
VABB,2022-05-17 07:00,91.40,75.20,59.24,280.00,11.00,0.00,29.68,M,2.17,M,FEW,M,M,M,2000.00,M,M,M,FU,M,M,M,M,M,M,102.65,VABB 170700Z 28011KT 3500 FU FEW020 33/24 Q1005 NOSIG,M
VABB,2022-05-17 07:30,91.40,75.20,59.24,280.00,10.00,0.00,29.68,M,2.49,20.00,FEW,M,M,M,2000.00,M,M,M,FU,M,M,M,M,M,M,102.65,VABB 170730Z 28010G20KT 4000 FU FEW020 33/24 Q1005 BECMG 5000 FU,M
VABB,2022-05-17 08:00,91.40,77.00,62.90,250.00,8.00,0.00,29.65,M,3.11,18.00,FEW,M,M,M,2000.00,M,M,M,FU,M,M,M,M,M,M,105.06,VABB 170800Z 25008G18KT 5000 FU FEW020 33/25 Q1004 NOSIG,M
VABB,2022-05-17 08:30,91.40,77.00,62.90,260.00,11.00,0.00,29.65,M,2.49,M,FEW,M,M,M,2000.00,M,M,M,HZ,M,M,M,M,M,M,105.06,VABB 170830Z 26011KT 4000 HZ FEW020 33/25 Q1004 NOSIG,M
VABB,2022-05-17 09:00,89.60,75.20,62.68,280.00,10.00,0.00,29.62,M,2.49,M,NSC,M,M,M,M,M,M,M,HZ,M,M,M,M,M,M,100.23,VABB 170900Z 28010KT 4000 HZ NSC 32/24 Q1003 NOSIG,M
VABB,2022-05-17 09:30,89.60,77.00,66.55,260.00,12.00,0.00,29.62,M,2.49,M,NSC,M,M,M,M,M,M,M,HZ,M,M,M,M,M,M,102.54,VABB 170930Z 26012KT 4000 HZ NSC 32/25 Q1003 NOSIG,M
VABB,2022-05-17 10:00,89.60,77.00,66.55,270.00,11.00,0.00,29.62,M,2.49,M,FEW,M,M,M,2000.00,M,M,M,HZ,M,M,M,M,M,M,102.54,VABB 171000Z 27011KT 4000 HZ FEW020 32/25 Q1003 NOSIG,M
VABB,2022-05-17 10:30,89.60,77.00,66.55,290.00,12.00,0.00,29.62,M,2.49,M,FEW,M,M,M,2000.00,M,M,M,HZ,M,M,M,M,M,M,102.54,VABB 171030Z 29012KT 4000 HZ FEW020 32/25 Q1003 NOSIG,M
VABB,2022-05-17 11:00,89.60,77.00,66.55,260.00,12.00,0.00,29.59,M,2.49,M,FEW,M,M,M,2000.00,M,M,M,HZ,M,M,M,M,M,M,102.54,VABB 171100Z 26012KT 4000 HZ FEW020 32/25 Q1002 NOSIG,M
VABB,2022-05-17 11:30,89.60,77.00,66.55,290.00,10.00,0.00,29.59,M,2.49,M,FEW,M,M,M,2000.00,M,M,M,HZ,M,M,M,M,M,M,102.54,VABB 171130Z 29010KT 4000 HZ FEW020 32/25 Q1002 NOSIG,M
VABB,2022-05-17 12:00,87.80,77.00,70.45,280.00,11.00,0.00,29.59,M,2.49,M,FEW,M,M,M,2000.00,M,M,M,HZ,M,M,M,M,M,M,99.92,VABB 171200Z 28011KT 4000 HZ FEW020 31/25 Q1002 NOSIG,M
VABB,2022-05-17 12:30,87.80,78.80,74.77,290.00,9.00,0.00,29.59,M,2.49,M,FEW,M,M,M,2000.00,M,M,M,HZ,M,M,M,M,M,M,102.37,VABB 171230Z 29009KT 4000 HZ FEW020 31/26 Q1002 NOSIG,M
VABB,2022-05-17 13:00,87.80,78.80,74.77,270.00,12.00,0.00,29.59,M,2.49,M,SCT,M,M,M,2000.00,M,M,M,HZ,M,M,M,M,M,M,102.37,VABB 171300Z 27012KT 4000 HZ SCT020 31/26 Q1002 NOSIG,M
VABB,2022-05-17 13:30,86.00,78.80,79.18,290.00,9.00,0.00,29.62,M,2.17,M,SCT,M,M,M,2000.00,M,M,M,HZ,M,M,M,M,M,M,99.38,VABB 171330Z 29009KT 3500 HZ SCT020 30/26 Q1003 BECMG 3000 HZ,M
VABB,2022-05-17 14:00,86.00,78.80,79.18,280.00,8.00,0.00,29.62,M,1.86,M,SCT,M,M,M,2000.00,M,M,M,HZ,M,M,M,M,M,M,99.38,VABB 171400Z 28008KT 3000 HZ SCT020 30/26 Q1003 NOSIG,M
VABB,2022-05-17 14:30,86.00,77.00,74.61,270.00,7.00,0.00,29.62,M,1.86,M,SCT,M,M,M,2000.00,M,M,M,HZ,M,M,M,M,M,M,97.15,VABB 171430Z 27007KT 3000 HZ SCT020 30/25 Q1003 NOSIG,M
VABB,2022-05-17 15:00,86.00,77.00,74.61,260.00,8.00,0.00,29.65,M,1.86,M,SCT,M,M,M,2000.00,M,M,M,HZ,M,M,M,M,M,M,97.15,VABB 171500Z 26008KT 3000 HZ SCT020 30/25 Q1004 NOSIG,M
VABB,2022-05-17 15:30,86.00,77.00,74.61,250.00,7.00,0.00,29.65,M,1.86,M,SCT,M,M,M,2000.00,M,M,M,HZ,M,M,M,M,M,M,97.15,VABB 171530Z 25007KT 3000 HZ SCT020 30/25 Q1004 NOSIG,M
VABB,2022-05-17 16:00,86.00,77.00,74.61,240.00,7.00,0.00,29.65,M,1.86,M,SCT,M,M,M,2000.00,M,M,M,HZ,M,M,M,M,M,M,97.15,VABB 171600Z 24007KT 3000 HZ SCT020 30/25 Q1004 NOSIG,M
VABB,2022-05-17 16:30,86.00,77.00,74.61,250.00,7.00,0.00,29.68,M,1.86,M,SCT,M,M,M,2000.00,M,M,M,HZ,M,M,M,M,M,M,97.15,VABB 171630Z 25007KT 3000 HZ SCT020 30/25 Q1005 NOSIG,M
VABB,2022-05-17 17:00,86.00,77.00,74.61,230.00,6.00,0.00,29.68,M,1.86,M,SCT,M,M,M,2000.00,M,M,M,HZ,M,M,M,M,M,M,97.15,VABB 171700Z 23006KT 3000 HZ SCT020 30/25 Q1005 NOSIG,M
VABB,2022-05-17 17:30,86.00,77.00,74.61,260.00,7.00,0.00,29.68,M,1.86,M,SCT,M,M,M,2000.00,M,M,M,HZ,M,M,M,M,M,M,97.15,VABB 171730Z 26007KT 3000 HZ SCT020 30/25 Q1005 NOSIG,M
VABB,2022-05-17 18:00,86.00,77.00,74.61,240.00,6.00,0.00,29.68,M,1.86,M,SCT,M,M,M,2000.00,M,M,M,HZ,M,M,M,M,M,M,97.15,VABB 171800Z 24006KT 3000 HZ SCT020 30/25 Q1005 NOSIG,M
VABB,2022-05-17 18:30,86.00,77.00,74.61,270.00,7.00,0.00,29.68,M,1.86,M,SCT,M,M,M,2000.00,M,M,M,HZ,M,M,M,M,M,M,97.15,VABB 171830Z 27007KT 3000 HZ SCT020 30/25 Q1005 NOSIG,M
VABB,2022-05-17 19:00,86.00,77.00,74.61,270.00,7.00,0.00,29.68,M,1.86,M,SCT,M,M,M,2000.00,M,M,M,HZ,M,M,M,M,M,M,97.15,VABB 171900Z 27007KT 3000 HZ SCT020 30/25 Q1005 NOSIG,M
VABB,2022-05-17 19:30,84.20,77.00,79.04,280.00,7.00,0.00,29.65,M,1.86,M,SCT,M,M,M,2000.00,M,M,M,HZ,M,M,M,M,M,M,94.16,VABB 171930Z 28007KT 3000 HZ SCT020 29/25 Q1004 NOSIG,M
VABB,2022-05-17 20:00,84.20,77.00,79.04,270.00,6.00,0.00,29.65,M,1.86,M,SCT,M,M,M,2000.00,M,M,M,HZ,M,M,M,M,M,M,94.16,VABB 172000Z 27006KT 3000 HZ SCT020 29/25 Q1004 NOSIG,M
VABB,2022-05-17 20:30,84.20,77.00,79.04,270.00,5.00,0.00,29.65,M,1.86,M,SCT,M,M,M,2000.00,M,M,M,HZ,M,M,M,M,M,M,94.16,VABB 172030Z 27005KT 3000 HZ SCT020 29/25 Q1004 NOSIG,M
VABB,2022-05-17 21:00,84.20,77.00,79.04,290.00,6.00,0.00,29.65,M,1.86,M,SCT,M,M,M,2000.00,M,M,M,HZ,M,M,M,M,M,M,94.16,VABB 172100Z 29006KT 3000 HZ SCT020 29/25 Q1004 NOSIG,M
VABB,2022-05-17 21:30,84.20,77.00,79.04,260.00,4.00,0.00,29.65,M,1.86,M,SCT,M,M,M,2000.00,M,M,M,HZ,M,M,M,M,M,M,94.16,VABB 172130Z 26004KT 3000 HZ SCT020 29/25 Q1004 NOSIG,M
VABB,2022-05-17 22:00,84.20,77.00,79.04,230.00,3.00,0.00,29.65,M,1.86,M,SCT,M,M,M,2000.00,M,M,M,HZ,M,M,M,M,M,M,94.16,VABB 172200Z 23003KT 3000 HZ SCT020 29/25 Q1004 NOSIG,M
VABB,2022-05-17 22:30,84.20,77.00,79.04,0.00,0.00,0.00,29.65,M,1.86,M,SCT,M,M,M,2000.00,M,M,M,HZ,M,M,M,M,M,M,94.16,VABB 172230Z 00000KT 3000 HZ SCT020 29/25 Q1004 NOSIG,M
VABB,2022-05-17 23:00,84.20,77.00,79.04,240.00,5.00,0.00,29.65,M,1.86,M,SCT,M,M,M,2000.00,M,M,M,HZ,M,M,M,M,M,M,94.16,VABB 172300Z 24005KT 3000 HZ SCT020 29/25 Q1004 NOSIG,M
VABB,2022-05-17 23:30,84.20,75.20,74.44,230.00,4.00,0.00,29.65,M,1.86,M,SCT,M,M,M,2000.00,M,M,M,HZ,M,M,M,M,M,M,92.45,VABB 172330Z 23004KT 3000 HZ SCT020 29/24 Q1004 NOSIG,M
VABB,2022-05-18 00:00,84.20,77.00,79.04,240.00,5.00,0.00,29.65,M,1.86,M,SCT,M,M,M,2000.00,M,M,M,HZ,M,M,M,M,M,M,94.16,VABB 180000Z 24005KT 3000 HZ SCT020 29/25 Q1004 NOSIG,M
VABB,2022-05-18 00:30,84.20,77.00,79.04,240.00,3.00,0.00,29.68,M,1.86,M,SCT,M,M,M,2000.00,M,M,M,HZ,M,M,M,M,M,M,94.16,VABB 180030Z 24003KT 3000 HZ SCT020 29/25 Q1005 NOSIG,M
VABB,2022-05-18 01:00,84.20,75.20,74.44,290.00,6.00,0.00,29.68,M,1.86,M,SCT,M,M,M,2000.00,M,M,M,HZ,M,M,M,M,M,M,92.45,VABB 180100Z 29006KT 3000 HZ SCT020 29/24 Q1005 NOSIG,M
VABB,2022-05-18 01:30,84.20,75.20,74.44,280.00,6.00,0.00,29.68,M,1.86,M,SCT,M,M,M,2000.00,M,M,M,HZ,M,M,M,M,M,M,92.45,VABB 180130Z 28006KT 3000 HZ SCT020 29/24 Q1005 NOSIG,M
VABB,2022-05-18 02:00,86.00,75.20,70.27,290.00,5.00,0.00,29.71,M,1.86,M,SCT,M,M,M,2000.00,M,M,M,HZ,M,M,M,M,M,M,95.19,VABB 180200Z 29005KT 3000 HZ SCT020 30/24 Q1006 NOSIG,M
VABB,2022-05-18 02:30,86.00,75.20,70.27,310.00,4.00,0.00,29.71,M,1.86,M,SCT,M,M,M,2000.00,M,M,M,HZ,M,M,M,M,M,M,95.19,VABB 180230Z 31004KT 3000 HZ SCT020 30/24 Q1006 NOSIG,M
VABB,2022-05-18 03:00,86.00,75.20,70.27,270.00,6.00,0.00,29.71,M,1.55,M,SCT,SCT,M,M,2000.00,2500.00,M,M,HZ,M,M,M,M,M,M,95.19,VABB 180300Z 27006KT 2500 HZ SCT020 SCT025 30/24 Q1006 NOSIG,M
VABB,2022-05-18 03:30,87.80,75.20,66.35,260.00,7.00,0.00,29.71,M,1.55,M,SCT,SCT,M,M,2000.00,2500.00,M,M,HZ,M,M,M,M,M,M,97.76,VABB 180330Z 26007KT 2500 HZ SCT020 SCT025 31/24 Q1006 NOSIG,M
VABB,2022-05-18 04:00,87.80,75.20,66.35,280.00,6.00,0.00,29.74,M,1.55,M,SCT,SCT,M,M,2000.00,2500.00,M,M,HZ,M,M,M,M,M,M,97.76,VABB 180400Z 28006KT 2500 HZ SCT020 SCT025 31/24 Q1007 NOSIG,M
VABB,2022-05-18 04:30,87.80,73.40,62.47,270.00,6.00,0.00,29.71,M,1.55,M,FEW,SCT,M,M,2000.00,2500.00,M,M,HZ,M,M,M,M,M,M,95.86,VABB 180430Z 27006KT 2500 HZ FEW020 SCT025 31/23 Q1006 BECMG 3000 HZ,M
VABB,2022-05-18 05:00,89.60,73.40,59.01,260.00,7.00,0.00,29.71,M,1.86,M,FEW,SCT,M,M,2000.00,2500.00,M,M,HZ,M,M,M,M,M,M,98.20,VABB 180500Z 26007KT 3000 HZ FEW020 SCT025 32/23 Q1006 NOSIG,M
VABB,2022-05-18 05:30,89.60,73.40,59.01,280.00,7.00,0.00,29.71,M,1.86,M,FEW,SCT,M,M,2000.00,2500.00,M,M,HZ,M,M,M,M,M,M,98.20,VABB 180530Z 28007KT 3000 HZ FEW020 SCT025 32/23 Q1006 NOSIG,M
VABB,2022-05-18 06:00,91.40,71.60,52.48,280.00,7.00,0.00,29.71,M,1.86,M,FEW,SCT,M,M,2000.00,2500.00,M,M,FU,M,M,M,M,M,M,98.64,VABB 180600Z 28007KT 3000 FU FEW020 SCT025 33/22 Q1006 NOSIG,M
VABB,2022-05-18 06:30,91.40,73.40,55.77,300.00,7.00,0.00,29.68,M,1.86,M,FEW,SCT,M,M,2000.00,2500.00,M,M,FU,M,M,M,M,M,M,100.52,VABB 180630Z 30007KT 3000 FU FEW020 SCT025 33/23 Q1005 NOSIG,M
VABB,2022-05-18 07:00,89.60,73.40,59.01,260.00,11.00,0.00,29.68,M,1.86,M,SCT,M,M,M,2000.00,M,M,M,FU,M,M,M,M,M,M,98.20,VABB 180700Z 26011KT 3000 FU SCT020 32/23 Q1005 NOSIG,M
VABB,2022-05-18 07:30,91.40,75.20,59.24,260.00,11.00,0.00,29.68,M,1.86,M,SCT,M,M,M,2000.00,M,M,M,FU,M,M,M,M,M,M,102.65,VABB 180730Z 26011KT 3000 FU SCT020 33/24 Q1005 NOSIG,M
VABB,2022-05-18 08:00,91.40,75.20,59.24,250.00,11.00,0.00,29.65,M,1.86,M,SCT,M,M,M,2000.00,M,M,M,FU,M,M,M,M,M,M,102.65,VABB 180800Z 25011KT 3000 FU SCT020 33/24 Q1004 NOSIG,M
VABB,2022-05-18 08:30,89.60,75.20,62.68,270.00,9.00,0.00,29.65,M,1.86,M,FEW,M,M,M,2000.00,M,M,M,FU,M,M,M,M,M,M,100.23,VABB 180830Z 27009KT 3000 FU FEW020 32/24 Q1004 NOSIG,M
VABB,2022-05-18 09:00,89.60,75.20,62.68,270.00,11.00,0.00,29.65,M,1.86,M,NSC,M,M,M,M,M,M,M,FU,M,M,M,M,M,M,100.23,VABB 180900Z 27011KT 3000 FU NSC 32/24 Q1004 NOSIG,M
VABB,2022-05-18 09:30,89.60,75.20,62.68,280.00,12.00,0.00,29.62,M,1.86,M,NSC,M,M,M,M,M,M,M,FU,M,M,M,M,M,M,100.23,VABB 180930Z 28012KT 3000 FU NSC 32/24 Q1003 NOSIG,M
VABB,2022-05-18 10:00,89.60,75.20,62.68,270.00,7.00,0.00,29.62,M,1.86,17.00,NSC,M,M,M,M,M,M,M,FU,M,M,M,M,M,M,100.23,VABB 181000Z 27007G17KT 3000 FU NSC 32/24 Q1003 NOSIG,M
VABB,2022-05-18 10:30,89.60,73.40,59.01,250.00,7.00,0.00,29.62,M,1.86,17.00,NSC,M,M,M,M,M,M,M,FU,M,M,M,M,M,M,98.20,VABB 181030Z 25007G17KT 3000 FU NSC 32/23 Q1003 NOSIG,M
VABB,2022-05-18 11:00,89.60,77.00,66.55,260.00,7.00,0.00,29.59,M,1.86,17.00,NSC,M,M,M,M,M,M,M,HZ,M,M,M,M,M,M,102.54,VABB 181100Z 26007G17KT 3000 HZ NSC 32/25 Q1002 NOSIG,M
VABB,2022-05-18 11:30,89.60,75.20,62.68,270.00,12.00,0.00,29.59,M,1.86,M,NSC,M,M,M,M,M,M,M,HZ,M,M,M,M,M,M,100.23,VABB 181130Z 27012KT 3000 HZ NSC 32/24 Q1002 NOSIG,M
VABB,2022-05-18 12:00,87.80,77.00,70.45,290.00,9.00,0.00,29.59,M,1.86,M,NSC,M,M,M,M,M,M,M,HZ,M,M,M,M,M,M,99.92,VABB 181200Z 29009KT 3000 HZ NSC 31/25 Q1002 NOSIG,M
VABB,2022-05-18 12:30,87.80,75.20,66.35,280.00,13.00,0.00,29.62,M,1.86,M,NSC,M,M,M,M,M,M,M,HZ,M,M,M,M,M,M,97.76,VABB 181230Z 28013KT 3000 HZ NSC 31/24 Q1003 NOSIG,M
VABB,2022-05-18 13:00,87.80,77.00,70.45,270.00,7.00,0.00,29.62,M,1.86,17.00,NSC,M,M,M,M,M,M,M,HZ,M,M,M,M,M,M,99.92,VABB 181300Z 27007G17KT 3000 HZ NSC 31/25 Q1003 NOSIG,M
VABB,2022-05-18 13:30,86.00,77.00,74.61,270.00,10.00,0.00,29.62,M,1.86,M,FEW,M,M,M,2000.00,M,M,M,HZ,M,M,M,M,M,M,97.15,VABB 181330Z 27010KT 3000 HZ FEW020 30/25 Q1003 NOSIG,M
VABB,2022-05-18 14:00,86.00,77.00,74.61,300.00,8.00,0.00,29.65,M,1.86,M,FEW,M,M,M,2000.00,M,M,M,HZ,M,M,M,M,M,M,97.15,VABB 181400Z 30008KT 3000 HZ FEW020 30/25 Q1004 NOSIG,M
VABB,2022-05-18 14:30,86.00,77.00,74.61,290.00,9.00,0.00,29.65,M,1.86,M,FEW,M,M,M,2000.00,M,M,M,HZ,M,M,M,M,M,M,97.15,VABB 181430Z 29009KT 3000 HZ FEW020 30/25 Q1004 NOSIG,M
VABB,2022-05-18 15:00,86.00,77.00,74.61,300.00,7.00,0.00,29.65,M,1.86,M,FEW,M,M,M,2000.00,M,M,M,HZ,M,M,M,M,M,M,97.15,VABB 181500Z 30007KT 3000 HZ FEW020 30/25 Q1004 NOSIG,M
VABB,2022-05-18 15:30,86.00,77.00,74.61,300.00,8.00,0.00,29.68,M,1.86,M,FEW,M,M,M,2000.00,M,M,M,HZ,M,M,M,M,M,M,97.15,VABB 181530Z 30008KT 3000 HZ FEW020 30/25 Q1005 NOSIG,M
VABB,2022-05-18 16:00,86.00,77.00,74.61,320.00,6.00,0.00,29.68,M,1.86,M,SCT,M,M,M,2000.00,M,M,M,HZ,M,M,M,M,M,M,97.15,VABB 181600Z 32006KT 3000 HZ SCT020 30/25 Q1005 NOSIG,M
VABB,2022-05-18 16:30,86.00,77.00,74.61,300.00,6.00,0.00,29.68,M,1.86,M,SCT,M,M,M,2000.00,M,M,M,HZ,M,M,M,M,M,M,97.15,VABB 181630Z 30006KT 3000 HZ SCT020 30/25 Q1005 NOSIG,M
VABB,2022-05-18 17:00,86.00,77.00,74.61,270.00,6.00,0.00,29.71,M,1.86,M,SCT,M,M,M,2000.00,M,M,M,HZ,M,M,M,M,M,M,97.15,VABB 181700Z 27006KT 3000 HZ SCT020 30/25 Q1006 NOSIG,M
VABB,2022-05-18 17:30,86.00,77.00,74.61,260.00,7.00,0.00,29.71,M,1.86,M,SCT,M,M,M,2000.00,M,M,M,HZ,M,M,M,M,M,M,97.15,VABB 181730Z 26007KT 3000 HZ SCT020 30/25 Q1006 NOSIG,M
VABB,2022-05-18 18:00,84.20,77.00,79.04,250.00,7.00,0.00,29.71,M,1.86,M,SCT,M,M,M,2000.00,M,M,M,HZ,M,M,M,M,M,M,94.16,VABB 181800Z 25007KT 3000 HZ SCT020 29/25 Q1006 NOSIG,M
VABB,2022-05-18 18:30,84.20,77.00,79.04,250.00,6.00,0.00,29.68,M,1.86,M,SCT,M,M,M,2000.00,M,M,M,HZ,M,M,M,M,M,M,94.16,VABB 181830Z 25006KT 3000 HZ SCT020 29/25 Q1005 NOSIG,M
VABB,2022-05-18 19:00,84.20,77.00,79.04,270.00,5.00,0.00,29.68,M,1.86,M,SCT,M,M,M,2000.00,M,M,M,HZ,M,M,M,M,M,M,94.16,VABB 181900Z 27005KT 3000 HZ SCT020 29/25 Q1005 NOSIG,M
VABB,2022-05-18 19:30,84.20,77.00,79.04,270.00,7.00,0.00,29.68,M,1.86,M,SCT,M,M,M,2000.00,M,M,M,HZ,M,M,M,M,M,M,94.16,VABB 181930Z 27007KT 3000 HZ SCT020 29/25 Q1005 NOSIG,M
VABB,2022-05-18 20:00,84.20,77.00,79.04,280.00,8.00,0.00,29.68,M,1.86,M,SCT,M,M,M,2000.00,M,M,M,HZ,M,M,M,M,M,M,94.16,VABB 182000Z 28008KT 3000 HZ SCT020 29/25 Q1005 NOSIG,M
VABB,2022-05-18 20:30,84.20,77.00,79.04,310.00,6.00,0.00,29.68,M,1.86,M,SCT,M,M,M,2000.00,M,M,M,HZ,M,M,M,M,M,M,94.16,VABB 182030Z 31006KT 3000 HZ SCT020 29/25 Q1005 NOSIG,M
VABB,2022-05-18 21:00,84.20,77.00,79.04,290.00,3.00,0.00,29.68,M,1.86,M,SCT,M,M,M,2000.00,M,M,M,HZ,M,M,M,M,M,M,94.16,VABB 182100Z 29003KT 3000 HZ SCT020 29/25 Q1005 NOSIG,M
VABB,2022-05-18 21:30,84.20,75.20,74.44,280.00,6.00,0.00,29.68,M,1.86,M,SCT,M,M,M,2000.00,M,M,M,HZ,M,M,M,M,M,M,92.45,VABB 182130Z 28006KT 3000 HZ SCT020 29/24 Q1005 NOSIG,M
VABB,2022-05-18 22:00,84.20,77.00,79.04,270.00,4.00,0.00,29.68,M,1.86,M,FEW,M,M,M,2000.00,M,M,M,HZ,M,M,M,M,M,M,94.16,VABB 182200Z 27004KT 3000 HZ FEW020 29/25 Q1005 NOSIG,M
VABB,2022-05-18 22:30,84.20,77.00,79.04,270.00,3.00,0.00,29.68,M,1.86,M,FEW,M,M,M,2000.00,M,M,M,HZ,M,M,M,M,M,M,94.16,VABB 182230Z 27003KT 3000 HZ FEW020 29/25 Q1005 NOSIG,M
VABB,2022-05-18 23:00,84.20,77.00,79.04,300.00,4.00,0.00,29.68,M,1.86,M,FEW,M,M,M,2000.00,M,M,M,HZ,M,M,M,M,M,M,94.16,VABB 182300Z 30004KT 3000 HZ FEW020 29/25 Q1005 NOSIG,M
VABB,2022-05-18 23:30,84.20,77.00,79.04,310.00,3.00,0.00,29.68,M,1.86,M,FEW,M,M,M,2000.00,M,M,M,HZ,M,M,M,M,M,M,94.16,VABB 182330Z 31003KT 3000 HZ FEW020 29/25 Q1005 NOSIG,M
VABB,2022-05-19 00:00,84.20,77.00,79.04,0.00,0.00,0.00,29.68,M,1.86,M,FEW,M,M,M,2000.00,M,M,M,HZ,M,M,M,M,M,M,94.16,VABB 190000Z 00000KT 3000 HZ FEW020 29/25 Q1005 NOSIG,M
VABB,2022-05-19 00:30,84.20,77.00,79.04,310.00,4.00,0.00,29.68,M,1.86,M,SCT,M,M,M,2000.00,M,M,M,HZ,M,M,M,M,M,M,94.16,VABB 190030Z 31004KT 3000 HZ SCT020 29/25 Q1005 NOSIG,M
VABB,2022-05-19 01:00,84.20,77.00,79.04,280.00,4.00,0.00,29.71,M,1.86,M,SCT,M,M,M,2000.00,M,M,M,HZ,M,M,M,M,M,M,94.16,VABB 190100Z 28004KT 3000 HZ SCT020 29/25 Q1006 NOSIG,M
VABB,2022-05-19 01:30,84.20,75.20,74.44,280.00,3.00,0.00,29.71,M,1.86,M,SCT,SCT,M,M,2000.00,10000.00,M,M,HZ,M,M,M,M,M,M,92.45,VABB 190130Z 28003KT 3000 HZ SCT020 SCT100 29/24 Q1006 NOSIG,M
VABB,2022-05-19 02:00,84.20,75.20,74.44,0.00,0.00,0.00,29.71,M,1.86,M,SCT,SCT,M,M,2000.00,10000.00,M,M,HZ,M,M,M,M,M,M,92.45,VABB 190200Z 00000KT 3000 HZ SCT020 SCT100 29/24 Q1006 NOSIG,M
VABB,2022-05-19 02:30,86.00,75.20,70.27,290.00,4.00,0.00,29.74,M,1.86,M,SCT,SCT,M,M,2000.00,10000.00,M,M,HZ,M,M,M,M,M,M,95.19,VABB 190230Z 29004KT 3000 HZ SCT020 SCT100 30/24 Q1007 NOSIG,M
VABB,2022-05-19 03:00,86.00,75.20,70.27,290.00,4.00,0.00,29.74,M,1.86,M,SCT,SCT,M,M,2000.00,10000.00,M,M,HZ,M,M,M,M,M,M,95.19,VABB 190300Z 29004KT 3000 HZ SCT020 SCT100 30/24 Q1007 NOSIG,M
VABB,2022-05-19 03:30,86.00,75.20,70.27,0.00,0.00,0.00,29.74,M,1.86,M,SCT,SCT,M,M,2000.00,10000.00,M,M,HZ,M,M,M,M,M,M,95.19,VABB 190330Z 00000KT 3000 HZ SCT020 SCT100 30/24 Q1007 NOSIG,M
VABB,2022-05-19 04:00,86.00,75.20,70.27,280.00,4.00,0.00,29.74,M,2.17,M,SCT,SCT,M,M,2000.00,10000.00,M,M,HZ,M,M,M,M,M,M,95.19,VABB 190400Z 28004KT 3500 HZ SCT020 SCT100 30/24 Q1007 NOSIG,M
VABB,2022-05-19 04:30,89.60,75.20,62.68,260.00,5.00,0.00,29.74,M,2.17,M,SCT,SCT,M,M,2000.00,10000.00,M,M,HZ,M,M,M,M,M,M,100.23,VABB 190430Z 26005KT 3500 HZ SCT020 SCT100 32/24 Q1007 NOSIG,M
VABB,2022-05-19 05:00,87.80,75.20,66.35,260.00,8.00,0.00,29.74,M,2.17,M,SCT,SCT,M,M,2000.00,10000.00,M,M,HZ,M,M,M,M,M,M,97.76,VABB 190500Z 26008KT 3500 HZ SCT020 SCT100 31/24 Q1007 NOSIG,M
VABB,2022-05-19 05:30,89.60,77.00,66.55,230.00,7.00,0.00,29.74,M,2.17,M,FEW,SCT,M,M,2000.00,10000.00,M,M,HZ,M,M,M,M,M,M,102.54,VABB 190530Z 23007KT 3500 HZ FEW020 SCT100 32/25 Q1007 NOSIG,M
VABB,2022-05-19 06:00,89.60,77.00,66.55,270.00,9.00,0.00,29.71,M,2.17,M,SCT,M,M,M,2000.00,M,M,M,HZ,M,M,M,M,M,M,102.54,VABB 190600Z 27009KT 3500 HZ SCT020 32/25 Q1006 NOSIG,M
VABB,2022-05-19 06:30,89.60,77.00,66.55,270.00,11.00,0.00,29.71,M,2.17,M,SCT,M,M,M,2000.00,M,M,M,HZ,M,M,M,M,M,M,102.54,VABB 190630Z 27011KT 3500 HZ SCT020 32/25 Q1006 NOSIG,M
VABB,2022-05-19 07:00,89.60,77.00,66.55,280.00,11.00,0.00,29.68,M,2.17,M,SCT,M,M,M,2000.00,M,M,M,HZ,M,M,M,M,M,M,102.54,VABB 190700Z 28011KT 3500 HZ SCT020 32/25 Q1005 NOSIG,M
VABB,2022-05-19 07:30,89.60,77.00,66.55,270.00,7.00,0.00,29.68,M,2.17,17.00,SCT,M,M,M,2000.00,M,M,M,HZ,M,M,M,M,M,M,102.54,VABB 190730Z 27007G17KT 3500 HZ SCT020 32/25 Q1005 NOSIG,M
VABB,2022-05-19 08:00,89.60,77.00,66.55,280.00,7.00,0.00,29.68,M,2.17,17.00,SCT,M,M,M,2000.00,M,M,M,HZ,M,M,M,M,M,M,102.54,VABB 190800Z 28007G17KT 3500 HZ SCT020 32/25 Q1005 NOSIG,M
VABB,2022-05-19 08:30,89.60,75.20,62.68,260.00,12.00,0.00,29.65,M,2.17,M,SCT,M,M,M,2000.00,M,M,M,HZ,M,M,M,M,M,M,100.23,VABB 190830Z 26012KT 3500 HZ SCT020 32/24 Q1004 NOSIG,M
VABB,2022-05-19 09:00,89.60,75.20,62.68,260.00,8.00,0.00,29.65,M,2.17,18.00,SCT,M,M,M,2000.00,M,M,M,HZ,M,M,M,M,M,M,100.23,VABB 190900Z 26008G18KT 3500 HZ SCT020 32/24 Q1004 NOSIG,M
VABB,2022-05-19 09:30,89.60,77.00,66.55,260.00,8.00,0.00,29.62,M,2.17,18.00,SCT,M,M,M,2000.00,M,M,M,HZ,M,M,M,M,M,M,102.54,VABB 190930Z 26008G18KT 3500 HZ SCT020 32/25 Q1003 NOSIG,M
VABB,2022-05-19 10:00,87.80,75.20,66.35,260.00,9.00,0.00,29.62,M,2.17,19.00,FEW,M,M,M,2000.00,M,M,M,HZ,M,M,M,M,M,M,97.76,VABB 191000Z 26009G19KT 3500 HZ FEW020 31/24 Q1003 NOSIG,M
VABB,2022-05-19 10:30,89.60,78.80,70.63,280.00,7.00,0.00,29.62,M,2.17,17.00,FEW,M,M,M,2000.00,M,M,M,HZ,M,M,M,M,M,M,105.15,VABB 191030Z 28007G17KT 3500 HZ FEW020 32/26 Q1003 NOSIG,M
VABB,2022-05-19 11:00,89.60,77.00,66.55,280.00,10.00,0.00,29.62,M,2.17,20.00,FEW,M,M,M,2000.00,M,M,M,HZ,M,M,M,M,M,M,102.54,VABB 191100Z 28010G20KT 3500 HZ FEW020 32/25 Q1003 NOSIG,M
VABB,2022-05-19 11:30,87.80,77.00,70.45,260.00,7.00,0.00,29.62,M,2.17,17.00,FEW,M,M,M,2000.00,M,M,M,HZ,M,M,M,M,M,M,99.92,VABB 191130Z 26007G17KT 3500 HZ FEW020 31/25 Q1003 NOSIG,M
VABB,2022-05-19 12:00,87.80,78.80,74.77,270.00,7.00,0.00,29.62,M,2.17,17.00,FEW,M,M,M,2000.00,M,M,M,HZ,M,M,M,M,M,M,102.37,VABB 191200Z 27007G17KT 3500 HZ FEW020 31/26 Q1003 NOSIG,M
VABB,2022-05-19 12:30,87.80,77.00,70.45,290.00,7.00,0.00,29.62,M,2.17,17.00,FEW,M,M,M,2000.00,M,M,M,HZ,M,M,M,M,M,M,99.92,VABB 191230Z 29007G17KT 3500 HZ FEW020 31/25 Q1003 NOSIG,M
VABB,2022-05-19 13:00,86.00,78.80,79.18,270.00,12.00,0.00,29.62,M,2.17,M,SCT,M,M,M,2000.00,M,M,M,HZ,M,M,M,M,M,M,99.38,VABB 191300Z 27012KT 3500 HZ SCT020 30/26 Q1003 NOSIG,M
VABB,2022-05-19 13:30,86.00,78.80,79.18,280.00,9.00,0.00,29.62,M,2.17,M,FEW,SCT,M,M,2000.00,2500.00,M,M,HZ,M,M,M,M,M,M,99.38,VABB 191330Z 28009KT 3500 HZ FEW020 SCT025 30/26 Q1003 NOSIG,M
VABB,2022-05-19 14:00,86.00,78.80,79.18,240.00,10.00,0.00,29.65,M,2.17,M,SCT,SCT,M,M,2000.00,2500.00,M,M,HZ,M,M,M,M,M,M,99.38,VABB 191400Z 24010KT 3500 HZ SCT020 SCT025 30/26 Q1004 NOSIG,M
VABB,2022-05-19 14:30,86.00,78.80,79.18,260.00,8.00,0.00,29.68,M,2.17,M,SCT,SCT,M,M,2000.00,2500.00,M,M,HZ,M,M,M,M,M,M,99.38,VABB 191430Z 26008KT 3500 HZ SCT020 SCT025 30/26 Q1005 NOSIG,M
VABB,2022-05-19 15:00,86.00,78.80,79.18,240.00,10.00,0.00,29.68,M,2.17,M,SCT,SCT,M,M,2000.00,2500.00,M,M,HZ,M,M,M,M,M,M,99.38,VABB 191500Z 24010KT 3500 HZ SCT020 SCT025 30/26 Q1005 NOSIG,M
VABB,2022-05-19 15:30,86.00,78.80,79.18,240.00,10.00,0.00,29.68,M,2.17,M,SCT,SCT,M,M,2000.00,2500.00,M,M,HZ,M,M,M,M,M,M,99.38,VABB 191530Z 24010KT 3500 HZ SCT020 SCT025 30/26 Q1005 NOSIG,M
VABB,2022-05-19 16:00,86.00,78.80,79.18,240.00,9.00,0.00,29.68,M,2.17,M,SCT,M,M,M,2000.00,M,M,M,HZ,M,M,M,M,M,M,99.38,VABB 191600Z 24009KT 3500 HZ SCT020 30/26 Q1005 NOSIG,M
VABB,2022-05-19 16:30,86.00,78.80,79.18,240.00,7.00,0.00,29.68,M,2.17,M,SCT,M,M,M,2000.00,M,M,M,HZ,M,M,M,M,M,M,99.38,VABB 191630Z 24007KT 3500 HZ SCT020 30/26 Q1005 NOSIG,M
VABB,2022-05-19 17:00,86.00,78.80,79.18,250.00,9.00,0.00,29.68,M,2.17,M,SCT,M,M,M,2000.00,M,M,M,HZ,M,M,M,M,M,M,99.38,VABB 191700Z 25009KT 3500 HZ SCT020 30/26 Q1005 NOSIG,M
VABB,2022-05-19 17:30,86.00,78.80,79.18,230.00,8.00,0.00,29.71,M,2.17,M,SCT,M,M,M,2000.00,M,M,M,HZ,M,M,M,M,M,M,99.38,VABB 191730Z 23008KT 3500 HZ SCT020 30/26 Q1006 NOSIG,M
VABB,2022-05-19 18:00,86.00,78.80,79.18,240.00,9.00,0.00,29.71,M,2.17,M,SCT,M,M,M,2000.00,M,M,M,HZ,M,M,M,M,M,M,99.38,VABB 191800Z 24009KT 3500 HZ SCT020 30/26 Q1006 NOSIG,M
VABB,2022-05-19 18:30,86.00,78.80,79.18,240.00,10.00,0.00,29.71,M,2.17,M,SCT,SCT,M,M,2000.00,2500.00,M,M,HZ,M,M,M,M,M,M,99.38,VABB 191830Z 24010KT 3500 HZ SCT020 SCT025 30/26 Q1006 NOSIG,M
VABB,2022-05-19 19:00,86.00,78.80,79.18,220.00,9.00,0.00,29.71,M,2.17,M,SCT,SCT,M,M,2000.00,2500.00,M,M,HZ,M,M,M,M,M,M,99.38,VABB 191900Z 22009KT 3500 HZ SCT020 SCT025 30/26 Q1006 NOSIG,M
VABB,2022-05-19 19:30,86.00,78.80,79.18,240.00,6.00,0.00,29.71,M,2.17,M,SCT,SCT,M,M,2000.00,2500.00,M,M,HZ,M,M,M,M,M,M,99.38,VABB 191930Z 24006KT 3500 HZ SCT020 SCT025 30/26 Q1006 NOSIG,M
VABB,2022-05-19 20:00,86.00,77.00,74.61,220.00,7.00,0.00,29.71,M,2.17,M,SCT,SCT,M,M,2000.00,2500.00,M,M,HZ,M,M,M,M,M,M,97.15,VABB 192000Z 22007KT 3500 HZ SCT020 SCT025 30/25 Q1006 NOSIG,M
VABB,2022-05-19 20:30,86.00,77.00,74.61,230.00,9.00,0.00,29.68,M,2.17,M,SCT,SCT,M,M,2000.00,2500.00,M,M,HZ,M,M,M,M,M,M,97.15,VABB 192030Z 23009KT 3500 HZ SCT020 SCT025 30/25 Q1005 NOSIG,M
VABB,2022-05-19 21:00,86.00,77.00,74.61,230.00,10.00,0.00,29.68,M,2.17,M,SCT,SCT,M,M,2000.00,2500.00,M,M,HZ,M,M,M,M,M,M,97.15,VABB 192100Z 23010KT 3500 HZ SCT020 SCT025 30/25 Q1005 NOSIG,M
VABB,2022-05-19 21:30,86.00,77.00,74.61,240.00,7.00,0.00,29.68,M,2.17,M,SCT,M,M,M,2000.00,M,M,M,HZ,M,M,M,M,M,M,97.15,VABB 192130Z 24007KT 3500 HZ SCT020 30/25 Q1005 NOSIG,M
VABB,2022-05-19 22:00,86.00,77.00,74.61,240.00,10.00,0.00,29.68,M,2.17,M,SCT,M,M,M,2000.00,M,M,M,HZ,M,M,M,M,M,M,97.15,VABB 192200Z 24010KT 3500 HZ SCT020 30/25 Q1005 BECMG 3000 HZ,M
VABB,2022-05-19 22:30,86.00,77.00,74.61,260.00,7.00,0.00,29.68,M,1.86,M,SCT,M,M,M,2000.00,M,M,M,HZ,M,M,M,M,M,M,97.15,VABB 192230Z 26007KT 3000 HZ SCT020 30/25 Q1005 NOSIG,M
VABB,2022-05-19 23:00,86.00,77.00,74.61,250.00,9.00,0.00,29.68,M,1.86,M,SCT,M,M,M,2000.00,M,M,M,HZ,M,M,M,M,M,M,97.15,VABB 192300Z 25009KT 3000 HZ SCT020 30/25 Q1005 NOSIG,M
VABB,2022-05-19 23:30,86.00,77.00,74.61,250.00,8.00,0.00,29.71,M,1.86,M,SCT,M,M,M,2000.00,M,M,M,HZ,M,M,M,M,M,M,97.15,VABB 192330Z 25008KT 3000 HZ SCT020 30/25 Q1006 NOSIG,M
VABB,2022-05-20 00:00,86.00,77.00,74.61,250.00,7.00,0.00,29.71,M,1.86,M,SCT,M,M,M,2000.00,M,M,M,HZ,M,M,M,M,M,M,97.15,VABB 200000Z 25007KT 3000 HZ SCT020 30/25 Q1006 NOSIG,M
VABB,2022-05-20 00:30,86.00,77.00,74.61,260.00,7.00,0.00,29.71,M,1.86,M,SCT,SCT,M,M,2000.00,10000.00,M,M,HZ,M,M,M,M,M,M,97.15,VABB 200030Z 26007KT 3000 HZ SCT020 SCT100 30/25 Q1006 NOSIG,M
VABB,2022-05-20 01:00,86.00,77.00,74.61,240.00,7.00,0.00,29.71,M,1.86,M,SCT,SCT,M,M,2000.00,10000.00,M,M,HZ,M,M,M,M,M,M,97.15,VABB 200100Z 24007KT 3000 HZ SCT020 SCT100 30/25 Q1006 NOSIG,M
VABB,2022-05-20 01:30,86.00,77.00,74.61,260.00,9.00,0.00,29.74,M,1.86,M,SCT,SCT,M,M,2000.00,10000.00,M,M,HZ,M,M,M,M,M,M,97.15,VABB 200130Z 26009KT 3000 HZ SCT020 SCT100 30/25 Q1007 NOSIG,M
VABB,2022-05-20 02:00,86.00,77.00,74.61,250.00,9.00,0.00,29.74,M,1.86,M,SCT,SCT,M,M,2000.00,10000.00,M,M,HZ,M,M,M,M,M,M,97.15,VABB 200200Z 25009KT 3000 HZ SCT020 SCT100 30/25 Q1007 NOSIG,M
VABB,2022-05-20 02:30,86.00,77.00,74.61,250.00,11.00,0.00,29.74,M,1.86,M,SCT,SCT,M,M,2000.00,10000.00,M,M,HZ,M,M,M,M,M,M,97.15,VABB 200230Z 25011KT 3000 HZ SCT020 SCT100 30/25 Q1007 NOSIG,M
VABB,2022-05-20 03:00,86.00,77.00,74.61,260.00,9.00,0.00,29.74,M,1.86,M,SCT,SCT,M,M,2000.00,10000.00,M,M,HZ,M,M,M,M,M,M,97.15,VABB 200300Z 26009KT 3000 HZ SCT020 SCT100 30/25 Q1007 NOSIG,M
VABB,2022-05-20 03:30,87.80,77.00,70.45,260.00,10.00,0.00,29.74,M,1.86,M,FEW,M,M,M,2000.00,M,M,M,HZ,M,M,M,M,M,M,99.92,VABB 200330Z 26010KT 3000 HZ FEW020 31/25 Q1007 NOSIG,M
VABB,2022-05-20 04:00,87.80,75.20,66.35,270.00,10.00,0.00,29.77,M,1.86,M,SCT,M,M,M,2000.00,M,M,M,HZ,M,M,M,M,M,M,97.76,VABB 200400Z 27010KT 3000 HZ SCT020 31/24 Q1008 NOSIG,M
VABB,2022-05-20 04:30,87.80,75.20,66.35,270.00,8.00,0.00,29.77,M,1.86,M,SCT,M,M,M,2000.00,M,M,M,HZ,M,M,M,M,M,M,97.76,VABB 200430Z 27008KT 3000 HZ SCT020 31/24 Q1008 NOSIG,M
VABB,2022-05-20 05:00,87.80,77.00,70.45,240.00,10.00,0.00,29.77,M,1.86,M,SCT,SCT,M,M,2000.00,2500.00,M,M,HZ,M,M,M,M,M,M,99.92,VABB 200500Z 24010KT 3000 HZ SCT020 SCT025 31/25 Q1008 NOSIG,M
VABB,2022-05-20 05:30,89.60,75.20,62.68,230.00,10.00,0.00,29.77,M,1.86,M,SCT,SCT,M,M,2000.00,2500.00,M,M,HZ,M,M,M,M,M,M,100.23,VABB 200530Z 23010KT 3000 HZ SCT020 SCT025 32/24 Q1008 NOSIG,M
VABB,2022-05-20 06:00,87.80,73.40,62.47,260.00,10.00,0.00,29.74,M,2.17,M,SCT,SCT,M,M,2000.00,2500.00,M,M,HZ,M,M,M,M,M,M,95.86,VABB 200600Z 26010KT 3500 HZ SCT020 SCT025 31/23 Q1007 NOSIG,M
VABB,2022-05-20 06:30,87.80,77.00,70.45,250.00,10.00,0.00,29.74,M,2.17,M,SCT,SCT,M,M,2000.00,2500.00,M,M,HZ,M,M,M,M,M,M,99.92,VABB 200630Z 25010KT 3500 HZ SCT020 SCT025 31/25 Q1007 NOSIG,M
VABB,2022-05-20 07:00,87.80,77.00,70.45,260.00,11.00,0.00,29.74,M,1.86,M,SCT,SCT,BKN,M,2000.00,2500.00,10000.00,M,HZ,M,M,M,M,M,M,99.92,VABB 200700Z 26011KT 3000 HZ SCT020 SCT025 BKN100 31/25 Q1007 TEMPO 2000 -SHRA,M
VABB,2022-05-20 07:30,87.80,77.00,70.45,260.00,11.00,0.00,29.74,M,1.86,M,SCT,SCT,BKN,M,2000.00,2500.00,10000.00,M,HZ,M,M,M,M,M,M,99.92,VABB 200730Z 26011KT 3000 HZ SCT020 SCT025 BKN100 31/25 Q1007 TEMPO 2000 -SHRA,M
VABB,2022-05-20 08:00,87.80,77.00,70.45,240.00,10.00,0.00,29.74,M,1.86,M,SCT,SCT,BKN,M,2000.00,2500.00,10000.00,M,HZ,M,M,M,M,M,M,99.92,VABB 200800Z 24010KT 3000 HZ SCT020 SCT025 BKN100 31/25 Q1007 TEMPO 2000 -SHRA,M
VABB,2022-05-20 08:30,89.60,77.00,66.55,260.00,11.00,0.00,29.71,M,1.86,M,FEW,SCT,BKN,M,2000.00,2500.00,10000.00,M,HZ,M,M,M,M,M,M,102.54,VABB 200830Z 26011KT 3000 HZ FEW020 SCT025 BKN100 32/25 Q1006 NOSIG,M
VABB,2022-05-20 09:00,89.60,77.00,66.55,250.00,12.00,0.00,29.71,M,1.86,M,FEW,SCT,BKN,M,2000.00,2500.00,10000.00,M,HZ,M,M,M,M,M,M,102.54,VABB 200900Z 25012KT 3000 HZ FEW020 SCT025 BKN100 32/25 Q1006 NOSIG,M
VABB,2022-05-20 09:30,89.60,75.20,62.68,240.00,12.00,0.00,29.71,M,1.86,M,FEW,SCT,BKN,M,2000.00,2500.00,10000.00,M,HZ,M,M,M,M,M,M,100.23,VABB 200930Z 24012KT 3000 HZ FEW020 SCT025 BKN100 32/24 Q1006 NOSIG,M
VABB,2022-05-20 10:00,87.80,77.00,70.45,250.00,11.00,0.00,29.71,M,1.86,M,FEW,SCT,BKN,M,2000.00,2500.00,10000.00,M,HZ,M,M,M,M,M,M,99.92,VABB 201000Z 25011KT 3000 HZ FEW020 SCT025 BKN100 31/25 Q1006 NOSIG,M
VABB,2022-05-20 10:30,87.80,77.00,70.45,240.00,12.00,0.00,29.71,M,1.86,M,FEW,SCT,BKN,M,2000.00,2500.00,10000.00,M,HZ,M,M,M,M,M,M,99.92,VABB 201030Z 24012KT 3000 HZ FEW020 SCT025 BKN100 31/25 Q1006 NOSIG,M
VABB,2022-05-20 11:00,87.80,77.00,70.45,250.00,11.00,0.00,29.68,M,1.86,M,FEW,SCT,BKN,M,2000.00,2500.00,10000.00,M,HZ,M,M,M,M,M,M,99.92,VABB 201100Z 25011KT 3000 HZ FEW020 SCT025 BKN100 31/25 Q1005 NOSIG,M
VABB,2022-05-20 11:30,87.80,77.00,70.45,230.00,11.00,0.00,29.68,M,1.86,M,FEW,SCT,BKN,M,2000.00,2500.00,10000.00,M,HZ,M,M,M,M,M,M,99.92,VABB 201130Z 23011KT 3000 HZ FEW020 SCT025 BKN100 31/25 Q1005 NOSIG,M
VABB,2022-05-20 12:00,87.80,77.00,70.45,240.00,10.00,0.00,29.68,M,1.86,M,FEW,SCT,BKN,M,2000.00,2500.00,10000.00,M,HZ,M,M,M,M,M,M,99.92,VABB 201200Z 24010KT 3000 HZ FEW020 SCT025 BKN100 31/25 Q1005 NOSIG,M
VABB,2022-05-20 12:30,86.00,77.00,74.61,230.00,12.00,0.00,29.68,M,1.86,M,FEW,SCT,BKN,M,2000.00,2500.00,10000.00,M,HZ,M,M,M,M,M,M,97.15,VABB 201230Z 23012KT 3000 HZ FEW020 SCT025 BKN100 30/25 Q1005 NOSIG,M
VABB,2022-05-20 13:00,86.00,77.00,74.61,240.00,12.00,0.00,29.71,M,1.86,M,FEW,SCT,BKN,M,2000.00,2500.00,10000.00,M,HZ,M,M,M,M,M,M,97.15,VABB 201300Z 24012KT 3000 HZ FEW020 SCT025 BKN100 30/25 Q1006 NOSIG,M
VABB,2022-05-20 13:30,86.00,77.00,74.61,230.00,12.00,0.00,29.71,M,1.86,M,FEW,SCT,BKN,M,2000.00,2500.00,10000.00,M,HZ,M,M,M,M,M,M,97.15,VABB 201330Z 23012KT 3000 HZ FEW020 SCT025 BKN100 30/25 Q1006 NOSIG,M
VABB,2022-05-20 14:00,86.00,77.00,74.61,230.00,8.00,0.00,29.71,M,1.86,M,FEW,SCT,BKN,M,2000.00,2500.00,10000.00,M,HZ,M,M,M,M,M,M,97.15,VABB 201400Z 23008KT 3000 HZ FEW020 SCT025 BKN100 30/25 Q1006 NOSIG,M
VABB,2022-05-20 14:30,86.00,77.00,74.61,240.00,8.00,0.00,29.71,M,1.86,M,FEW,SCT,BKN,M,2000.00,2500.00,10000.00,M,HZ,M,M,M,M,M,M,97.15,VABB 201430Z 24008KT 3000 HZ FEW020 SCT025 BKN100 30/25 Q1006 NOSIG,M
VABB,2022-05-20 15:00,86.00,77.00,74.61,240.00,9.00,0.00,29.71,M,1.86,M,FEW,SCT,BKN,M,2000.00,2500.00,10000.00,M,HZ,M,M,M,M,M,M,97.15,VABB 201500Z 24009KT 3000 HZ FEW020 SCT025 BKN100 30/25 Q1006 NOSIG,M
VABB,2022-05-20 15:30,86.00,77.00,74.61,240.00,7.00,0.00,29.71,M,1.86,M,SCT,BKN,M,M,2000.00,10000.00,M,M,HZ,M,M,M,M,M,M,97.15,VABB 201530Z 24007KT 3000 HZ SCT020 BKN100 30/25 Q1006 NOSIG,M
VABB,2022-05-20 16:00,86.00,77.00,74.61,250.00,9.00,0.00,29.74,M,1.86,M,SCT,BKN,M,M,2000.00,10000.00,M,M,HZ,M,M,M,M,M,M,97.15,VABB 201600Z 25009KT 3000 HZ SCT020 BKN100 30/25 Q1007 NOSIG,M
VABB,2022-05-20 16:30,86.00,77.00,74.61,240.00,8.00,0.00,29.74,M,1.86,M,SCT,BKN,M,M,2000.00,10000.00,M,M,HZ,M,M,M,M,M,M,97.15,VABB 201630Z 24008KT 3000 HZ SCT020 BKN100 30/25 Q1007 NOSIG,M
VABB,2022-05-20 17:00,86.00,77.00,74.61,250.00,8.00,0.00,29.74,M,1.86,M,SCT,BKN,M,M,2000.00,10000.00,M,M,HZ,M,M,M,M,M,M,97.15,VABB 201700Z 25008KT 3000 HZ SCT020 BKN100 30/25 Q1007 NOSIG,M
VABB,2022-05-20 17:30,86.00,77.00,74.61,220.00,9.00,0.00,29.74,M,1.86,M,SCT,SCT,M,M,2000.00,10000.00,M,M,HZ,M,M,M,M,M,M,97.15,VABB 201730Z 22009KT 3000 HZ SCT020 SCT100 30/25 Q1007 NOSIG,M
VABB,2022-05-20 18:00,86.00,75.20,70.27,230.00,7.00,0.00,29.74,M,1.86,M,SCT,SCT,M,M,2000.00,10000.00,M,M,HZ,M,M,M,M,M,M,95.19,VABB 201800Z 23007KT 3000 HZ SCT020 SCT100 30/24 Q1007 NOSIG,M
VABB,2022-05-20 18:30,86.00,77.00,74.61,240.00,7.00,0.00,29.74,M,1.86,M,SCT,SCT,M,M,2000.00,10000.00,M,M,HZ,M,M,M,M,M,M,97.15,VABB 201830Z 24007KT 3000 HZ SCT020 SCT100 30/25 Q1007 NOSIG,M
VABB,2022-05-20 19:00,84.20,77.00,79.04,240.00,7.00,0.00,29.71,M,1.86,M,SCT,SCT,M,M,2000.00,10000.00,M,M,HZ,M,M,M,M,M,M,94.16,VABB 201900Z 24007KT 3000 HZ SCT020 SCT100 29/25 Q1006 NOSIG,M
VABB,2022-05-20 19:30,84.20,77.00,79.04,250.00,9.00,0.00,29.71,M,1.86,M,SCT,SCT,M,M,2000.00,10000.00,M,M,HZ,M,M,M,M,M,M,94.16,VABB 201930Z 25009KT 3000 HZ SCT020 SCT100 29/25 Q1006 NOSIG,M
VABB,2022-05-20 20:00,84.20,77.00,79.04,240.00,7.00,0.00,29.71,M,1.86,M,SCT,SCT,M,M,2000.00,10000.00,M,M,HZ,M,M,M,M,M,M,94.16,VABB 202000Z 24007KT 3000 HZ SCT020 SCT100 29/25 Q1006 NOSIG,M
VABB,2022-05-20 20:30,84.20,77.00,79.04,250.00,7.00,0.00,29.71,M,1.86,M,SCT,SCT,M,M,2000.00,10000.00,M,M,HZ,M,M,M,M,M,M,94.16,VABB 202030Z 25007KT 3000 HZ SCT020 SCT100 29/25 Q1006 NOSIG,M
VABB,2022-05-20 21:00,84.20,77.00,79.04,230.00,7.00,0.00,29.71,M,1.86,M,SCT,SCT,M,M,2000.00,10000.00,M,M,HZ,M,M,M,M,M,M,94.16,VABB 202100Z 23007KT 3000 HZ SCT020 SCT100 29/25 Q1006 NOSIG,M
VABB,2022-05-20 21:30,84.20,77.00,79.04,230.00,5.00,0.00,29.71,M,1.86,M,SCT,SCT,M,M,2000.00,10000.00,M,M,HZ,M,M,M,M,M,M,94.16,VABB 202130Z 23005KT 3000 HZ SCT020 SCT100 29/25 Q1006 NOSIG,M
VABB,2022-05-20 22:00,84.20,77.00,79.04,230.00,5.00,0.00,29.68,M,1.86,M,SCT,M,M,M,2000.00,M,M,M,HZ,M,M,M,M,M,M,94.16,VABB 202200Z 23005KT 3000 HZ SCT020 29/25 Q1005 NOSIG,M
VABB,2022-05-20 22:30,84.20,77.00,79.04,220.00,5.00,0.00,29.71,M,1.86,M,SCT,M,M,M,2000.00,M,M,M,HZ,M,M,M,M,M,M,94.16,VABB 202230Z 22005KT 3000 HZ SCT020 29/25 Q1006 NOSIG,M
VABB,2022-05-20 23:00,84.20,77.00,79.04,230.00,5.00,0.00,29.71,M,1.86,M,SCT,M,M,M,2000.00,M,M,M,HZ,M,M,M,M,M,M,94.16,VABB 202300Z 23005KT 3000 HZ SCT020 29/25 Q1006 NOSIG,M
VABB,2022-05-20 23:30,84.20,77.00,79.04,230.00,6.00,0.00,29.71,M,1.86,M,SCT,M,M,M,2000.00,M,M,M,HZ,M,M,M,M,M,M,94.16,VABB 202330Z 23006KT 3000 HZ SCT020 29/25 Q1006 NOSIG,M
VABB,2022-05-21 00:00,84.20,77.00,79.04,200.00,5.00,0.00,29.71,M,1.86,M,SCT,M,M,M,2000.00,M,M,M,HZ,M,M,M,M,M,M,94.16,VABB 210000Z 20005KT 3000 HZ SCT020 29/25 Q1006 NOSIG,M
VABB,2022-05-21 00:30,84.20,77.00,79.04,210.00,6.00,0.00,29.71,M,1.86,M,SCT,M,M,M,2000.00,M,M,M,HZ,M,M,M,M,M,M,94.16,VABB 210030Z 21006KT 3000 HZ SCT020 29/25 Q1006 NOSIG,M
VABB,2022-05-21 01:00,84.20,77.00,79.04,220.00,5.00,0.00,29.71,M,1.86,M,SCT,M,M,M,2000.00,M,M,M,HZ,M,M,M,M,M,M,94.16,VABB 210100Z 22005KT 3000 HZ SCT020 29/25 Q1006 NOSIG,M
VABB,2022-05-21 01:30,86.00,77.00,74.61,210.00,7.00,0.00,29.71,M,1.86,M,SCT,M,M,M,2000.00,M,M,M,HZ,M,M,M,M,M,M,97.15,VABB 210130Z 21007KT 3000 HZ SCT020 30/25 Q1006 NOSIG,M
VABB,2022-05-21 02:00,86.00,77.00,74.61,230.00,8.00,0.00,29.74,M,1.86,M,SCT,M,M,M,2000.00,M,M,M,HZ,M,M,M,M,M,M,97.15,VABB 210200Z 23008KT 3000 HZ SCT020 30/25 Q1007 NOSIG,M
VABB,2022-05-21 02:30,86.00,77.00,74.61,200.00,9.00,0.00,29.74,M,1.86,M,SCT,M,M,M,2000.00,M,M,M,HZ,M,M,M,M,M,M,97.15,VABB 210230Z 20009KT 3000 HZ SCT020 30/25 Q1007 NOSIG,M
VABB,2022-05-21 03:00,86.00,77.00,74.61,210.00,10.00,0.00,29.74,M,1.86,M,FEW,SCT,M,M,2000.00,2500.00,M,M,HZ,M,M,M,M,M,M,97.15,VABB 210300Z 21010KT 3000 HZ FEW020 SCT025 30/25 Q1007 NOSIG,M
VABB,2022-05-21 03:30,87.80,75.20,66.35,220.00,9.00,0.00,29.74,M,2.17,M,FEW,SCT,M,M,2000.00,2500.00,M,M,HZ,M,M,M,M,M,M,97.76,VABB 210330Z 22009KT 3500 HZ FEW020 SCT025 31/24 Q1007 NOSIG,M
VABB,2022-05-21 04:00,89.60,77.00,66.55,230.00,9.00,0.00,29.74,M,2.17,M,FEW,SCT,M,M,2000.00,2500.00,M,M,HZ,M,M,M,M,M,M,102.54,VABB 210400Z 23009KT 3500 HZ FEW020 SCT025 32/25 Q1007 NOSIG,M
VABB,2022-05-21 04:30,87.80,77.00,70.45,220.00,12.00,0.00,29.77,M,2.17,M,FEW,SCT,M,M,2000.00,2500.00,M,M,HZ,M,M,M,M,M,M,99.92,VABB 210430Z 22012KT 3500 HZ FEW020 SCT025 31/25 Q1008 NOSIG,M
VABB,2022-05-21 05:00,87.80,75.20,66.35,230.00,10.00,0.00,29.77,M,2.17,M,FEW,SCT,M,M,2000.00,2500.00,M,M,HZ,M,M,M,M,M,M,97.76,VABB 210500Z 23010KT 3500 HZ FEW020 SCT025 31/24 Q1008 NOSIG,M
VABB,2022-05-21 05:30,87.80,77.00,70.45,210.00,12.00,0.00,29.74,M,2.49,M,SCT,SCT,M,M,2000.00,2500.00,M,M,HZ,M,M,M,M,M,M,99.92,VABB 210530Z 21012KT 4000 HZ SCT020 SCT025 31/25 Q1007 NOSIG,M
VABB,2022-05-21 06:00,89.60,77.00,66.55,240.00,13.00,0.00,29.74,M,2.49,M,FEW,SCT,M,M,2000.00,2500.00,M,M,HZ,M,M,M,M,M,M,102.54,VABB 210600Z 24013KT 4000 HZ FEW020 SCT025 32/25 Q1007 BECMG 5000 HZ,M
VABB,2022-05-21 06:30,89.60,75.20,62.68,240.00,12.00,0.00,29.74,M,3.11,M,FEW,SCT,M,M,2000.00,2500.00,M,M,FU,M,M,M,M,M,M,100.23,VABB 210630Z 24012KT 5000 FU FEW020 SCT025 32/24 Q1007 NOSIG,M
VABB,2022-05-21 07:00,89.60,75.20,62.68,230.00,13.00,0.00,29.74,M,3.11,M,FEW,SCT,M,M,2000.00,2500.00,M,M,FU,M,M,M,M,M,M,100.23,VABB 210700Z 23013KT 5000 FU FEW020 SCT025 32/24 Q1007 NOSIG,M
VABB,2022-05-21 07:30,89.60,75.20,62.68,220.00,7.00,0.00,29.71,M,3.11,17.00,FEW,SCT,M,M,2000.00,2500.00,M,M,FU,M,M,M,M,M,M,100.23,VABB 210730Z 22007G17KT 5000 FU FEW020 SCT025 32/24 Q1006 NOSIG,M
VABB,2022-05-21 08:00,89.60,75.20,62.68,220.00,8.00,0.00,29.71,M,3.11,18.00,FEW,SCT,M,M,2000.00,2500.00,M,M,FU,M,M,M,M,M,M,100.23,VABB 210800Z 22008G18KT 5000 FU FEW020 SCT025 32/24 Q1006 NOSIG,M
VABB,2022-05-21 08:30,89.60,75.20,62.68,220.00,8.00,0.00,29.71,M,3.11,18.00,FEW,SCT,M,M,2000.00,2500.00,M,M,FU,M,M,M,M,M,M,100.23,VABB 210830Z 22008G18KT 5000 FU FEW020 SCT025 32/24 Q1006 NOSIG,M
VABB,2022-05-21 09:00,89.60,75.20,62.68,240.00,8.00,0.00,29.68,M,3.11,18.00,FEW,SCT,M,M,2000.00,2500.00,M,M,FU,M,M,M,M,M,M,100.23,VABB 210900Z 24008G18KT 5000 FU FEW020 SCT025 32/24 Q1005 NOSIG,M
VABB,2022-05-21 09:30,89.60,77.00,66.55,220.00,7.00,0.00,29.68,M,3.11,17.00,FEW,SCT,M,M,2000.00,2500.00,M,M,FU,M,M,M,M,M,M,102.54,VABB 210930Z 22007G17KT 5000 FU FEW020 SCT025 32/25 Q1005 NOSIG,M
VABB,2022-05-21 10:00,89.60,77.00,66.55,260.00,13.00,0.00,29.68,M,3.11,M,FEW,SCT,M,M,2000.00,2500.00,M,M,FU,M,M,M,M,M,M,102.54,VABB 211000Z 26013KT 5000 FU FEW020 SCT025 32/25 Q1005 NOSIG,M
VABB,2022-05-21 10:30,87.80,77.00,70.45,240.00,8.00,0.00,29.68,M,3.11,18.00,FEW,SCT,M,M,2000.00,2500.00,M,M,FU,M,M,M,M,M,M,99.92,VABB 211030Z 24008G18KT 5000 FU FEW020 SCT025 31/25 Q1005 NOSIG,M
VABB,2022-05-21 11:00,89.60,77.00,66.55,260.00,7.00,0.00,29.68,M,3.11,17.00,FEW,SCT,M,M,2000.00,2500.00,M,M,FU,M,M,M,M,M,M,102.54,VABB 211100Z 26007G17KT 5000 FU FEW020 SCT025 32/25 Q1005 NOSIG,M
VABB,2022-05-21 11:30,87.80,77.00,70.45,220.00,12.00,0.00,29.68,M,3.11,M,FEW,SCT,M,M,2000.00,2500.00,M,M,HZ,M,M,M,M,M,M,99.92,VABB 211130Z 22012KT 5000 HZ FEW020 SCT025 31/25 Q1005 NOSIG,M
VABB,2022-05-21 12:00,89.60,77.00,66.55,260.00,11.00,0.00,29.68,M,3.11,M,FEW,SCT,M,M,2000.00,2500.00,M,M,HZ,M,M,M,M,M,M,102.54,VABB 211200Z 26011KT 5000 HZ FEW020 SCT025 32/25 Q1005 NOSIG,M
VABB,2022-05-21 12:30,89.60,78.80,70.63,240.00,10.00,0.00,29.68,M,3.11,M,FEW,SCT,M,M,2000.00,2500.00,M,M,HZ,M,M,M,M,M,M,105.15,VABB 211230Z 24010KT 5000 HZ FEW020 SCT025 32/26 Q1005 NOSIG,M
VABB,2022-05-21 13:00,87.80,77.00,70.45,260.00,8.00,0.00,29.68,M,2.49,M,FEW,SCT,M,M,2000.00,2500.00,M,M,HZ,M,M,M,M,M,M,99.92,VABB 211300Z 26008KT 4000 HZ FEW020 SCT025 31/25 Q1005 NOSIG,M
VABB,2022-05-21 13:30,87.80,78.80,74.77,230.00,10.00,0.00,29.68,M,2.49,M,SCT,M,M,M,2000.00,M,M,M,HZ,M,M,M,M,M,M,102.37,VABB 211330Z 23010KT 4000 HZ SCT020 31/26 Q1005 NOSIG,M
VABB,2022-05-21 14:00,86.00,78.80,79.18,240.00,9.00,0.00,29.68,M,2.17,M,SCT,M,M,M,2000.00,M,M,M,HZ,M,M,M,M,M,M,99.38,VABB 211400Z 24009KT 3500 HZ SCT020 30/26 Q1005 NOSIG,M
VABB,2022-05-21 14:30,86.00,78.80,79.18,230.00,7.00,0.00,29.68,M,2.17,M,SCT,M,M,M,2000.00,M,M,M,HZ,M,M,M,M,M,M,99.38,VABB 211430Z 23007KT 3500 HZ SCT020 30/26 Q1005 NOSIG,M
VABB,2022-05-21 15:00,86.00,78.80,79.18,240.00,10.00,0.00,29.68,M,2.17,M,SCT,M,M,M,2000.00,M,M,M,HZ,M,M,M,M,M,M,99.38,VABB 211500Z 24010KT 3500 HZ SCT020 30/26 Q1005 NOSIG,M
VABB,2022-05-21 15:30,86.00,78.80,79.18,240.00,10.00,0.00,29.68,M,2.17,M,SCT,M,M,M,2000.00,M,M,M,HZ,M,M,M,M,M,M,99.38,VABB 211530Z 24010KT 3500 HZ SCT020 30/26 Q1005 NOSIG,M
VABB,2022-05-21 16:00,86.00,78.80,79.18,240.00,7.00,0.00,29.71,M,2.17,M,SCT,M,M,M,2000.00,M,M,M,HZ,M,M,M,M,M,M,99.38,VABB 211600Z 24007KT 3500 HZ SCT020 30/26 Q1006 NOSIG,M
VABB,2022-05-21 16:30,86.00,78.80,79.18,230.00,8.00,0.00,29.71,M,2.17,M,SCT,M,M,M,2000.00,M,M,M,HZ,M,M,M,M,M,M,99.38,VABB 211630Z 23008KT 3500 HZ SCT020 30/26 Q1006 NOSIG,M
VABB,2022-05-21 17:00,86.00,75.20,70.27,240.00,7.00,0.00,29.71,M,2.17,M,SCT,M,M,M,2000.00,M,M,M,HZ,M,M,M,M,M,M,95.19,VABB 211700Z 24007KT 3500 HZ SCT020 30/24 Q1006 NOSIG,M
VABB,2022-05-21 17:30,86.00,78.80,79.18,230.00,11.00,0.00,29.71,M,2.17,M,SCT,M,M,M,2000.00,M,M,M,HZ,M,M,M,M,M,M,99.38,VABB 211730Z 23011KT 3500 HZ SCT020 30/26 Q1006 NOSIG,M
VABB,2022-05-21 18:00,86.00,78.80,79.18,220.00,10.00,0.00,29.68,M,2.17,M,SCT,M,M,M,2000.00,M,M,M,HZ,M,M,M,M,M,M,99.38,VABB 211800Z 22010KT 3500 HZ SCT020 30/26 Q1005 NOSIG,M
VABB,2022-05-21 18:30,86.00,78.80,79.18,240.00,11.00,0.00,29.68,M,2.17,M,SCT,SCT,M,M,2000.00,2500.00,M,M,HZ,M,M,M,M,M,M,99.38,VABB 211830Z 24011KT 3500 HZ SCT020 SCT025 30/26 Q1005 NOSIG,M
VABB,2022-05-21 19:00,86.00,78.80,79.18,230.00,10.00,0.00,29.68,M,2.17,M,FEW,SCT,M,M,2000.00,2500.00,M,M,HZ,M,M,M,M,M,M,99.38,VABB 211900Z 23010KT 3500 HZ FEW020 SCT025 30/26 Q1005 NOSIG,M
VABB,2022-05-21 19:30,86.00,78.80,79.18,230.00,10.00,0.00,29.68,M,2.17,M,SCT,M,M,M,2000.00,M,M,M,HZ,M,M,M,M,M,M,99.38,VABB 211930Z 23010KT 3500 HZ SCT020 30/26 Q1005 NOSIG,M
VABB,2022-05-21 20:00,86.00,78.80,79.18,240.00,10.00,0.00,29.65,M,2.17,M,SCT,M,M,M,2000.00,M,M,M,HZ,M,M,M,M,M,M,99.38,VABB 212000Z 24010KT 3500 HZ SCT020 30/26 Q1004 NOSIG,M
VABB,2022-05-21 20:30,86.00,78.80,79.18,230.00,8.00,0.00,29.65,M,2.17,M,SCT,M,M,M,2000.00,M,M,M,HZ,M,M,M,M,M,M,99.38,VABB 212030Z 23008KT 3500 HZ SCT020 30/26 Q1004 NOSIG,M
VABB,2022-05-21 21:00,86.00,78.80,79.18,240.00,6.00,0.00,29.65,M,2.17,M,SCT,M,M,M,2000.00,M,M,M,HZ,M,M,M,M,M,M,99.38,VABB 212100Z 24006KT 3500 HZ SCT020 30/26 Q1004 NOSIG,M
VABB,2022-05-21 21:30,86.00,78.80,79.18,230.00,8.00,0.00,29.62,M,2.17,M,SCT,M,M,M,2000.00,M,M,M,HZ,M,M,M,M,M,M,99.38,VABB 212130Z 23008KT 3500 HZ SCT020 30/26 Q1003 NOSIG,M
VABB,2022-05-21 22:00,86.00,78.80,79.18,230.00,6.00,0.00,29.62,M,2.17,M,SCT,M,M,M,2000.00,M,M,M,HZ,M,M,M,M,M,M,99.38,VABB 212200Z 23006KT 3500 HZ SCT020 30/26 Q1003 NOSIG,M
VABB,2022-05-21 22:30,86.00,78.80,79.18,260.00,11.00,0.00,29.62,M,2.17,M,SCT,M,M,M,2000.00,M,M,M,HZ,M,M,M,M,M,M,99.38,VABB 212230Z 26011KT 3500 HZ SCT020 30/26 Q1003 NOSIG,M
VABB,2022-05-21 23:00,86.00,78.80,79.18,240.00,9.00,0.00,29.62,M,2.17,M,SCT,M,M,M,2000.00,M,M,M,HZ,M,M,M,M,M,M,99.38,VABB 212300Z 24009KT 3500 HZ SCT020 30/26 Q1003 NOSIG,M
VABB,2022-05-21 23:30,84.20,80.60,88.98,240.00,10.00,0.00,29.62,M,2.17,M,SCT,SCT,M,M,1800.00,9000.00,M,M,-RA,M,M,M,M,M,M,98.50,VABB 212330Z 24010KT 3500 -RA SCT018 SCT090 29/27 Q1003 NOSIG,M
VABB,2022-05-22 00:00,86.00,78.80,79.18,250.00,10.00,0.00,29.65,M,2.17,M,SCT,SCT,M,M,1800.00,9000.00,M,M,HZ,M,M,M,M,M,M,99.38,VABB 220000Z 25010KT 3500 HZ SCT018 SCT090 30/26 Q1004 NOSIG,M
VABB,2022-05-22 00:30,86.00,78.80,79.18,230.00,9.00,0.00,29.65,M,2.17,M,SCT,SCT,M,M,1800.00,9000.00,M,M,HZ,M,M,M,M,M,M,99.38,VABB 220030Z 23009KT 3500 HZ SCT018 SCT090 30/26 Q1004 BECMG 3000 HZ,M
VABB,2022-05-22 01:00,86.00,78.80,79.18,230.00,10.00,0.00,29.65,M,1.86,M,SCT,M,M,M,1800.00,M,M,M,HZ,M,M,M,M,M,M,99.38,VABB 220100Z 23010KT 3000 HZ SCT018 30/26 Q1004 NOSIG,M
VABB,2022-05-22 01:30,86.00,78.80,79.18,230.00,8.00,0.00,29.68,M,1.86,M,SCT,M,M,M,2000.00,M,M,M,HZ,M,M,M,M,M,M,99.38,VABB 220130Z 23008KT 3000 HZ SCT020 30/26 Q1005 NOSIG,M
VABB,2022-05-22 02:00,86.00,78.80,79.18,250.00,9.00,0.00,29.68,M,1.86,M,FEW,SCT,M,M,2000.00,2500.00,M,M,HZ,M,M,M,M,M,M,99.38,VABB 220200Z 25009KT 3000 HZ FEW020 SCT025 30/26 Q1005 NOSIG,M
VABB,2022-05-22 02:30,86.00,78.80,79.18,260.00,11.00,0.00,29.68,M,1.86,M,FEW,SCT,M,M,2000.00,2500.00,M,M,HZ,M,M,M,M,M,M,99.38,VABB 220230Z 26011KT 3000 HZ FEW020 SCT025 30/26 Q1005 NOSIG,M
VABB,2022-05-22 03:00,86.00,78.80,79.18,240.00,10.00,0.00,29.71,M,2.17,M,FEW,SCT,M,M,2000.00,2500.00,M,M,HZ,M,M,M,M,M,M,99.38,COR VABB 220300Z 24010KT 3500 HZ FEW020 SCT025 30/26 Q1006 NOSIG,M
VABB,2022-05-22 03:30,87.80,78.80,74.77,250.00,11.00,0.00,29.71,M,2.17,M,FEW,SCT,M,M,2000.00,2500.00,M,M,HZ,M,M,M,M,M,M,102.37,VABB 220330Z 25011KT 3500 HZ FEW020 SCT025 31/26 Q1006 BECMG 4000 HZ,M
VABB,2022-05-22 04:00,87.80,78.80,74.77,240.00,11.00,0.00,29.71,M,2.49,M,FEW,SCT,M,M,2000.00,2500.00,M,M,HZ,M,M,M,M,M,M,102.37,VABB 220400Z 24011KT 4000 HZ FEW020 SCT025 31/26 Q1006 NOSIG,M
VABB,2022-05-22 04:30,89.60,78.80,70.63,230.00,10.00,0.00,29.71,M,2.49,M,FEW,SCT,M,M,2000.00,2500.00,M,M,HZ,M,M,M,M,M,M,105.15,VABB 220430Z 23010KT 4000 HZ FEW020 SCT025 32/26 Q1006 NOSIG,M
VABB,2022-05-22 05:00,89.60,78.80,70.63,250.00,8.00,0.00,29.71,M,2.49,18.00,FEW,SCT,M,M,2000.00,2500.00,M,M,HZ,M,M,M,M,M,M,105.15,VABB 220500Z 25008G18KT 4000 HZ FEW020 SCT025 32/26 Q1006 NOSIG,M
VABB,2022-05-22 05:30,89.60,78.80,70.63,240.00,9.00,0.00,29.71,M,2.49,19.00,SCT,SCT,M,M,2000.00,2500.00,M,M,HZ,M,M,M,M,M,M,105.15,VABB 220530Z 24009G19KT 4000 HZ SCT020 SCT025 32/26 Q1006 NOSIG,M
VABB,2022-05-22 06:00,89.60,78.80,70.63,260.00,7.00,0.00,29.71,M,2.49,17.00,SCT,SCT,M,M,2000.00,2500.00,M,M,HZ,M,M,M,M,M,M,105.15,VABB 220600Z 26007G17KT 4000 HZ SCT020 SCT025 32/26 Q1006 NOSIG,M
VABB,2022-05-22 06:30,91.40,78.80,66.75,260.00,8.00,0.00,29.68,M,2.49,18.00,FEW,SCT,M,M,2000.00,2500.00,M,M,HZ,M,M,M,M,M,M,107.79,VABB 220630Z 26008G18KT 4000 HZ FEW020 SCT025 33/26 Q1005 NOSIG,M
VABB,2022-05-22 07:00,89.60,77.00,66.55,230.00,9.00,0.00,29.68,M,2.49,19.00,FEW,SCT,M,M,2000.00,2500.00,M,M,HZ,M,M,M,M,M,M,102.54,VABB 220700Z 23009G19KT 4000 HZ FEW020 SCT025 32/25 Q1005 NOSIG,M
VABB,2022-05-22 07:30,89.60,77.00,66.55,260.00,7.00,0.00,29.65,M,2.49,17.00,FEW,SCT,M,M,2000.00,2500.00,M,M,HZ,M,M,M,M,M,M,102.54,VABB 220730Z 26007G17KT 4000 HZ FEW020 SCT025 32/25 Q1004 NOSIG,M
VABB,2022-05-22 08:00,91.40,77.00,62.90,270.00,8.00,0.00,29.65,M,2.49,18.00,FEW,SCT,M,M,2000.00,2500.00,M,M,HZ,M,M,M,M,M,M,105.06,VABB 220800Z 27008G18KT 4000 HZ FEW020 SCT025 33/25 Q1004 NOSIG,M
VABB,2022-05-22 08:30,91.40,77.00,62.90,240.00,10.00,0.00,29.65,M,2.49,20.00,SCT,SCT,M,M,2000.00,2500.00,M,M,HZ,M,M,M,M,M,M,105.06,VABB 220830Z 24010G20KT 4000 HZ SCT020 SCT025 33/25 Q1004 BECMG 5000 HZ,M
VABB,2022-05-22 09:00,91.40,77.00,62.90,240.00,12.00,0.00,29.62,M,3.11,22.00,FEW,SCT,M,M,2000.00,2500.00,M,M,HZ,M,M,M,M,M,M,105.06,VABB 220900Z 24012G22KT 5000 HZ FEW020 SCT025 33/25 Q1003 NOSIG,M
VABB,2022-05-22 09:30,91.40,77.00,62.90,240.00,8.00,0.00,29.62,M,3.11,18.00,FEW,SCT,M,M,2000.00,2500.00,M,M,HZ,M,M,M,M,M,M,105.06,VABB 220930Z 24008G18KT 5000 HZ FEW020 SCT025 33/25 Q1003 NOSIG,M
VABB,2022-05-22 10:00,89.60,77.00,66.55,220.00,9.00,0.00,29.62,M,3.11,19.00,FEW,SCT,M,M,2000.00,2500.00,M,M,HZ,M,M,M,M,M,M,102.54,VABB 221000Z 22009G19KT 5000 HZ FEW020 SCT025 32/25 Q1003 NOSIG,M
VABB,2022-05-22 10:30,89.60,77.00,66.55,250.00,10.00,0.00,29.59,M,3.11,20.00,FEW,SCT,M,M,2000.00,2500.00,M,M,HZ,M,M,M,M,M,M,102.54,VABB 221030Z 25010G20KT 5000 HZ FEW020 SCT025 32/25 Q1002 NOSIG,M
VABB,2022-05-22 11:00,89.60,78.80,70.63,240.00,12.00,0.00,29.59,M,3.11,M,FEW,SCT,M,M,2000.00,2500.00,M,M,HZ,M,M,M,M,M,M,105.15,VABB 221100Z 24012KT 5000 HZ FEW020 SCT025 32/26 Q1002 NOSIG,M
VABB,2022-05-22 11:30,89.60,78.80,70.63,220.00,9.00,0.00,29.59,M,3.11,19.00,FEW,SCT,M,M,2500.00,2500.00,M,M,HZ,M,M,M,M,M,M,105.15,VABB 221130Z 22009G19KT 5000 HZ FEW025 SCT025 32/26 Q1002 NOSIG,M
VABB,2022-05-22 12:00,89.60,78.80,70.63,230.00,12.00,0.00,29.59,M,3.11,M,SCT,SCT,M,M,2000.00,2500.00,M,M,HZ,M,M,M,M,M,M,105.15,VABB 221200Z 23012KT 5000 HZ SCT020 SCT025 32/26 Q1002 NOSIG,M
VABB,2022-05-22 12:30,89.60,78.80,70.63,240.00,9.00,0.00,29.59,M,3.11,19.00,SCT,SCT,M,M,2000.00,2500.00,M,M,HZ,M,M,M,M,M,M,105.15,VABB 221230Z 24009G19KT 5000 HZ SCT020 SCT025 32/26 Q1002 NOSIG,M
VABB,2022-05-22 13:00,87.80,78.80,74.77,240.00,7.00,0.00,29.62,M,3.11,17.00,SCT,SCT,M,M,2000.00,2500.00,M,M,HZ,M,M,M,M,M,M,102.37,VABB 221300Z 24007G17KT 5000 HZ SCT020 SCT025 31/26 Q1003 NOSIG,M
VABB,2022-05-22 13:30,87.80,78.80,74.77,230.00,11.00,0.00,29.62,M,3.11,M,SCT,BKN,M,M,2000.00,2500.00,M,M,HZ,M,M,M,M,M,M,102.37,VABB 221330Z 23011KT 5000 HZ SCT020 BKN025 31/26 Q1003 NOSIG,M
VABB,2022-05-22 14:00,87.80,78.80,74.77,240.00,12.00,0.00,29.62,M,2.49,M,SCT,BKN,M,M,2000.00,2500.00,M,M,HZ,M,M,M,M,M,M,102.37,VABB 221400Z 24012KT 4000 HZ SCT020 BKN025 31/26 Q1003 NOSIG,M
VABB,2022-05-22 14:30,86.00,78.80,79.18,230.00,8.00,0.00,29.62,M,2.49,18.00,SCT,BKN,M,M,2000.00,2500.00,M,M,HZ,M,M,M,M,M,M,99.38,VABB 221430Z 23008G18KT 4000 HZ SCT020 BKN025 30/26 Q1003 NOSIG,M
VABB,2022-05-22 15:00,86.00,78.80,79.18,210.00,7.00,0.00,29.65,M,2.49,17.00,SCT,SCT,M,M,2000.00,2500.00,M,M,HZ,M,M,M,M,M,M,99.38,VABB 221500Z 21007G17KT 4000 HZ SCT020 SCT025 30/26 Q1004 NOSIG,M
VABB,2022-05-22 15:30,86.00,78.80,79.18,230.00,7.00,0.00,29.65,M,2.17,17.00,SCT,SCT,M,M,2000.00,2500.00,M,M,HZ,M,M,M,M,M,M,99.38,VABB 221530Z 23007G17KT 3500 HZ SCT020 SCT025 30/26 Q1004 NOSIG,M
VABB,2022-05-22 16:00,86.00,80.60,83.99,220.00,8.00,0.00,29.65,M,2.17,M,SCT,M,M,M,2000.00,M,M,M,HZ,M,M,M,M,M,M,101.90,VABB 221600Z 22008KT 3500 HZ SCT020 30/27 Q1004 NOSIG,M
VABB,2022-05-22 16:30,86.00,78.80,79.18,230.00,11.00,0.00,29.68,M,2.17,M,SCT,M,M,M,2000.00,M,M,M,HZ,M,M,M,M,M,M,99.38,VABB 221630Z 23011KT 3500 HZ SCT020 30/26 Q1005 NOSIG,M
VABB,2022-05-22 17:00,86.00,80.60,83.99,240.00,8.00,0.00,29.68,M,2.17,M,SCT,M,M,M,2000.00,M,M,M,HZ,M,M,M,M,M,M,101.90,VABB 221700Z 24008KT 3500 HZ SCT020 30/27 Q1005 NOSIG,M
VABB,2022-05-22 17:30,86.00,80.60,83.99,230.00,10.00,0.00,29.68,M,2.17,M,SCT,M,M,M,2000.00,M,M,M,HZ,M,M,M,M,M,M,101.90,VABB 221730Z 23010KT 3500 HZ SCT020 30/27 Q1005 NOSIG,M
VABB,2022-05-22 18:00,86.00,80.60,83.99,220.00,7.00,0.00,29.65,M,2.17,17.00,SCT,M,M,M,2000.00,M,M,M,HZ,M,M,M,M,M,M,101.90,VABB 221800Z 22007G17KT 3500 HZ SCT020 30/27 Q1004 NOSIG,M
VABB,2022-05-22 18:30,86.00,80.60,83.99,220.00,11.00,0.00,29.65,M,2.17,M,SCT,M,M,M,2000.00,M,M,M,HZ,M,M,M,M,M,M,101.90,VABB 221830Z 22011KT 3500 HZ SCT020 30/27 Q1004 NOSIG,M
VABB,2022-05-22 19:00,86.00,80.60,83.99,220.00,11.00,0.00,29.65,M,2.17,M,SCT,M,M,M,2000.00,M,M,M,HZ,M,M,M,M,M,M,101.90,VABB 221900Z 22011KT 3500 HZ SCT020 30/27 Q1004 NOSIG,M
VABB,2022-05-22 19:30,86.00,80.60,83.99,240.00,10.00,0.00,29.65,M,2.17,M,SCT,M,M,M,2000.00,M,M,M,HZ,M,M,M,M,M,M,101.90,VABB 221930Z 24010KT 3500 HZ SCT020 30/27 Q1004 NOSIG,M
VABB,2022-05-22 20:00,86.00,80.60,83.99,240.00,9.00,0.00,29.62,M,2.17,M,SCT,M,M,M,2000.00,M,M,M,HZ,M,M,M,M,M,M,101.90,VABB 222000Z 24009KT 3500 HZ SCT020 30/27 Q1003 NOSIG,M
VABB,2022-05-22 20:30,86.00,80.60,83.99,230.00,9.00,0.00,29.62,M,2.17,M,SCT,M,M,M,2000.00,M,M,M,HZ,M,M,M,M,M,M,101.90,VABB 222030Z 23009KT 3500 HZ SCT020 30/27 Q1003 NOSIG,M
VABB,2022-05-22 21:00,86.00,78.80,79.18,240.00,11.00,0.00,29.59,M,2.17,M,SCT,M,M,M,2000.00,M,M,M,HZ,M,M,M,M,M,M,99.38,VABB 222100Z 24011KT 3500 HZ SCT020 30/26 Q1002 NOSIG,M
VABB,2022-05-22 21:30,86.00,78.80,79.18,230.00,8.00,0.00,29.59,M,2.17,M,SCT,M,M,M,2000.00,M,M,M,HZ,M,M,M,M,M,M,99.38,VABB 222130Z 23008KT 3500 HZ SCT020 30/26 Q1002 NOSIG,M
VABB,2022-05-22 22:00,86.00,78.80,79.18,240.00,7.00,0.00,29.59,M,2.17,M,SCT,M,M,M,2000.00,M,M,M,HZ,M,M,M,M,M,M,99.38,VABB 222200Z 24007KT 3500 HZ SCT020 30/26 Q1002 NOSIG,M
VABB,2022-05-22 22:30,86.00,78.80,79.18,220.00,6.00,0.00,29.59,M,2.17,M,SCT,M,M,M,2000.00,M,M,M,HZ,M,M,M,M,M,M,99.38,VABB 222230Z 22006KT 3500 HZ SCT020 30/26 Q1002 NOSIG,M
VABB,2022-05-22 23:00,86.00,78.80,79.18,240.00,11.00,0.00,29.59,M,2.17,M,SCT,M,M,M,2000.00,M,M,M,HZ,M,M,M,M,M,M,99.38,VABB 222300Z 24011KT 3500 HZ SCT020 30/26 Q1002 NOSIG,M
VABB,2022-05-22 23:30,86.00,80.60,83.99,240.00,10.00,0.00,29.59,M,2.17,M,SCT,M,M,M,2000.00,M,M,M,HZ,M,M,M,M,M,M,101.90,VABB 222330Z 24010KT 3500 HZ SCT020 30/27 Q1002 NOSIG,M
VABB,2022-05-23 00:00,86.00,80.60,83.99,230.00,9.00,0.00,29.59,M,2.17,M,SCT,M,M,M,2000.00,M,M,M,HZ,M,M,M,M,M,M,101.90,VABB 230000Z 23009KT 3500 HZ SCT020 30/27 Q1002 NOSIG,M
VABB,2022-05-23 00:30,86.00,78.80,79.18,240.00,9.00,0.00,29.62,M,2.17,M,FEW,SCT,M,M,2000.00,2500.00,M,M,HZ,M,M,M,M,M,M,99.38,VABB 230030Z 24009KT 3500 HZ FEW020 SCT025 30/26 Q1003 NOSIG,M
VABB,2022-05-23 01:00,86.00,80.60,83.99,240.00,7.00,0.00,29.62,M,2.17,M,SCT,SCT,M,M,2000.00,2500.00,M,M,HZ,M,M,M,M,M,M,101.90,VABB 230100Z 24007KT 3500 HZ SCT020 SCT025 30/27 Q1003 NOSIG,M
VABB,2022-05-23 01:30,86.00,80.60,83.99,230.00,11.00,0.00,29.62,M,2.17,M,SCT,SCT,M,M,2000.00,2500.00,M,M,-DZ,M,M,M,M,M,M,101.90,VABB 230130Z 23011KT 3500 -DZ SCT020 SCT025 30/27 Q1003 NOSIG,M
VABB,2022-05-23 02:00,86.00,80.60,83.99,230.00,12.00,0.00,29.62,M,2.17,M,FEW,SCT,M,M,2000.00,2500.00,M,M,HZ,M,M,M,M,M,M,101.90,VABB 230200Z 23012KT 3500 HZ FEW020 SCT025 30/27 Q1003 NOSIG,M
VABB,2022-05-23 02:30,87.80,80.60,79.31,240.00,8.00,0.00,29.65,M,2.17,18.00,FEW,SCT,M,M,2000.00,2500.00,M,M,HZ,M,M,M,M,M,M,105.14,VABB 230230Z 24008G18KT 3500 HZ FEW020 SCT025 31/27 Q1004 NOSIG,M
VABB,2022-05-23 03:00,87.80,78.80,74.77,240.00,12.00,0.00,29.65,M,2.49,M,FEW,SCT,M,M,2000.00,2500.00,M,M,HZ,M,M,M,M,M,M,102.37,VABB 230300Z 24012KT 4000 HZ FEW020 SCT025 31/26 Q1004 NOSIG,M
VABB,2022-05-23 03:30,87.80,80.60,79.31,220.00,10.00,0.00,29.65,M,2.49,20.00,FEW,SCT,M,M,2000.00,2500.00,M,M,HZ,M,M,M,M,M,M,105.14,VABB 230330Z 22010G20KT 4000 HZ FEW020 SCT025 31/27 Q1004 NOSIG,M
VABB,2022-05-23 04:00,87.80,78.80,74.77,240.00,10.00,0.00,29.65,M,2.49,20.00,FEW,SCT,M,M,2000.00,2500.00,M,M,HZ,M,M,M,M,M,M,102.37,VABB 230400Z 24010G20KT 4000 HZ FEW020 SCT025 31/26 Q1004 NOSIG,M
VABB,2022-05-23 04:30,89.60,78.80,70.63,240.00,13.00,0.00,29.65,M,2.49,M,FEW,SCT,M,M,2000.00,2500.00,M,M,HZ,M,M,M,M,M,M,105.15,VABB 230430Z 24013KT 4000 HZ FEW020 SCT025 32/26 Q1004 NOSIG,M
VABB,2022-05-23 05:00,89.60,78.80,70.63,240.00,11.00,0.00,29.65,M,2.49,21.00,FEW,SCT,M,M,2000.00,2500.00,M,M,HZ,M,M,M,M,M,M,105.15,VABB 230500Z 24011G21KT 4000 HZ FEW020 SCT025 32/26 Q1004 BECMG 5000 HZ,M
VABB,2022-05-23 05:30,91.40,78.80,66.75,230.00,12.00,0.00,29.65,M,3.11,22.00,FEW,SCT,M,M,2000.00,2500.00,M,M,HZ,M,M,M,M,M,M,107.79,VABB 230530Z 23012G22KT 5000 HZ FEW020 SCT025 33/26 Q1004 NOSIG,M
VABB,2022-05-23 06:00,89.60,78.80,70.63,230.00,8.00,0.00,29.65,M,3.11,18.00,FEW,SCT,M,M,2000.00,2500.00,M,M,HZ,M,M,M,M,M,M,105.15,VABB 230600Z 23008G18KT 5000 HZ FEW020 SCT025 32/26 Q1004 NOSIG,M
VABB,2022-05-23 06:30,91.40,80.60,70.81,240.00,10.00,0.00,29.65,M,3.11,20.00,FEW,SCT,M,M,2000.00,2500.00,M,M,HZ,M,M,M,M,M,M,110.88,VABB 230630Z 24010G20KT 5000 HZ FEW020 SCT025 33/27 Q1004 NOSIG,M
VABB,2022-05-23 07:00,91.40,78.80,66.75,230.00,12.00,0.00,29.65,M,3.11,22.00,FEW,SCT,M,M,2000.00,2500.00,M,M,HZ,M,M,M,M,M,M,107.79,VABB 230700Z 23012G22KT 5000 HZ FEW020 SCT025 33/26 Q1004 NOSIG,M
VABB,2022-05-23 07:30,91.40,78.80,66.75,240.00,9.00,0.00,29.65,M,3.11,19.00,SCT,SCT,M,M,2000.00,2500.00,M,M,HZ,M,M,M,M,M,M,107.79,VABB 230730Z 24009G19KT 5000 HZ SCT020 SCT025 33/26 Q1004 NOSIG,M
VABB,2022-05-23 08:00,91.40,78.80,66.75,230.00,12.00,0.00,29.62,M,3.11,22.00,SCT,SCT,M,M,2000.00,2500.00,M,M,HZ,M,M,M,M,M,M,107.79,VABB 230800Z 23012G22KT 5000 HZ SCT020 SCT025 33/26 Q1003 NOSIG,M
VABB,2022-05-23 08:30,89.60,77.00,66.55,220.00,12.00,0.00,29.62,M,3.11,M,SCT,SCT,M,M,2000.00,2500.00,M,M,HZ,M,M,M,M,M,M,102.54,VABB 230830Z 22012KT 5000 HZ SCT020 SCT025 32/25 Q1003 NOSIG,M
VABB,2022-05-23 09:00,91.40,77.00,62.90,250.00,9.00,0.00,29.62,M,3.11,19.00,SCT,SCT,M,M,2000.00,2500.00,M,M,HZ,M,M,M,M,M,M,105.06,VABB 230900Z 25009G19KT 5000 HZ SCT020 SCT025 33/25 Q1003 NOSIG,M
VABB,2022-05-23 09:30,89.60,77.00,66.55,200.00,8.00,0.00,29.59,M,3.11,18.00,SCT,SCT,M,M,2000.00,2500.00,M,M,HZ,M,M,M,M,M,M,102.54,VABB 230930Z 20008G18KT 5000 HZ SCT020 SCT025 32/25 Q1002 NOSIG,M
VABB,2022-05-23 10:00,91.40,80.60,70.81,250.00,12.00,0.00,29.59,M,3.11,22.00,SCT,SCT,M,M,2000.00,2500.00,M,M,HZ,M,M,M,M,M,M,110.88,VABB 231000Z 25012G22KT 5000 HZ SCT020 SCT025 33/27 Q1002 NOSIG,M
VABB,2022-05-23 10:30,89.60,78.80,70.63,240.00,13.00,0.00,29.59,M,3.11,M,SCT,SCT,M,M,2000.00,2500.00,M,M,HZ,M,M,M,M,M,M,105.15,VABB 231030Z 24013KT 5000 HZ SCT020 SCT025 32/26 Q1002 NOSIG,M
VABB,2022-05-23 11:00,89.60,78.80,70.63,240.00,9.00,0.00,29.59,M,3.11,19.00,SCT,SCT,M,M,2000.00,2500.00,M,M,HZ,M,M,M,M,M,M,105.15,VABB 231100Z 24009G19KT 5000 HZ SCT020 SCT025 32/26 Q1002 NOSIG,M
VABB,2022-05-23 11:30,89.60,80.60,74.93,220.00,7.00,0.00,29.59,M,3.11,17.00,SCT,SCT,M,M,2000.00,2500.00,M,M,HZ,M,M,M,M,M,M,108.11,VABB 231130Z 22007G17KT 5000 HZ SCT020 SCT025 32/27 Q1002 NOSIG,M
VABB,2022-05-23 12:00,89.60,78.80,70.63,240.00,10.00,0.00,29.59,M,3.11,20.00,SCT,SCT,M,M,2000.00,2500.00,M,M,HZ,M,M,M,M,M,M,105.15,VABB 231200Z 24010G20KT 5000 HZ SCT020 SCT025 32/26 Q1002 NOSIG,M
VABB,2022-05-23 12:30,87.80,78.80,74.77,240.00,10.00,0.00,29.62,M,2.49,M,SCT,SCT,M,M,2000.00,2500.00,M,M,HZ,M,M,M,M,M,M,102.37,VABB 231230Z 24010KT 4000 HZ SCT020 SCT025 31/26 Q1003 NOSIG,M
VABB,2022-05-23 13:00,87.80,78.80,74.77,230.00,9.00,0.00,29.62,M,2.49,M,SCT,SCT,M,M,2000.00,2500.00,M,M,HZ,M,M,M,M,M,M,102.37,VABB 231300Z 23009KT 4000 HZ SCT020 SCT025 31/26 Q1003 NOSIG,M
VABB,2022-05-23 13:30,87.80,78.80,74.77,240.00,11.00,0.00,29.62,M,2.49,M,FEW,SCT,M,M,2000.00,2500.00,M,M,HZ,M,M,M,M,M,M,102.37,VABB 231330Z 24011KT 4000 HZ FEW020 SCT025 31/26 Q1003 NOSIG,M
VABB,2022-05-23 14:00,87.80,78.80,74.77,220.00,7.00,0.00,29.62,M,2.17,M,FEW,SCT,M,M,2000.00,2500.00,M,M,HZ,M,M,M,M,M,M,102.37,VABB 231400Z 22007KT 3500 HZ FEW020 SCT025 31/26 Q1003 NOSIG,M
VABB,2022-05-23 14:30,87.80,80.60,79.31,220.00,10.00,0.00,29.62,M,2.17,M,FEW,SCT,M,M,2000.00,2500.00,M,M,HZ,M,M,M,M,M,M,105.14,VABB 231430Z 22010KT 3500 HZ FEW020 SCT025 31/27 Q1003 NOSIG,M
VABB,2022-05-23 15:00,87.80,80.60,79.31,220.00,11.00,0.00,29.65,M,2.17,M,FEW,SCT,M,M,2000.00,2500.00,M,M,HZ,M,M,M,M,M,M,105.14,VABB 231500Z 22011KT 3500 HZ FEW020 SCT025 31/27 Q1004 NOSIG,M
VABB,2022-05-23 15:30,87.80,80.60,79.31,240.00,10.00,0.00,29.65,M,2.17,M,FEW,M,M,M,2000.00,M,M,M,HZ,M,M,M,M,M,M,105.14,VABB 231530Z 24010KT 3500 HZ FEW020 31/27 Q1004 NOSIG,M
VABB,2022-05-23 16:00,86.00,80.60,83.99,230.00,10.00,0.00,29.65,M,2.17,M,FEW,M,M,M,2000.00,M,M,M,HZ,M,M,M,M,M,M,101.90,VABB 231600Z 23010KT 3500 HZ FEW020 30/27 Q1004 NOSIG,M
VABB,2022-05-23 16:30,87.80,78.80,74.77,240.00,12.00,0.00,29.65,M,2.17,M,SCT,M,M,M,2000.00,M,M,M,HZ,M,M,M,M,M,M,102.37,VABB 231630Z 24012KT 3500 HZ SCT020 31/26 Q1004 NOSIG,M
VABB,2022-05-23 17:00,86.00,78.80,79.18,230.00,11.00,0.00,29.65,M,2.17,M,SCT,M,M,M,2000.00,M,M,M,HZ,M,M,M,M,M,M,99.38,VABB 231700Z 23011KT 3500 HZ SCT020 30/26 Q1004 NOSIG,M
VABB,2022-05-23 17:30,86.00,78.80,79.18,230.00,10.00,0.00,29.65,M,2.17,M,FEW,M,M,M,2000.00,M,M,M,HZ,M,M,M,M,M,M,99.38,VABB 231730Z 23010KT 3500 HZ FEW020 30/26 Q1004 NOSIG,M
VABB,2022-05-23 18:00,86.00,78.80,79.18,230.00,9.00,0.00,29.65,M,2.17,M,FEW,M,M,M,2000.00,M,M,M,HZ,M,M,M,M,M,M,99.38,VABB 231800Z 23009KT 3500 HZ FEW020 30/26 Q1004 NOSIG,M
VABB,2022-05-23 18:30,86.00,78.80,79.18,230.00,10.00,0.00,29.65,M,2.17,M,FEW,M,M,M,2000.00,M,M,M,HZ,M,M,M,M,M,M,99.38,VABB 231830Z 23010KT 3500 HZ FEW020 30/26 Q1004 NOSIG,M
VABB,2022-05-23 19:00,86.00,80.60,83.99,220.00,10.00,0.00,29.65,M,2.17,M,FEW,M,M,M,2000.00,M,M,M,HZ,M,M,M,M,M,M,101.90,VABB 231900Z 22010KT 3500 HZ FEW020 30/27 Q1004 NOSIG,M
VABB,2022-05-23 19:30,86.00,80.60,83.99,230.00,8.00,0.00,29.65,M,2.17,M,SCT,M,M,M,2000.00,M,M,M,HZ,M,M,M,M,M,M,101.90,VABB 231930Z 23008KT 3500 HZ SCT020 30/27 Q1004 NOSIG,M
VABB,2022-05-23 20:00,86.00,78.80,79.18,240.00,11.00,0.00,29.62,M,2.17,M,SCT,M,M,M,2000.00,M,M,M,HZ,M,M,M,M,M,M,99.38,VABB 232000Z 24011KT 3500 HZ SCT020 30/26 Q1003 NOSIG,M
VABB,2022-05-23 20:30,86.00,78.80,79.18,230.00,7.00,0.00,29.62,M,2.17,M,SCT,M,M,M,2000.00,M,M,M,HZ,M,M,M,M,M,M,99.38,VABB 232030Z 23007KT 3500 HZ SCT020 30/26 Q1003 NOSIG,M
VABB,2022-05-23 21:00,86.00,80.60,83.99,230.00,9.00,0.00,29.62,M,2.17,M,SCT,M,M,M,2000.00,M,M,M,HZ,M,M,M,M,M,M,101.90,VABB 232100Z 23009KT 3500 HZ SCT020 30/27 Q1003 NOSIG,M
VABB,2022-05-23 21:30,86.00,78.80,79.18,230.00,8.00,0.00,29.62,M,2.17,M,SCT,M,M,M,2000.00,M,M,M,HZ,M,M,M,M,M,M,99.38,VABB 232130Z 23008KT 3500 HZ SCT020 30/26 Q1003 NOSIG,M
VABB,2022-05-23 22:00,86.00,78.80,79.18,250.00,10.00,0.00,29.62,M,2.17,M,SCT,M,M,M,2000.00,M,M,M,HZ,M,M,M,M,M,M,99.38,VABB 232200Z 25010KT 3500 HZ SCT020 30/26 Q1003 NOSIG,M
VABB,2022-05-23 22:30,86.00,78.80,79.18,230.00,5.00,0.00,29.62,M,1.86,M,SCT,M,M,M,2000.00,M,M,M,HZ,M,M,M,M,M,M,99.38,VABB 232230Z 23005KT 3000 HZ SCT020 30/26 Q1003 NOSIG,M
VABB,2022-05-23 23:00,86.00,78.80,79.18,250.00,7.00,0.00,29.62,M,1.86,M,SCT,M,M,M,2000.00,M,M,M,HZ,M,M,M,M,M,M,99.38,VABB 232300Z 25007KT 3000 HZ SCT020 30/26 Q1003 NOSIG,M
VABB,2022-05-23 23:30,86.00,78.80,79.18,250.00,8.00,0.00,29.65,M,1.86,M,SCT,M,M,M,2000.00,M,M,M,HZ,M,M,M,M,M,M,99.38,VABB 232330Z 25008KT 3000 HZ SCT020 30/26 Q1004 NOSIG,M
VABB,2022-05-24 00:00,86.00,78.80,79.18,210.00,4.00,0.00,29.65,M,1.86,M,SCT,M,M,M,2000.00,M,M,M,HZ,M,M,M,M,M,M,99.38,VABB 240000Z 21004KT 3000 HZ SCT020 30/26 Q1004 NOSIG,M
VABB,2022-05-24 00:30,86.00,78.80,79.18,250.00,6.00,0.00,29.65,M,1.86,M,SCT,SCT,M,M,2000.00,2500.00,M,M,HZ,M,M,M,M,M,M,99.38,VABB 240030Z 25006KT 3000 HZ SCT020 SCT025 30/26 Q1004 NOSIG,M
VABB,2022-05-24 01:00,86.00,78.80,79.18,260.00,9.00,0.00,29.68,M,1.86,M,SCT,SCT,M,M,2000.00,2500.00,M,M,HZ,M,M,M,M,M,M,99.38,VABB 240100Z 26009KT 3000 HZ SCT020 SCT025 30/26 Q1005 NOSIG,M
VABB,2022-05-24 01:30,86.00,78.80,79.18,270.00,8.00,0.00,29.68,M,1.86,M,SCT,SCT,M,M,2000.00,2500.00,M,M,HZ,M,M,M,M,M,M,99.38,VABB 240130Z 27008KT 3000 HZ SCT020 SCT025 30/26 Q1005 NOSIG,M
VABB,2022-05-24 02:00,86.00,78.80,79.18,260.00,10.00,0.00,29.71,M,1.86,M,SCT,SCT,M,M,2000.00,2500.00,M,M,HZ,M,M,M,M,M,M,99.38,VABB 240200Z 26010KT 3000 HZ SCT020 SCT025 30/26 Q1006 NOSIG,M
VABB,2022-05-24 02:30,87.80,78.80,74.77,260.00,9.00,0.00,29.71,M,1.86,M,SCT,SCT,M,M,2000.00,2500.00,M,M,HZ,M,M,M,M,M,M,102.37,VABB 240230Z 26009KT 3000 HZ SCT020 SCT025 31/26 Q1006 NOSIG,M
VABB,2022-05-24 03:00,87.80,78.80,74.77,270.00,9.00,0.00,29.71,M,2.17,M,SCT,SCT,M,M,2000.00,2500.00,M,M,HZ,M,M,M,M,M,M,102.37,VABB 240300Z 27009KT 3500 HZ SCT020 SCT025 31/26 Q1006 NOSIG,M
VABB,2022-05-24 03:30,87.80,78.80,74.77,260.00,7.00,0.00,29.74,M,2.49,M,SCT,SCT,M,M,2000.00,2500.00,M,M,HZ,M,M,M,M,M,M,102.37,VABB 240330Z 26007KT 4000 HZ SCT020 SCT025 31/26 Q1007 NOSIG,M
VABB,2022-05-24 04:00,87.80,78.80,74.77,250.00,7.00,0.00,29.74,M,2.49,M,SCT,SCT,M,M,2000.00,2500.00,M,M,HZ,M,M,M,M,M,M,102.37,VABB 240400Z 25007KT 4000 HZ SCT020 SCT025 31/26 Q1007 BECMG 5000 HZ,M
VABB,2022-05-24 04:30,89.60,78.80,70.63,260.00,9.00,0.00,29.74,M,3.11,M,SCT,SCT,M,M,2000.00,2500.00,M,M,HZ,M,M,M,M,M,M,105.15,VABB 240430Z 26009KT 5000 HZ SCT020 SCT025 32/26 Q1007 NOSIG,M
VABB,2022-05-24 05:00,89.60,78.80,70.63,260.00,10.00,0.00,29.77,M,3.11,M,SCT,SCT,M,M,2000.00,2500.00,M,M,HZ,M,M,M,M,M,M,105.15,VABB 240500Z 26010KT 5000 HZ SCT020 SCT025 32/26 Q1008 NOSIG,M
VABB,2022-05-24 05:30,89.60,78.80,70.63,230.00,6.00,0.00,29.74,M,3.11,M,SCT,SCT,M,M,2000.00,2500.00,M,M,HZ,M,M,M,M,M,M,105.15,VABB 240530Z 23006KT 5000 HZ SCT020 SCT025 32/26 Q1007 NOSIG,M
VABB,2022-05-24 06:00,89.60,78.80,70.63,250.00,9.00,0.00,29.77,M,3.11,19.00,SCT,SCT,M,M,2000.00,2500.00,M,M,HZ,M,M,M,M,M,M,105.15,VABB 240600Z 25009G19KT 5000 HZ SCT020 SCT025 32/26 Q1008 NOSIG,M
VABB,2022-05-24 06:30,89.60,78.80,70.63,260.00,11.00,0.00,29.77,M,3.11,M,FEW,SCT,M,M,2000.00,2500.00,M,M,HZ,M,M,M,M,M,M,105.15,VABB 240630Z 26011KT 5000 HZ FEW020 SCT025 32/26 Q1008 NOSIG,M
VABB,2022-05-24 07:00,89.60,78.80,70.63,260.00,11.00,0.00,29.77,M,3.11,M,FEW,SCT,M,M,2000.00,2500.00,M,M,HZ,M,M,M,M,M,M,105.15,VABB 240700Z 26011KT 5000 HZ FEW020 SCT025 32/26 Q1008 NOSIG,M
VABB,2022-05-24 07:30,91.40,78.80,66.75,280.00,10.00,0.00,29.74,M,3.11,M,FEW,SCT,M,M,2000.00,2500.00,M,M,HZ,M,M,M,M,M,M,107.79,VABB 240730Z 28010KT 5000 HZ FEW020 SCT025 33/26 Q1007 NOSIG,M
VABB,2022-05-24 08:00,91.40,78.80,66.75,260.00,7.00,0.00,29.74,M,3.11,17.00,SCT,SCT,M,M,2000.00,2500.00,M,M,HZ,M,M,M,M,M,M,107.79,VABB 240800Z 26007G17KT 5000 HZ SCT020 SCT025 33/26 Q1007 NOSIG,M
VABB,2022-05-24 08:30,91.40,77.00,62.90,250.00,9.00,0.00,29.71,M,3.11,19.00,SCT,SCT,M,M,2000.00,2500.00,M,M,HZ,M,M,M,M,M,M,105.06,VABB 240830Z 25009G19KT 5000 HZ SCT020 SCT025 33/25 Q1006 NOSIG,M
VABB,2022-05-24 09:00,91.40,78.80,66.75,260.00,9.00,0.00,29.71,M,3.11,19.00,FEW,SCT,M,M,2000.00,2500.00,M,M,HZ,M,M,M,M,M,M,107.79,VABB 240900Z 26009G19KT 5000 HZ FEW020 SCT025 33/26 Q1006 NOSIG,M
VABB,2022-05-24 09:30,91.40,77.00,62.90,250.00,10.00,0.00,29.71,M,3.11,20.00,FEW,SCT,M,M,2000.00,2500.00,M,M,HZ,M,M,M,M,M,M,105.06,VABB 240930Z 25010G20KT 5000 HZ FEW020 SCT025 33/25 Q1006 NOSIG,M
VABB,2022-05-24 10:00,91.40,78.80,66.75,270.00,10.00,0.00,29.71,M,3.11,20.00,FEW,SCT,M,M,2000.00,2500.00,M,M,HZ,M,M,M,M,M,M,107.79,VABB 241000Z 27010G20KT 5000 HZ FEW020 SCT025 33/26 Q1006 NOSIG,M
VABB,2022-05-24 10:30,91.40,78.80,66.75,260.00,10.00,0.00,29.71,M,3.11,20.00,FEW,SCT,M,M,2000.00,2500.00,M,M,HZ,M,M,M,M,M,M,107.79,VABB 241030Z 26010G20KT 5000 HZ FEW020 SCT025 33/26 Q1006 NOSIG,M
VABB,2022-05-24 11:00,89.60,78.80,70.63,260.00,8.00,0.00,29.71,M,3.11,18.00,FEW,SCT,M,M,2000.00,2500.00,M,M,HZ,M,M,M,M,M,M,105.15,VABB 241100Z 26008G18KT 5000 HZ FEW020 SCT025 32/26 Q1006 NOSIG,M
VABB,2022-05-24 11:30,89.60,78.80,70.63,260.00,12.00,0.00,29.71,M,3.11,M,FEW,SCT,M,M,2000.00,2500.00,M,M,HZ,M,M,M,M,M,M,105.15,VABB 241130Z 26012KT 5000 HZ FEW020 SCT025 32/26 Q1006 NOSIG,M
VABB,2022-05-24 12:00,89.60,78.80,70.63,260.00,9.00,0.00,29.71,M,3.11,M,FEW,SCT,M,M,2000.00,2500.00,M,M,HZ,M,M,M,M,M,M,105.15,VABB 241200Z 26009KT 5000 HZ FEW020 SCT025 32/26 Q1006 NOSIG,M
VABB,2022-05-24 12:30,89.60,77.00,66.55,270.00,7.00,0.00,29.71,M,3.11,M,FEW,SCT,M,M,2000.00,2500.00,M,M,HZ,M,M,M,M,M,M,102.54,VABB 241230Z 27007KT 5000 HZ FEW020 SCT025 32/25 Q1006 NOSIG,M
VABB,2022-05-24 13:00,87.80,78.80,74.77,250.00,11.00,0.00,29.71,M,2.49,M,SCT,M,M,M,2000.00,M,M,M,HZ,M,M,M,M,M,M,102.37,VABB 241300Z 25011KT 4000 HZ SCT020 31/26 Q1006 NOSIG,M
VABB,2022-05-24 13:30,87.80,78.80,74.77,240.00,10.00,0.00,29.74,M,2.49,M,SCT,M,M,M,2000.00,M,M,M,HZ,M,M,M,M,M,M,102.37,VABB 241330Z 24010KT 4000 HZ SCT020 31/26 Q1007 NOSIG,M
VABB,2022-05-24 14:00,87.80,78.80,74.77,230.00,10.00,0.00,29.74,M,2.49,M,SCT,M,M,M,2000.00,M,M,M,HZ,M,M,M,M,M,M,102.37,VABB 241400Z 23010KT 4000 HZ SCT020 31/26 Q1007 NOSIG,M
VABB,2022-05-24 14:30,87.80,78.80,74.77,230.00,10.00,0.00,29.74,M,2.17,M,SCT,M,M,M,2000.00,M,M,M,HZ,M,M,M,M,M,M,102.37,VABB 241430Z 23010KT 3500 HZ SCT020 31/26 Q1007 NOSIG,M
VABB,2022-05-24 15:00,87.80,78.80,74.77,240.00,10.00,0.00,29.74,M,2.17,M,SCT,M,M,M,2000.00,M,M,M,HZ,M,M,M,M,M,M,102.37,VABB 241500Z 24010KT 3500 HZ SCT020 31/26 Q1007 NOSIG,M
VABB,2022-05-24 15:30,87.80,78.80,74.77,240.00,9.00,0.00,29.77,M,2.17,M,SCT,M,M,M,2000.00,M,M,M,HZ,M,M,M,M,M,M,102.37,VABB 241530Z 24009KT 3500 HZ SCT020 31/26 Q1008 NOSIG,M
VABB,2022-05-24 16:00,86.00,78.80,79.18,240.00,9.00,0.00,29.77,M,2.17,M,SCT,SCT,M,M,2000.00,2500.00,M,M,HZ,M,M,M,M,M,M,99.38,VABB 241600Z 24009KT 3500 HZ SCT020 SCT025 30/26 Q1008 NOSIG,M
VABB,2022-05-24 16:30,86.00,78.80,79.18,240.00,7.00,0.00,29.77,M,2.17,M,SCT,SCT,M,M,2000.00,2500.00,M,M,HZ,M,M,M,M,M,M,99.38,VABB 241630Z 24007KT 3500 HZ SCT020 SCT025 30/26 Q1008 NOSIG,M
VABB,2022-05-24 17:00,87.80,78.80,74.77,240.00,9.00,0.00,29.77,M,2.17,M,SCT,SCT,M,M,2000.00,2500.00,M,M,HZ,M,M,M,M,M,M,102.37,VABB 241700Z 24009KT 3500 HZ SCT020 SCT025 31/26 Q1008 NOSIG,M
VABB,2022-05-24 17:30,86.00,80.60,83.99,230.00,8.00,0.00,29.77,M,2.17,M,FEW,SCT,M,M,2000.00,2500.00,M,M,HZ,M,M,M,M,M,M,101.90,VABB 241730Z 23008KT 3500 HZ FEW020 SCT025 30/27 Q1008 NOSIG,M
VABB,2022-05-24 18:00,86.00,78.80,79.18,240.00,7.00,0.00,29.77,M,2.17,M,FEW,SCT,M,M,2000.00,2500.00,M,M,HZ,M,M,M,M,M,M,99.38,VABB 241800Z 24007KT 3500 HZ FEW020 SCT025 30/26 Q1008 NOSIG,M
VABB,2022-05-24 18:30,86.00,78.80,79.18,230.00,9.00,0.00,29.77,M,2.17,M,SCT,SCT,M,M,2000.00,2500.00,M,M,HZ,M,M,M,M,M,M,99.38,VABB 241830Z 23009KT 3500 HZ SCT020 SCT025 30/26 Q1008 NOSIG,M
VABB,2022-05-24 19:00,86.00,78.80,79.18,230.00,6.00,0.00,29.77,M,2.17,M,SCT,SCT,M,M,2000.00,2500.00,M,M,HZ,M,M,M,M,M,M,99.38,VABB 241900Z 23006KT 3500 HZ SCT020 SCT025 30/26 Q1008 NOSIG,M
VABB,2022-05-24 19:30,86.00,78.80,79.18,240.00,6.00,0.00,29.77,M,2.17,M,SCT,SCT,M,M,2000.00,2500.00,M,M,HZ,M,M,M,M,M,M,99.38,VABB 241930Z 24006KT 3500 HZ SCT020 SCT025 30/26 Q1008 NOSIG,M
VABB,2022-05-24 20:00,86.00,78.80,79.18,210.00,7.00,0.00,29.77,M,2.17,M,SCT,SCT,M,M,2000.00,2500.00,M,M,HZ,M,M,M,M,M,M,99.38,VABB 242000Z 21007KT 3500 HZ SCT020 SCT025 30/26 Q1008 NOSIG,M
VABB,2022-05-24 20:30,86.00,78.80,79.18,250.00,12.00,0.00,29.77,M,2.17,M,FEW,SCT,M,M,2000.00,2500.00,M,M,HZ,M,M,M,M,M,M,99.38,VABB 242030Z 25012KT 3500 HZ FEW020 SCT025 30/26 Q1008 NOSIG,M
VABB,2022-05-24 21:00,86.00,78.80,79.18,250.00,8.00,0.00,29.74,M,2.17,M,FEW,SCT,M,M,2000.00,2500.00,M,M,HZ,M,M,M,M,M,M,99.38,VABB 242100Z 25008KT 3500 HZ FEW020 SCT025 30/26 Q1007 NOSIG,M
VABB,2022-05-24 21:30,86.00,78.80,79.18,250.00,9.00,0.00,29.74,M,2.17,M,FEW,SCT,M,M,2000.00,2500.00,M,M,HZ,M,M,M,M,M,M,99.38,VABB 242130Z 25009KT 3500 HZ FEW020 SCT025 30/26 Q1007 NOSIG,M
VABB,2022-05-24 22:00,86.00,78.80,79.18,260.00,9.00,0.00,29.74,M,2.17,M,FEW,M,M,M,2000.00,M,M,M,HZ,M,M,M,M,M,M,99.38,VABB 242200Z 26009KT 3500 HZ FEW020 30/26 Q1007 NOSIG,M
VABB,2022-05-24 22:30,86.00,78.80,79.18,260.00,8.00,0.00,29.74,M,2.17,M,SCT,M,M,M,2000.00,M,M,M,HZ,M,M,M,M,M,M,99.38,VABB 242230Z 26008KT 3500 HZ SCT020 30/26 Q1007 NOSIG,M
VABB,2022-05-24 23:00,86.00,78.80,79.18,260.00,8.00,0.00,29.74,M,2.17,M,SCT,M,M,M,2000.00,M,M,M,HZ,M,M,M,M,M,M,99.38,VABB 242300Z 26008KT 3500 HZ SCT020 30/26 Q1007 NOSIG,M
VABB,2022-05-24 23:30,86.00,78.80,79.18,280.00,8.00,0.00,29.77,M,2.17,M,SCT,M,M,M,2000.00,M,M,M,HZ,M,M,M,M,M,M,99.38,VABB 242330Z 28008KT 3500 HZ SCT020 30/26 Q1008 NOSIG,M
VABB,2022-05-25 00:00,86.00,78.80,79.18,270.00,7.00,0.00,29.77,M,2.17,M,FEW,M,M,M,2000.00,M,M,M,HZ,M,M,M,M,M,M,99.38,VABB 250000Z 27007KT 3500 HZ FEW020 30/26 Q1008 NOSIG,M
VABB,2022-05-25 00:30,86.00,78.80,79.18,260.00,6.00,0.00,29.77,M,2.17,M,FEW,M,M,M,2000.00,M,M,M,HZ,M,M,M,M,M,M,99.38,VABB 250030Z 26006KT 3500 HZ FEW020 30/26 Q1008 NOSIG,M
VABB,2022-05-25 01:00,86.00,78.80,79.18,270.00,6.00,0.00,29.77,M,2.17,M,FEW,M,M,M,2000.00,M,M,M,HZ,M,M,M,M,M,M,99.38,VABB 250100Z 27006KT 3500 HZ FEW020 30/26 Q1008 NOSIG,M
VABB,2022-05-25 01:30,86.00,78.80,79.18,270.00,6.00,0.00,29.80,M,2.17,M,FEW,M,M,M,2000.00,M,M,M,HZ,M,M,M,M,M,M,99.38,VABB 250130Z 27006KT 3500 HZ FEW020 30/26 Q1009 NOSIG,M
VABB,2022-05-25 02:00,86.00,78.80,79.18,280.00,6.00,0.00,29.80,M,2.17,M,FEW,M,M,M,2000.00,M,M,M,HZ,M,M,M,M,M,M,99.38,VABB 250200Z 28006KT 3500 HZ FEW020 30/26 Q1009 NOSIG,M
VABB,2022-05-25 02:30,87.80,78.80,74.77,250.00,9.00,0.00,29.80,M,2.17,M,SCT,SCT,M,M,2000.00,2500.00,M,M,HZ,M,M,M,M,M,M,102.37,VABB 250230Z 25009KT 3500 HZ SCT020 SCT025 31/26 Q1009 NOSIG,M
VABB,2022-05-25 03:00,87.80,78.80,74.77,260.00,9.00,0.00,29.83,M,2.17,M,SCT,SCT,M,M,2000.00,2500.00,M,M,HZ,M,M,M,M,M,M,102.37,VABB 250300Z 26009KT 3500 HZ SCT020 SCT025 31/26 Q1010 NOSIG,M
VABB,2022-05-25 03:30,87.80,78.80,74.77,270.00,7.00,0.00,29.83,M,2.49,M,SCT,SCT,M,M,2000.00,2500.00,M,M,HZ,M,M,M,M,M,M,102.37,VABB 250330Z 27007KT 4000 HZ SCT020 SCT025 31/26 Q1010 NOSIG,M
VABB,2022-05-25 04:00,87.80,77.00,70.45,290.00,5.00,0.00,29.83,M,2.49,M,SCT,SCT,M,M,2000.00,2500.00,M,M,HZ,M,M,M,M,M,M,99.92,VABB 250400Z 29005KT 4000 HZ SCT020 SCT025 31/25 Q1010 NOSIG,M
VABB,2022-05-25 04:30,89.60,77.00,66.55,280.00,6.00,0.00,29.83,M,2.49,M,FEW,SCT,M,M,2000.00,2500.00,M,M,HZ,M,M,M,M,M,M,102.54,VABB 250430Z 28006KT 4000 HZ FEW020 SCT025 32/25 Q1010 NOSIG,M
VABB,2022-05-25 05:00,89.60,78.80,70.63,250.00,11.00,0.00,29.83,M,2.49,M,FEW,SCT,M,M,2000.00,2500.00,M,M,HZ,M,M,M,M,M,M,105.15,VABB 250500Z 25011KT 4000 HZ FEW020 SCT025 32/26 Q1010 NOSIG,M
VABB,2022-05-25 05:30,91.40,78.80,66.75,270.00,10.00,0.00,29.83,M,2.49,M,FEW,SCT,M,M,2000.00,2500.00,M,M,HZ,M,M,M,M,M,M,107.79,VABB 250530Z 27010KT 4000 HZ FEW020 SCT025 33/26 Q1010 NOSIG,M
VABB,2022-05-25 06:00,91.40,78.80,66.75,250.00,10.00,0.00,29.80,M,2.49,M,FEW,SCT,M,M,2000.00,2500.00,M,M,HZ,M,M,M,M,M,M,107.79,VABB 250600Z 25010KT 4000 HZ FEW020 SCT025 33/26 Q1009 NOSIG,M
VABB,2022-05-25 06:30,91.40,75.20,59.24,250.00,11.00,0.00,29.80,M,2.49,M,FEW,SCT,M,M,2000.00,2500.00,M,M,HZ,M,M,M,M,M,M,102.65,COR VABB 250630Z 25011KT 4000 HZ FEW020 SCT025 33/24 Q1009 BECMG 5000 HZ,M
VABB,2022-05-25 07:00,91.40,75.20,59.24,240.00,12.00,0.00,29.80,M,3.11,M,FEW,SCT,M,M,2000.00,2500.00,M,M,HZ,M,M,M,M,M,M,102.65,VABB 250700Z 24012KT 5000 HZ FEW020 SCT025 33/24 Q1009 NOSIG,M
VABB,2022-05-25 07:30,89.60,75.20,62.68,270.00,7.00,0.00,29.77,M,3.11,17.00,FEW,SCT,M,M,2000.00,2500.00,M,M,HZ,M,M,M,M,M,M,100.23,VABB 250730Z 27007G17KT 5000 HZ FEW020 SCT025 32/24 Q1008 NOSIG,M
VABB,2022-05-25 08:00,89.60,75.20,62.68,290.00,7.00,0.00,29.77,M,3.11,17.00,FEW,SCT,M,M,2000.00,2500.00,M,M,HZ,M,M,M,M,M,M,100.23,VABB 250800Z 29007G17KT 5000 HZ FEW020 SCT025 32/24 Q1008 NOSIG,M
VABB,2022-05-25 08:30,91.40,78.80,66.75,260.00,13.00,0.00,29.77,M,3.11,M,FEW,SCT,M,M,2000.00,2500.00,M,M,HZ,M,M,M,M,M,M,107.79,VABB 250830Z 26013KT 5000 HZ FEW020 SCT025 33/26 Q1008 NOSIG,M
VABB,2022-05-25 09:00,91.40,78.80,66.75,260.00,8.00,0.00,29.74,M,3.11,18.00,FEW,SCT,M,M,2000.00,2500.00,M,M,HZ,M,M,M,M,M,M,107.79,VABB 250900Z 26008G18KT 5000 HZ FEW020 SCT025 33/26 Q1007 NOSIG,M
VABB,2022-05-25 09:30,89.60,77.00,66.55,260.00,8.00,0.00,29.74,M,3.11,18.00,FEW,SCT,M,M,2000.00,2500.00,M,M,HZ,M,M,M,M,M,M,102.54,VABB 250930Z 26008G18KT 5000 HZ FEW020 SCT025 32/25 Q1007 NOSIG,M
VABB,2022-05-25 10:00,89.60,78.80,70.63,260.00,7.00,0.00,29.74,M,3.11,17.00,FEW,SCT,M,M,2000.00,2500.00,M,M,HZ,M,M,M,M,M,M,105.15,VABB 251000Z 26007G17KT 5000 HZ FEW020 SCT025 32/26 Q1007 NOSIG,M
VABB,2022-05-25 10:30,89.60,78.80,70.63,260.00,8.00,0.00,29.71,M,3.11,18.00,FEW,SCT,M,M,2000.00,2500.00,M,M,HZ,M,M,M,M,M,M,105.15,VABB 251030Z 26008G18KT 5000 HZ FEW020 SCT025 32/26 Q1006 NOSIG,M
VABB,2022-05-25 11:00,89.60,77.00,66.55,250.00,7.00,0.00,29.71,M,3.11,17.00,FEW,SCT,M,M,2000.00,2500.00,M,M,HZ,M,M,M,M,M,M,102.54,VABB 251100Z 25007G17KT 5000 HZ FEW020 SCT025 32/25 Q1006 NOSIG,M
VABB,2022-05-25 11:30,89.60,78.80,70.63,260.00,8.00,0.00,29.71,M,3.11,18.00,FEW,SCT,M,M,2000.00,2500.00,M,M,HZ,M,M,M,M,M,M,105.15,VABB 251130Z 26008G18KT 5000 HZ FEW020 SCT025 32/26 Q1006 NOSIG,M
VABB,2022-05-25 12:00,89.60,78.80,70.63,260.00,7.00,0.00,29.71,M,3.11,17.00,FEW,SCT,M,M,2000.00,2500.00,M,M,HZ,M,M,M,M,M,M,105.15,VABB 251200Z 26007G17KT 5000 HZ FEW020 SCT025 32/26 Q1006 NOSIG,M
VABB,2022-05-25 12:30,87.80,78.80,74.77,260.00,12.00,0.00,29.74,M,3.11,M,FEW,SCT,M,M,2000.00,2500.00,M,M,HZ,M,M,M,M,M,M,102.37,VABB 251230Z 26012KT 5000 HZ FEW020 SCT025 31/26 Q1007 NOSIG,M
VABB,2022-05-25 13:00,87.80,77.00,70.45,270.00,12.00,0.00,29.74,M,3.11,M,FEW,SCT,M,M,2000.00,2500.00,M,M,HZ,M,M,M,M,M,M,99.92,VABB 251300Z 27012KT 5000 HZ FEW020 SCT025 31/25 Q1007 NOSIG,M
VABB,2022-05-25 13:30,87.80,78.80,74.77,270.00,10.00,0.00,29.74,M,2.49,M,FEW,SCT,M,M,2000.00,2500.00,M,M,HZ,M,M,M,M,M,M,102.37,VABB 251330Z 27010KT 4000 HZ FEW020 SCT025 31/26 Q1007 NOSIG,M
VABB,2022-05-25 14:00,87.80,78.80,74.77,260.00,9.00,0.00,29.74,M,2.49,M,FEW,SCT,M,M,2000.00,2500.00,M,M,HZ,M,M,M,M,M,M,102.37,VABB 251400Z 26009KT 4000 HZ FEW020 SCT025 31/26 Q1007 NOSIG,M
VABB,2022-05-25 14:30,87.80,78.80,74.77,260.00,8.00,0.00,29.74,M,2.49,M,FEW,SCT,M,M,2000.00,2500.00,M,M,HZ,M,M,M,M,M,M,102.37,VABB 251430Z 26008KT 4000 HZ FEW020 SCT025 31/26 Q1007 NOSIG,M
VABB,2022-05-25 15:00,86.00,77.00,74.61,270.00,8.00,0.00,29.77,M,2.17,M,FEW,SCT,M,M,2000.00,2500.00,M,M,HZ,M,M,M,M,M,M,97.15,VABB 251500Z 27008KT 3500 HZ FEW020 SCT025 30/25 Q1008 NOSIG,M
VABB,2022-05-25 15:30,86.00,78.80,79.18,260.00,6.00,0.00,29.77,M,2.17,M,FEW,SCT,M,M,2000.00,2500.00,M,M,HZ,M,M,M,M,M,M,99.38,VABB 251530Z 26006KT 3500 HZ FEW020 SCT025 30/26 Q1008 NOSIG,M
VABB,2022-05-25 16:00,86.00,78.80,79.18,280.00,7.00,0.00,29.77,M,2.17,M,FEW,SCT,M,M,2000.00,2500.00,M,M,HZ,M,M,M,M,M,M,99.38,VABB 251600Z 28007KT 3500 HZ FEW020 SCT025 30/26 Q1008 NOSIG,M
VABB,2022-05-25 16:30,86.00,78.80,79.18,280.00,7.00,0.00,29.80,M,2.17,M,FEW,SCT,M,M,2000.00,2500.00,M,M,HZ,M,M,M,M,M,M,99.38,VABB 251630Z 28007KT 3500 HZ FEW020 SCT025 30/26 Q1009 NOSIG,M
VABB,2022-05-25 17:00,86.00,78.80,79.18,270.00,7.00,0.00,29.80,M,2.17,M,FEW,SCT,M,M,2000.00,2500.00,M,M,HZ,M,M,M,M,M,M,99.38,VABB 251700Z 27007KT 3500 HZ FEW020 SCT025 30/26 Q1009 NOSIG,M
VABB,2022-05-25 17:30,86.00,78.80,79.18,260.00,5.00,0.00,29.80,M,2.17,M,SCT,M,M,M,2000.00,M,M,M,HZ,M,M,M,M,M,M,99.38,VABB 251730Z 26005KT 3500 HZ SCT020 30/26 Q1009 NOSIG,M
VABB,2022-05-25 18:00,86.00,78.80,79.18,280.00,4.00,0.00,29.80,M,2.17,M,SCT,M,M,M,2000.00,M,M,M,HZ,M,M,M,M,M,M,99.38,VABB 251800Z 28004KT 3500 HZ SCT020 30/26 Q1009 NOSIG,M
VABB,2022-05-25 18:30,86.00,78.80,79.18,240.00,9.00,0.00,29.80,M,2.17,M,SCT,M,M,M,2000.00,M,M,M,HZ,M,M,M,M,M,M,99.38,VABB 251830Z 24009KT 3500 HZ SCT020 30/26 Q1009 NOSIG,M
VABB,2022-05-25 19:00,86.00,78.80,79.18,260.00,8.00,0.00,29.77,M,2.17,M,SCT,M,M,M,2000.00,M,M,M,HZ,M,M,M,M,M,M,99.38,VABB 251900Z 26008KT 3500 HZ SCT020 30/26 Q1008 NOSIG,M
VABB,2022-05-25 19:30,86.00,78.80,79.18,280.00,8.00,0.00,29.77,M,2.17,M,SCT,M,M,M,2000.00,M,M,M,HZ,M,M,M,M,M,M,99.38,VABB 251930Z 28008KT 3500 HZ SCT020 30/26 Q1008 NOSIG,M
VABB,2022-05-25 20:00,86.00,77.00,74.61,270.00,9.00,0.00,29.77,M,2.17,M,SCT,M,M,M,2000.00,M,M,M,HZ,M,M,M,M,M,M,97.15,VABB 252000Z 27009KT 3500 HZ SCT020 30/25 Q1008 NOSIG,M
VABB,2022-05-25 20:30,86.00,77.00,74.61,260.00,9.00,0.00,29.74,M,2.17,M,SCT,M,M,M,2000.00,M,M,M,HZ,M,M,M,M,M,M,97.15,VABB 252030Z 26009KT 3500 HZ SCT020 30/25 Q1007 NOSIG,M
VABB,2022-05-25 21:00,86.00,77.00,74.61,280.00,7.00,0.00,29.74,M,2.17,M,SCT,M,M,M,2000.00,M,M,M,HZ,M,M,M,M,M,M,97.15,VABB 252100Z 28007KT 3500 HZ SCT020 30/25 Q1007 NOSIG,M
VABB,2022-05-25 21:30,86.00,77.00,74.61,270.00,6.00,0.00,29.74,M,2.17,M,SCT,M,M,M,2000.00,M,M,M,HZ,M,M,M,M,M,M,97.15,VABB 252130Z 27006KT 3500 HZ SCT020 30/25 Q1007 NOSIG,M
VABB,2022-05-25 22:00,86.00,77.00,74.61,280.00,8.00,0.00,29.74,M,2.17,M,SCT,M,M,M,2000.00,M,M,M,HZ,M,M,M,M,M,M,97.15,VABB 252200Z 28008KT 3500 HZ SCT020 30/25 Q1007 NOSIG,M
VABB,2022-05-25 22:30,86.00,77.00,74.61,270.00,7.00,0.00,29.74,M,2.17,M,SCT,M,M,M,2000.00,M,M,M,HZ,M,M,M,M,M,M,97.15,VABB 252230Z 27007KT 3500 HZ SCT020 30/25 Q1007 BECMG 3000 HZ,M
VABB,2022-05-25 23:00,86.00,77.00,74.61,260.00,7.00,0.00,29.74,M,1.86,M,SCT,SCT,M,M,2000.00,2500.00,M,M,HZ,M,M,M,M,M,M,97.15,VABB 252300Z 26007KT 3000 HZ SCT020 SCT025 30/25 Q1007 NOSIG,M
VABB,2022-05-25 23:30,86.00,77.00,74.61,270.00,7.00,0.00,29.74,M,1.86,M,SCT,SCT,M,M,2000.00,2500.00,M,M,HZ,M,M,M,M,M,M,97.15,VABB 252330Z 27007KT 3000 HZ SCT020 SCT025 30/25 Q1007 NOSIG,M
VABB,2022-05-26 00:00,86.00,77.00,74.61,280.00,5.00,0.00,29.77,M,1.86,M,SCT,SCT,M,M,2000.00,2500.00,M,M,HZ,M,M,M,M,M,M,97.15,VABB 260000Z 28005KT 3000 HZ SCT020 SCT025 30/25 Q1008 NOSIG,M
VABB,2022-05-26 00:30,84.20,77.00,79.04,270.00,5.00,0.00,29.77,M,1.86,M,SCT,M,M,M,2000.00,M,M,M,HZ,M,M,M,M,M,M,94.16,VABB 260030Z 27005KT 3000 HZ SCT020 29/25 Q1008 NOSIG,M
VABB,2022-05-26 01:00,86.00,77.00,74.61,260.00,7.00,0.00,29.77,M,1.86,M,SCT,M,M,M,2000.00,M,M,M,HZ,M,M,M,M,M,M,97.15,VABB 260100Z 26007KT 3000 HZ SCT020 30/25 Q1008 NOSIG,M
VABB,2022-05-26 01:30,86.00,77.00,74.61,310.00,4.00,0.00,29.77,M,1.86,M,SCT,M,M,M,2000.00,M,M,M,HZ,M,M,M,M,M,M,97.15,VABB 260130Z 31004KT 3000 HZ SCT020 30/25 Q1008 NOSIG,M
VABB,2022-05-26 02:00,86.00,77.00,74.61,270.00,5.00,0.00,29.80,M,1.86,M,SCT,SCT,M,M,2000.00,2500.00,M,M,HZ,M,M,M,M,M,M,97.15,VABB 260200Z 27005KT 3000 HZ SCT020 SCT025 30/25 Q1009 NOSIG,M
VABB,2022-05-26 02:30,87.80,77.00,70.45,280.00,7.00,0.00,29.80,M,1.86,M,FEW,SCT,M,M,2000.00,2500.00,M,M,HZ,M,M,M,M,M,M,99.92,VABB 260230Z 28007KT 3000 HZ FEW020 SCT025 31/25 Q1009 NOSIG,M
VABB,2022-05-26 03:00,87.80,77.00,70.45,290.00,8.00,0.00,29.80,M,2.17,M,FEW,SCT,M,M,2000.00,2500.00,M,M,HZ,M,M,M,M,M,M,99.92,VABB 260300Z 29008KT 3500 HZ FEW020 SCT025 31/25 Q1009 NOSIG,M
VABB,2022-05-26 03:30,87.80,77.00,70.45,290.00,8.00,0.00,29.83,M,2.49,M,FEW,SCT,M,M,2000.00,2500.00,M,M,HZ,M,M,M,M,M,M,99.92,VABB 260330Z 29008KT 4000 HZ FEW020 SCT025 31/25 Q1010 NOSIG,M
VABB,2022-05-26 04:00,87.80,75.20,66.35,290.00,7.00,0.00,29.80,M,2.49,M,FEW,SCT,M,M,2000.00,2500.00,M,M,HZ,M,M,M,M,M,M,97.76,VABB 260400Z 29007KT 4000 HZ FEW020 SCT025 31/24 Q1009 NOSIG,M
VABB,2022-05-26 04:30,89.60,77.00,66.55,290.00,10.00,0.00,29.80,M,2.49,M,FEW,SCT,M,M,2000.00,2500.00,M,M,HZ,M,M,M,M,M,M,102.54,VABB 260430Z 29010KT 4000 HZ FEW020 SCT025 32/25 Q1009 NOSIG,M
VABB,2022-05-26 05:00,89.60,75.20,62.68,270.00,10.00,0.00,29.80,M,2.49,M,FEW,SCT,M,M,2000.00,2500.00,M,M,HZ,M,M,M,M,M,M,100.23,VABB 260500Z 27010KT 4000 HZ FEW020 SCT025 32/24 Q1009 NOSIG,M
VABB,2022-05-26 05:30,89.60,75.20,62.68,260.00,11.00,0.00,29.80,M,2.80,M,FEW,SCT,M,M,2000.00,2500.00,M,M,HZ,M,M,M,M,M,M,100.23,VABB 260530Z 26011KT 4500 HZ FEW020 SCT025 32/24 Q1009 NOSIG,M
VABB,2022-05-26 06:00,91.40,77.00,62.90,260.00,7.00,0.00,29.80,M,2.80,17.00,FEW,SCT,M,M,2000.00,2500.00,M,M,HZ,M,M,M,M,M,M,105.06,VABB 260600Z 26007G17KT 4500 HZ FEW020 SCT025 33/25 Q1009 BECMG 5000 HZ,M
VABB,2022-05-26 06:30,91.40,77.00,62.90,250.00,7.00,0.00,29.80,M,3.11,17.00,FEW,SCT,M,M,2000.00,2500.00,M,M,HZ,M,M,M,M,M,M,105.06,VABB 260630Z 25007G17KT 5000 HZ FEW020 SCT025 33/25 Q1009 NOSIG,M
VABB,2022-05-26 07:00,91.40,78.80,66.75,260.00,10.00,0.00,29.77,M,3.11,20.00,FEW,SCT,M,M,2000.00,2500.00,M,M,HZ,M,M,M,M,M,M,107.79,VABB 260700Z 26010G20KT 5000 HZ FEW020 SCT025 33/26 Q1008 NOSIG,M
VABB,2022-05-26 07:30,91.40,78.80,66.75,270.00,7.00,0.00,29.77,M,3.11,17.00,FEW,SCT,M,M,2000.00,2500.00,M,M,HZ,M,M,M,M,M,M,107.79,VABB 260730Z 27007G17KT 5000 HZ FEW020 SCT025 33/26 Q1008 NOSIG,M
VABB,2022-05-26 08:00,89.60,77.00,66.55,270.00,7.00,0.00,29.77,M,3.11,17.00,FEW,SCT,M,M,2000.00,2500.00,M,M,HZ,M,M,M,M,M,M,102.54,VABB 260800Z 27007G17KT 5000 HZ FEW020 SCT025 32/25 Q1008 NOSIG,M
VABB,2022-05-26 08:30,91.40,77.00,62.90,240.00,10.00,0.00,29.74,M,3.11,M,FEW,SCT,M,M,2000.00,2500.00,M,M,HZ,M,M,M,M,M,M,105.06,VABB 260830Z 24010KT 5000 HZ FEW020 SCT025 33/25 Q1007 NOSIG,M
VABB,2022-05-26 09:00,89.60,75.20,62.68,240.00,11.00,0.00,29.74,M,3.73,M,FEW,SCT,M,M,2000.00,2500.00,M,M,M,M,M,M,M,M,M,100.23,VABB 260900Z 24011KT 6000 FEW020 SCT025 32/24 Q1007 NOSIG,M
VABB,2022-05-26 09:30,89.60,73.40,59.01,260.00,13.00,0.00,29.74,M,3.73,M,FEW,SCT,M,M,2000.00,2500.00,M,M,M,M,M,M,M,M,M,98.20,VABB 260930Z 26013KT 6000 FEW020 SCT025 32/23 Q1007 NOSIG,M
VABB,2022-05-26 10:00,89.60,73.40,59.01,260.00,14.00,0.00,29.71,M,3.73,M,FEW,M,M,M,2000.00,M,M,M,M,M,M,M,M,M,M,98.20,VABB 261000Z 26014KT 6000 FEW020 32/23 Q1006 NOSIG,M
VABB,2022-05-26 10:30,89.60,77.00,66.55,260.00,15.00,0.00,29.71,M,3.73,M,FEW,M,M,M,2000.00,M,M,M,M,M,M,M,M,M,M,102.54,VABB 261030Z 26015KT 6000 FEW020 32/25 Q1006 NOSIG,M
VABB,2022-05-26 11:00,89.60,75.20,62.68,260.00,13.00,0.00,29.71,M,3.73,M,FEW,M,M,M,2000.00,M,M,M,M,M,M,M,M,M,M,100.23,VABB 261100Z 26013KT 6000 FEW020 32/24 Q1006 NOSIG,M
VABB,2022-05-26 11:30,89.60,77.00,66.55,280.00,11.00,0.00,29.71,M,3.73,M,FEW,M,M,M,2000.00,M,M,M,M,M,M,M,M,M,M,102.54,VABB 261130Z 28011KT 6000 FEW020 32/25 Q1006 NOSIG,M
VABB,2022-05-26 12:00,89.60,77.00,66.55,260.00,12.00,0.00,29.71,M,3.73,M,FEW,M,M,M,2000.00,M,M,M,M,M,M,M,M,M,M,102.54,VABB 261200Z 26012KT 6000 FEW020 32/25 Q1006 NOSIG,M
VABB,2022-05-26 12:30,87.80,77.00,70.45,270.00,11.00,0.00,29.71,M,3.73,M,FEW,M,M,M,2000.00,M,M,M,M,M,M,M,M,M,M,99.92,VABB 261230Z 27011KT 6000 FEW020 31/25 Q1006 NOSIG,M
VABB,2022-05-26 13:00,87.80,77.00,70.45,270.00,12.00,0.00,29.71,M,3.73,M,FEW,M,M,M,2000.00,M,M,M,M,M,M,M,M,M,M,99.92,VABB 261300Z 27012KT 6000 FEW020 31/25 Q1006 NOSIG,M
VABB,2022-05-26 13:30,87.80,77.00,70.45,270.00,12.00,0.00,29.71,M,3.73,M,FEW,M,M,M,2000.00,M,M,M,M,M,M,M,M,M,M,99.92,VABB 261330Z 27012KT 6000 FEW020 31/25 Q1006 BECMG 5000 HZ,M
VABB,2022-05-26 14:00,87.80,77.00,70.45,280.00,10.00,0.00,29.74,M,3.11,M,FEW,M,M,M,2000.00,M,M,M,HZ,M,M,M,M,M,M,99.92,VABB 261400Z 28010KT 5000 HZ FEW020 31/25 Q1007 NOSIG,M
VABB,2022-05-26 14:30,86.00,77.00,74.61,270.00,9.00,0.00,29.74,M,3.11,M,FEW,M,M,M,2000.00,M,M,M,HZ,M,M,M,M,M,M,97.15,VABB 261430Z 27009KT 5000 HZ FEW020 30/25 Q1007 NOSIG,M
VABB,2022-05-26 15:00,86.00,78.80,79.18,260.00,11.00,0.00,29.74,M,3.11,M,FEW,M,M,M,2000.00,M,M,M,HZ,M,M,M,M,M,M,99.38,VABB 261500Z 26011KT 5000 HZ FEW020 30/26 Q1007 NOSIG,M
VABB,2022-05-26 15:30,86.00,78.80,79.18,270.00,7.00,0.00,29.77,M,2.49,M,SCT,M,M,M,2000.00,M,M,M,HZ,M,M,M,M,M,M,99.38,VABB 261530Z 27007KT 4000 HZ SCT020 30/26 Q1008 NOSIG,M
VABB,2022-05-26 16:00,86.00,77.00,74.61,250.00,9.00,0.00,29.77,M,2.49,M,SCT,M,M,M,2000.00,M,M,M,HZ,M,M,M,M,M,M,97.15,VABB 261600Z 25009KT 4000 HZ SCT020 30/25 Q1008 NOSIG,M
VABB,2022-05-26 16:30,86.00,77.00,74.61,250.00,8.00,0.00,29.77,M,2.17,M,SCT,M,M,M,2000.00,M,M,M,HZ,M,M,M,M,M,M,97.15,VABB 261630Z 25008KT 3500 HZ SCT020 30/25 Q1008 NOSIG,M
VABB,2022-05-26 17:00,86.00,77.00,74.61,250.00,10.00,0.00,29.80,M,2.17,M,SCT,M,M,M,2000.00,M,M,M,HZ,M,M,M,M,M,M,97.15,VABB 261700Z 25010KT 3500 HZ SCT020 30/25 Q1009 NOSIG,M
VABB,2022-05-26 17:30,86.00,77.00,74.61,240.00,8.00,0.00,29.80,M,2.17,M,SCT,M,M,M,2000.00,M,M,M,HZ,M,M,M,M,M,M,97.15,VABB 261730Z 24008KT 3500 HZ SCT020 30/25 Q1009 NOSIG,M
VABB,2022-05-26 18:00,86.00,77.00,74.61,240.00,10.00,0.00,29.80,M,2.17,M,SCT,M,M,M,2000.00,M,M,M,HZ,M,M,M,M,M,M,97.15,VABB 261800Z 24010KT 3500 HZ SCT020 30/25 Q1009 NOSIG,M
VABB,2022-05-26 18:30,86.00,77.00,74.61,250.00,12.00,0.00,29.77,M,2.17,M,FEW,SCT,M,M,2000.00,2500.00,M,M,HZ,M,M,M,M,M,M,97.15,VABB 261830Z 25012KT 3500 HZ FEW020 SCT025 30/25 Q1008 NOSIG,M
VABB,2022-05-26 19:00,86.00,77.00,74.61,250.00,9.00,0.00,29.77,M,2.17,M,FEW,SCT,M,M,2000.00,2500.00,M,M,HZ,M,M,M,M,M,M,97.15,VABB 261900Z 25009KT 3500 HZ FEW020 SCT025 30/25 Q1008 NOSIG,M
VABB,2022-05-26 19:30,86.00,77.00,74.61,240.00,8.00,0.00,29.77,M,2.17,M,FEW,SCT,M,M,2000.00,2500.00,M,M,HZ,M,M,M,M,M,M,97.15,VABB 261930Z 24008KT 3500 HZ FEW020 SCT025 30/25 Q1008 NOSIG,M
VABB,2022-05-26 20:00,86.00,77.00,74.61,250.00,8.00,0.00,29.74,M,2.17,M,SCT,M,M,M,2000.00,M,M,M,HZ,M,M,M,M,M,M,97.15,VABB 262000Z 25008KT 3500 HZ SCT020 30/25 Q1007 NOSIG,M
VABB,2022-05-26 20:30,86.00,77.00,74.61,240.00,7.00,0.00,29.74,M,2.17,M,SCT,M,M,M,2000.00,M,M,M,HZ,M,M,M,M,M,M,97.15,VABB 262030Z 24007KT 3500 HZ SCT020 30/25 Q1007 NOSIG,M
VABB,2022-05-26 21:00,86.00,77.00,74.61,250.00,9.00,0.00,29.74,M,2.17,M,SCT,M,M,M,2000.00,M,M,M,HZ,M,M,M,M,M,M,97.15,VABB 262100Z 25009KT 3500 HZ SCT020 30/25 Q1007 NOSIG,M
VABB,2022-05-26 21:30,86.00,77.00,74.61,240.00,6.00,0.00,29.74,M,2.17,M,SCT,M,M,M,2000.00,M,M,M,HZ,M,M,M,M,M,M,97.15,VABB 262130Z 24006KT 3500 HZ SCT020 30/25 Q1007 NOSIG,M
VABB,2022-05-26 22:00,86.00,77.00,74.61,250.00,8.00,0.00,29.71,M,2.17,M,SCT,M,M,M,2000.00,M,M,M,HZ,M,M,M,M,M,M,97.15,VABB 262200Z 25008KT 3500 HZ SCT020 30/25 Q1006 NOSIG,M
VABB,2022-05-26 22:30,84.20,77.00,79.04,220.00,4.00,0.00,29.71,M,2.17,M,SCT,M,M,M,2000.00,M,M,M,HZ,M,M,M,M,M,M,94.16,VABB 262230Z 22004KT 3500 HZ SCT020 29/25 Q1006 NOSIG,M
VABB,2022-05-26 23:00,86.00,77.00,74.61,220.00,7.00,0.00,29.74,M,2.17,M,SCT,M,M,M,2000.00,M,M,M,HZ,M,M,M,M,M,M,97.15,VABB 262300Z 22007KT 3500 HZ SCT020 30/25 Q1007 NOSIG,M
VABB,2022-05-26 23:30,86.00,77.00,74.61,240.00,7.00,0.00,29.74,M,2.17,M,SCT,M,M,M,2000.00,M,M,M,HZ,M,M,M,M,M,M,97.15,VABB 262330Z 24007KT 3500 HZ SCT020 30/25 Q1007 NOSIG,M
